<?xml version="1.0" encoding="UTF-8"?><gpx creator="Health" xsi:schemaLocation="http://www.topografix.com/GPX/1/0 http://www.topografix.com/GPX/1/0/gpx.xsd" version="1.0" xmlns="http://www.topografix.com/GPX/1/0" xmlns:xsi="http://www.w3.org/2001/XMLSchema-instance"><metadata><time>2024-08-06T11:26:14.000Z</time></metadata><trk><type>户外跑步</type><extensions><totalTime>3713.0</totalTime><cumulativeDecrease>56.5</cumulativeDecrease><cumulativeClimb>46.599998474121094</cumulativeClimb><totalDistance>10060.0</totalDistance></extensions><trkseg><trkpt lat="40.010292" lon="116.386643"><ele>41.0</ele><time>2024-08-06T11:26:14.000Z</time></trkpt><trkpt lat="40.010302" lon="116.386847"><ele>41.0</ele><time>2024-08-06T11:26:20.000Z</time></trkpt><trkpt lat="40.010379" lon="116.387169"><ele>41.0</ele><time>2024-08-06T11:26:29.000Z</time></trkpt><trkpt lat="40.010662" lon="116.387824"><ele>41.2</ele><time>2024-08-06T11:26:50.000Z</time></trkpt><trkpt lat="40.010711" lon="116.388098"><ele>41.0</ele><time>2024-08-06T11:26:58.000Z</time></trkpt><trkpt lat="40.010622" lon="116.388914"><ele>39.9</ele><time>2024-08-06T11:27:24.000Z</time></trkpt><trkpt lat="40.010636" lon="116.389542"><ele>39.5</ele><time>2024-08-06T11:27:41.000Z</time></trkpt><trkpt lat="40.010576" lon="116.390021"><ele>39.1</ele><time>2024-08-06T11:27:53.000Z</time></trkpt><trkpt lat="40.01049" lon="116.390374"><ele>39.0</ele><time>2024-08-06T11:28:02.000Z</time></trkpt><trkpt lat="40.010352" lon="116.390651"><ele>39.0</ele><time>2024-08-06T11:28:11.000Z</time></trkpt><trkpt lat="40.010173" lon="116.390706"><ele>39.0</ele><time>2024-08-06T11:28:19.000Z</time></trkpt><trkpt lat="40.009981" lon="116.390641"><ele>39.0</ele><time>2024-08-06T11:28:27.000Z</time></trkpt><trkpt lat="40.009683" lon="116.390274"><ele>39.0</ele><time>2024-08-06T11:28:43.000Z</time></trkpt><trkpt lat="40.009468" lon="116.390245"><ele>39.1</ele><time>2024-08-06T11:28:51.000Z</time></trkpt><trkpt lat="40.009078" lon="116.390537"><ele>39.2</ele><time>2024-08-06T11:29:07.000Z</time></trkpt><trkpt lat="40.009013" lon="116.390659"><ele>39.2</ele><time>2024-08-06T11:29:11.000Z</time></trkpt><trkpt lat="40.009" lon="116.390817"><ele>39.1</ele><time>2024-08-06T11:29:16.000Z</time></trkpt><trkpt lat="40.009137" lon="116.391254"><ele>38.2</ele><time>2024-08-06T11:29:30.000Z</time></trkpt><trkpt lat="40.00944" lon="116.391996"><ele>39.2</ele><time>2024-08-06T11:29:52.000Z</time></trkpt><trkpt lat="40.00947" lon="116.392122"><ele>39.2</ele><time>2024-08-06T11:29:56.000Z</time></trkpt><trkpt lat="40.009471" lon="116.392428"><ele>38.6</ele><time>2024-08-06T11:30:05.000Z</time></trkpt><trkpt lat="40.009524" lon="116.392568"><ele>38.5</ele><time>2024-08-06T11:30:10.000Z</time></trkpt><trkpt lat="40.009892" lon="116.392903"><ele>39.1</ele><time>2024-08-06T11:30:27.000Z</time></trkpt><trkpt lat="40.010824" lon="116.393452"><ele>38.4</ele><time>2024-08-06T11:31:01.000Z</time></trkpt><trkpt lat="40.011173" lon="116.393518"><ele>38.0</ele><time>2024-08-06T11:31:13.000Z</time></trkpt><trkpt lat="40.01189" lon="116.393475"><ele>37.0</ele><time>2024-08-06T11:31:39.000Z</time></trkpt><trkpt lat="40.013893" lon="116.393531"><ele>35.4</ele><time>2024-08-06T11:32:51.000Z</time></trkpt><trkpt lat="40.014286" lon="116.393585"><ele>35.2</ele><time>2024-08-06T11:33:07.000Z</time></trkpt><trkpt lat="40.014489" lon="116.393566"><ele>35.1</ele><time>2024-08-06T11:33:14.000Z</time></trkpt><trkpt lat="40.0148" lon="116.393408"><ele>34.7</ele><time>2024-08-06T11:33:26.000Z</time></trkpt><trkpt lat="40.015408" lon="116.39274"><ele>34.5</ele><time>2024-08-06T11:33:57.000Z</time></trkpt><trkpt lat="40.015665" lon="116.392598"><ele>34.9</ele><time>2024-08-06T11:34:08.000Z</time></trkpt><trkpt lat="40.015891" lon="116.392531"><ele>35.4</ele><time>2024-08-06T11:34:17.000Z</time></trkpt><trkpt lat="40.016064" lon="116.392551"><ele>35.5</ele><time>2024-08-06T11:34:23.000Z</time></trkpt><trkpt lat="40.016317" lon="116.39269"><ele>34.9</ele><time>2024-08-06T11:34:33.000Z</time></trkpt><trkpt lat="40.016608" lon="116.393039"><ele>34.2</ele><time>2024-08-06T11:34:47.000Z</time></trkpt><trkpt lat="40.016865" lon="116.3935"><ele>34.0</ele><time>2024-08-06T11:35:03.000Z</time></trkpt><trkpt lat="40.017065" lon="116.393767"><ele>34.0</ele><time>2024-08-06T11:35:14.000Z</time></trkpt><trkpt lat="40.017212" lon="116.393897"><ele>34.1</ele><time>2024-08-06T11:35:21.000Z</time></trkpt><trkpt lat="40.01742" lon="116.393977"><ele>34.3</ele><time>2024-08-06T11:35:29.000Z</time></trkpt><trkpt lat="40.017629" lon="116.393988"><ele>34.4</ele><time>2024-08-06T11:35:37.000Z</time></trkpt><trkpt lat="40.017993" lon="116.393898"><ele>34.4</ele><time>2024-08-06T11:35:51.000Z</time></trkpt><trkpt lat="40.018252" lon="116.393724"><ele>34.3</ele><time>2024-08-06T11:36:03.000Z</time></trkpt><trkpt lat="40.018707" lon="116.39327"><ele>35.0</ele><time>2024-08-06T11:36:27.000Z</time></trkpt><trkpt lat="40.019222" lon="116.393201"><ele>36.5</ele><time>2024-08-06T11:36:46.000Z</time></trkpt><trkpt lat="40.019292" lon="116.393109"><ele>36.8</ele><time>2024-08-06T11:36:50.000Z</time></trkpt><trkpt lat="40.019489" lon="116.392475"><ele>35.8</ele><time>2024-08-06T11:37:10.000Z</time></trkpt><trkpt lat="40.019651" lon="116.392113"><ele>34.6</ele><time>2024-08-06T11:37:23.000Z</time></trkpt><trkpt lat="40.019874" lon="116.391295"><ele>34.2</ele><time>2024-08-06T11:37:48.000Z</time></trkpt><trkpt lat="40.020102" lon="116.390793"><ele>34.2</ele><time>2024-08-06T11:38:06.000Z</time></trkpt><trkpt lat="40.020368" lon="116.389821"><ele>35.3</ele><time>2024-08-06T11:38:37.000Z</time></trkpt><trkpt lat="40.020373" lon="116.38956"><ele>35.6</ele><time>2024-08-06T11:38:45.000Z</time></trkpt><trkpt lat="40.020306" lon="116.389188"><ele>36.0</ele><time>2024-08-06T11:38:56.000Z</time></trkpt><trkpt lat="40.020351" lon="116.388383"><ele>34.5</ele><time>2024-08-06T11:39:19.000Z</time></trkpt><trkpt lat="40.020313" lon="116.387841"><ele>34.1</ele><time>2024-08-06T11:39:35.000Z</time></trkpt><trkpt lat="40.02007" lon="116.386604"><ele>35.3</ele><time>2024-08-06T11:40:10.000Z</time></trkpt><trkpt lat="40.020063" lon="116.386406"><ele>35.5</ele><time>2024-08-06T11:40:16.000Z</time></trkpt><trkpt lat="40.020108" lon="116.386329"><ele>35.7</ele><time>2024-08-06T11:40:19.000Z</time></trkpt><trkpt lat="40.020317" lon="116.38617"><ele>35.9</ele><time>2024-08-06T11:40:29.000Z</time></trkpt><trkpt lat="40.020689" lon="116.38575"><ele>38.6</ele><time>2024-08-06T11:40:49.000Z</time></trkpt><trkpt lat="40.020855" lon="116.38571"><ele>39.6</ele><time>2024-08-06T11:40:56.000Z</time></trkpt><trkpt lat="40.021117" lon="116.385715"><ele>42.0</ele><time>2024-08-06T11:41:07.000Z</time></trkpt><trkpt lat="40.021347" lon="116.385659"><ele>43.0</ele><time>2024-08-06T11:41:17.000Z</time></trkpt><trkpt lat="40.021843" lon="116.385834"><ele>43.3</ele><time>2024-08-06T11:41:35.000Z</time></trkpt><trkpt lat="40.022394" lon="116.385812"><ele>40.1</ele><time>2024-08-06T11:41:52.000Z</time></trkpt><trkpt lat="40.022475" lon="116.385863"><ele>40.1</ele><time>2024-08-06T11:41:55.000Z</time></trkpt><trkpt lat="40.022619" lon="116.386116"><ele>37.3</ele><time>2024-08-06T11:42:05.000Z</time></trkpt><trkpt lat="40.022695" lon="116.386172"><ele>36.2</ele><time>2024-08-06T11:42:09.000Z</time></trkpt><trkpt lat="40.024096" lon="116.386069"><ele>35.3</ele><time>2024-08-06T11:43:05.000Z</time></trkpt><trkpt lat="40.024243" lon="116.386142"><ele>35.2</ele><time>2024-08-06T11:43:12.000Z</time></trkpt><trkpt lat="40.024386" lon="116.386327"><ele>35.1</ele><time>2024-08-06T11:43:21.000Z</time></trkpt><trkpt lat="40.024545" lon="116.387733"><ele>34.2</ele><time>2024-08-06T11:44:03.000Z</time></trkpt><trkpt lat="40.024569" lon="116.388316"><ele>34.1</ele><time>2024-08-06T11:44:22.000Z</time></trkpt><trkpt lat="40.024648" lon="116.388733"><ele>34.1</ele><time>2024-08-06T11:44:35.000Z</time></trkpt><trkpt lat="40.024704" lon="116.389522"><ele>33.8</ele><time>2024-08-06T11:44:57.000Z</time></trkpt><trkpt lat="40.024847" lon="116.390379"><ele>33.9</ele><time>2024-08-06T11:45:25.000Z</time></trkpt><trkpt lat="40.024916" lon="116.391111"><ele>33.7</ele><time>2024-08-06T11:45:48.000Z</time></trkpt><trkpt lat="40.025102" lon="116.392415"><ele>33.5</ele><time>2024-08-06T11:46:29.000Z</time></trkpt><trkpt lat="40.025315" lon="116.394215"><ele>33.2</ele><time>2024-08-06T11:47:23.000Z</time></trkpt><trkpt lat="40.025408" lon="116.394673"><ele>33.0</ele><time>2024-08-06T11:47:37.000Z</time></trkpt><trkpt lat="40.02547" lon="116.394792"><ele>32.9</ele><time>2024-08-06T11:47:42.000Z</time></trkpt><trkpt lat="40.025632" lon="116.394843"><ele>32.9</ele><time>2024-08-06T11:47:49.000Z</time></trkpt><trkpt lat="40.026061" lon="116.394746"><ele>32.7</ele><time>2024-08-06T11:48:05.000Z</time></trkpt><trkpt lat="40.026481" lon="116.3947"><ele>32.8</ele><time>2024-08-06T11:48:21.000Z</time></trkpt><trkpt lat="40.026757" lon="116.394566"><ele>32.7</ele><time>2024-08-06T11:48:32.000Z</time></trkpt><trkpt lat="40.027155" lon="116.394272"><ele>32.5</ele><time>2024-08-06T11:48:49.000Z</time></trkpt><trkpt lat="40.027303" lon="116.39412"><ele>32.5</ele><time>2024-08-06T11:48:56.000Z</time></trkpt><trkpt lat="40.027643" lon="116.39373"><ele>32.3</ele><time>2024-08-06T11:49:14.000Z</time></trkpt><trkpt lat="40.027755" lon="116.393455"><ele>32.3</ele><time>2024-08-06T11:49:24.000Z</time></trkpt><trkpt lat="40.027781" lon="116.393033"><ele>32.3</ele><time>2024-08-06T11:49:37.000Z</time></trkpt><trkpt lat="40.027618" lon="116.391975"><ele>32.5</ele><time>2024-08-06T11:50:08.000Z</time></trkpt><trkpt lat="40.027351" lon="116.391026"><ele>32.7</ele><time>2024-08-06T11:50:38.000Z</time></trkpt><trkpt lat="40.027346" lon="116.390824"><ele>32.7</ele><time>2024-08-06T11:50:44.000Z</time></trkpt><trkpt lat="40.027399" lon="116.390473"><ele>32.9</ele><time>2024-08-06T11:50:54.000Z</time></trkpt><trkpt lat="40.027636" lon="116.389541"><ele>33.6</ele><time>2024-08-06T11:51:23.000Z</time></trkpt><trkpt lat="40.027864" lon="116.388918"><ele>33.7</ele><time>2024-08-06T11:51:44.000Z</time></trkpt><trkpt lat="40.028162" lon="116.388348"><ele>33.7</ele><time>2024-08-06T11:52:04.000Z</time></trkpt><trkpt lat="40.028484" lon="116.387864"><ele>33.5</ele><time>2024-08-06T11:52:23.000Z</time></trkpt><trkpt lat="40.028728" lon="116.38728"><ele>33.6</ele><time>2024-08-06T11:52:42.000Z</time></trkpt><trkpt lat="40.029002" lon="116.387032"><ele>33.9</ele><time>2024-08-06T11:52:56.000Z</time></trkpt><trkpt lat="40.029159" lon="116.386715"><ele>34.2</ele><time>2024-08-06T11:53:08.000Z</time></trkpt><trkpt lat="40.029463" lon="116.38567"><ele>35.0</ele><time>2024-08-06T11:53:41.000Z</time></trkpt><trkpt lat="40.029528" lon="116.385283"><ele>34.6</ele><time>2024-08-06T11:53:52.000Z</time></trkpt><trkpt lat="40.029565" lon="116.384792"><ele>34.2</ele><time>2024-08-06T11:54:06.000Z</time></trkpt><trkpt lat="40.029497" lon="116.384249"><ele>33.8</ele><time>2024-08-06T11:54:20.000Z</time></trkpt><trkpt lat="40.029476" lon="116.383767"><ele>33.8</ele><time>2024-08-06T11:54:34.000Z</time></trkpt><trkpt lat="40.029344" lon="116.38237"><ele>33.9</ele><time>2024-08-06T11:55:14.000Z</time></trkpt><trkpt lat="40.029304" lon="116.381166"><ele>33.9</ele><time>2024-08-06T11:55:49.000Z</time></trkpt><trkpt lat="40.029321" lon="116.380714"><ele>34.1</ele><time>2024-08-06T11:56:05.000Z</time></trkpt><trkpt lat="40.029235" lon="116.379651"><ele>34.2</ele><time>2024-08-06T11:56:39.000Z</time></trkpt><trkpt lat="40.02924" lon="116.378057"><ele>34.7</ele><time>2024-08-06T11:57:28.000Z</time></trkpt><trkpt lat="40.029149" lon="116.377596"><ele>34.7</ele><time>2024-08-06T11:57:41.000Z</time></trkpt><trkpt lat="40.028968" lon="116.376961"><ele>35.1</ele><time>2024-08-06T11:58:04.000Z</time></trkpt><trkpt lat="40.028906" lon="116.376497"><ele>35.3</ele><time>2024-08-06T11:58:18.000Z</time></trkpt><trkpt lat="40.028948" lon="116.375111"><ele>34.6</ele><time>2024-08-06T11:59:00.000Z</time></trkpt><trkpt lat="40.028906" lon="116.374029"><ele>34.6</ele><time>2024-08-06T11:59:35.000Z</time></trkpt><trkpt lat="40.028752" lon="116.373095"><ele>34.9</ele><time>2024-08-06T12:00:05.000Z</time></trkpt><trkpt lat="40.028574" lon="116.372432"><ele>36.2</ele><time>2024-08-06T12:00:31.000Z</time></trkpt><trkpt lat="40.028223" lon="116.371757"><ele>37.3</ele><time>2024-08-06T12:00:58.000Z</time></trkpt><trkpt lat="40.027994" lon="116.371441"><ele>37.7</ele><time>2024-08-06T12:01:13.000Z</time></trkpt><trkpt lat="40.027853" lon="116.371305"><ele>37.6</ele><time>2024-08-06T12:01:21.000Z</time></trkpt><trkpt lat="40.027432" lon="116.370992"><ele>36.3</ele><time>2024-08-06T12:01:40.000Z</time></trkpt><trkpt lat="40.02713" lon="116.370826"><ele>35.5</ele><time>2024-08-06T12:01:53.000Z</time></trkpt><trkpt lat="40.026464" lon="116.370748"><ele>35.2</ele><time>2024-08-06T12:02:18.000Z</time></trkpt><trkpt lat="40.0264" lon="116.370778"><ele>35.2</ele><time>2024-08-06T12:02:21.000Z</time></trkpt><trkpt lat="40.026173" lon="116.371051"><ele>34.9</ele><time>2024-08-06T12:02:32.000Z</time></trkpt><trkpt lat="40.025823" lon="116.371304"><ele>34.4</ele><time>2024-08-06T12:02:48.000Z</time></trkpt><trkpt lat="40.025534" lon="116.37145"><ele>34.2</ele><time>2024-08-06T12:03:02.000Z</time></trkpt><trkpt lat="40.02493" lon="116.371666"><ele>34.4</ele><time>2024-08-06T12:03:33.000Z</time></trkpt><trkpt lat="40.024868" lon="116.371732"><ele>34.5</ele><time>2024-08-06T12:03:37.000Z</time></trkpt><trkpt lat="40.024858" lon="116.372168"><ele>34.8</ele><time>2024-08-06T12:03:53.000Z</time></trkpt><trkpt lat="40.024919" lon="116.372685"><ele>34.9</ele><time>2024-08-06T12:04:09.000Z</time></trkpt><trkpt lat="40.024966" lon="116.373676"><ele>33.6</ele><time>2024-08-06T12:04:40.000Z</time></trkpt><trkpt lat="40.025129" lon="116.375648"><ele>33.1</ele><time>2024-08-06T12:05:50.000Z</time></trkpt><trkpt lat="40.025103" lon="116.376448"><ele>33.1</ele><time>2024-08-06T12:06:18.000Z</time></trkpt><trkpt lat="40.025155" lon="116.377069"><ele>33.4</ele><time>2024-08-06T12:06:40.000Z</time></trkpt><trkpt lat="40.025121" lon="116.378906"><ele>31.8</ele><time>2024-08-06T12:07:42.000Z</time></trkpt><trkpt lat="40.025019" lon="116.379281"><ele>31.5</ele><time>2024-08-06T12:07:56.000Z</time></trkpt><trkpt lat="40.024837" lon="116.379734"><ele>31.4</ele><time>2024-08-06T12:08:13.000Z</time></trkpt><trkpt lat="40.024606" lon="116.380455"><ele>31.5</ele><time>2024-08-06T12:08:39.000Z</time></trkpt><trkpt lat="40.024517" lon="116.38052"><ele>31.5</ele><time>2024-08-06T12:08:44.000Z</time></trkpt><trkpt lat="40.024365" lon="116.380543"><ele>31.6</ele><time>2024-08-06T12:08:52.000Z</time></trkpt><trkpt lat="40.023924" lon="116.380418"><ele>31.6</ele><time>2024-08-06T12:09:15.000Z</time></trkpt><trkpt lat="40.023721" lon="116.380412"><ele>31.7</ele><time>2024-08-06T12:09:24.000Z</time></trkpt><trkpt lat="40.023528" lon="116.380466"><ele>31.8</ele><time>2024-08-06T12:09:32.000Z</time></trkpt><trkpt lat="40.023247" lon="116.380616"><ele>32.0</ele><time>2024-08-06T12:09:44.000Z</time></trkpt><trkpt lat="40.023137" lon="116.380725"><ele>32.1</ele><time>2024-08-06T12:09:51.000Z</time></trkpt><trkpt lat="40.023057" lon="116.380878"><ele>32.3</ele><time>2024-08-06T12:09:58.000Z</time></trkpt><trkpt lat="40.022895" lon="116.381623"><ele>32.5</ele><time>2024-08-06T12:10:26.000Z</time></trkpt><trkpt lat="40.022795" lon="116.381853"><ele>32.7</ele><time>2024-08-06T12:10:34.000Z</time></trkpt><trkpt lat="40.022648" lon="116.382083"><ele>32.8</ele><time>2024-08-06T12:10:43.000Z</time></trkpt><trkpt lat="40.022329" lon="116.38241"><ele>32.8</ele><time>2024-08-06T12:10:58.000Z</time></trkpt><trkpt lat="40.022196" lon="116.382607"><ele>32.8</ele><time>2024-08-06T12:11:08.000Z</time></trkpt><trkpt lat="40.022109" lon="116.382965"><ele>32.6</ele><time>2024-08-06T12:11:22.000Z</time></trkpt><trkpt lat="40.022114" lon="116.383661"><ele>32.4</ele><time>2024-08-06T12:11:45.000Z</time></trkpt><trkpt lat="40.022159" lon="116.383829"><ele>32.3</ele><time>2024-08-06T12:11:51.000Z</time></trkpt><trkpt lat="40.022311" lon="116.384068"><ele>32.3</ele><time>2024-08-06T12:12:02.000Z</time></trkpt><trkpt lat="40.022419" lon="116.384362"><ele>32.3</ele><time>2024-08-06T12:12:14.000Z</time></trkpt><trkpt lat="40.022443" lon="116.384586"><ele>32.3</ele><time>2024-08-06T12:12:21.000Z</time></trkpt><trkpt lat="40.022382" lon="116.385079"><ele>32.7</ele><time>2024-08-06T12:12:42.000Z</time></trkpt><trkpt lat="40.022398" lon="116.385697"><ele>33.4</ele><time>2024-08-06T12:13:06.000Z</time></trkpt><trkpt lat="40.022337" lon="116.385801"><ele>33.5</ele><time>2024-08-06T12:13:11.000Z</time></trkpt><trkpt lat="40.02193" lon="116.385853"><ele>34.8</ele><time>2024-08-06T12:13:33.000Z</time></trkpt><trkpt lat="40.021361" lon="116.385639"><ele>39.8</ele><time>2024-08-06T12:14:07.000Z</time></trkpt><trkpt lat="40.020599" lon="116.385743"><ele>39.2</ele><time>2024-08-06T12:14:43.000Z</time></trkpt><trkpt lat="40.02034" lon="116.385554"><ele>37.6</ele><time>2024-08-06T12:14:57.000Z</time></trkpt><trkpt lat="40.019953" lon="116.385178"><ele>35.6</ele><time>2024-08-06T12:15:16.000Z</time></trkpt><trkpt lat="40.019929" lon="116.385076"><ele>34.6</ele><time>2024-08-06T12:15:20.000Z</time></trkpt><trkpt lat="40.019966" lon="116.384398"><ele>31.2</ele><time>2024-08-06T12:15:43.000Z</time></trkpt><trkpt lat="40.020119" lon="116.383491"><ele>30.7</ele><time>2024-08-06T12:16:16.000Z</time></trkpt><trkpt lat="40.020312" lon="116.382617"><ele>30.4</ele><time>2024-08-06T12:16:47.000Z</time></trkpt><trkpt lat="40.020224" lon="116.38195"><ele>30.7</ele><time>2024-08-06T12:17:12.000Z</time></trkpt><trkpt lat="40.020088" lon="116.381308"><ele>31.6</ele><time>2024-08-06T12:17:34.000Z</time></trkpt><trkpt lat="40.019952" lon="116.381068"><ele>31.1</ele><time>2024-08-06T12:17:46.000Z</time></trkpt><trkpt lat="40.019677" lon="116.380716"><ele>32.8</ele><time>2024-08-06T12:18:09.000Z</time></trkpt><trkpt lat="40.019158" lon="116.380206"><ele>36.4</ele><time>2024-08-06T12:18:43.000Z</time></trkpt><trkpt lat="40.018765" lon="116.379622"><ele>37.5</ele><time>2024-08-06T12:19:13.000Z</time></trkpt><trkpt lat="40.018557" lon="116.379113"><ele>36.4</ele><time>2024-08-06T12:19:32.000Z</time></trkpt><trkpt lat="40.018428" lon="116.378667"><ele>35.8</ele><time>2024-08-06T12:19:50.000Z</time></trkpt><trkpt lat="40.018276" lon="116.377563"><ele>36.0</ele><time>2024-08-06T12:20:29.000Z</time></trkpt><trkpt lat="40.018195" lon="116.37723"><ele>35.9</ele><time>2024-08-06T12:20:42.000Z</time></trkpt><trkpt lat="40.017813" lon="116.376349"><ele>35.5</ele><time>2024-08-06T12:21:14.000Z</time></trkpt><trkpt lat="40.017322" lon="116.375718"><ele>36.5</ele><time>2024-08-06T12:21:48.000Z</time></trkpt><trkpt lat="40.01711" lon="116.375324"><ele>37.3</ele><time>2024-08-06T12:22:08.000Z</time></trkpt><trkpt lat="40.016965" lon="116.375121"><ele>37.7</ele><time>2024-08-06T12:22:18.000Z</time></trkpt><trkpt lat="40.016777" lon="116.374913"><ele>38.0</ele><time>2024-08-06T12:22:30.000Z</time></trkpt><trkpt lat="40.016502" lon="116.374722"><ele>38.7</ele><time>2024-08-06T12:22:44.000Z</time></trkpt><trkpt lat="40.016224" lon="116.374612"><ele>39.0</ele><time>2024-08-06T12:22:58.000Z</time></trkpt><trkpt lat="40.015949" lon="116.374581"><ele>39.1</ele><time>2024-08-06T12:23:11.000Z</time></trkpt><trkpt lat="40.015642" lon="116.374597"><ele>39.1</ele><time>2024-08-06T12:23:26.000Z</time></trkpt><trkpt lat="40.015111" lon="116.374849"><ele>38.0</ele><time>2024-08-06T12:23:51.000Z</time></trkpt><trkpt lat="40.014931" lon="116.375037"><ele>37.4</ele><time>2024-08-06T12:24:01.000Z</time></trkpt><trkpt lat="40.014406" lon="116.37579"><ele>38.1</ele><time>2024-08-06T12:24:44.000Z</time></trkpt><trkpt lat="40.013897" lon="116.377"><ele>40.4</ele><time>2024-08-06T12:25:37.000Z</time></trkpt><trkpt lat="40.013518" lon="116.37745"><ele>40.6</ele><time>2024-08-06T12:25:58.000Z</time></trkpt><trkpt lat="40.013416" lon="116.377619"><ele>40.5</ele><time>2024-08-06T12:26:06.000Z</time></trkpt><trkpt lat="40.013113" lon="116.378939"><ele>38.1</ele><time>2024-08-06T12:26:46.000Z</time></trkpt><trkpt lat="40.012865" lon="116.379524"><ele>35.6</ele><time>2024-08-06T12:27:08.000Z</time></trkpt><trkpt lat="40.012616" lon="116.379823"><ele>34.4</ele><time>2024-08-06T12:27:23.000Z</time></trkpt><trkpt lat="40.012375" lon="116.380044"><ele>33.5</ele><time>2024-08-06T12:27:33.000Z</time></trkpt><trkpt lat="40.012113" lon="116.380205"><ele>32.7</ele><time>2024-08-06T12:27:44.000Z</time></trkpt><trkpt lat="40.011681" lon="116.380393"><ele>31.2</ele><time>2024-08-06T12:28:04.000Z</time></trkpt></trkseg></trk></gpx>