<?xml version="1.0" encoding="UTF-8"?><gpx creator="Health" xsi:schemaLocation="http://www.topografix.com/GPX/1/0 http://www.topografix.com/GPX/1/0/gpx.xsd" version="1.0" xmlns="http://www.topografix.com/GPX/1/0" xmlns:xsi="http://www.w3.org/2001/XMLSchema-instance"><metadata><time>2024-07-20T10:01:34.000Z</time></metadata><trk><type>户外跑步</type><extensions><totalTime>3758.0</totalTime><cumulativeDecrease>24.0</cumulativeDecrease><cumulativeClimb>17.0</cumulativeClimb><totalDistance>10000.0</totalDistance></extensions><trkseg><trkpt lat="39.996971" lon="116.463955"><ele>32.0</ele><time>2024-07-20T10:01:34.000Z</time></trkpt><trkpt lat="39.997434" lon="116.464458"><ele>32.2</ele><time>2024-07-20T10:02:01.000Z</time></trkpt><trkpt lat="39.997698" lon="116.464829"><ele>32.2</ele><time>2024-07-20T10:02:18.000Z</time></trkpt><trkpt lat="39.998063" lon="116.465214"><ele>32.3</ele><time>2024-07-20T10:02:37.000Z</time></trkpt><trkpt lat="39.998416" lon="116.465666"><ele>31.5</ele><time>2024-07-20T10:03:46.000Z</time></trkpt><trkpt lat="39.998881" lon="116.466135"><ele>31.5</ele><time>2024-07-20T10:04:05.000Z</time></trkpt><trkpt lat="39.999197" lon="116.466561"><ele>31.3</ele><time>2024-07-20T10:04:22.000Z</time></trkpt><trkpt lat="39.999491" lon="116.466855"><ele>31.2</ele><time>2024-07-20T10:04:35.000Z</time></trkpt><trkpt lat="39.999818" lon="116.467288"><ele>31.0</ele><time>2024-07-20T10:04:54.000Z</time></trkpt><trkpt lat="40.000356" lon="116.467786"><ele>30.8</ele><time>2024-07-20T10:05:16.000Z</time></trkpt><trkpt lat="40.000399" lon="116.467876"><ele>30.7</ele><time>2024-07-20T10:05:19.000Z</time></trkpt><trkpt lat="40.000451" lon="116.468166"><ele>30.6</ele><time>2024-07-20T10:05:27.000Z</time></trkpt><trkpt lat="40.000494" lon="116.469384"><ele>30.4</ele><time>2024-07-20T10:06:02.000Z</time></trkpt><trkpt lat="40.000585" lon="116.470351"><ele>30.0</ele><time>2024-07-20T10:06:30.000Z</time></trkpt><trkpt lat="40.000563" lon="116.470982"><ele>29.8</ele><time>2024-07-20T10:06:48.000Z</time></trkpt><trkpt lat="40.000644" lon="116.471705"><ele>30.0</ele><time>2024-07-20T10:07:09.000Z</time></trkpt><trkpt lat="40.00058" lon="116.472306"><ele>29.9</ele><time>2024-07-20T10:07:24.000Z</time></trkpt><trkpt lat="40.00059" lon="116.47261"><ele>29.9</ele><time>2024-07-20T10:07:34.000Z</time></trkpt><trkpt lat="40.000557" lon="116.472849"><ele>29.9</ele><time>2024-07-20T10:07:41.000Z</time></trkpt><trkpt lat="40.000596" lon="116.473117"><ele>29.9</ele><time>2024-07-20T10:07:49.000Z</time></trkpt><trkpt lat="40.000605" lon="116.473503"><ele>29.9</ele><time>2024-07-20T10:08:01.000Z</time></trkpt><trkpt lat="40.00055" lon="116.474151"><ele>30.1</ele><time>2024-07-20T10:08:20.000Z</time></trkpt><trkpt lat="40.000568" lon="116.474624"><ele>30.5</ele><time>2024-07-20T10:08:34.000Z</time></trkpt><trkpt lat="40.000525" lon="116.475025"><ele>30.5</ele><time>2024-07-20T10:08:45.000Z</time></trkpt><trkpt lat="40.000348" lon="116.475895"><ele>30.5</ele><time>2024-07-20T10:09:13.000Z</time></trkpt><trkpt lat="39.999999" lon="116.47697"><ele>30.6</ele><time>2024-07-20T10:09:50.000Z</time></trkpt><trkpt lat="39.999716" lon="116.477594"><ele>31.1</ele><time>2024-07-20T10:10:11.000Z</time></trkpt><trkpt lat="39.999169" lon="116.478519"><ele>31.2</ele><time>2024-07-20T10:10:47.000Z</time></trkpt><trkpt lat="39.999006" lon="116.47866"><ele>31.3</ele><time>2024-07-20T10:11:27.000Z</time></trkpt><trkpt lat="39.998824" lon="116.478979"><ele>31.8</ele><time>2024-07-20T10:11:39.000Z</time></trkpt><trkpt lat="39.998823" lon="116.479091"><ele>31.4</ele><time>2024-07-20T10:12:42.000Z</time></trkpt><trkpt lat="39.99896" lon="116.479303"><ele>30.5</ele><time>2024-07-20T10:12:51.000Z</time></trkpt><trkpt lat="39.99934" lon="116.479629"><ele>29.9</ele><time>2024-07-20T10:13:07.000Z</time></trkpt><trkpt lat="39.999623" lon="116.480005"><ele>29.5</ele><time>2024-07-20T10:13:22.000Z</time></trkpt><trkpt lat="39.999852" lon="116.480214"><ele>29.7</ele><time>2024-07-20T10:13:32.000Z</time></trkpt><trkpt lat="40.000047" lon="116.480485"><ele>29.9</ele><time>2024-07-20T10:13:43.000Z</time></trkpt><trkpt lat="40.000368" lon="116.480783"><ele>29.8</ele><time>2024-07-20T10:13:57.000Z</time></trkpt><trkpt lat="40.001412" lon="116.482033"><ele>31.1</ele><time>2024-07-20T10:14:52.000Z</time></trkpt><trkpt lat="40.001859" lon="116.482404"><ele>30.5</ele><time>2024-07-20T10:15:10.000Z</time></trkpt><trkpt lat="40.002322" lon="116.482969"><ele>29.8</ele><time>2024-07-20T10:15:33.000Z</time></trkpt><trkpt lat="40.002479" lon="116.483252"><ele>29.9</ele><time>2024-07-20T10:15:44.000Z</time></trkpt><trkpt lat="40.002884" lon="116.483551"><ele>29.5</ele><time>2024-07-20T10:16:00.000Z</time></trkpt><trkpt lat="40.003296" lon="116.483912"><ele>29.2</ele><time>2024-07-20T10:16:20.000Z</time></trkpt><trkpt lat="40.003857" lon="116.484203"><ele>29.1</ele><time>2024-07-20T10:16:44.000Z</time></trkpt><trkpt lat="40.004075" lon="116.484262"><ele>29.1</ele><time>2024-07-20T10:16:53.000Z</time></trkpt><trkpt lat="40.004681" lon="116.484274"><ele>29.1</ele><time>2024-07-20T10:17:16.000Z</time></trkpt><trkpt lat="40.004922" lon="116.484221"><ele>29.1</ele><time>2024-07-20T10:17:26.000Z</time></trkpt><trkpt lat="40.00504" lon="116.484234"><ele>29.1</ele><time>2024-07-20T10:17:30.000Z</time></trkpt><trkpt lat="40.005503" lon="116.484393"><ele>29.1</ele><time>2024-07-20T10:17:49.000Z</time></trkpt><trkpt lat="40.005782" lon="116.484598"><ele>29.1</ele><time>2024-07-20T10:18:02.000Z</time></trkpt><trkpt lat="40.005955" lon="116.484804"><ele>29.1</ele><time>2024-07-20T10:18:12.000Z</time></trkpt><trkpt lat="40.006384" lon="116.485596"><ele>28.7</ele><time>2024-07-20T10:18:44.000Z</time></trkpt><trkpt lat="40.006669" lon="116.486051"><ele>28.4</ele><time>2024-07-20T10:19:01.000Z</time></trkpt><trkpt lat="40.006864" lon="116.486558"><ele>29.3</ele><time>2024-07-20T10:19:19.000Z</time></trkpt><trkpt lat="40.007688" lon="116.487914"><ele>29.7</ele><time>2024-07-20T10:20:10.000Z</time></trkpt><trkpt lat="40.007832" lon="116.488226"><ele>29.2</ele><time>2024-07-20T10:20:20.000Z</time></trkpt><trkpt lat="40.00778" lon="116.488413"><ele>28.8</ele><time>2024-07-20T10:20:26.000Z</time></trkpt><trkpt lat="40.007452" lon="116.488839"><ele>28.2</ele><time>2024-07-20T10:20:44.000Z</time></trkpt><trkpt lat="40.006255" lon="116.490689"><ele>30.7</ele><time>2024-07-20T10:22:01.000Z</time></trkpt><trkpt lat="40.006174" lon="116.490978"><ele>30.7</ele><time>2024-07-20T10:22:11.000Z</time></trkpt><trkpt lat="40.006041" lon="116.491278"><ele>30.7</ele><time>2024-07-20T10:22:22.000Z</time></trkpt><trkpt lat="40.005371" lon="116.492268"><ele>30.5</ele><time>2024-07-20T10:23:03.000Z</time></trkpt><trkpt lat="40.005372" lon="116.492333"><ele>30.5</ele><time>2024-07-20T10:23:06.000Z</time></trkpt><trkpt lat="40.005414" lon="116.492375"><ele>30.5</ele><time>2024-07-20T10:23:08.000Z</time></trkpt><trkpt lat="40.005857" lon="116.492629"><ele>29.6</ele><time>2024-07-20T10:23:24.000Z</time></trkpt><trkpt lat="40.006146" lon="116.49295"><ele>28.8</ele><time>2024-07-20T10:23:39.000Z</time></trkpt><trkpt lat="40.006306" lon="116.493221"><ele>28.9</ele><time>2024-07-20T10:23:49.000Z</time></trkpt><trkpt lat="40.006302" lon="116.493302"><ele>29.2</ele><time>2024-07-20T10:23:52.000Z</time></trkpt><trkpt lat="40.006082" lon="116.49365"><ele>29.7</ele><time>2024-07-20T10:24:05.000Z</time></trkpt><trkpt lat="40.00601" lon="116.493938"><ele>29.7</ele><time>2024-07-20T10:24:14.000Z</time></trkpt><trkpt lat="40.00604" lon="116.494196"><ele>29.6</ele><time>2024-07-20T10:24:22.000Z</time></trkpt><trkpt lat="40.006218" lon="116.4947"><ele>29.6</ele><time>2024-07-20T10:24:40.000Z</time></trkpt><trkpt lat="40.00623" lon="116.494889"><ele>29.5</ele><time>2024-07-20T10:24:46.000Z</time></trkpt><trkpt lat="40.005923" lon="116.496402"><ele>28.3</ele><time>2024-07-20T10:25:33.000Z</time></trkpt><trkpt lat="40.005864" lon="116.496515"><ele>28.0</ele><time>2024-07-20T10:25:37.000Z</time></trkpt><trkpt lat="40.005526" lon="116.496838"><ele>27.7</ele><time>2024-07-20T10:25:54.000Z</time></trkpt><trkpt lat="40.004966" lon="116.497519"><ele>27.7</ele><time>2024-07-20T10:26:25.000Z</time></trkpt><trkpt lat="40.004904" lon="116.497734"><ele>27.9</ele><time>2024-07-20T10:26:33.000Z</time></trkpt><trkpt lat="40.004837" lon="116.498435"><ele>28.2</ele><time>2024-07-20T10:26:57.000Z</time></trkpt><trkpt lat="40.004793" lon="116.498642"><ele>28.3</ele><time>2024-07-20T10:27:05.000Z</time></trkpt><trkpt lat="40.004814" lon="116.498767"><ele>28.4</ele><time>2024-07-20T10:27:10.000Z</time></trkpt><trkpt lat="40.004966" lon="116.499125"><ele>29.4</ele><time>2024-07-20T10:27:22.000Z</time></trkpt><trkpt lat="40.005009" lon="116.499392"><ele>29.7</ele><time>2024-07-20T10:27:31.000Z</time></trkpt><trkpt lat="40.005076" lon="116.499598"><ele>29.4</ele><time>2024-07-20T10:27:39.000Z</time></trkpt><trkpt lat="40.005369" lon="116.499941"><ele>28.6</ele><time>2024-07-20T10:27:58.000Z</time></trkpt><trkpt lat="40.005577" lon="116.500283"><ele>28.6</ele><time>2024-07-20T10:28:13.000Z</time></trkpt><trkpt lat="40.005728" lon="116.500728"><ele>29.2</ele><time>2024-07-20T10:28:30.000Z</time></trkpt><trkpt lat="40.006361" lon="116.501464"><ele>28.7</ele><time>2024-07-20T10:29:05.000Z</time></trkpt><trkpt lat="40.006422" lon="116.501566"><ele>28.6</ele><time>2024-07-20T10:29:10.000Z</time></trkpt><trkpt lat="40.006474" lon="116.501747"><ele>28.6</ele><time>2024-07-20T10:29:17.000Z</time></trkpt><trkpt lat="40.006701" lon="116.502098"><ele>27.4</ele><time>2024-07-20T10:32:15.000Z</time></trkpt><trkpt lat="40.007502" lon="116.502979"><ele>30.2</ele><time>2024-07-20T10:33:00.000Z</time></trkpt><trkpt lat="40.007716" lon="116.503262"><ele>30.2</ele><time>2024-07-20T10:33:13.000Z</time></trkpt><trkpt lat="40.008224" lon="116.503608"><ele>30.2</ele><time>2024-07-20T10:33:36.000Z</time></trkpt><trkpt lat="40.008542" lon="116.503875"><ele>30.2</ele><time>2024-07-20T10:33:52.000Z</time></trkpt><trkpt lat="40.008874" lon="116.504212"><ele>30.2</ele><time>2024-07-20T10:34:10.000Z</time></trkpt><trkpt lat="40.010097" lon="116.505598"><ele>30.1</ele><time>2024-07-20T10:35:22.000Z</time></trkpt><trkpt lat="40.010554" lon="116.50621"><ele>29.9</ele><time>2024-07-20T10:35:50.000Z</time></trkpt><trkpt lat="40.011256" lon="116.506934"><ele>28.3</ele><time>2024-07-20T10:37:51.000Z</time></trkpt><trkpt lat="40.011359" lon="116.507114"><ele>28.2</ele><time>2024-07-20T10:37:58.000Z</time></trkpt><trkpt lat="40.011905" lon="116.5077"><ele>29.2</ele><time>2024-07-20T10:38:29.000Z</time></trkpt><trkpt lat="40.012559" lon="116.508502"><ele>29.4</ele><time>2024-07-20T10:39:09.000Z</time></trkpt><trkpt lat="40.013472" lon="116.509471"><ele>29.4</ele><time>2024-07-20T10:40:03.000Z</time></trkpt><trkpt lat="40.013758" lon="116.509669"><ele>29.4</ele><time>2024-07-20T10:40:17.000Z</time></trkpt><trkpt lat="40.014389" lon="116.510252"><ele>29.5</ele><time>2024-07-20T10:40:52.000Z</time></trkpt><trkpt lat="40.017061" lon="116.512067"><ele>29.8</ele><time>2024-07-20T10:43:09.000Z</time></trkpt><trkpt lat="40.018016" lon="116.512793"><ele>29.9</ele><time>2024-07-20T10:44:02.000Z</time></trkpt><trkpt lat="40.020063" lon="116.514126"><ele>29.9</ele><time>2024-07-20T10:45:33.000Z</time></trkpt><trkpt lat="40.020475" lon="116.514432"><ele>29.9</ele><time>2024-07-20T10:45:56.000Z</time></trkpt><trkpt lat="40.020918" lon="116.51466"><ele>29.9</ele><time>2024-07-20T10:46:14.000Z</time></trkpt><trkpt lat="40.022503" lon="116.515767"><ele>29.6</ele><time>2024-07-20T10:47:28.000Z</time></trkpt><trkpt lat="40.023447" lon="116.516352"><ele>29.2</ele><time>2024-07-20T10:48:59.000Z</time></trkpt><trkpt lat="40.023703" lon="116.516474"><ele>29.6</ele><time>2024-07-20T10:49:10.000Z</time></trkpt><trkpt lat="40.024302" lon="116.516873"><ele>29.5</ele><time>2024-07-20T10:49:38.000Z</time></trkpt><trkpt lat="40.024627" lon="116.517149"><ele>29.7</ele><time>2024-07-20T10:49:57.000Z</time></trkpt><trkpt lat="40.026714" lon="116.51858"><ele>29.5</ele><time>2024-07-20T10:51:45.000Z</time></trkpt><trkpt lat="40.028803" lon="116.519929"><ele>29.8</ele><time>2024-07-20T10:53:36.000Z</time></trkpt><trkpt lat="40.030053" lon="116.520799"><ele>29.1</ele><time>2024-07-20T10:54:36.000Z</time></trkpt><trkpt lat="40.031132" lon="116.521489"><ele>28.9</ele><time>2024-07-20T10:55:36.000Z</time></trkpt><trkpt lat="40.033415" lon="116.523057"><ele>28.8</ele><time>2024-07-20T10:57:42.000Z</time></trkpt><trkpt lat="40.034287" lon="116.52362"><ele>29.0</ele><time>2024-07-20T10:58:23.000Z</time></trkpt><trkpt lat="40.034957" lon="116.524137"><ele>29.2</ele><time>2024-07-20T10:59:04.000Z</time></trkpt><trkpt lat="40.035703" lon="116.524617"><ele>29.4</ele><time>2024-07-20T10:59:44.000Z</time></trkpt><trkpt lat="40.036253" lon="116.525033"><ele>29.1</ele><time>2024-07-20T11:00:18.000Z</time></trkpt><trkpt lat="40.037161" lon="116.525475"><ele>28.3</ele><time>2024-07-20T11:01:09.000Z</time></trkpt><trkpt lat="40.037475" lon="116.525573"><ele>28.3</ele><time>2024-07-20T11:01:24.000Z</time></trkpt><trkpt lat="40.038008" lon="116.525893"><ele>28.3</ele><time>2024-07-20T11:01:50.000Z</time></trkpt><trkpt lat="40.038163" lon="116.526033"><ele>28.3</ele><time>2024-07-20T11:01:59.000Z</time></trkpt><trkpt lat="40.0384" lon="116.526354"><ele>28.3</ele><time>2024-07-20T11:02:14.000Z</time></trkpt><trkpt lat="40.0385" lon="116.52643"><ele>28.4</ele><time>2024-07-20T11:02:19.000Z</time></trkpt><trkpt lat="40.040024" lon="116.527121"><ele>28.4</ele><time>2024-07-20T11:04:16.000Z</time></trkpt><trkpt lat="40.040254" lon="116.527312"><ele>28.2</ele><time>2024-07-20T11:04:28.000Z</time></trkpt><trkpt lat="40.040858" lon="116.527589"><ele>28.1</ele><time>2024-07-20T11:04:50.000Z</time></trkpt><trkpt lat="40.041556" lon="116.527864"><ele>27.9</ele><time>2024-07-20T11:05:19.000Z</time></trkpt><trkpt lat="40.041841" lon="116.527926"><ele>27.9</ele><time>2024-07-20T11:05:31.000Z</time></trkpt><trkpt lat="40.042411" lon="116.528135"><ele>27.2</ele><time>2024-07-20T11:05:56.000Z</time></trkpt><trkpt lat="40.042808" lon="116.528316"><ele>27.3</ele><time>2024-07-20T11:06:16.000Z</time></trkpt><trkpt lat="40.043696" lon="116.528813"><ele>27.3</ele><time>2024-07-20T11:06:55.000Z</time></trkpt><trkpt lat="40.044502" lon="116.529093"><ele>27.3</ele><time>2024-07-20T11:07:33.000Z</time></trkpt><trkpt lat="40.04504" lon="116.529475"><ele>26.9</ele><time>2024-07-20T11:07:57.000Z</time></trkpt><trkpt lat="40.045866" lon="116.529822"><ele>26.0</ele><time>2024-07-20T11:08:29.000Z</time></trkpt><trkpt lat="40.047375" lon="116.530682"><ele>23.2</ele><time>2024-07-20T11:09:38.000Z</time></trkpt><trkpt lat="40.049001" lon="116.531709"><ele>21.7</ele><time>2024-07-20T11:11:00.000Z</time></trkpt><trkpt lat="40.049189" lon="116.531752"><ele>21.5</ele><time>2024-07-20T11:11:27.000Z</time></trkpt><trkpt lat="40.049407" lon="116.531896"><ele>21.5</ele><time>2024-07-20T11:11:37.000Z</time></trkpt><trkpt lat="40.049682" lon="116.53216"><ele>21.5</ele><time>2024-07-20T11:11:52.000Z</time></trkpt><trkpt lat="40.051391" lon="116.533272"><ele>21.1</ele><time>2024-07-20T11:13:11.000Z</time></trkpt></trkseg></trk></gpx>