<?xml version="1.0" encoding="UTF-8"?><gpx creator="Health" xsi:schemaLocation="http://www.topografix.com/GPX/1/0 http://www.topografix.com/GPX/1/0/gpx.xsd" version="1.0" xmlns="http://www.topografix.com/GPX/1/0" xmlns:xsi="http://www.w3.org/2001/XMLSchema-instance"><metadata><time>2024-06-15T01:35:07.000Z</time></metadata><trk><type>户外跑步</type><extensions><totalTime>2560.0</totalTime><cumulativeDecrease>206.8000030517578</cumulativeDecrease><cumulativeClimb>205.8000030517578</cumulativeClimb><totalDistance>7380.0</totalDistance></extensions><trkseg><trkpt lat="40.014584" lon="116.384051"><ele>42.2</ele><time>2024-06-15T01:35:07.000Z</time></trkpt><trkpt lat="40.014741" lon="116.383709"><ele>42.3</ele><time>2024-06-15T01:35:15.000Z</time></trkpt><trkpt lat="40.014867" lon="116.383552"><ele>43.0</ele><time>2024-06-15T01:35:20.000Z</time></trkpt><trkpt lat="40.014986" lon="116.383467"><ele>43.0</ele><time>2024-06-15T01:35:24.000Z</time></trkpt><trkpt lat="40.015184" lon="116.38345"><ele>45.8</ele><time>2024-06-15T01:35:30.000Z</time></trkpt><trkpt lat="40.015524" lon="116.38355"><ele>48.5</ele><time>2024-06-15T01:35:40.000Z</time></trkpt><trkpt lat="40.015722" lon="116.383522"><ele>49.8</ele><time>2024-06-15T01:35:46.000Z</time></trkpt><trkpt lat="40.016037" lon="116.383335"><ele>52.2</ele><time>2024-06-15T01:35:57.000Z</time></trkpt><trkpt lat="40.016399" lon="116.382948"><ele>55.6</ele><time>2024-06-15T01:36:11.000Z</time></trkpt><trkpt lat="40.016637" lon="116.382813"><ele>56.4</ele><time>2024-06-15T01:36:19.000Z</time></trkpt><trkpt lat="40.016804" lon="116.382882"><ele>57.1</ele><time>2024-06-15T01:36:24.000Z</time></trkpt><trkpt lat="40.016905" lon="116.38297"><ele>57.7</ele><time>2024-06-15T01:36:29.000Z</time></trkpt><trkpt lat="40.017027" lon="116.383205"><ele>59.1</ele><time>2024-06-15T01:36:38.000Z</time></trkpt><trkpt lat="40.017146" lon="116.383533"><ele>61.6</ele><time>2024-06-15T01:36:50.000Z</time></trkpt><trkpt lat="40.017316" lon="116.383736"><ele>62.3</ele><time>2024-06-15T01:36:59.000Z</time></trkpt><trkpt lat="40.017418" lon="116.383808"><ele>63.1</ele><time>2024-06-15T01:37:04.000Z</time></trkpt><trkpt lat="40.017651" lon="116.383883"><ele>64.6</ele><time>2024-06-15T01:37:14.000Z</time></trkpt><trkpt lat="40.017745" lon="116.383962"><ele>65.3</ele><time>2024-06-15T01:37:19.000Z</time></trkpt><trkpt lat="40.01776" lon="116.38409"><ele>66.0</ele><time>2024-06-15T01:37:24.000Z</time></trkpt><trkpt lat="40.017617" lon="116.384434"><ele>68.2</ele><time>2024-06-15T01:37:36.000Z</time></trkpt><trkpt lat="40.017639" lon="116.384455"><ele>68.2</ele><time>2024-06-15T01:37:39.000Z</time></trkpt><trkpt lat="40.017669" lon="116.384415"><ele>68.9</ele><time>2024-06-15T01:37:41.000Z</time></trkpt><trkpt lat="40.017761" lon="116.384142"><ele>69.6</ele><time>2024-06-15T01:37:49.000Z</time></trkpt><trkpt lat="40.017771" lon="116.384"><ele>69.8</ele><time>2024-06-15T01:37:53.000Z</time></trkpt><trkpt lat="40.017748" lon="116.383928"><ele>69.5</ele><time>2024-06-15T01:37:55.000Z</time></trkpt><trkpt lat="40.017664" lon="116.383855"><ele>69.5</ele><time>2024-06-15T01:37:59.000Z</time></trkpt><trkpt lat="40.017368" lon="116.383733"><ele>66.8</ele><time>2024-06-15T01:38:10.000Z</time></trkpt><trkpt lat="40.017127" lon="116.383452"><ele>65.3</ele><time>2024-06-15T01:38:20.000Z</time></trkpt><trkpt lat="40.016865" lon="116.382957"><ele>63.4</ele><time>2024-06-15T01:38:34.000Z</time></trkpt><trkpt lat="40.016819" lon="116.382905"><ele>62.4</ele><time>2024-06-15T01:38:36.000Z</time></trkpt><trkpt lat="40.016659" lon="116.382845"><ele>61.3</ele><time>2024-06-15T01:38:41.000Z</time></trkpt><trkpt lat="40.016502" lon="116.382875"><ele>60.3</ele><time>2024-06-15T01:38:46.000Z</time></trkpt><trkpt lat="40.016106" lon="116.383269"><ele>57.7</ele><time>2024-06-15T01:39:01.000Z</time></trkpt><trkpt lat="40.015962" lon="116.383379"><ele>57.1</ele><time>2024-06-15T01:39:06.000Z</time></trkpt><trkpt lat="40.015716" lon="116.383492"><ele>55.8</ele><time>2024-06-15T01:39:15.000Z</time></trkpt><trkpt lat="40.015499" lon="116.383535"><ele>54.8</ele><time>2024-06-15T01:39:23.000Z</time></trkpt><trkpt lat="40.015261" lon="116.383454"><ele>52.6</ele><time>2024-06-15T01:39:33.000Z</time></trkpt><trkpt lat="40.015109" lon="116.383442"><ele>51.4</ele><time>2024-06-15T01:39:38.000Z</time></trkpt><trkpt lat="40.014962" lon="116.383495"><ele>50.3</ele><time>2024-06-15T01:39:44.000Z</time></trkpt><trkpt lat="40.014716" lon="116.383735"><ele>47.0</ele><time>2024-06-15T01:39:55.000Z</time></trkpt><trkpt lat="40.014604" lon="116.383932"><ele>45.9</ele><time>2024-06-15T01:40:03.000Z</time></trkpt><trkpt lat="40.014594" lon="116.384029"><ele>42.0</ele><time>2024-06-15T01:40:06.000Z</time></trkpt><trkpt lat="40.014658" lon="116.384002"><ele>42.0</ele><time>2024-06-15T01:40:09.000Z</time></trkpt><trkpt lat="40.014789" lon="116.383717"><ele>40.3</ele><time>2024-06-15T01:40:17.000Z</time></trkpt><trkpt lat="40.014909" lon="116.383574"><ele>40.4</ele><time>2024-06-15T01:40:22.000Z</time></trkpt><trkpt lat="40.015222" lon="116.383482"><ele>42.6</ele><time>2024-06-15T01:40:32.000Z</time></trkpt><trkpt lat="40.015566" lon="116.383544"><ele>45.4</ele><time>2024-06-15T01:40:44.000Z</time></trkpt><trkpt lat="40.015806" lon="116.38348"><ele>47.7</ele><time>2024-06-15T01:40:54.000Z</time></trkpt><trkpt lat="40.016201" lon="116.383172"><ele>51.5</ele><time>2024-06-15T01:41:14.000Z</time></trkpt><trkpt lat="40.01647" lon="116.382868"><ele>53.7</ele><time>2024-06-15T01:41:29.000Z</time></trkpt><trkpt lat="40.016622" lon="116.382818"><ele>54.5</ele><time>2024-06-15T01:41:36.000Z</time></trkpt><trkpt lat="40.016784" lon="116.382868"><ele>54.9</ele><time>2024-06-15T01:41:43.000Z</time></trkpt><trkpt lat="40.016879" lon="116.382943"><ele>55.4</ele><time>2024-06-15T01:41:48.000Z</time></trkpt><trkpt lat="40.016994" lon="116.383134"><ele>56.6</ele><time>2024-06-15T01:41:56.000Z</time></trkpt><trkpt lat="40.017154" lon="116.383545"><ele>58.5</ele><time>2024-06-15T01:42:13.000Z</time></trkpt><trkpt lat="40.017289" lon="116.383735"><ele>59.6</ele><time>2024-06-15T01:42:24.000Z</time></trkpt><trkpt lat="40.017443" lon="116.383825"><ele>61.1</ele><time>2024-06-15T01:42:33.000Z</time></trkpt><trkpt lat="40.017721" lon="116.383908"><ele>62.9</ele><time>2024-06-15T01:42:48.000Z</time></trkpt><trkpt lat="40.01774" lon="116.383945"><ele>63.4</ele><time>2024-06-15T01:42:55.000Z</time></trkpt><trkpt lat="40.017631" lon="116.383862"><ele>64.2</ele><time>2024-06-15T01:43:02.000Z</time></trkpt><trkpt lat="40.017388" lon="116.383782"><ele>64.2</ele><time>2024-06-15T01:43:11.000Z</time></trkpt><trkpt lat="40.017286" lon="116.3837"><ele>64.2</ele><time>2024-06-15T01:43:15.000Z</time></trkpt><trkpt lat="40.017143" lon="116.383503"><ele>62.9</ele><time>2024-06-15T01:43:22.000Z</time></trkpt><trkpt lat="40.017044" lon="116.38323"><ele>62.0</ele><time>2024-06-15T01:43:30.000Z</time></trkpt><trkpt lat="40.016905" lon="116.38297"><ele>60.1</ele><time>2024-06-15T01:43:38.000Z</time></trkpt><trkpt lat="40.016782" lon="116.382892"><ele>59.1</ele><time>2024-06-15T01:43:43.000Z</time></trkpt><trkpt lat="40.01664" lon="116.382862"><ele>58.3</ele><time>2024-06-15T01:43:48.000Z</time></trkpt><trkpt lat="40.016475" lon="116.38291"><ele>57.5</ele><time>2024-06-15T01:43:54.000Z</time></trkpt><trkpt lat="40.015912" lon="116.383424"><ele>54.3</ele><time>2024-06-15T01:44:18.000Z</time></trkpt><trkpt lat="40.015727" lon="116.38352"><ele>53.8</ele><time>2024-06-15T01:44:25.000Z</time></trkpt><trkpt lat="40.015419" lon="116.383549"><ele>50.9</ele><time>2024-06-15T01:44:37.000Z</time></trkpt><trkpt lat="40.015242" lon="116.383485"><ele>49.8</ele><time>2024-06-15T01:44:45.000Z</time></trkpt><trkpt lat="40.015097" lon="116.383479"><ele>48.7</ele><time>2024-06-15T01:44:50.000Z</time></trkpt><trkpt lat="40.014842" lon="116.383579"><ele>46.5</ele><time>2024-06-15T01:44:58.000Z</time></trkpt><trkpt lat="40.014564" lon="116.383939"><ele>43.0</ele><time>2024-06-15T01:45:11.000Z</time></trkpt><trkpt lat="40.014556" lon="116.384009"><ele>43.0</ele><time>2024-06-15T01:45:14.000Z</time></trkpt><trkpt lat="40.014573" lon="116.384031"><ele>43.0</ele><time>2024-06-15T01:45:15.000Z</time></trkpt><trkpt lat="40.014636" lon="116.383999"><ele>42.1</ele><time>2024-06-15T01:45:17.000Z</time></trkpt><trkpt lat="40.014816" lon="116.383659"><ele>40.5</ele><time>2024-06-15T01:45:27.000Z</time></trkpt><trkpt lat="40.014989" lon="116.383505"><ele>40.8</ele><time>2024-06-15T01:45:35.000Z</time></trkpt><trkpt lat="40.015242" lon="116.383474"><ele>43.0</ele><time>2024-06-15T01:45:45.000Z</time></trkpt><trkpt lat="40.015524" lon="116.383559"><ele>46.5</ele><time>2024-06-15T01:45:57.000Z</time></trkpt><trkpt lat="40.015741" lon="116.383515"><ele>48.4</ele><time>2024-06-15T01:46:07.000Z</time></trkpt><trkpt lat="40.016171" lon="116.383205"><ele>51.6</ele><time>2024-06-15T01:46:29.000Z</time></trkpt><trkpt lat="40.016445" lon="116.382877"><ele>54.5</ele><time>2024-06-15T01:46:46.000Z</time></trkpt><trkpt lat="40.016614" lon="116.382802"><ele>54.8</ele><time>2024-06-15T01:46:55.000Z</time></trkpt><trkpt lat="40.016804" lon="116.382875"><ele>55.5</ele><time>2024-06-15T01:47:05.000Z</time></trkpt><trkpt lat="40.01691" lon="116.382963"><ele>56.4</ele><time>2024-06-15T01:47:11.000Z</time></trkpt><trkpt lat="40.017124" lon="116.383477"><ele>58.5</ele><time>2024-06-15T01:47:34.000Z</time></trkpt><trkpt lat="40.017288" lon="116.383705"><ele>60.4</ele><time>2024-06-15T01:47:46.000Z</time></trkpt><trkpt lat="40.017676" lon="116.383885"><ele>62.8</ele><time>2024-06-15T01:48:08.000Z</time></trkpt><trkpt lat="40.017631" lon="116.383823"><ele>63.3</ele><time>2024-06-15T01:48:14.000Z</time></trkpt><trkpt lat="40.017313" lon="116.383706"><ele>63.8</ele><time>2024-06-15T01:48:26.000Z</time></trkpt><trkpt lat="40.017136" lon="116.383487"><ele>63.2</ele><time>2024-06-15T01:48:34.000Z</time></trkpt><trkpt lat="40.016969" lon="116.383122"><ele>61.6</ele><time>2024-06-15T01:48:45.000Z</time></trkpt><trkpt lat="40.016874" lon="116.382982"><ele>60.7</ele><time>2024-06-15T01:48:50.000Z</time></trkpt><trkpt lat="40.01676" lon="116.382875"><ele>59.8</ele><time>2024-06-15T01:48:55.000Z</time></trkpt><trkpt lat="40.016615" lon="116.38286"><ele>58.9</ele><time>2024-06-15T01:49:00.000Z</time></trkpt><trkpt lat="40.016452" lon="116.382932"><ele>57.1</ele><time>2024-06-15T01:49:06.000Z</time></trkpt><trkpt lat="40.016004" lon="116.38337"><ele>54.3</ele><time>2024-06-15T01:49:26.000Z</time></trkpt><trkpt lat="40.015757" lon="116.383534"><ele>53.1</ele><time>2024-06-15T01:49:36.000Z</time></trkpt><trkpt lat="40.015579" lon="116.383562"><ele>52.2</ele><time>2024-06-15T01:49:43.000Z</time></trkpt><trkpt lat="40.015241" lon="116.383489"><ele>49.1</ele><time>2024-06-15T01:49:57.000Z</time></trkpt><trkpt lat="40.015039" lon="116.383519"><ele>48.0</ele><time>2024-06-15T01:50:03.000Z</time></trkpt><trkpt lat="40.014887" lon="116.38359"><ele>46.9</ele><time>2024-06-15T01:50:08.000Z</time></trkpt><trkpt lat="40.014758" lon="116.38371"><ele>45.7</ele><time>2024-06-15T01:50:14.000Z</time></trkpt><trkpt lat="40.014549" lon="116.384046"><ele>43.4</ele><time>2024-06-15T01:50:23.000Z</time></trkpt><trkpt lat="40.014563" lon="116.384136"><ele>37.6</ele><time>2024-06-15T01:56:48.000Z</time></trkpt><trkpt lat="40.014721" lon="116.383729"><ele>48.4</ele><time>2024-06-15T01:56:59.000Z</time></trkpt><trkpt lat="40.014907" lon="116.383535"><ele>53.3</ele><time>2024-06-15T01:57:06.000Z</time></trkpt><trkpt lat="40.015054" lon="116.383469"><ele>56.7</ele><time>2024-06-15T01:57:11.000Z</time></trkpt><trkpt lat="40.015536" lon="116.383552"><ele>60.4</ele><time>2024-06-15T01:57:28.000Z</time></trkpt><trkpt lat="40.015837" lon="116.383479"><ele>51.8</ele><time>2024-06-15T01:57:39.000Z</time></trkpt><trkpt lat="40.016152" lon="116.383234"><ele>40.7</ele><time>2024-06-15T01:57:53.000Z</time></trkpt><trkpt lat="40.01648" lon="116.382877"><ele>49.3</ele><time>2024-06-15T01:58:09.000Z</time></trkpt><trkpt lat="40.016645" lon="116.382828"><ele>49.3</ele><time>2024-06-15T01:58:16.000Z</time></trkpt><trkpt lat="40.016825" lon="116.382898"><ele>49.3</ele><time>2024-06-15T01:58:23.000Z</time></trkpt><trkpt lat="40.016932" lon="116.383008"><ele>49.3</ele><time>2024-06-15T01:58:29.000Z</time></trkpt><trkpt lat="40.017034" lon="116.38318"><ele>49.3</ele><time>2024-06-15T01:58:36.000Z</time></trkpt><trkpt lat="40.017169" lon="116.383541"><ele>49.3</ele><time>2024-06-15T01:58:50.000Z</time></trkpt><trkpt lat="40.017318" lon="116.383746"><ele>49.3</ele><time>2024-06-15T01:59:00.000Z</time></trkpt><trkpt lat="40.017741" lon="116.38395"><ele>49.3</ele><time>2024-06-15T01:59:23.000Z</time></trkpt><trkpt lat="40.017768" lon="116.384037"><ele>49.3</ele><time>2024-06-15T01:59:27.000Z</time></trkpt><trkpt lat="40.017746" lon="116.384145"><ele>49.3</ele><time>2024-06-15T01:59:35.000Z</time></trkpt><trkpt lat="40.017776" lon="116.384055"><ele>49.3</ele><time>2024-06-15T01:59:39.000Z</time></trkpt><trkpt lat="40.01773" lon="116.38393"><ele>49.3</ele><time>2024-06-15T01:59:43.000Z</time></trkpt><trkpt lat="40.017398" lon="116.383768"><ele>49.3</ele><time>2024-06-15T01:59:56.000Z</time></trkpt><trkpt lat="40.017241" lon="116.383645"><ele>49.3</ele><time>2024-06-15T02:00:02.000Z</time></trkpt><trkpt lat="40.01691" lon="116.383027"><ele>49.3</ele><time>2024-06-15T02:00:21.000Z</time></trkpt><trkpt lat="40.016774" lon="116.382883"><ele>49.3</ele><time>2024-06-15T02:00:27.000Z</time></trkpt><trkpt lat="40.016635" lon="116.38284"><ele>49.3</ele><time>2024-06-15T02:00:32.000Z</time></trkpt><trkpt lat="40.016424" lon="116.382928"><ele>49.3</ele><time>2024-06-15T02:00:40.000Z</time></trkpt><trkpt lat="40.015962" lon="116.383345"><ele>49.3</ele><time>2024-06-15T02:01:00.000Z</time></trkpt><trkpt lat="40.015689" lon="116.383502"><ele>49.3</ele><time>2024-06-15T02:01:11.000Z</time></trkpt><trkpt lat="40.015492" lon="116.383527"><ele>49.3</ele><time>2024-06-15T02:01:18.000Z</time></trkpt><trkpt lat="40.015151" lon="116.383455"><ele>49.3</ele><time>2024-06-15T02:01:31.000Z</time></trkpt><trkpt lat="40.014929" lon="116.383552"><ele>49.3</ele><time>2024-06-15T02:01:39.000Z</time></trkpt><trkpt lat="40.014716" lon="116.383737"><ele>49.3</ele><time>2024-06-15T02:01:48.000Z</time></trkpt><trkpt lat="40.014566" lon="116.384037"><ele>49.3</ele><time>2024-06-15T02:01:59.000Z</time></trkpt><trkpt lat="40.014628" lon="116.384017"><ele>49.3</ele><time>2024-06-15T02:02:02.000Z</time></trkpt><trkpt lat="40.014801" lon="116.383712"><ele>49.3</ele><time>2024-06-15T02:02:13.000Z</time></trkpt><trkpt lat="40.014994" lon="116.383522"><ele>49.3</ele><time>2024-06-15T02:02:23.000Z</time></trkpt><trkpt lat="40.015207" lon="116.383502"><ele>49.3</ele><time>2024-06-15T02:02:33.000Z</time></trkpt><trkpt lat="40.015487" lon="116.383567"><ele>49.3</ele><time>2024-06-15T02:02:45.000Z</time></trkpt><trkpt lat="40.015796" lon="116.383479"><ele>49.3</ele><time>2024-06-15T02:02:58.000Z</time></trkpt><trkpt lat="40.016162" lon="116.38321"><ele>51.7</ele><time>2024-06-15T02:03:18.000Z</time></trkpt><trkpt lat="40.016515" lon="116.382878"><ele>54.0</ele><time>2024-06-15T02:03:39.000Z</time></trkpt><trkpt lat="40.016622" lon="116.382837"><ele>54.4</ele><time>2024-06-15T02:03:44.000Z</time></trkpt><trkpt lat="40.016755" lon="116.38285"><ele>55.2</ele><time>2024-06-15T02:03:50.000Z</time></trkpt><trkpt lat="40.0169" lon="116.382978"><ele>55.7</ele><time>2024-06-15T02:03:59.000Z</time></trkpt><trkpt lat="40.017021" lon="116.383195"><ele>56.9</ele><time>2024-06-15T02:04:09.000Z</time></trkpt><trkpt lat="40.017146" lon="116.383536"><ele>58.8</ele><time>2024-06-15T02:04:24.000Z</time></trkpt><trkpt lat="40.017288" lon="116.383763"><ele>60.7</ele><time>2024-06-15T02:04:36.000Z</time></trkpt><trkpt lat="40.017398" lon="116.38383"><ele>61.2</ele><time>2024-06-15T02:04:43.000Z</time></trkpt><trkpt lat="40.017703" lon="116.383908"><ele>62.8</ele><time>2024-06-15T02:04:59.000Z</time></trkpt><trkpt lat="40.017446" lon="116.383803"><ele>64.0</ele><time>2024-06-15T02:05:10.000Z</time></trkpt><trkpt lat="40.017289" lon="116.383696"><ele>63.8</ele><time>2024-06-15T02:05:16.000Z</time></trkpt><trkpt lat="40.017102" lon="116.383446"><ele>62.5</ele><time>2024-06-15T02:05:25.000Z</time></trkpt><trkpt lat="40.016885" lon="116.382997"><ele>60.7</ele><time>2024-06-15T02:05:39.000Z</time></trkpt><trkpt lat="40.016734" lon="116.382885"><ele>58.9</ele><time>2024-06-15T02:05:45.000Z</time></trkpt><trkpt lat="40.016617" lon="116.382865"><ele>58.9</ele><time>2024-06-15T02:05:49.000Z</time></trkpt><trkpt lat="40.01646" lon="116.38292"><ele>57.0</ele><time>2024-06-15T02:05:55.000Z</time></trkpt><trkpt lat="40.015872" lon="116.383427"><ele>54.4</ele><time>2024-06-15T02:06:19.000Z</time></trkpt><trkpt lat="40.015702" lon="116.383514"><ele>53.1</ele><time>2024-06-15T02:06:25.000Z</time></trkpt><trkpt lat="40.015432" lon="116.383554"><ele>52.1</ele><time>2024-06-15T02:06:33.000Z</time></trkpt><trkpt lat="40.015132" lon="116.383502"><ele>49.8</ele><time>2024-06-15T02:06:43.000Z</time></trkpt><trkpt lat="40.014856" lon="116.383587"><ele>47.2</ele><time>2024-06-15T02:06:52.000Z</time></trkpt><trkpt lat="40.014726" lon="116.383724"><ele>46.0</ele><time>2024-06-15T02:06:57.000Z</time></trkpt><trkpt lat="40.01453" lon="116.384067"><ele>43.5</ele><time>2024-06-15T02:07:08.000Z</time></trkpt><trkpt lat="40.014578" lon="116.384049"><ele>39.5</ele><time>2024-06-15T02:12:11.000Z</time></trkpt><trkpt lat="40.014791" lon="116.38364"><ele>52.6</ele><time>2024-06-15T02:12:24.000Z</time></trkpt><trkpt lat="40.014924" lon="116.383515"><ele>56.0</ele><time>2024-06-15T02:12:30.000Z</time></trkpt><trkpt lat="40.015121" lon="116.38347"><ele>61.1</ele><time>2024-06-15T02:12:37.000Z</time></trkpt><trkpt lat="40.015542" lon="116.383547"><ele>64.9</ele><time>2024-06-15T02:12:52.000Z</time></trkpt><trkpt lat="40.015742" lon="116.383494"><ele>64.9</ele><time>2024-06-15T02:13:00.000Z</time></trkpt><trkpt lat="40.016122" lon="116.383262"><ele>64.9</ele><time>2024-06-15T02:13:17.000Z</time></trkpt><trkpt lat="40.016509" lon="116.382887"><ele>64.9</ele><time>2024-06-15T02:13:36.000Z</time></trkpt><trkpt lat="40.016644" lon="116.382842"><ele>64.9</ele><time>2024-06-15T02:13:42.000Z</time></trkpt><trkpt lat="40.016764" lon="116.382877"><ele>64.9</ele><time>2024-06-15T02:13:47.000Z</time></trkpt><trkpt lat="40.016897" lon="116.383003"><ele>64.9</ele><time>2024-06-15T02:13:54.000Z</time></trkpt><trkpt lat="40.017037" lon="116.383254"><ele>64.9</ele><time>2024-06-15T02:14:03.000Z</time></trkpt><trkpt lat="40.017168" lon="116.38361"><ele>64.9</ele><time>2024-06-15T02:14:19.000Z</time></trkpt><trkpt lat="40.017233" lon="116.383698"><ele>64.9</ele><time>2024-06-15T02:14:25.000Z</time></trkpt><trkpt lat="40.017441" lon="116.383818"><ele>64.9</ele><time>2024-06-15T02:14:38.000Z</time></trkpt><trkpt lat="40.017598" lon="116.383857"><ele>64.9</ele><time>2024-06-15T02:14:47.000Z</time></trkpt><trkpt lat="40.017731" lon="116.383952"><ele>64.9</ele><time>2024-06-15T02:14:55.000Z</time></trkpt><trkpt lat="40.017776" lon="116.384037"><ele>64.9</ele><time>2024-06-15T02:15:00.000Z</time></trkpt><trkpt lat="40.017738" lon="116.384185"><ele>64.9</ele><time>2024-06-15T02:15:10.000Z</time></trkpt><trkpt lat="40.017778" lon="116.384058"><ele>65.4</ele><time>2024-06-15T02:15:16.000Z</time></trkpt><trkpt lat="40.017731" lon="116.383942"><ele>65.4</ele><time>2024-06-15T02:15:20.000Z</time></trkpt><trkpt lat="40.017224" lon="116.38367"><ele>63.1</ele><time>2024-06-15T02:15:41.000Z</time></trkpt><trkpt lat="40.016912" lon="116.38301"><ele>60.0</ele><time>2024-06-15T02:16:01.000Z</time></trkpt><trkpt lat="40.016775" lon="116.382898"><ele>59.0</ele><time>2024-06-15T02:16:06.000Z</time></trkpt><trkpt lat="40.016637" lon="116.382868"><ele>59.0</ele><time>2024-06-15T02:16:10.000Z</time></trkpt><trkpt lat="40.016432" lon="116.382958"><ele>57.1</ele><time>2024-06-15T02:16:16.000Z</time></trkpt><trkpt lat="40.016077" lon="116.383287"><ele>55.2</ele><time>2024-06-15T02:16:30.000Z</time></trkpt><trkpt lat="40.015719" lon="116.383544"><ele>53.3</ele><time>2024-06-15T02:16:42.000Z</time></trkpt><trkpt lat="40.015544" lon="116.383574"><ele>52.5</ele><time>2024-06-15T02:16:48.000Z</time></trkpt><trkpt lat="40.015154" lon="116.383489"><ele>48.9</ele><time>2024-06-15T02:17:03.000Z</time></trkpt><trkpt lat="40.014961" lon="116.383522"><ele>47.7</ele><time>2024-06-15T02:17:09.000Z</time></trkpt><trkpt lat="40.014736" lon="116.383704"><ele>45.4</ele><time>2024-06-15T02:17:16.000Z</time></trkpt><trkpt lat="40.014515" lon="116.384125"><ele>43.5</ele><time>2024-06-15T02:17:29.000Z</time></trkpt><trkpt lat="40.016657" lon="116.38279"><ele>53.9</ele><time>2024-06-15T02:35:15.000Z</time></trkpt><trkpt lat="40.01644" lon="116.382905"><ele>49.3</ele><time>2024-06-15T02:35:24.000Z</time></trkpt><trkpt lat="40.016111" lon="116.383227"><ele>45.4</ele><time>2024-06-15T02:35:37.000Z</time></trkpt><trkpt lat="40.015701" lon="116.383515"><ele>55.3</ele><time>2024-06-15T02:35:51.000Z</time></trkpt><trkpt lat="40.015529" lon="116.383547"><ele>57.4</ele><time>2024-06-15T02:35:55.000Z</time></trkpt><trkpt lat="40.015166" lon="116.383494"><ele>64.9</ele><time>2024-06-15T02:36:07.000Z</time></trkpt><trkpt lat="40.014886" lon="116.3836"><ele>63.2</ele><time>2024-06-15T02:36:15.000Z</time></trkpt><trkpt lat="40.014713" lon="116.38374"><ele>63.2</ele><time>2024-06-15T02:36:22.000Z</time></trkpt><trkpt lat="40.014616" lon="116.383921"><ele>63.2</ele><time>2024-06-15T02:36:28.000Z</time></trkpt><trkpt lat="40.014609" lon="116.384004"><ele>63.2</ele><time>2024-06-15T02:36:31.000Z</time></trkpt><trkpt lat="40.014663" lon="116.383984"><ele>63.2</ele><time>2024-06-15T02:36:33.000Z</time></trkpt><trkpt lat="40.014736" lon="116.383802"><ele>63.2</ele><time>2024-06-15T02:36:39.000Z</time></trkpt><trkpt lat="40.014819" lon="116.383692"><ele>63.2</ele><time>2024-06-15T02:36:43.000Z</time></trkpt><trkpt lat="40.015046" lon="116.38351"><ele>63.2</ele><time>2024-06-15T02:36:54.000Z</time></trkpt><trkpt lat="40.015202" lon="116.383489"><ele>63.2</ele><time>2024-06-15T02:37:01.000Z</time></trkpt><trkpt lat="40.015547" lon="116.38354"><ele>63.2</ele><time>2024-06-15T02:37:15.000Z</time></trkpt><trkpt lat="40.015764" lon="116.383509"><ele>63.2</ele><time>2024-06-15T02:37:24.000Z</time></trkpt><trkpt lat="40.016159" lon="116.383237"><ele>63.2</ele><time>2024-06-15T02:37:44.000Z</time></trkpt><trkpt lat="40.016489" lon="116.382905"><ele>63.2</ele><time>2024-06-15T02:38:02.000Z</time></trkpt><trkpt lat="40.016654" lon="116.382843"><ele>63.2</ele><time>2024-06-15T02:38:09.000Z</time></trkpt><trkpt lat="40.016787" lon="116.382873"><ele>63.2</ele><time>2024-06-15T02:38:15.000Z</time></trkpt><trkpt lat="40.016875" lon="116.382943"><ele>63.2</ele><time>2024-06-15T02:38:20.000Z</time></trkpt><trkpt lat="40.017233" lon="116.383673"><ele>63.2</ele><time>2024-06-15T02:38:52.000Z</time></trkpt><trkpt lat="40.017416" lon="116.383833"><ele>63.2</ele><time>2024-06-15T02:39:03.000Z</time></trkpt><trkpt lat="40.017726" lon="116.383957"><ele>63.2</ele><time>2024-06-15T02:39:20.000Z</time></trkpt><trkpt lat="40.017755" lon="116.384013"><ele>63.2</ele><time>2024-06-15T02:39:23.000Z</time></trkpt><trkpt lat="40.017758" lon="116.384152"><ele>63.2</ele><time>2024-06-15T02:39:32.000Z</time></trkpt><trkpt lat="40.017771" lon="116.38404"><ele>63.2</ele><time>2024-06-15T02:39:37.000Z</time></trkpt><trkpt lat="40.01773" lon="116.38395"><ele>63.2</ele><time>2024-06-15T02:39:40.000Z</time></trkpt><trkpt lat="40.017429" lon="116.38384"><ele>63.2</ele><time>2024-06-15T02:39:52.000Z</time></trkpt><trkpt lat="40.017244" lon="116.383708"><ele>63.2</ele><time>2024-06-15T02:40:00.000Z</time></trkpt><trkpt lat="40.017114" lon="116.38351"><ele>63.2</ele><time>2024-06-15T02:40:07.000Z</time></trkpt><trkpt lat="40.016892" lon="116.383017"><ele>61.0</ele><time>2024-06-15T02:40:23.000Z</time></trkpt><trkpt lat="40.01679" lon="116.382913"><ele>60.1</ele><time>2024-06-15T02:40:28.000Z</time></trkpt><trkpt lat="40.016672" lon="116.38287"><ele>59.3</ele><time>2024-06-15T02:40:32.000Z</time></trkpt><trkpt lat="40.016437" lon="116.382938"><ele>57.6</ele><time>2024-06-15T02:40:42.000Z</time></trkpt><trkpt lat="40.015972" lon="116.383387"><ele>55.0</ele><time>2024-06-15T02:41:03.000Z</time></trkpt><trkpt lat="40.015764" lon="116.383525"><ele>53.8</ele><time>2024-06-15T02:41:11.000Z</time></trkpt><trkpt lat="40.015647" lon="116.383554"><ele>53.8</ele><time>2024-06-15T02:41:15.000Z</time></trkpt><trkpt lat="40.015214" lon="116.383499"><ele>49.7</ele><time>2024-06-15T02:41:31.000Z</time></trkpt><trkpt lat="40.015002" lon="116.383522"><ele>48.7</ele><time>2024-06-15T02:41:37.000Z</time></trkpt><trkpt lat="40.014804" lon="116.383615"><ele>47.6</ele><time>2024-06-15T02:41:44.000Z</time></trkpt><trkpt lat="40.014728" lon="116.383717"><ele>46.4</ele><time>2024-06-15T02:41:48.000Z</time></trkpt><trkpt lat="40.014718" lon="116.383781"><ele>45.2</ele><time>2024-06-15T02:41:51.000Z</time></trkpt><trkpt lat="40.014886" lon="116.38361"><ele>44.3</ele><time>2024-06-15T02:41:59.000Z</time></trkpt><trkpt lat="40.015054" lon="116.383504"><ele>43.6</ele><time>2024-06-15T02:42:06.000Z</time></trkpt><trkpt lat="40.015282" lon="116.383494"><ele>45.3</ele><time>2024-06-15T02:42:16.000Z</time></trkpt><trkpt lat="40.015471" lon="116.38355"><ele>46.3</ele><time>2024-06-15T02:42:24.000Z</time></trkpt><trkpt lat="40.015751" lon="116.383524"><ele>48.8</ele><time>2024-06-15T02:42:38.000Z</time></trkpt><trkpt lat="40.016169" lon="116.383237"><ele>52.3</ele><time>2024-06-15T02:43:02.000Z</time></trkpt><trkpt lat="40.01649" lon="116.382882"><ele>54.5</ele><time>2024-06-15T02:43:21.000Z</time></trkpt><trkpt lat="40.016652" lon="116.38284"><ele>54.8</ele><time>2024-06-15T02:43:28.000Z</time></trkpt><trkpt lat="40.016802" lon="116.382893"><ele>55.2</ele><time>2024-06-15T02:43:35.000Z</time></trkpt><trkpt lat="40.016915" lon="116.382992"><ele>56.2</ele><time>2024-06-15T02:43:41.000Z</time></trkpt><trkpt lat="40.017193" lon="116.383598"><ele>59.5</ele><time>2024-06-15T02:44:09.000Z</time></trkpt><trkpt lat="40.017314" lon="116.383765"><ele>60.7</ele><time>2024-06-15T02:44:19.000Z</time></trkpt><trkpt lat="40.017409" lon="116.383832"><ele>61.3</ele><time>2024-06-15T02:44:24.000Z</time></trkpt><trkpt lat="40.017688" lon="116.383922"><ele>62.8</ele><time>2024-06-15T02:44:38.000Z</time></trkpt><trkpt lat="40.017673" lon="116.383883"><ele>63.2</ele><time>2024-06-15T02:44:42.000Z</time></trkpt><trkpt lat="40.017414" lon="116.383808"><ele>64.0</ele><time>2024-06-15T02:44:54.000Z</time></trkpt><trkpt lat="40.017271" lon="116.383713"><ele>63.5</ele><time>2024-06-15T02:45:01.000Z</time></trkpt><trkpt lat="40.017194" lon="116.383618"><ele>63.5</ele><time>2024-06-15T02:45:05.000Z</time></trkpt><trkpt lat="40.017074" lon="116.383305"><ele>61.5</ele><time>2024-06-15T02:45:16.000Z</time></trkpt><trkpt lat="40.01692" lon="116.383025"><ele>60.6</ele><time>2024-06-15T02:45:25.000Z</time></trkpt><trkpt lat="40.016812" lon="116.382917"><ele>59.8</ele><time>2024-06-15T02:45:30.000Z</time></trkpt><trkpt lat="40.01665" lon="116.382857"><ele>58.0</ele><time>2024-06-15T02:45:36.000Z</time></trkpt><trkpt lat="40.01648" lon="116.382935"><ele>57.2</ele><time>2024-06-15T02:45:43.000Z</time></trkpt><trkpt lat="40.015922" lon="116.383447"><ele>54.2</ele><time>2024-06-15T02:46:07.000Z</time></trkpt><trkpt lat="40.015726" lon="116.38357"><ele>53.5</ele><time>2024-06-15T02:46:14.000Z</time></trkpt><trkpt lat="40.015611" lon="116.383595"><ele>52.8</ele><time>2024-06-15T02:46:18.000Z</time></trkpt><trkpt lat="40.015164" lon="116.3835"><ele>49.3</ele><time>2024-06-15T02:46:31.000Z</time></trkpt><trkpt lat="40.014864" lon="116.383617"><ele>48.0</ele><time>2024-06-15T02:46:40.000Z</time></trkpt><trkpt lat="40.014691" lon="116.383819"><ele>45.3</ele><time>2024-06-15T02:46:46.000Z</time></trkpt><trkpt lat="40.014553" lon="116.384108"><ele>43.8</ele><time>2024-06-15T02:46:55.000Z</time></trkpt></trkseg></trk></gpx>