<?xml version="1.0" encoding="UTF-8"?><gpx creator="Health" xsi:schemaLocation="http://www.topografix.com/GPX/1/0 http://www.topografix.com/GPX/1/0/gpx.xsd" version="1.0" xmlns="http://www.topografix.com/GPX/1/0" xmlns:xsi="http://www.w3.org/2001/XMLSchema-instance"><metadata><time>2024-06-10T00:01:47.000Z</time></metadata><trk><type>户外跑步</type><extensions><totalTime>4057.0</totalTime><cumulativeDecrease>1.600000023841858</cumulativeDecrease><cumulativeClimb>5.199999809265137</cumulativeClimb><totalDistance>10010.0</totalDistance></extensions><trkseg><trkpt lat="40.060846" lon="116.541717"><ele>24.7</ele><time>2024-06-10T00:01:47.000Z</time></trkpt><trkpt lat="40.060864" lon="116.54144"><ele>24.7</ele><time>2024-06-10T00:01:54.000Z</time></trkpt><trkpt lat="40.060815" lon="116.541212"><ele>24.7</ele><time>2024-06-10T00:01:59.000Z</time></trkpt><trkpt lat="40.060518" lon="116.540876"><ele>25.0</ele><time>2024-06-10T00:02:14.000Z</time></trkpt><trkpt lat="40.060423" lon="116.540671"><ele>25.1</ele><time>2024-06-10T00:02:22.000Z</time></trkpt><trkpt lat="40.060474" lon="116.540409"><ele>25.1</ele><time>2024-06-10T00:02:31.000Z</time></trkpt><trkpt lat="40.060838" lon="116.539992"><ele>25.6</ele><time>2024-06-10T00:02:52.000Z</time></trkpt><trkpt lat="40.060858" lon="116.53984"><ele>25.7</ele><time>2024-06-10T00:02:58.000Z</time></trkpt><trkpt lat="40.06081" lon="116.5397"><ele>25.9</ele><time>2024-06-10T00:03:02.000Z</time></trkpt><trkpt lat="40.060526" lon="116.539217"><ele>26.2</ele><time>2024-06-10T00:03:18.000Z</time></trkpt><trkpt lat="40.060117" lon="116.538619"><ele>25.7</ele><time>2024-06-10T00:03:40.000Z</time></trkpt><trkpt lat="40.060091" lon="116.538493"><ele>25.8</ele><time>2024-06-10T00:03:44.000Z</time></trkpt><trkpt lat="40.060128" lon="116.53839"><ele>25.8</ele><time>2024-06-10T00:03:47.000Z</time></trkpt><trkpt lat="40.060889" lon="116.537421"><ele>25.7</ele><time>2024-06-10T00:04:27.000Z</time></trkpt><trkpt lat="40.061689" lon="116.536507"><ele>25.7</ele><time>2024-06-10T00:05:07.000Z</time></trkpt><trkpt lat="40.062328" lon="116.535669"><ele>25.8</ele><time>2024-06-10T00:05:44.000Z</time></trkpt><trkpt lat="40.063849" lon="116.533882"><ele>25.9</ele><time>2024-06-10T00:07:06.000Z</time></trkpt><trkpt lat="40.064402" lon="116.533173"><ele>25.9</ele><time>2024-06-10T00:07:37.000Z</time></trkpt><trkpt lat="40.064868" lon="116.532673"><ele>26.0</ele><time>2024-06-10T00:08:01.000Z</time></trkpt><trkpt lat="40.066208" lon="116.531"><ele>25.9</ele><time>2024-06-10T00:09:12.000Z</time></trkpt><trkpt lat="40.066765" lon="116.530377"><ele>25.6</ele><time>2024-06-10T00:09:43.000Z</time></trkpt><trkpt lat="40.068404" lon="116.528115"><ele>26.0</ele><time>2024-06-10T00:11:28.000Z</time></trkpt><trkpt lat="40.068862" lon="116.527563"><ele>26.0</ele><time>2024-06-10T00:11:53.000Z</time></trkpt><trkpt lat="40.070218" lon="116.525643"><ele>25.6</ele><time>2024-06-10T00:13:18.000Z</time></trkpt><trkpt lat="40.070891" lon="116.524586"><ele>25.8</ele><time>2024-06-10T00:14:00.000Z</time></trkpt><trkpt lat="40.071518" lon="116.523733"><ele>26.0</ele><time>2024-06-10T00:14:39.000Z</time></trkpt><trkpt lat="40.071659" lon="116.523481"><ele>26.0</ele><time>2024-06-10T00:14:50.000Z</time></trkpt><trkpt lat="40.07198" lon="116.522672"><ele>26.0</ele><time>2024-06-10T00:15:20.000Z</time></trkpt><trkpt lat="40.072176" lon="116.521818"><ele>26.1</ele><time>2024-06-10T00:15:48.000Z</time></trkpt><trkpt lat="40.07223" lon="116.521305"><ele>26.1</ele><time>2024-06-10T00:16:05.000Z</time></trkpt><trkpt lat="40.072271" lon="116.520422"><ele>26.0</ele><time>2024-06-10T00:16:32.000Z</time></trkpt><trkpt lat="40.072255" lon="116.519716"><ele>26.0</ele><time>2024-06-10T00:16:56.000Z</time></trkpt><trkpt lat="40.072291" lon="116.518613"><ele>25.9</ele><time>2024-06-10T00:17:33.000Z</time></trkpt><trkpt lat="40.072287" lon="116.514303"><ele>25.8</ele><time>2024-06-10T00:19:58.000Z</time></trkpt><trkpt lat="40.072221" lon="116.51313"><ele>26.0</ele><time>2024-06-10T00:20:34.000Z</time></trkpt><trkpt lat="40.071956" lon="116.510672"><ele>26.2</ele><time>2024-06-10T00:21:54.000Z</time></trkpt><trkpt lat="40.071965" lon="116.510526"><ele>26.1</ele><time>2024-06-10T00:21:59.000Z</time></trkpt><trkpt lat="40.072016" lon="116.510468"><ele>26.1</ele><time>2024-06-10T00:22:03.000Z</time></trkpt><trkpt lat="40.072455" lon="116.510419"><ele>26.2</ele><time>2024-06-10T00:22:25.000Z</time></trkpt><trkpt lat="40.074144" lon="116.510437"><ele>26.4</ele><time>2024-06-10T00:23:45.000Z</time></trkpt><trkpt lat="40.075044" lon="116.510406"><ele>26.8</ele><time>2024-06-10T00:24:29.000Z</time></trkpt><trkpt lat="40.07561" lon="116.510452"><ele>27.1</ele><time>2024-06-10T00:24:57.000Z</time></trkpt><trkpt lat="40.076777" lon="116.510431"><ele>27.4</ele><time>2024-06-10T00:25:53.000Z</time></trkpt><trkpt lat="40.07781" lon="116.51046"><ele>27.2</ele><time>2024-06-10T00:26:39.000Z</time></trkpt><trkpt lat="40.078429" lon="116.510425"><ele>27.0</ele><time>2024-06-10T00:27:09.000Z</time></trkpt><trkpt lat="40.079822" lon="116.510474"><ele>27.2</ele><time>2024-06-10T00:28:16.000Z</time></trkpt><trkpt lat="40.079939" lon="116.510532"><ele>27.2</ele><time>2024-06-10T00:28:22.000Z</time></trkpt><trkpt lat="40.079958" lon="116.511449"><ele>26.9</ele><time>2024-06-10T00:28:58.000Z</time></trkpt><trkpt lat="40.079826" lon="116.523354"><ele>25.6</ele><time>2024-06-10T00:39:33.000Z</time></trkpt><trkpt lat="40.079849" lon="116.524186"><ele>25.8</ele><time>2024-06-10T00:40:06.000Z</time></trkpt><trkpt lat="40.079805" lon="116.524828"><ele>26.0</ele><time>2024-06-10T00:40:30.000Z</time></trkpt><trkpt lat="40.07982" lon="116.525391"><ele>26.3</ele><time>2024-06-10T00:40:51.000Z</time></trkpt><trkpt lat="40.079791" lon="116.526967"><ele>25.8</ele><time>2024-06-10T00:41:47.000Z</time></trkpt><trkpt lat="40.079714" lon="116.527093"><ele>25.7</ele><time>2024-06-10T00:41:54.000Z</time></trkpt><trkpt lat="40.078915" lon="116.527868"><ele>25.4</ele><time>2024-06-10T00:42:38.000Z</time></trkpt><trkpt lat="40.07807" lon="116.528609"><ele>25.2</ele><time>2024-06-10T00:43:27.000Z</time></trkpt><trkpt lat="40.077345" lon="116.529336"><ele>25.7</ele><time>2024-06-10T00:44:10.000Z</time></trkpt><trkpt lat="40.076607" lon="116.52997"><ele>25.6</ele><time>2024-06-10T00:44:53.000Z</time></trkpt><trkpt lat="40.075845" lon="116.530714"><ele>25.4</ele><time>2024-06-10T00:45:40.000Z</time></trkpt><trkpt lat="40.075189" lon="116.531275"><ele>25.3</ele><time>2024-06-10T00:46:18.000Z</time></trkpt><trkpt lat="40.073522" lon="116.532882"><ele>25.9</ele><time>2024-06-10T00:47:57.000Z</time></trkpt><trkpt lat="40.072721" lon="116.53359"><ele>25.8</ele><time>2024-06-10T00:48:46.000Z</time></trkpt><trkpt lat="40.072028" lon="116.534292"><ele>25.3</ele><time>2024-06-10T00:49:30.000Z</time></trkpt><trkpt lat="40.071872" lon="116.534394"><ele>25.3</ele><time>2024-06-10T00:49:39.000Z</time></trkpt><trkpt lat="40.071569" lon="116.534687"><ele>25.4</ele><time>2024-06-10T00:49:57.000Z</time></trkpt><trkpt lat="40.071057" lon="116.535103"><ele>25.7</ele><time>2024-06-10T00:50:28.000Z</time></trkpt><trkpt lat="40.069986" lon="116.536169"><ele>26.4</ele><time>2024-06-10T00:52:29.000Z</time></trkpt><trkpt lat="40.069779" lon="116.536321"><ele>26.2</ele><time>2024-06-10T00:52:40.000Z</time></trkpt><trkpt lat="40.067967" lon="116.53805"><ele>25.8</ele><time>2024-06-10T00:54:25.000Z</time></trkpt><trkpt lat="40.067317" lon="116.53892"><ele>26.1</ele><time>2024-06-10T00:55:07.000Z</time></trkpt><trkpt lat="40.066958" lon="116.539568"><ele>26.5</ele><time>2024-06-10T00:55:37.000Z</time></trkpt><trkpt lat="40.066714" lon="116.540195"><ele>26.5</ele><time>2024-06-10T00:56:05.000Z</time></trkpt><trkpt lat="40.066037" lon="116.542531"><ele>26.7</ele><time>2024-06-10T00:57:40.000Z</time></trkpt><trkpt lat="40.065946" lon="116.542658"><ele>26.6</ele><time>2024-06-10T00:57:47.000Z</time></trkpt><trkpt lat="40.06539" lon="116.542696"><ele>26.6</ele><time>2024-06-10T00:58:15.000Z</time></trkpt><trkpt lat="40.063985" lon="116.542502"><ele>26.4</ele><time>2024-06-10T00:59:17.000Z</time></trkpt><trkpt lat="40.063327" lon="116.542473"><ele>26.2</ele><time>2024-06-10T00:59:47.000Z</time></trkpt><trkpt lat="40.062885" lon="116.54232"><ele>26.2</ele><time>2024-06-10T01:00:11.000Z</time></trkpt><trkpt lat="40.062666" lon="116.542139"><ele>26.0</ele><time>2024-06-10T01:00:23.000Z</time></trkpt><trkpt lat="40.062455" lon="116.541889"><ele>26.0</ele><time>2024-06-10T01:00:37.000Z</time></trkpt><trkpt lat="40.061544" lon="116.540592"><ele>26.1</ele><time>2024-06-10T01:01:40.000Z</time></trkpt><trkpt lat="40.060886" lon="116.539758"><ele>26.8</ele><time>2024-06-10T01:02:22.000Z</time></trkpt><trkpt lat="40.060171" lon="116.538672"><ele>26.8</ele><time>2024-06-10T01:03:12.000Z</time></trkpt><trkpt lat="40.060111" lon="116.538497"><ele>26.8</ele><time>2024-06-10T01:03:19.000Z</time></trkpt><trkpt lat="40.060136" lon="116.538366"><ele>26.7</ele><time>2024-06-10T01:03:24.000Z</time></trkpt><trkpt lat="40.060371" lon="116.538005"><ele>26.7</ele><time>2024-06-10T01:03:39.000Z</time></trkpt><trkpt lat="40.060687" lon="116.537701"><ele>26.8</ele><time>2024-06-10T01:03:59.000Z</time></trkpt><trkpt lat="40.061857" lon="116.536237"><ele>27.1</ele><time>2024-06-10T01:05:17.000Z</time></trkpt><trkpt lat="40.062085" lon="116.536006"><ele>27.2</ele><time>2024-06-10T01:05:31.000Z</time></trkpt><trkpt lat="40.064035" lon="116.533609"><ele>27.4</ele><time>2024-06-10T01:07:47.000Z</time></trkpt><trkpt lat="40.065086" lon="116.532394"><ele>27.5</ele><time>2024-06-10T01:08:54.000Z</time></trkpt><trkpt lat="40.06518" lon="116.532342"><ele>27.6</ele><time>2024-06-10T01:08:59.000Z</time></trkpt><trkpt lat="40.065319" lon="116.532377"><ele>27.7</ele><time>2024-06-10T01:09:06.000Z</time></trkpt><trkpt lat="40.067226" lon="116.533764"><ele>27.2</ele><time>2024-06-10T01:10:50.000Z</time></trkpt><trkpt lat="40.068843" lon="116.534994"><ele>27.3</ele><time>2024-06-10T01:12:23.000Z</time></trkpt><trkpt lat="40.069391" lon="116.535363"><ele>27.4</ele><time>2024-06-10T01:12:54.000Z</time></trkpt><trkpt lat="40.069691" lon="116.535658"><ele>27.4</ele><time>2024-06-10T01:13:12.000Z</time></trkpt><trkpt lat="40.070006" lon="116.535882"><ele>27.4</ele><time>2024-06-10T01:13:29.000Z</time></trkpt><trkpt lat="40.070097" lon="116.536021"><ele>27.4</ele><time>2024-06-10T01:13:35.000Z</time></trkpt><trkpt lat="40.070054" lon="116.536104"><ele>27.4</ele><time>2024-06-10T01:13:39.000Z</time></trkpt><trkpt lat="40.068596" lon="116.53743"><ele>27.3</ele><time>2024-06-10T01:14:52.000Z</time></trkpt><trkpt lat="40.067986" lon="116.538048"><ele>27.0</ele><time>2024-06-10T01:15:30.000Z</time></trkpt><trkpt lat="40.067528" lon="116.538615"><ele>26.7</ele><time>2024-06-10T01:15:57.000Z</time></trkpt><trkpt lat="40.067215" lon="116.539117"><ele>26.5</ele><time>2024-06-10T01:16:18.000Z</time></trkpt><trkpt lat="40.067018" lon="116.539499"><ele>26.5</ele><time>2024-06-10T01:16:33.000Z</time></trkpt></trkseg></trk></gpx>