<?xml version="1.0" encoding="UTF-8"?><gpx creator="Health" xsi:schemaLocation="http://www.topografix.com/GPX/1/0 http://www.topografix.com/GPX/1/0/gpx.xsd" version="1.0" xmlns="http://www.topografix.com/GPX/1/0" xmlns:xsi="http://www.w3.org/2001/XMLSchema-instance"><metadata><time>2024-04-27T06:58:12.000Z</time></metadata><trk><type>户外跑步</type><extensions><totalTime>9335.0</totalTime><cumulativeDecrease>146.10000610351562</cumulativeDecrease><cumulativeClimb>147.3000030517578</cumulativeClimb><totalDistance>25970.0</totalDistance></extensions><trkseg><trkpt lat="40.010249" lon="116.385572"><ele>34.4</ele><time>2024-04-27T06:58:12.000Z</time></trkpt><trkpt lat="40.010234" lon="116.385614"><ele>34.4</ele><time>2024-04-27T06:58:13.000Z</time></trkpt><trkpt lat="40.010271" lon="116.385706"><ele>34.4</ele><time>2024-04-27T06:58:14.000Z</time></trkpt><trkpt lat="40.010235" lon="116.385874"><ele>34.4</ele><time>2024-04-27T06:58:18.000Z</time></trkpt><trkpt lat="40.01023" lon="116.386093"><ele>34.6</ele><time>2024-04-27T06:58:23.000Z</time></trkpt><trkpt lat="40.01032" lon="116.387032"><ele>35.0</ele><time>2024-04-27T06:58:44.000Z</time></trkpt><trkpt lat="40.010465" lon="116.387449"><ele>34.7</ele><time>2024-04-27T06:58:55.000Z</time></trkpt><trkpt lat="40.010632" lon="116.387719"><ele>34.7</ele><time>2024-04-27T06:59:03.000Z</time></trkpt><trkpt lat="40.010622" lon="116.387825"><ele>33.6</ele><time>2024-04-27T07:00:54.000Z</time></trkpt><trkpt lat="40.010718" lon="116.388186"><ele>32.4</ele><time>2024-04-27T07:01:03.000Z</time></trkpt><trkpt lat="40.010712" lon="116.388422"><ele>31.9</ele><time>2024-04-27T07:01:08.000Z</time></trkpt><trkpt lat="40.010626" lon="116.388889"><ele>31.9</ele><time>2024-04-27T07:01:18.000Z</time></trkpt><trkpt lat="40.010649" lon="116.389521"><ele>32.1</ele><time>2024-04-27T07:01:31.000Z</time></trkpt><trkpt lat="40.010628" lon="116.389824"><ele>32.2</ele><time>2024-04-27T07:01:37.000Z</time></trkpt><trkpt lat="40.010407" lon="116.390545"><ele>31.8</ele><time>2024-04-27T07:01:54.000Z</time></trkpt><trkpt lat="40.010269" lon="116.390709"><ele>32.0</ele><time>2024-04-27T07:02:00.000Z</time></trkpt><trkpt lat="40.010101" lon="116.390725"><ele>32.2</ele><time>2024-04-27T07:02:05.000Z</time></trkpt><trkpt lat="40.009967" lon="116.390684"><ele>32.1</ele><time>2024-04-27T07:02:09.000Z</time></trkpt><trkpt lat="40.00985" lon="116.390587"><ele>31.9</ele><time>2024-04-27T07:02:13.000Z</time></trkpt><trkpt lat="40.009743" lon="116.390356"><ele>31.8</ele><time>2024-04-27T07:02:20.000Z</time></trkpt><trkpt lat="40.009623" lon="116.390291"><ele>31.8</ele><time>2024-04-27T07:02:24.000Z</time></trkpt><trkpt lat="40.009543" lon="116.390289"><ele>31.8</ele><time>2024-04-27T07:02:26.000Z</time></trkpt><trkpt lat="40.009275" lon="116.390426"><ele>31.7</ele><time>2024-04-27T07:02:34.000Z</time></trkpt><trkpt lat="40.009051" lon="116.390481"><ele>31.4</ele><time>2024-04-27T07:02:41.000Z</time></trkpt><trkpt lat="40.008979" lon="116.390591"><ele>31.4</ele><time>2024-04-27T07:02:44.000Z</time></trkpt><trkpt lat="40.008969" lon="116.390743"><ele>31.2</ele><time>2024-04-27T07:02:47.000Z</time></trkpt><trkpt lat="40.009021" lon="116.390955"><ele>31.1</ele><time>2024-04-27T07:02:52.000Z</time></trkpt><trkpt lat="40.009466" lon="116.392101"><ele>29.6</ele><time>2024-04-27T07:03:23.000Z</time></trkpt><trkpt lat="40.009485" lon="116.392211"><ele>29.4</ele><time>2024-04-27T07:03:26.000Z</time></trkpt><trkpt lat="40.009456" lon="116.392413"><ele>29.2</ele><time>2024-04-27T07:03:32.000Z</time></trkpt><trkpt lat="40.009538" lon="116.392645"><ele>29.1</ele><time>2024-04-27T07:03:39.000Z</time></trkpt><trkpt lat="40.009698" lon="116.392851"><ele>29.0</ele><time>2024-04-27T07:03:48.000Z</time></trkpt><trkpt lat="40.010038" lon="116.393033"><ele>29.0</ele><time>2024-04-27T07:04:00.000Z</time></trkpt><trkpt lat="40.010527" lon="116.393388"><ele>28.8</ele><time>2024-04-27T07:04:18.000Z</time></trkpt><trkpt lat="40.01087" lon="116.393507"><ele>28.7</ele><time>2024-04-27T07:04:29.000Z</time></trkpt><trkpt lat="40.01142" lon="116.393522"><ele>28.2</ele><time>2024-04-27T07:04:45.000Z</time></trkpt><trkpt lat="40.011727" lon="116.393575"><ele>27.8</ele><time>2024-04-27T07:04:55.000Z</time></trkpt><trkpt lat="40.01321" lon="116.393577"><ele>28.0</ele><time>2024-04-27T07:05:40.000Z</time></trkpt><trkpt lat="40.014314" lon="116.393693"><ele>28.0</ele><time>2024-04-27T07:06:17.000Z</time></trkpt><trkpt lat="40.014467" lon="116.393648"><ele>28.0</ele><time>2024-04-27T07:06:22.000Z</time></trkpt><trkpt lat="40.014779" lon="116.393475"><ele>28.0</ele><time>2024-04-27T07:06:33.000Z</time></trkpt><trkpt lat="40.015035" lon="116.39325"><ele>28.0</ele><time>2024-04-27T07:06:44.000Z</time></trkpt><trkpt lat="40.01519" lon="116.392999"><ele>28.0</ele><time>2024-04-27T07:06:52.000Z</time></trkpt><trkpt lat="40.015373" lon="116.392803"><ele>28.0</ele><time>2024-04-27T07:07:00.000Z</time></trkpt><trkpt lat="40.015693" lon="116.392586"><ele>28.4</ele><time>2024-04-27T07:07:15.000Z</time></trkpt><trkpt lat="40.015875" lon="116.392543"><ele>28.7</ele><time>2024-04-27T07:07:21.000Z</time></trkpt><trkpt lat="40.016233" lon="116.392663"><ele>29.1</ele><time>2024-04-27T07:07:32.000Z</time></trkpt><trkpt lat="40.016407" lon="116.392838"><ele>28.8</ele><time>2024-04-27T07:07:39.000Z</time></trkpt><trkpt lat="40.017129" lon="116.393868"><ele>28.0</ele><time>2024-04-27T07:08:15.000Z</time></trkpt><trkpt lat="40.017334" lon="116.394015"><ele>28.0</ele><time>2024-04-27T07:08:23.000Z</time></trkpt><trkpt lat="40.017666" lon="116.394063"><ele>28.1</ele><time>2024-04-27T07:08:34.000Z</time></trkpt><trkpt lat="40.017825" lon="116.39404"><ele>28.2</ele><time>2024-04-27T07:08:40.000Z</time></trkpt><trkpt lat="40.018335" lon="116.393748"><ele>28.2</ele><time>2024-04-27T07:08:59.000Z</time></trkpt><trkpt lat="40.018704" lon="116.393362"><ele>28.5</ele><time>2024-04-27T07:09:17.000Z</time></trkpt><trkpt lat="40.01886" lon="116.393295"><ele>28.9</ele><time>2024-04-27T07:09:23.000Z</time></trkpt><trkpt lat="40.019289" lon="116.393217"><ele>30.5</ele><time>2024-04-27T07:09:38.000Z</time></trkpt><trkpt lat="40.019628" lon="116.392168"><ele>29.3</ele><time>2024-04-27T07:10:08.000Z</time></trkpt><trkpt lat="40.019708" lon="116.392006"><ele>28.9</ele><time>2024-04-27T07:10:13.000Z</time></trkpt><trkpt lat="40.019853" lon="116.391391"><ele>28.6</ele><time>2024-04-27T07:10:29.000Z</time></trkpt><trkpt lat="40.020026" lon="116.390861"><ele>28.4</ele><time>2024-04-27T07:10:44.000Z</time></trkpt><trkpt lat="40.020166" lon="116.390566"><ele>28.4</ele><time>2024-04-27T07:10:54.000Z</time></trkpt><trkpt lat="40.020364" lon="116.389837"><ele>30.0</ele><time>2024-04-27T07:11:21.000Z</time></trkpt><trkpt lat="40.020344" lon="116.389514"><ele>30.3</ele><time>2024-04-27T07:11:32.000Z</time></trkpt><trkpt lat="40.020278" lon="116.389148"><ele>30.1</ele><time>2024-04-27T07:11:42.000Z</time></trkpt><trkpt lat="40.020347" lon="116.388469"><ele>28.5</ele><time>2024-04-27T07:11:59.000Z</time></trkpt><trkpt lat="40.020337" lon="116.388077"><ele>28.4</ele><time>2024-04-27T07:12:10.000Z</time></trkpt><trkpt lat="40.02028" lon="116.387535"><ele>28.9</ele><time>2024-04-27T07:12:24.000Z</time></trkpt><trkpt lat="40.020155" lon="116.387074"><ele>29.3</ele><time>2024-04-27T07:12:37.000Z</time></trkpt><trkpt lat="40.020071" lon="116.386593"><ele>29.7</ele><time>2024-04-27T07:12:50.000Z</time></trkpt><trkpt lat="40.020068" lon="116.386367"><ele>29.9</ele><time>2024-04-27T07:12:56.000Z</time></trkpt><trkpt lat="40.020381" lon="116.386171"><ele>31.4</ele><time>2024-04-27T07:13:10.000Z</time></trkpt><trkpt lat="40.020613" lon="116.385911"><ele>33.4</ele><time>2024-04-27T07:13:23.000Z</time></trkpt><trkpt lat="40.020747" lon="116.385809"><ele>35.3</ele><time>2024-04-27T07:13:30.000Z</time></trkpt><trkpt lat="40.02113" lon="116.385777"><ele>37.0</ele><time>2024-04-27T07:13:45.000Z</time></trkpt><trkpt lat="40.021343" lon="116.385719"><ele>37.7</ele><time>2024-04-27T07:13:54.000Z</time></trkpt><trkpt lat="40.021827" lon="116.385882"><ele>38.5</ele><time>2024-04-27T07:14:11.000Z</time></trkpt><trkpt lat="40.022398" lon="116.385891"><ele>36.8</ele><time>2024-04-27T07:14:27.000Z</time></trkpt><trkpt lat="40.022691" lon="116.386228"><ele>33.8</ele><time>2024-04-27T07:14:39.000Z</time></trkpt><trkpt lat="40.023278" lon="116.386117"><ele>29.9</ele><time>2024-04-27T07:15:00.000Z</time></trkpt><trkpt lat="40.024106" lon="116.386158"><ele>30.0</ele><time>2024-04-27T07:15:31.000Z</time></trkpt><trkpt lat="40.024308" lon="116.386282"><ele>30.0</ele><time>2024-04-27T07:15:39.000Z</time></trkpt><trkpt lat="40.024381" lon="116.386379"><ele>30.0</ele><time>2024-04-27T07:15:43.000Z</time></trkpt><trkpt lat="40.024458" lon="116.386832"><ele>29.2</ele><time>2024-04-27T07:15:56.000Z</time></trkpt><trkpt lat="40.024504" lon="116.387687"><ele>28.9</ele><time>2024-04-27T07:16:19.000Z</time></trkpt><trkpt lat="40.024617" lon="116.38845"><ele>28.8</ele><time>2024-04-27T07:16:40.000Z</time></trkpt><trkpt lat="40.024652" lon="116.389062"><ele>29.1</ele><time>2024-04-27T07:16:58.000Z</time></trkpt><trkpt lat="40.024791" lon="116.389861"><ele>28.6</ele><time>2024-04-27T07:17:22.000Z</time></trkpt><trkpt lat="40.024925" lon="116.390872"><ele>28.4</ele><time>2024-04-27T07:17:52.000Z</time></trkpt><trkpt lat="40.024948" lon="116.391269"><ele>28.6</ele><time>2024-04-27T07:18:04.000Z</time></trkpt><trkpt lat="40.025086" lon="116.392142"><ele>28.4</ele><time>2024-04-27T07:18:30.000Z</time></trkpt><trkpt lat="40.025173" lon="116.393073"><ele>28.4</ele><time>2024-04-27T07:18:56.000Z</time></trkpt><trkpt lat="40.025287" lon="116.393733"><ele>28.3</ele><time>2024-04-27T07:19:15.000Z</time></trkpt><trkpt lat="40.02536" lon="116.394538"><ele>28.0</ele><time>2024-04-27T07:19:40.000Z</time></trkpt><trkpt lat="40.025439" lon="116.394823"><ele>28.0</ele><time>2024-04-27T07:19:49.000Z</time></trkpt><trkpt lat="40.025519" lon="116.394883"><ele>27.9</ele><time>2024-04-27T07:19:53.000Z</time></trkpt><trkpt lat="40.025707" lon="116.394898"><ele>27.8</ele><time>2024-04-27T07:20:01.000Z</time></trkpt><trkpt lat="40.026332" lon="116.394653"><ele>28.1</ele><time>2024-04-27T07:20:24.000Z</time></trkpt><trkpt lat="40.026589" lon="116.394603"><ele>28.1</ele><time>2024-04-27T07:20:33.000Z</time></trkpt><trkpt lat="40.027099" lon="116.394311"><ele>27.7</ele><time>2024-04-27T07:20:54.000Z</time></trkpt><trkpt lat="40.027297" lon="116.39416"><ele>27.7</ele><time>2024-04-27T07:21:02.000Z</time></trkpt><trkpt lat="40.027498" lon="116.39394"><ele>27.7</ele><time>2024-04-27T07:21:10.000Z</time></trkpt><trkpt lat="40.027687" lon="116.393645"><ele>27.7</ele><time>2024-04-27T07:21:21.000Z</time></trkpt><trkpt lat="40.02776" lon="116.39301"><ele>27.8</ele><time>2024-04-27T07:21:39.000Z</time></trkpt><trkpt lat="40.027568" lon="116.391798"><ele>27.8</ele><time>2024-04-27T07:22:13.000Z</time></trkpt><trkpt lat="40.027293" lon="116.390984"><ele>28.2</ele><time>2024-04-27T07:22:40.000Z</time></trkpt><trkpt lat="40.027296" lon="116.390836"><ele>28.2</ele><time>2024-04-27T07:22:44.000Z</time></trkpt><trkpt lat="40.027408" lon="116.390206"><ele>28.5</ele><time>2024-04-27T07:23:02.000Z</time></trkpt><trkpt lat="40.027639" lon="116.389358"><ele>29.0</ele><time>2024-04-27T07:23:27.000Z</time></trkpt><trkpt lat="40.027849" lon="116.388849"><ele>29.0</ele><time>2024-04-27T07:23:42.000Z</time></trkpt><trkpt lat="40.028228" lon="116.388158"><ele>29.0</ele><time>2024-04-27T07:24:08.000Z</time></trkpt><trkpt lat="40.028428" lon="116.387888"><ele>29.0</ele><time>2024-04-27T07:24:20.000Z</time></trkpt><trkpt lat="40.028737" lon="116.387232"><ele>28.8</ele><time>2024-04-27T07:24:43.000Z</time></trkpt><trkpt lat="40.028995" lon="116.387026"><ele>29.4</ele><time>2024-04-27T07:24:54.000Z</time></trkpt><trkpt lat="40.029165" lon="116.386714"><ele>29.6</ele><time>2024-04-27T07:25:04.000Z</time></trkpt><trkpt lat="40.029501" lon="116.385436"><ele>30.7</ele><time>2024-04-27T07:25:41.000Z</time></trkpt><trkpt lat="40.029552" lon="116.385096"><ele>30.3</ele><time>2024-04-27T07:25:50.000Z</time></trkpt><trkpt lat="40.029546" lon="116.384602"><ele>30.0</ele><time>2024-04-27T07:26:03.000Z</time></trkpt><trkpt lat="40.029441" lon="116.383682"><ele>29.9</ele><time>2024-04-27T07:26:31.000Z</time></trkpt><trkpt lat="40.029435" lon="116.383312"><ele>30.1</ele><time>2024-04-27T07:26:41.000Z</time></trkpt><trkpt lat="40.029322" lon="116.381899"><ele>29.9</ele><time>2024-04-27T07:27:23.000Z</time></trkpt><trkpt lat="40.029323" lon="116.380572"><ele>29.8</ele><time>2024-04-27T07:28:00.000Z</time></trkpt><trkpt lat="40.029296" lon="116.380144"><ele>29.7</ele><time>2024-04-27T07:28:14.000Z</time></trkpt><trkpt lat="40.02925" lon="116.37989"><ele>29.7</ele><time>2024-04-27T07:28:22.000Z</time></trkpt><trkpt lat="40.029213" lon="116.377872"><ele>30.1</ele><time>2024-04-27T07:29:23.000Z</time></trkpt><trkpt lat="40.028986" lon="116.377039"><ele>30.4</ele><time>2024-04-27T07:29:53.000Z</time></trkpt><trkpt lat="40.028917" lon="116.376503"><ele>31.2</ele><time>2024-04-27T07:30:10.000Z</time></trkpt><trkpt lat="40.028899" lon="116.376187"><ele>31.1</ele><time>2024-04-27T07:30:19.000Z</time></trkpt><trkpt lat="40.028961" lon="116.375437"><ele>30.7</ele><time>2024-04-27T07:30:40.000Z</time></trkpt><trkpt lat="40.028951" lon="116.374548"><ele>30.2</ele><time>2024-04-27T07:31:06.000Z</time></trkpt><trkpt lat="40.028799" lon="116.373414"><ele>30.8</ele><time>2024-04-27T07:31:40.000Z</time></trkpt><trkpt lat="40.028595" lon="116.372412"><ele>32.4</ele><time>2024-04-27T07:32:12.000Z</time></trkpt><trkpt lat="40.02837" lon="116.371987"><ele>33.2</ele><time>2024-04-27T07:32:29.000Z</time></trkpt><trkpt lat="40.028012" lon="116.371434"><ele>34.4</ele><time>2024-04-27T07:32:50.000Z</time></trkpt><trkpt lat="40.027635" lon="116.37109"><ele>33.4</ele><time>2024-04-27T07:33:06.000Z</time></trkpt><trkpt lat="40.027249" lon="116.370886"><ele>32.4</ele><time>2024-04-27T07:33:24.000Z</time></trkpt><trkpt lat="40.026538" lon="116.370709"><ele>31.8</ele><time>2024-04-27T07:33:54.000Z</time></trkpt><trkpt lat="40.026473" lon="116.370715"><ele>31.8</ele><time>2024-04-27T07:33:57.000Z</time></trkpt><trkpt lat="40.026283" lon="116.370956"><ele>31.4</ele><time>2024-04-27T07:34:07.000Z</time></trkpt><trkpt lat="40.025865" lon="116.371257"><ele>31.0</ele><time>2024-04-27T07:34:26.000Z</time></trkpt><trkpt lat="40.025005" lon="116.371589"><ele>30.7</ele><time>2024-04-27T07:35:00.000Z</time></trkpt><trkpt lat="40.024872" lon="116.371684"><ele>30.9</ele><time>2024-04-27T07:35:06.000Z</time></trkpt><trkpt lat="40.024832" lon="116.371786"><ele>30.9</ele><time>2024-04-27T07:35:09.000Z</time></trkpt><trkpt lat="40.024819" lon="116.371954"><ele>31.3</ele><time>2024-04-27T07:35:15.000Z</time></trkpt><trkpt lat="40.024894" lon="116.372667"><ele>31.7</ele><time>2024-04-27T07:35:38.000Z</time></trkpt><trkpt lat="40.02486" lon="116.373055"><ele>31.0</ele><time>2024-04-27T07:35:50.000Z</time></trkpt><trkpt lat="40.024928" lon="116.373997"><ele>30.2</ele><time>2024-04-27T07:36:17.000Z</time></trkpt><trkpt lat="40.025056" lon="116.37497"><ele>29.7</ele><time>2024-04-27T07:36:41.000Z</time></trkpt><trkpt lat="40.02508" lon="116.375534"><ele>29.5</ele><time>2024-04-27T07:36:55.000Z</time></trkpt><trkpt lat="40.025066" lon="116.37615"><ele>29.5</ele><time>2024-04-27T07:37:11.000Z</time></trkpt><trkpt lat="40.025118" lon="116.376918"><ele>29.7</ele><time>2024-04-27T07:37:31.000Z</time></trkpt><trkpt lat="40.025053" lon="116.377209"><ele>29.8</ele><time>2024-04-27T07:37:39.000Z</time></trkpt><trkpt lat="40.025126" lon="116.377639"><ele>29.7</ele><time>2024-04-27T07:37:53.000Z</time></trkpt><trkpt lat="40.025131" lon="116.377896"><ele>29.5</ele><time>2024-04-27T07:38:01.000Z</time></trkpt><trkpt lat="40.025098" lon="116.378923"><ele>28.2</ele><time>2024-04-27T07:38:31.000Z</time></trkpt><trkpt lat="40.025028" lon="116.37922"><ele>27.9</ele><time>2024-04-27T07:38:40.000Z</time></trkpt><trkpt lat="40.024842" lon="116.379631"><ele>28.0</ele><time>2024-04-27T07:38:57.000Z</time></trkpt><trkpt lat="40.024568" lon="116.380433"><ele>28.0</ele><time>2024-04-27T07:39:24.000Z</time></trkpt><trkpt lat="40.024376" lon="116.380515"><ele>28.1</ele><time>2024-04-27T07:39:34.000Z</time></trkpt><trkpt lat="40.024086" lon="116.38046"><ele>28.0</ele><time>2024-04-27T07:39:47.000Z</time></trkpt><trkpt lat="40.023565" lon="116.380478"><ele>28.1</ele><time>2024-04-27T07:40:07.000Z</time></trkpt><trkpt lat="40.023258" lon="116.380658"><ele>28.6</ele><time>2024-04-27T07:40:20.000Z</time></trkpt><trkpt lat="40.023128" lon="116.380825"><ele>28.7</ele><time>2024-04-27T07:40:27.000Z</time></trkpt><trkpt lat="40.023018" lon="116.381049"><ele>29.0</ele><time>2024-04-27T07:40:35.000Z</time></trkpt><trkpt lat="40.022904" lon="116.381733"><ele>29.5</ele><time>2024-04-27T07:40:57.000Z</time></trkpt><trkpt lat="40.022801" lon="116.381888"><ele>29.6</ele><time>2024-04-27T07:41:04.000Z</time></trkpt><trkpt lat="40.022405" lon="116.382287"><ele>29.8</ele><time>2024-04-27T07:41:26.000Z</time></trkpt><trkpt lat="40.02221" lon="116.382623"><ele>29.8</ele><time>2024-04-27T07:41:40.000Z</time></trkpt><trkpt lat="40.022122" lon="116.382964"><ele>29.8</ele><time>2024-04-27T07:41:52.000Z</time></trkpt><trkpt lat="40.022128" lon="116.383515"><ele>29.8</ele><time>2024-04-27T07:42:09.000Z</time></trkpt><trkpt lat="40.022178" lon="116.383715"><ele>29.8</ele><time>2024-04-27T07:42:16.000Z</time></trkpt><trkpt lat="40.02232" lon="116.38392"><ele>29.8</ele><time>2024-04-27T07:42:26.000Z</time></trkpt><trkpt lat="40.022421" lon="116.384308"><ele>29.9</ele><time>2024-04-27T07:42:38.000Z</time></trkpt><trkpt lat="40.022446" lon="116.384566"><ele>30.1</ele><time>2024-04-27T07:42:46.000Z</time></trkpt><trkpt lat="40.022361" lon="116.38526"><ele>30.4</ele><time>2024-04-27T07:43:07.000Z</time></trkpt><trkpt lat="40.022395" lon="116.385707"><ele>31.4</ele><time>2024-04-27T07:43:21.000Z</time></trkpt><trkpt lat="40.022372" lon="116.385769"><ele>31.4</ele><time>2024-04-27T07:43:23.000Z</time></trkpt><trkpt lat="40.022255" lon="116.385834"><ele>31.6</ele><time>2024-04-27T07:43:28.000Z</time></trkpt><trkpt lat="40.02207" lon="116.385844"><ele>31.7</ele><time>2024-04-27T07:43:37.000Z</time></trkpt><trkpt lat="40.021407" lon="116.38565"><ele>37.4</ele><time>2024-04-27T07:44:12.000Z</time></trkpt><trkpt lat="40.021135" lon="116.385699"><ele>38.6</ele><time>2024-04-27T07:44:24.000Z</time></trkpt><trkpt lat="40.020872" lon="116.385682"><ele>38.9</ele><time>2024-04-27T07:44:36.000Z</time></trkpt><trkpt lat="40.020655" lon="116.38573"><ele>38.6</ele><time>2024-04-27T07:44:45.000Z</time></trkpt><trkpt lat="40.020337" lon="116.385543"><ele>37.4</ele><time>2024-04-27T07:44:59.000Z</time></trkpt><trkpt lat="40.02" lon="116.385193"><ele>34.8</ele><time>2024-04-27T07:45:12.000Z</time></trkpt><trkpt lat="40.019975" lon="116.38511"><ele>34.8</ele><time>2024-04-27T07:45:14.000Z</time></trkpt><trkpt lat="40.020017" lon="116.384245"><ele>29.8</ele><time>2024-04-27T07:45:39.000Z</time></trkpt><trkpt lat="40.020124" lon="116.383528"><ele>29.1</ele><time>2024-04-27T07:46:01.000Z</time></trkpt><trkpt lat="40.020284" lon="116.382991"><ele>29.1</ele><time>2024-04-27T07:46:19.000Z</time></trkpt><trkpt lat="40.020302" lon="116.382693"><ele>28.9</ele><time>2024-04-27T07:46:29.000Z</time></trkpt><trkpt lat="40.020273" lon="116.382173"><ele>28.7</ele><time>2024-04-27T07:46:46.000Z</time></trkpt><trkpt lat="40.020209" lon="116.381786"><ele>29.3</ele><time>2024-04-27T07:46:59.000Z</time></trkpt><trkpt lat="40.020105" lon="116.38139"><ele>30.0</ele><time>2024-04-27T07:47:11.000Z</time></trkpt><trkpt lat="40.0197" lon="116.380676"><ele>30.2</ele><time>2024-04-27T07:47:41.000Z</time></trkpt><trkpt lat="40.01919" lon="116.380227"><ele>33.5</ele><time>2024-04-27T07:48:09.000Z</time></trkpt><trkpt lat="40.018684" lon="116.379384"><ele>35.6</ele><time>2024-04-27T07:48:43.000Z</time></trkpt><trkpt lat="40.018532" lon="116.378914"><ele>34.5</ele><time>2024-04-27T07:48:58.000Z</time></trkpt><trkpt lat="40.018353" lon="116.377781"><ele>34.2</ele><time>2024-04-27T07:49:34.000Z</time></trkpt><trkpt lat="40.018233" lon="116.377214"><ele>33.6</ele><time>2024-04-27T07:49:51.000Z</time></trkpt><trkpt lat="40.01806" lon="116.376722"><ele>33.3</ele><time>2024-04-27T07:50:09.000Z</time></trkpt><trkpt lat="40.017818" lon="116.37629"><ele>33.3</ele><time>2024-04-27T07:50:23.000Z</time></trkpt><trkpt lat="40.017295" lon="116.375639"><ele>34.4</ele><time>2024-04-27T07:50:47.000Z</time></trkpt><trkpt lat="40.017014" lon="116.375068"><ele>35.6</ele><time>2024-04-27T07:51:09.000Z</time></trkpt><trkpt lat="40.016879" lon="116.374915"><ele>36.1</ele><time>2024-04-27T07:51:17.000Z</time></trkpt><trkpt lat="40.016372" lon="116.374623"><ele>37.0</ele><time>2024-04-27T07:51:44.000Z</time></trkpt><trkpt lat="40.015852" lon="116.374526"><ele>37.4</ele><time>2024-04-27T07:52:07.000Z</time></trkpt><trkpt lat="40.015672" lon="116.37457"><ele>37.2</ele><time>2024-04-27T07:52:15.000Z</time></trkpt><trkpt lat="40.015378" lon="116.374732"><ele>36.6</ele><time>2024-04-27T07:52:28.000Z</time></trkpt><trkpt lat="40.014955" lon="116.375035"><ele>35.6</ele><time>2024-04-27T07:52:48.000Z</time></trkpt><trkpt lat="40.014442" lon="116.375767"><ele>36.5</ele><time>2024-04-27T07:53:23.000Z</time></trkpt><trkpt lat="40.013929" lon="116.376925"><ele>39.1</ele><time>2024-04-27T07:54:10.000Z</time></trkpt><trkpt lat="40.013443" lon="116.377562"><ele>39.1</ele><time>2024-04-27T07:54:37.000Z</time></trkpt><trkpt lat="40.013368" lon="116.377704"><ele>39.1</ele><time>2024-04-27T07:54:43.000Z</time></trkpt><trkpt lat="40.013224" lon="116.378508"><ele>38.5</ele><time>2024-04-27T07:55:07.000Z</time></trkpt><trkpt lat="40.013055" lon="116.379132"><ele>36.9</ele><time>2024-04-27T07:55:22.000Z</time></trkpt><trkpt lat="40.012845" lon="116.379605"><ele>35.5</ele><time>2024-04-27T07:55:33.000Z</time></trkpt><trkpt lat="40.012695" lon="116.379856"><ele>34.9</ele><time>2024-04-27T07:55:39.000Z</time></trkpt><trkpt lat="40.012545" lon="116.380021"><ele>34.4</ele><time>2024-04-27T07:55:43.000Z</time></trkpt><trkpt lat="40.012212" lon="116.380264"><ele>32.4</ele><time>2024-04-27T07:55:51.000Z</time></trkpt><trkpt lat="40.011768" lon="116.380444"><ele>30.8</ele><time>2024-04-27T07:56:08.000Z</time></trkpt><trkpt lat="40.011522" lon="116.380478"><ele>29.8</ele><time>2024-04-27T07:56:19.000Z</time></trkpt><trkpt lat="40.011417" lon="116.380538"><ele>29.8</ele><time>2024-04-27T07:56:24.000Z</time></trkpt><trkpt lat="40.011245" lon="116.38072"><ele>30.5</ele><time>2024-04-27T07:56:34.000Z</time></trkpt><trkpt lat="40.010909" lon="116.381227"><ele>33.1</ele><time>2024-04-27T07:56:56.000Z</time></trkpt><trkpt lat="40.010688" lon="116.381477"><ele>33.5</ele><time>2024-04-27T07:57:09.000Z</time></trkpt><trkpt lat="40.010607" lon="116.381697"><ele>33.7</ele><time>2024-04-27T07:57:16.000Z</time></trkpt><trkpt lat="40.010579" lon="116.382207"><ele>33.4</ele><time>2024-04-27T07:57:32.000Z</time></trkpt><trkpt lat="40.010596" lon="116.382505"><ele>33.1</ele><time>2024-04-27T07:57:38.000Z</time></trkpt><trkpt lat="40.010725" lon="116.383345"><ele>31.9</ele><time>2024-04-27T07:57:55.000Z</time></trkpt><trkpt lat="40.010751" lon="116.384144"><ele>31.5</ele><time>2024-04-27T07:58:22.000Z</time></trkpt><trkpt lat="40.010262" lon="116.386228"><ele>33.7</ele><time>2024-04-27T08:06:45.000Z</time></trkpt><trkpt lat="40.010234" lon="116.386708"><ele>33.1</ele><time>2024-04-27T08:07:00.000Z</time></trkpt><trkpt lat="40.010257" lon="116.386927"><ele>32.3</ele><time>2024-04-27T08:07:07.000Z</time></trkpt><trkpt lat="40.010386" lon="116.387315"><ele>32.5</ele><time>2024-04-27T08:07:22.000Z</time></trkpt><trkpt lat="40.010526" lon="116.387491"><ele>31.3</ele><time>2024-04-27T08:07:30.000Z</time></trkpt><trkpt lat="40.010561" lon="116.387651"><ele>32.3</ele><time>2024-04-27T08:07:35.000Z</time></trkpt><trkpt lat="40.010698" lon="116.387983"><ele>32.1</ele><time>2024-04-27T08:07:46.000Z</time></trkpt><trkpt lat="40.01069" lon="116.388355"><ele>31.4</ele><time>2024-04-27T08:07:57.000Z</time></trkpt><trkpt lat="40.010567" lon="116.388941"><ele>31.4</ele><time>2024-04-27T08:08:15.000Z</time></trkpt><trkpt lat="40.010546" lon="116.389273"><ele>31.4</ele><time>2024-04-27T08:08:25.000Z</time></trkpt><trkpt lat="40.010581" lon="116.389543"><ele>31.4</ele><time>2024-04-27T08:08:33.000Z</time></trkpt><trkpt lat="40.010574" lon="116.389823"><ele>31.4</ele><time>2024-04-27T08:08:41.000Z</time></trkpt><trkpt lat="40.010523" lon="116.390262"><ele>31.4</ele><time>2024-04-27T08:08:54.000Z</time></trkpt><trkpt lat="40.010442" lon="116.390522"><ele>31.4</ele><time>2024-04-27T08:09:02.000Z</time></trkpt><trkpt lat="40.010384" lon="116.390612"><ele>31.4</ele><time>2024-04-27T08:09:06.000Z</time></trkpt><trkpt lat="40.010282" lon="116.390701"><ele>31.4</ele><time>2024-04-27T08:09:11.000Z</time></trkpt><trkpt lat="40.010051" lon="116.390737"><ele>31.4</ele><time>2024-04-27T08:09:19.000Z</time></trkpt><trkpt lat="40.009922" lon="116.390684"><ele>31.4</ele><time>2024-04-27T08:09:24.000Z</time></trkpt><trkpt lat="40.009789" lon="116.390445"><ele>31.4</ele><time>2024-04-27T08:09:33.000Z</time></trkpt><trkpt lat="40.009688" lon="116.390326"><ele>31.4</ele><time>2024-04-27T08:09:39.000Z</time></trkpt><trkpt lat="40.009503" lon="116.390256"><ele>31.4</ele><time>2024-04-27T08:09:47.000Z</time></trkpt><trkpt lat="40.00931" lon="116.390386"><ele>31.4</ele><time>2024-04-27T08:09:57.000Z</time></trkpt><trkpt lat="40.009051" lon="116.390476"><ele>31.4</ele><time>2024-04-27T08:10:09.000Z</time></trkpt><trkpt lat="40.009004" lon="116.390575"><ele>31.4</ele><time>2024-04-27T08:10:12.000Z</time></trkpt><trkpt lat="40.008976" lon="116.390835"><ele>31.4</ele><time>2024-04-27T08:10:20.000Z</time></trkpt><trkpt lat="40.009001" lon="116.390957"><ele>31.4</ele><time>2024-04-27T08:10:24.000Z</time></trkpt><trkpt lat="40.009443" lon="116.3921"><ele>31.4</ele><time>2024-04-27T08:11:09.000Z</time></trkpt><trkpt lat="40.00946" lon="116.39245"><ele>31.4</ele><time>2024-04-27T08:11:21.000Z</time></trkpt><trkpt lat="40.009516" lon="116.392608"><ele>31.4</ele><time>2024-04-27T08:11:27.000Z</time></trkpt><trkpt lat="40.009832" lon="116.392892"><ele>31.4</ele><time>2024-04-27T08:11:43.000Z</time></trkpt><trkpt lat="40.01024" lon="116.393195"><ele>31.4</ele><time>2024-04-27T08:12:04.000Z</time></trkpt><trkpt lat="40.010965" lon="116.393531"><ele>31.4</ele><time>2024-04-27T08:12:30.000Z</time></trkpt><trkpt lat="40.011159" lon="116.393572"><ele>31.4</ele><time>2024-04-27T08:12:36.000Z</time></trkpt><trkpt lat="40.011627" lon="116.393581"><ele>30.7</ele><time>2024-04-27T08:12:56.000Z</time></trkpt><trkpt lat="40.012537" lon="116.393527"><ele>29.3</ele><time>2024-04-27T08:13:33.000Z</time></trkpt><trkpt lat="40.012994" lon="116.393559"><ele>29.2</ele><time>2024-04-27T08:13:49.000Z</time></trkpt><trkpt lat="40.0136" lon="116.393521"><ele>29.2</ele><time>2024-04-27T08:14:13.000Z</time></trkpt><trkpt lat="40.014429" lon="116.393622"><ele>29.0</ele><time>2024-04-27T08:14:39.000Z</time></trkpt><trkpt lat="40.014607" lon="116.39358"><ele>28.9</ele><time>2024-04-27T08:14:45.000Z</time></trkpt><trkpt lat="40.014785" lon="116.393468"><ele>28.5</ele><time>2024-04-27T08:14:53.000Z</time></trkpt><trkpt lat="40.015333" lon="116.39279"><ele>28.1</ele><time>2024-04-27T08:15:21.000Z</time></trkpt><trkpt lat="40.015445" lon="116.392696"><ele>28.2</ele><time>2024-04-27T08:15:26.000Z</time></trkpt><trkpt lat="40.015968" lon="116.392588"><ele>29.4</ele><time>2024-04-27T08:15:49.000Z</time></trkpt><trkpt lat="40.016172" lon="116.39263"><ele>29.2</ele><time>2024-04-27T08:15:57.000Z</time></trkpt><trkpt lat="40.016443" lon="116.392823"><ele>28.5</ele><time>2024-04-27T08:16:09.000Z</time></trkpt><trkpt lat="40.016972" lon="116.3937"><ele>28.1</ele><time>2024-04-27T08:16:44.000Z</time></trkpt><trkpt lat="40.017202" lon="116.393942"><ele>28.2</ele><time>2024-04-27T08:16:55.000Z</time></trkpt><trkpt lat="40.017506" lon="116.394049"><ele>28.2</ele><time>2024-04-27T08:17:06.000Z</time></trkpt><trkpt lat="40.017901" lon="116.393997"><ele>28.2</ele><time>2024-04-27T08:17:21.000Z</time></trkpt><trkpt lat="40.018185" lon="116.393862"><ele>28.2</ele><time>2024-04-27T08:17:33.000Z</time></trkpt><trkpt lat="40.018499" lon="116.393584"><ele>28.2</ele><time>2024-04-27T08:17:50.000Z</time></trkpt><trkpt lat="40.018714" lon="116.393297"><ele>28.9</ele><time>2024-04-27T08:18:04.000Z</time></trkpt><trkpt lat="40.019182" lon="116.393255"><ele>30.6</ele><time>2024-04-27T08:18:25.000Z</time></trkpt><trkpt lat="40.019265" lon="116.393199"><ele>30.7</ele><time>2024-04-27T08:18:29.000Z</time></trkpt><trkpt lat="40.019465" lon="116.392639"><ele>30.2</ele><time>2024-04-27T08:18:46.000Z</time></trkpt><trkpt lat="40.019763" lon="116.391638"><ele>28.2</ele><time>2024-04-27T08:19:16.000Z</time></trkpt><trkpt lat="40.020038" lon="116.390983"><ele>28.0</ele><time>2024-04-27T08:19:43.000Z</time></trkpt><trkpt lat="40.020191" lon="116.39038"><ele>28.1</ele><time>2024-04-27T08:20:03.000Z</time></trkpt><trkpt lat="40.020369" lon="116.389914"><ele>28.6</ele><time>2024-04-27T08:20:21.000Z</time></trkpt><trkpt lat="40.020379" lon="116.389731"><ele>29.1</ele><time>2024-04-27T08:20:27.000Z</time></trkpt><trkpt lat="40.020285" lon="116.389102"><ele>29.1</ele><time>2024-04-27T08:20:47.000Z</time></trkpt><trkpt lat="40.020316" lon="116.388565"><ele>27.8</ele><time>2024-04-27T08:21:05.000Z</time></trkpt><trkpt lat="40.020357" lon="116.388336"><ele>27.2</ele><time>2024-04-27T08:21:13.000Z</time></trkpt><trkpt lat="40.020297" lon="116.387756"><ele>27.2</ele><time>2024-04-27T08:21:31.000Z</time></trkpt><trkpt lat="40.020035" lon="116.386608"><ele>28.1</ele><time>2024-04-27T08:22:06.000Z</time></trkpt><trkpt lat="40.020041" lon="116.386455"><ele>28.2</ele><time>2024-04-27T08:22:10.000Z</time></trkpt><trkpt lat="40.020081" lon="116.386358"><ele>28.4</ele><time>2024-04-27T08:22:13.000Z</time></trkpt><trkpt lat="40.020386" lon="116.386153"><ele>28.8</ele><time>2024-04-27T08:22:30.000Z</time></trkpt><trkpt lat="40.020705" lon="116.385801"><ele>32.2</ele><time>2024-04-27T08:22:54.000Z</time></trkpt><trkpt lat="40.020903" lon="116.385754"><ele>33.6</ele><time>2024-04-27T08:23:05.000Z</time></trkpt><trkpt lat="40.021185" lon="116.385763"><ele>35.2</ele><time>2024-04-27T08:23:20.000Z</time></trkpt><trkpt lat="40.021382" lon="116.385696"><ele>35.9</ele><time>2024-04-27T08:23:31.000Z</time></trkpt><trkpt lat="40.021897" lon="116.385873"><ele>36.0</ele><time>2024-04-27T08:23:53.000Z</time></trkpt><trkpt lat="40.02242" lon="116.385874"><ele>33.3</ele><time>2024-04-27T08:24:10.000Z</time></trkpt><trkpt lat="40.022611" lon="116.386174"><ele>29.1</ele><time>2024-04-27T08:24:23.000Z</time></trkpt><trkpt lat="40.022758" lon="116.386242"><ele>28.2</ele><time>2024-04-27T08:24:31.000Z</time></trkpt><trkpt lat="40.024126" lon="116.386115"><ele>27.5</ele><time>2024-04-27T08:25:25.000Z</time></trkpt><trkpt lat="40.024295" lon="116.386219"><ele>27.4</ele><time>2024-04-27T08:25:34.000Z</time></trkpt><trkpt lat="40.02438" lon="116.386309"><ele>27.2</ele><time>2024-04-27T08:25:39.000Z</time></trkpt><trkpt lat="40.02442" lon="116.386409"><ele>26.8</ele><time>2024-04-27T08:25:44.000Z</time></trkpt><trkpt lat="40.024427" lon="116.387003"><ele>26.1</ele><time>2024-04-27T08:26:06.000Z</time></trkpt><trkpt lat="40.024559" lon="116.388024"><ele>26.0</ele><time>2024-04-27T08:26:43.000Z</time></trkpt><trkpt lat="40.02465" lon="116.389083"><ele>26.0</ele><time>2024-04-27T08:27:14.000Z</time></trkpt><trkpt lat="40.024722" lon="116.389336"><ele>25.9</ele><time>2024-04-27T08:27:23.000Z</time></trkpt><trkpt lat="40.024827" lon="116.38994"><ele>25.8</ele><time>2024-04-27T08:27:46.000Z</time></trkpt><trkpt lat="40.024878" lon="116.390688"><ele>25.8</ele><time>2024-04-27T08:28:15.000Z</time></trkpt><trkpt lat="40.025131" lon="116.392475"><ele>25.3</ele><time>2024-04-27T08:29:19.000Z</time></trkpt><trkpt lat="40.025151" lon="116.392943"><ele>25.3</ele><time>2024-04-27T08:29:37.000Z</time></trkpt><trkpt lat="40.025243" lon="116.393455"><ele>25.1</ele><time>2024-04-27T08:29:57.000Z</time></trkpt><trkpt lat="40.02535" lon="116.39452"><ele>24.8</ele><time>2024-04-27T08:30:36.000Z</time></trkpt><trkpt lat="40.025394" lon="116.39473"><ele>24.8</ele><time>2024-04-27T08:30:44.000Z</time></trkpt><trkpt lat="40.025465" lon="116.394847"><ele>24.9</ele><time>2024-04-27T08:30:49.000Z</time></trkpt><trkpt lat="40.025595" lon="116.394887"><ele>24.9</ele><time>2024-04-27T08:30:56.000Z</time></trkpt><trkpt lat="40.025949" lon="116.394765"><ele>24.6</ele><time>2024-04-27T08:31:13.000Z</time></trkpt><trkpt lat="40.02649" lon="116.394643"><ele>24.6</ele><time>2024-04-27T08:31:36.000Z</time></trkpt><trkpt lat="40.026924" lon="116.39439"><ele>24.6</ele><time>2024-04-27T08:31:55.000Z</time></trkpt><trkpt lat="40.027263" lon="116.394089"><ele>24.5</ele><time>2024-04-27T08:32:11.000Z</time></trkpt><trkpt lat="40.027618" lon="116.393665"><ele>24.6</ele><time>2024-04-27T08:32:29.000Z</time></trkpt><trkpt lat="40.027688" lon="116.393508"><ele>24.6</ele><time>2024-04-27T08:32:34.000Z</time></trkpt><trkpt lat="40.027723" lon="116.393332"><ele>24.6</ele><time>2024-04-27T08:32:39.000Z</time></trkpt><trkpt lat="40.027735" lon="116.392958"><ele>24.7</ele><time>2024-04-27T08:32:50.000Z</time></trkpt><trkpt lat="40.027596" lon="116.392015"><ele>24.8</ele><time>2024-04-27T08:33:22.000Z</time></trkpt><trkpt lat="40.027541" lon="116.391765"><ele>24.8</ele><time>2024-04-27T08:33:31.000Z</time></trkpt><trkpt lat="40.027285" lon="116.391006"><ele>25.0</ele><time>2024-04-27T08:34:02.000Z</time></trkpt><trkpt lat="40.027291" lon="116.390843"><ele>25.1</ele><time>2024-04-27T08:34:08.000Z</time></trkpt><trkpt lat="40.027446" lon="116.390031"><ele>25.7</ele><time>2024-04-27T08:34:41.000Z</time></trkpt><trkpt lat="40.02787" lon="116.388798"><ele>25.9</ele><time>2024-04-27T08:46:09.000Z</time></trkpt><trkpt lat="40.028513" lon="116.387758"><ele>26.3</ele><time>2024-04-27T08:46:46.000Z</time></trkpt><trkpt lat="40.028626" lon="116.387443"><ele>26.5</ele><time>2024-04-27T08:46:58.000Z</time></trkpt><trkpt lat="40.028732" lon="116.387249"><ele>26.6</ele><time>2024-04-27T08:47:04.000Z</time></trkpt><trkpt lat="40.028957" lon="116.387073"><ele>27.1</ele><time>2024-04-27T08:47:15.000Z</time></trkpt><trkpt lat="40.029193" lon="116.386719"><ele>27.1</ele><time>2024-04-27T08:47:28.000Z</time></trkpt><trkpt lat="40.029516" lon="116.385495"><ele>27.1</ele><time>2024-04-27T08:48:08.000Z</time></trkpt><trkpt lat="40.029578" lon="116.385071"><ele>27.1</ele><time>2024-04-27T08:48:21.000Z</time></trkpt><trkpt lat="40.029546" lon="116.384437"><ele>27.1</ele><time>2024-04-27T08:48:41.000Z</time></trkpt><trkpt lat="40.029476" lon="116.383916"><ele>27.1</ele><time>2024-04-27T08:48:56.000Z</time></trkpt><trkpt lat="40.029441" lon="116.383084"><ele>27.1</ele><time>2024-04-27T08:49:19.000Z</time></trkpt><trkpt lat="40.029342" lon="116.382495"><ele>27.1</ele><time>2024-04-27T08:49:38.000Z</time></trkpt><trkpt lat="40.029323" lon="116.381834"><ele>27.1</ele><time>2024-04-27T08:49:58.000Z</time></trkpt><trkpt lat="40.029342" lon="116.380923"><ele>27.1</ele><time>2024-04-27T08:50:25.000Z</time></trkpt><trkpt lat="40.029258" lon="116.380037"><ele>27.1</ele><time>2024-04-27T08:50:53.000Z</time></trkpt><trkpt lat="40.02927" lon="116.379516"><ele>27.1</ele><time>2024-04-27T08:51:11.000Z</time></trkpt><trkpt lat="40.02921" lon="116.378413"><ele>27.1</ele><time>2024-04-27T08:51:52.000Z</time></trkpt><trkpt lat="40.029236" lon="116.378266"><ele>27.1</ele><time>2024-04-27T08:51:57.000Z</time></trkpt><trkpt lat="40.029239" lon="116.377789"><ele>27.1</ele><time>2024-04-27T08:52:14.000Z</time></trkpt><trkpt lat="40.02906" lon="116.377281"><ele>27.1</ele><time>2024-04-27T08:52:34.000Z</time></trkpt><trkpt lat="40.028941" lon="116.376552"><ele>27.6</ele><time>2024-04-27T08:52:59.000Z</time></trkpt><trkpt lat="40.028919" lon="116.376074"><ele>27.4</ele><time>2024-04-27T08:53:16.000Z</time></trkpt><trkpt lat="40.028982" lon="116.375557"><ele>27.2</ele><time>2024-04-27T08:53:34.000Z</time></trkpt><trkpt lat="40.028981" lon="116.374814"><ele>26.6</ele><time>2024-04-27T08:53:59.000Z</time></trkpt><trkpt lat="40.02892" lon="116.373981"><ele>26.9</ele><time>2024-04-27T08:54:27.000Z</time></trkpt><trkpt lat="40.028787" lon="116.373173"><ele>27.4</ele><time>2024-04-27T08:54:56.000Z</time></trkpt><trkpt lat="40.028573" lon="116.372289"><ele>28.8</ele><time>2024-04-27T08:55:27.000Z</time></trkpt><trkpt lat="40.028453" lon="116.372144"><ele>29.1</ele><time>2024-04-27T08:55:35.000Z</time></trkpt><trkpt lat="40.028043" lon="116.371479"><ele>30.2</ele><time>2024-04-27T08:56:02.000Z</time></trkpt><trkpt lat="40.027856" lon="116.371287"><ele>30.2</ele><time>2024-04-27T08:56:11.000Z</time></trkpt><trkpt lat="40.027406" lon="116.370926"><ele>28.5</ele><time>2024-04-27T08:56:34.000Z</time></trkpt><trkpt lat="40.026961" lon="116.370808"><ele>27.6</ele><time>2024-04-27T08:56:52.000Z</time></trkpt><trkpt lat="40.02648" lon="116.370731"><ele>27.6</ele><time>2024-04-27T08:57:12.000Z</time></trkpt><trkpt lat="40.026319" lon="116.370898"><ele>27.6</ele><time>2024-04-27T08:57:21.000Z</time></trkpt><trkpt lat="40.02593" lon="116.371202"><ele>26.8</ele><time>2024-04-27T08:57:41.000Z</time></trkpt><trkpt lat="40.025623" lon="116.371376"><ele>26.5</ele><time>2024-04-27T08:57:57.000Z</time></trkpt><trkpt lat="40.025067" lon="116.371591"><ele>26.7</ele><time>2024-04-27T08:58:23.000Z</time></trkpt><trkpt lat="40.024947" lon="116.371666"><ele>26.8</ele><time>2024-04-27T08:58:28.000Z</time></trkpt><trkpt lat="40.024854" lon="116.371774"><ele>26.8</ele><time>2024-04-27T08:58:33.000Z</time></trkpt><trkpt lat="40.024885" lon="116.372242"><ele>27.3</ele><time>2024-04-27T08:58:55.000Z</time></trkpt><trkpt lat="40.024867" lon="116.372589"><ele>27.5</ele><time>2024-04-27T08:59:06.000Z</time></trkpt><trkpt lat="40.024895" lon="116.372761"><ele>27.1</ele><time>2024-04-27T08:59:12.000Z</time></trkpt><trkpt lat="40.024893" lon="116.373186"><ele>26.3</ele><time>2024-04-27T08:59:27.000Z</time></trkpt><trkpt lat="40.024908" lon="116.373426"><ele>26.1</ele><time>2024-04-27T08:59:35.000Z</time></trkpt><trkpt lat="40.024945" lon="116.373541"><ele>26.0</ele><time>2024-04-27T08:59:39.000Z</time></trkpt><trkpt lat="40.024953" lon="116.374026"><ele>25.8</ele><time>2024-04-27T08:59:55.000Z</time></trkpt><trkpt lat="40.025003" lon="116.374341"><ele>25.6</ele><time>2024-04-27T09:00:07.000Z</time></trkpt><trkpt lat="40.025033" lon="116.374992"><ele>25.4</ele><time>2024-04-27T09:00:32.000Z</time></trkpt><trkpt lat="40.025073" lon="116.375238"><ele>25.5</ele><time>2024-04-27T09:00:40.000Z</time></trkpt><trkpt lat="40.025062" lon="116.37571"><ele>25.7</ele><time>2024-04-27T09:00:57.000Z</time></trkpt><trkpt lat="40.025091" lon="116.37581"><ele>25.7</ele><time>2024-04-27T09:01:01.000Z</time></trkpt><trkpt lat="40.025097" lon="116.376303"><ele>25.8</ele><time>2024-04-27T09:01:20.000Z</time></trkpt><trkpt lat="40.025129" lon="116.376478"><ele>25.9</ele><time>2024-04-27T09:01:26.000Z</time></trkpt><trkpt lat="40.025081" lon="116.376777"><ele>26.1</ele><time>2024-04-27T09:01:38.000Z</time></trkpt><trkpt lat="40.025086" lon="116.376935"><ele>26.2</ele><time>2024-04-27T09:01:44.000Z</time></trkpt><trkpt lat="40.025015" lon="116.377206"><ele>26.4</ele><time>2024-04-27T09:01:55.000Z</time></trkpt><trkpt lat="40.025112" lon="116.377631"><ele>26.2</ele><time>2024-04-27T09:02:11.000Z</time></trkpt><trkpt lat="40.025109" lon="116.378045"><ele>26.1</ele><time>2024-04-27T09:02:26.000Z</time></trkpt><trkpt lat="40.025143" lon="116.378448"><ele>25.7</ele><time>2024-04-27T09:02:38.000Z</time></trkpt><trkpt lat="40.025113" lon="116.378781"><ele>25.2</ele><time>2024-04-27T09:02:50.000Z</time></trkpt><trkpt lat="40.025031" lon="116.37917"><ele>24.7</ele><time>2024-04-27T09:03:02.000Z</time></trkpt><trkpt lat="40.024775" lon="116.379778"><ele>24.9</ele><time>2024-04-27T09:03:24.000Z</time></trkpt><trkpt lat="40.024639" lon="116.380157"><ele>25.0</ele><time>2024-04-27T09:03:38.000Z</time></trkpt><trkpt lat="40.024571" lon="116.380443"><ele>24.9</ele><time>2024-04-27T09:03:47.000Z</time></trkpt><trkpt lat="40.02452" lon="116.380479"><ele>24.9</ele><time>2024-04-27T09:03:50.000Z</time></trkpt><trkpt lat="40.02423" lon="116.38049"><ele>25.1</ele><time>2024-04-27T09:04:03.000Z</time></trkpt><trkpt lat="40.023918" lon="116.380412"><ele>25.2</ele><time>2024-04-27T09:04:18.000Z</time></trkpt><trkpt lat="40.023611" lon="116.380485"><ele>25.4</ele><time>2024-04-27T09:04:31.000Z</time></trkpt><trkpt lat="40.02349" lon="116.380472"><ele>25.5</ele><time>2024-04-27T09:04:39.000Z</time></trkpt><trkpt lat="40.023293" lon="116.380607"><ele>25.7</ele><time>2024-04-27T09:04:50.000Z</time></trkpt><trkpt lat="40.023196" lon="116.38071"><ele>25.8</ele><time>2024-04-27T09:04:56.000Z</time></trkpt><trkpt lat="40.023085" lon="116.380948"><ele>26.0</ele><time>2024-04-27T09:05:05.000Z</time></trkpt><trkpt lat="40.022982" lon="116.38132"><ele>26.2</ele><time>2024-04-27T09:05:21.000Z</time></trkpt><trkpt lat="40.022969" lon="116.381592"><ele>26.3</ele><time>2024-04-27T09:05:31.000Z</time></trkpt><trkpt lat="40.022847" lon="116.38188"><ele>26.6</ele><time>2024-04-27T09:05:44.000Z</time></trkpt><trkpt lat="40.022364" lon="116.382369"><ele>27.0</ele><time>2024-04-27T09:06:14.000Z</time></trkpt><trkpt lat="40.022174" lon="116.382695"><ele>26.9</ele><time>2024-04-27T09:06:29.000Z</time></trkpt><trkpt lat="40.022117" lon="116.382883"><ele>26.9</ele><time>2024-04-27T09:06:36.000Z</time></trkpt><trkpt lat="40.022091" lon="116.38314"><ele>26.8</ele><time>2024-04-27T09:06:46.000Z</time></trkpt><trkpt lat="40.022119" lon="116.383587"><ele>26.8</ele><time>2024-04-27T09:07:03.000Z</time></trkpt><trkpt lat="40.022219" lon="116.383917"><ele>26.8</ele><time>2024-04-27T09:07:17.000Z</time></trkpt><trkpt lat="40.022361" lon="116.38418"><ele>26.9</ele><time>2024-04-27T09:07:31.000Z</time></trkpt><trkpt lat="40.022456" lon="116.384575"><ele>27.2</ele><time>2024-04-27T09:07:47.000Z</time></trkpt><trkpt lat="40.022355" lon="116.385179"><ele>27.6</ele><time>2024-04-27T09:08:11.000Z</time></trkpt><trkpt lat="40.02238" lon="116.385291"><ele>27.8</ele><time>2024-04-27T09:08:16.000Z</time></trkpt><trkpt lat="40.022388" lon="116.385726"><ele>28.5</ele><time>2024-04-27T09:08:32.000Z</time></trkpt><trkpt lat="40.022352" lon="116.385789"><ele>28.5</ele><time>2024-04-27T09:08:35.000Z</time></trkpt><trkpt lat="40.022107" lon="116.385856"><ele>29.2</ele><time>2024-04-27T09:08:52.000Z</time></trkpt><trkpt lat="40.021908" lon="116.385851"><ele>30.8</ele><time>2024-04-27T09:09:05.000Z</time></trkpt><trkpt lat="40.02164" lon="116.385749"><ele>33.7</ele><time>2024-04-27T09:09:23.000Z</time></trkpt><trkpt lat="40.021607" lon="116.385764"><ele>33.7</ele><time>2024-04-27T09:09:25.000Z</time></trkpt><trkpt lat="40.021528" lon="116.385709"><ele>34.4</ele><time>2024-04-27T09:09:31.000Z</time></trkpt><trkpt lat="40.020295" lon="116.38555"><ele>31.7</ele><time>2024-04-27T09:11:50.000Z</time></trkpt><trkpt lat="40.019956" lon="116.38515"><ele>26.0</ele><time>2024-04-27T09:12:08.000Z</time></trkpt><trkpt lat="40.020012" lon="116.384277"><ele>28.8</ele><time>2024-04-27T09:12:31.000Z</time></trkpt><trkpt lat="40.02011" lon="116.383773"><ele>31.5</ele><time>2024-04-27T09:12:50.000Z</time></trkpt><trkpt lat="40.020286" lon="116.3832"><ele>33.4</ele><time>2024-04-27T09:13:08.000Z</time></trkpt><trkpt lat="40.020349" lon="116.382807"><ele>33.6</ele><time>2024-04-27T09:13:20.000Z</time></trkpt><trkpt lat="40.020302" lon="116.381991"><ele>31.9</ele><time>2024-04-27T09:13:49.000Z</time></trkpt><trkpt lat="40.020205" lon="116.381634"><ele>31.9</ele><time>2024-04-27T09:14:02.000Z</time></trkpt><trkpt lat="40.019915" lon="116.38098"><ele>31.9</ele><time>2024-04-27T09:14:32.000Z</time></trkpt><trkpt lat="40.019334" lon="116.380364"><ele>31.9</ele><time>2024-04-27T09:15:05.000Z</time></trkpt><trkpt lat="40.018763" lon="116.379483"><ele>31.9</ele><time>2024-04-27T09:15:43.000Z</time></trkpt><trkpt lat="40.018664" lon="116.379286"><ele>31.9</ele><time>2024-04-27T09:15:51.000Z</time></trkpt><trkpt lat="40.018518" lon="116.378783"><ele>31.9</ele><time>2024-04-27T09:16:10.000Z</time></trkpt><trkpt lat="40.018286" lon="116.377404"><ele>31.9</ele><time>2024-04-27T09:17:01.000Z</time></trkpt><trkpt lat="40.018167" lon="116.377022"><ele>31.7</ele><time>2024-04-27T09:17:15.000Z</time></trkpt><trkpt lat="40.017941" lon="116.376511"><ele>31.6</ele><time>2024-04-27T09:17:34.000Z</time></trkpt><trkpt lat="40.017744" lon="116.376272"><ele>31.5</ele><time>2024-04-27T09:17:43.000Z</time></trkpt><trkpt lat="40.017541" lon="116.375922"><ele>31.7</ele><time>2024-04-27T09:17:55.000Z</time></trkpt><trkpt lat="40.017355" lon="116.375719"><ele>32.3</ele><time>2024-04-27T09:18:05.000Z</time></trkpt><trkpt lat="40.017181" lon="116.375304"><ele>33.3</ele><time>2024-04-27T09:18:23.000Z</time></trkpt><trkpt lat="40.017014" lon="116.375038"><ele>33.9</ele><time>2024-04-27T09:18:36.000Z</time></trkpt><trkpt lat="40.016775" lon="116.374822"><ele>34.4</ele><time>2024-04-27T09:18:51.000Z</time></trkpt><trkpt lat="40.016425" lon="116.374632"><ele>35.2</ele><time>2024-04-27T09:19:11.000Z</time></trkpt><trkpt lat="40.0161" lon="116.374599"><ele>35.6</ele><time>2024-04-27T09:19:28.000Z</time></trkpt><trkpt lat="40.015713" lon="116.37463"><ele>35.6</ele><time>2024-04-27T09:19:45.000Z</time></trkpt><trkpt lat="40.015477" lon="116.374695"><ele>35.1</ele><time>2024-04-27T09:19:57.000Z</time></trkpt><trkpt lat="40.014999" lon="116.375001"><ele>34.1</ele><time>2024-04-27T09:20:19.000Z</time></trkpt><trkpt lat="40.014746" lon="116.37525"><ele>34.1</ele><time>2024-04-27T09:20:33.000Z</time></trkpt><trkpt lat="40.014569" lon="116.375512"><ele>34.3</ele><time>2024-04-27T09:20:46.000Z</time></trkpt><trkpt lat="40.014484" lon="116.375584"><ele>34.4</ele><time>2024-04-27T09:20:53.000Z</time></trkpt><trkpt lat="40.014372" lon="116.375794"><ele>34.8</ele><time>2024-04-27T09:21:04.000Z</time></trkpt><trkpt lat="40.014189" lon="116.376278"><ele>36.0</ele><time>2024-04-27T09:21:26.000Z</time></trkpt><trkpt lat="40.014058" lon="116.376767"><ele>36.5</ele><time>2024-04-27T09:21:43.000Z</time></trkpt><trkpt lat="40.013942" lon="116.376976"><ele>37.0</ele><time>2024-04-27T09:21:52.000Z</time></trkpt><trkpt lat="40.013727" lon="116.377249"><ele>37.4</ele><time>2024-04-27T09:22:05.000Z</time></trkpt><trkpt lat="40.013509" lon="116.377398"><ele>37.4</ele><time>2024-04-27T09:22:17.000Z</time></trkpt><trkpt lat="40.013386" lon="116.377629"><ele>37.2</ele><time>2024-04-27T09:22:27.000Z</time></trkpt><trkpt lat="40.01328" lon="116.377941"><ele>37.0</ele><time>2024-04-27T09:22:37.000Z</time></trkpt><trkpt lat="40.013231" lon="116.378311"><ele>36.4</ele><time>2024-04-27T09:22:46.000Z</time></trkpt><trkpt lat="40.013106" lon="116.378873"><ele>34.5</ele><time>2024-04-27T09:23:01.000Z</time></trkpt><trkpt lat="40.012912" lon="116.379416"><ele>32.7</ele><time>2024-04-27T09:23:23.000Z</time></trkpt><trkpt lat="40.012468" lon="116.379974"><ele>31.0</ele><time>2024-04-27T09:23:44.000Z</time></trkpt><trkpt lat="40.011932" lon="116.380328"><ele>28.4</ele><time>2024-04-27T09:24:06.000Z</time></trkpt><trkpt lat="40.011453" lon="116.380503"><ele>28.4</ele><time>2024-04-27T09:24:31.000Z</time></trkpt><trkpt lat="40.010891" lon="116.381187"><ele>31.5</ele><time>2024-04-27T09:25:09.000Z</time></trkpt><trkpt lat="40.010661" lon="116.381327"><ele>31.9</ele><time>2024-04-27T09:25:22.000Z</time></trkpt><trkpt lat="40.010633" lon="116.381379"><ele>31.9</ele><time>2024-04-27T09:25:24.000Z</time></trkpt><trkpt lat="40.010552" lon="116.382259"><ele>31.5</ele><time>2024-04-27T09:25:50.000Z</time></trkpt><trkpt lat="40.010654" lon="116.383031"><ele>30.4</ele><time>2024-04-27T09:26:09.000Z</time></trkpt><trkpt lat="40.010749" lon="116.383397"><ele>30.1</ele><time>2024-04-27T09:26:19.000Z</time></trkpt><trkpt lat="40.010726" lon="116.383958"><ele>29.9</ele><time>2024-04-27T09:26:36.000Z</time></trkpt><trkpt lat="40.010651" lon="116.384468"><ele>30.7</ele><time>2024-04-27T09:26:55.000Z</time></trkpt><trkpt lat="40.010459" lon="116.384957"><ele>32.0</ele><time>2024-04-27T09:27:14.000Z</time></trkpt><trkpt lat="40.010346" lon="116.385166"><ele>32.6</ele><time>2024-04-27T09:27:23.000Z</time></trkpt><trkpt lat="40.010239" lon="116.385551"><ele>33.1</ele><time>2024-04-27T09:27:36.000Z</time></trkpt><trkpt lat="40.010246" lon="116.385668"><ele>33.1</ele><time>2024-04-27T09:27:40.000Z</time></trkpt><trkpt lat="40.010301" lon="116.38556"><ele>33.8</ele><time>2024-04-27T09:27:45.000Z</time></trkpt><trkpt lat="40.01024" lon="116.386796"><ele>35.2</ele><time>2024-04-27T10:20:47.000Z</time></trkpt><trkpt lat="40.01017" lon="116.386882"><ele>35.3</ele><time>2024-04-27T10:20:48.000Z</time></trkpt><trkpt lat="40.01026" lon="116.386919"><ele>35.4</ele><time>2024-04-27T10:20:49.000Z</time></trkpt><trkpt lat="40.010743" lon="116.388029"><ele>34.3</ele><time>2024-04-27T10:21:28.000Z</time></trkpt><trkpt lat="40.010745" lon="116.388304"><ele>34.3</ele><time>2024-04-27T10:21:36.000Z</time></trkpt><trkpt lat="40.010609" lon="116.388999"><ele>34.3</ele><time>2024-04-27T10:22:00.000Z</time></trkpt><trkpt lat="40.010637" lon="116.389155"><ele>34.3</ele><time>2024-04-27T10:22:05.000Z</time></trkpt><trkpt lat="40.010616" lon="116.389922"><ele>34.3</ele><time>2024-04-27T10:22:27.000Z</time></trkpt><trkpt lat="40.010467" lon="116.390491"><ele>34.3</ele><time>2024-04-27T10:22:44.000Z</time></trkpt><trkpt lat="40.010371" lon="116.390646"><ele>34.3</ele><time>2024-04-27T10:22:50.000Z</time></trkpt><trkpt lat="40.010237" lon="116.390778"><ele>34.3</ele><time>2024-04-27T10:22:57.000Z</time></trkpt><trkpt lat="40.010101" lon="116.390789"><ele>34.3</ele><time>2024-04-27T10:23:02.000Z</time></trkpt><trkpt lat="40.009932" lon="116.390689"><ele>34.3</ele><time>2024-04-27T10:23:10.000Z</time></trkpt><trkpt lat="40.009701" lon="116.390328"><ele>34.3</ele><time>2024-04-27T10:23:25.000Z</time></trkpt><trkpt lat="40.009523" lon="116.390245"><ele>34.3</ele><time>2024-04-27T10:23:33.000Z</time></trkpt><trkpt lat="40.00929" lon="116.390413"><ele>34.3</ele><time>2024-04-27T10:23:44.000Z</time></trkpt><trkpt lat="40.009168" lon="116.390458"><ele>34.3</ele><time>2024-04-27T10:23:49.000Z</time></trkpt><trkpt lat="40.009034" lon="116.39061"><ele>34.3</ele><time>2024-04-27T10:23:55.000Z</time></trkpt><trkpt lat="40.009007" lon="116.39073"><ele>34.2</ele><time>2024-04-27T10:23:59.000Z</time></trkpt><trkpt lat="40.009022" lon="116.390919"><ele>33.9</ele><time>2024-04-27T10:24:05.000Z</time></trkpt><trkpt lat="40.009359" lon="116.391798"><ele>34.1</ele><time>2024-04-27T10:24:35.000Z</time></trkpt><trkpt lat="40.009443" lon="116.392103"><ele>34.0</ele><time>2024-04-27T10:24:46.000Z</time></trkpt><trkpt lat="40.009465" lon="116.392404"><ele>33.7</ele><time>2024-04-27T10:24:55.000Z</time></trkpt><trkpt lat="40.009545" lon="116.392589"><ele>33.9</ele><time>2024-04-27T10:25:02.000Z</time></trkpt><trkpt lat="40.009718" lon="116.392785"><ele>34.4</ele><time>2024-04-27T10:25:13.000Z</time></trkpt><trkpt lat="40.01025" lon="116.393194"><ele>33.8</ele><time>2024-04-27T10:25:38.000Z</time></trkpt><trkpt lat="40.010577" lon="116.393396"><ele>33.6</ele><time>2024-04-27T10:25:52.000Z</time></trkpt><trkpt lat="40.01088" lon="116.393504"><ele>33.4</ele><time>2024-04-27T10:26:04.000Z</time></trkpt><trkpt lat="40.01114" lon="116.393554"><ele>33.2</ele><time>2024-04-27T10:26:15.000Z</time></trkpt><trkpt lat="40.01213" lon="116.393488"><ele>31.8</ele><time>2024-04-27T10:26:52.000Z</time></trkpt><trkpt lat="40.012547" lon="116.393499"><ele>31.3</ele><time>2024-04-27T10:27:10.000Z</time></trkpt><trkpt lat="40.012867" lon="116.393566"><ele>31.1</ele><time>2024-04-27T10:27:23.000Z</time></trkpt><trkpt lat="40.013854" lon="116.393549"><ele>31.0</ele><time>2024-04-27T10:28:03.000Z</time></trkpt><trkpt lat="40.014277" lon="116.393642"><ele>31.0</ele><time>2024-04-27T10:28:19.000Z</time></trkpt><trkpt lat="40.014477" lon="116.393634"><ele>30.9</ele><time>2024-04-27T10:28:27.000Z</time></trkpt><trkpt lat="40.014699" lon="116.393549"><ele>30.6</ele><time>2024-04-27T10:28:36.000Z</time></trkpt><trkpt lat="40.015425" lon="116.392732"><ele>30.4</ele><time>2024-04-27T10:29:16.000Z</time></trkpt><trkpt lat="40.015783" lon="116.392574"><ele>31.1</ele><time>2024-04-27T10:29:31.000Z</time></trkpt><trkpt lat="40.015958" lon="116.392569"><ele>31.4</ele><time>2024-04-27T10:29:38.000Z</time></trkpt><trkpt lat="40.016268" lon="116.392665"><ele>31.1</ele><time>2024-04-27T10:29:50.000Z</time></trkpt><trkpt lat="40.016407" lon="116.392779"><ele>30.3</ele><time>2024-04-27T10:29:56.000Z</time></trkpt><trkpt lat="40.016575" lon="116.39299"><ele>30.1</ele><time>2024-04-27T10:30:05.000Z</time></trkpt><trkpt lat="40.016854" lon="116.393512"><ele>29.9</ele><time>2024-04-27T10:30:25.000Z</time></trkpt><trkpt lat="40.017057" lon="116.393814"><ele>30.0</ele><time>2024-04-27T10:30:37.000Z</time></trkpt><trkpt lat="40.017277" lon="116.393981"><ele>30.1</ele><time>2024-04-27T10:30:47.000Z</time></trkpt><trkpt lat="40.017521" lon="116.394048"><ele>30.1</ele><time>2024-04-27T10:30:58.000Z</time></trkpt><trkpt lat="40.017805" lon="116.394011"><ele>30.2</ele><time>2024-04-27T10:31:09.000Z</time></trkpt><trkpt lat="40.018115" lon="116.393861"><ele>30.1</ele><time>2024-04-27T10:31:22.000Z</time></trkpt><trkpt lat="40.018436" lon="116.393601"><ele>30.0</ele><time>2024-04-27T10:31:38.000Z</time></trkpt><trkpt lat="40.018719" lon="116.393259"><ele>31.3</ele><time>2024-04-27T10:31:56.000Z</time></trkpt><trkpt lat="40.019202" lon="116.393209"><ele>32.6</ele><time>2024-04-27T10:32:15.000Z</time></trkpt><trkpt lat="40.019302" lon="116.393052"><ele>32.8</ele><time>2024-04-27T10:32:21.000Z</time></trkpt><trkpt lat="40.019635" lon="116.391926"><ele>30.4</ele><time>2024-04-27T10:32:58.000Z</time></trkpt><trkpt lat="40.020036" lon="116.390757"><ele>30.2</ele><time>2024-04-27T10:33:40.000Z</time></trkpt><trkpt lat="40.020187" lon="116.390398"><ele>30.4</ele><time>2024-04-27T10:33:53.000Z</time></trkpt><trkpt lat="40.02035" lon="116.38974"><ele>31.5</ele><time>2024-04-27T10:34:16.000Z</time></trkpt><trkpt lat="40.020345" lon="116.389553"><ele>31.7</ele><time>2024-04-27T10:34:22.000Z</time></trkpt><trkpt lat="40.020267" lon="116.389122"><ele>31.8</ele><time>2024-04-27T10:34:36.000Z</time></trkpt><trkpt lat="40.020332" lon="116.38818"><ele>30.0</ele><time>2024-04-27T10:35:06.000Z</time></trkpt><trkpt lat="40.020284" lon="116.387646"><ele>30.4</ele><time>2024-04-27T10:35:23.000Z</time></trkpt><trkpt lat="40.020138" lon="116.387111"><ele>31.0</ele><time>2024-04-27T10:35:41.000Z</time></trkpt><trkpt lat="40.020039" lon="116.386435"><ele>31.6</ele><time>2024-04-27T10:36:03.000Z</time></trkpt><trkpt lat="40.019978" lon="116.385733"><ele>31.9</ele><time>2024-04-27T10:36:25.000Z</time></trkpt><trkpt lat="40.019959" lon="116.384939"><ele>31.8</ele><time>2024-04-27T10:36:50.000Z</time></trkpt><trkpt lat="40.019966" lon="116.384465"><ele>31.4</ele><time>2024-04-27T10:37:05.000Z</time></trkpt><trkpt lat="40.020023" lon="116.383896"><ele>31.0</ele><time>2024-04-27T10:37:24.000Z</time></trkpt><trkpt lat="40.020307" lon="116.382688"><ele>30.4</ele><time>2024-04-27T10:38:04.000Z</time></trkpt><trkpt lat="40.020285" lon="116.382317"><ele>30.3</ele><time>2024-04-27T10:38:16.000Z</time></trkpt><trkpt lat="40.020248" lon="116.382075"><ele>30.4</ele><time>2024-04-27T10:38:24.000Z</time></trkpt><trkpt lat="40.020007" lon="116.381171"><ele>31.3</ele><time>2024-04-27T10:38:56.000Z</time></trkpt><trkpt lat="40.019932" lon="116.381064"><ele>31.3</ele><time>2024-04-27T10:39:00.000Z</time></trkpt><trkpt lat="40.0197" lon="116.38086"><ele>31.6</ele><time>2024-04-27T10:39:10.000Z</time></trkpt><trkpt lat="40.01948" lon="116.380487"><ele>34.4</ele><time>2024-04-27T10:39:27.000Z</time></trkpt><trkpt lat="40.019312" lon="116.380333"><ele>35.1</ele><time>2024-04-27T10:39:35.000Z</time></trkpt><trkpt lat="40.019062" lon="116.380004"><ele>37.2</ele><time>2024-04-27T10:39:50.000Z</time></trkpt><trkpt lat="40.018888" lon="116.37974"><ele>38.0</ele><time>2024-04-27T10:40:00.000Z</time></trkpt><trkpt lat="40.018612" lon="116.379153"><ele>37.7</ele><time>2024-04-27T10:40:20.000Z</time></trkpt><trkpt lat="40.018411" lon="116.378346"><ele>36.5</ele><time>2024-04-27T10:40:46.000Z</time></trkpt><trkpt lat="40.018281" lon="116.37743"><ele>36.6</ele><time>2024-04-27T10:41:15.000Z</time></trkpt><trkpt lat="40.018045" lon="116.376677"><ele>36.2</ele><time>2024-04-27T10:41:40.000Z</time></trkpt><trkpt lat="40.017682" lon="116.376081"><ele>36.1</ele><time>2024-04-27T10:42:04.000Z</time></trkpt><trkpt lat="40.017317" lon="116.375656"><ele>37.0</ele><time>2024-04-27T10:42:24.000Z</time></trkpt><trkpt lat="40.017036" lon="116.375082"><ele>38.1</ele><time>2024-04-27T10:42:47.000Z</time></trkpt><trkpt lat="40.01693" lon="116.374949"><ele>38.3</ele><time>2024-04-27T10:42:53.000Z</time></trkpt><trkpt lat="40.016488" lon="116.374654"><ele>39.1</ele><time>2024-04-27T10:43:13.000Z</time></trkpt><trkpt lat="40.01622" lon="116.374571"><ele>39.6</ele><time>2024-04-27T10:43:24.000Z</time></trkpt><trkpt lat="40.015917" lon="116.374557"><ele>39.9</ele><time>2024-04-27T10:43:36.000Z</time></trkpt><trkpt lat="40.015677" lon="116.374581"><ele>39.9</ele><time>2024-04-27T10:43:45.000Z</time></trkpt><trkpt lat="40.015458" lon="116.374651"><ele>39.6</ele><time>2024-04-27T10:43:53.000Z</time></trkpt><trkpt lat="40.0151" lon="116.374884"><ele>38.5</ele><time>2024-04-27T10:44:08.000Z</time></trkpt><trkpt lat="40.014935" lon="116.375045"><ele>38.0</ele><time>2024-04-27T10:44:17.000Z</time></trkpt><trkpt lat="40.014666" lon="116.375376"><ele>38.2</ele><time>2024-04-27T10:44:32.000Z</time></trkpt><trkpt lat="40.014337" lon="116.375931"><ele>39.3</ele><time>2024-04-27T10:44:56.000Z</time></trkpt><trkpt lat="40.014055" lon="116.376689"><ele>40.7</ele><time>2024-04-27T10:45:19.000Z</time></trkpt><trkpt lat="40.013811" lon="116.377065"><ele>41.3</ele><time>2024-04-27T10:45:34.000Z</time></trkpt><trkpt lat="40.013523" lon="116.377384"><ele>41.6</ele><time>2024-04-27T10:45:49.000Z</time></trkpt><trkpt lat="40.013403" lon="116.377584"><ele>41.4</ele><time>2024-04-27T10:45:57.000Z</time></trkpt><trkpt lat="40.013252" lon="116.378102"><ele>40.9</ele><time>2024-04-27T10:46:13.000Z</time></trkpt><trkpt lat="40.013181" lon="116.378641"><ele>39.6</ele><time>2024-04-27T10:46:27.000Z</time></trkpt><trkpt lat="40.012995" lon="116.379203"><ele>37.6</ele><time>2024-04-27T10:46:44.000Z</time></trkpt><trkpt lat="40.012764" lon="116.379637"><ele>36.3</ele><time>2024-04-27T10:46:59.000Z</time></trkpt><trkpt lat="40.012651" lon="116.379784"><ele>35.8</ele><time>2024-04-27T10:47:05.000Z</time></trkpt><trkpt lat="40.012646" lon="116.379834"><ele>35.4</ele><time>2024-04-27T10:47:06.000Z</time></trkpt><trkpt lat="40.01221" lon="116.380172"><ele>33.9</ele><time>2024-04-27T10:47:24.000Z</time></trkpt><trkpt lat="40.011848" lon="116.380379"><ele>32.5</ele><time>2024-04-27T10:47:39.000Z</time></trkpt><trkpt lat="40.01153" lon="116.380504"><ele>31.9</ele><time>2024-04-27T10:47:52.000Z</time></trkpt><trkpt lat="40.01128" lon="116.380692"><ele>32.6</ele><time>2024-04-27T10:48:04.000Z</time></trkpt><trkpt lat="40.010763" lon="116.381334"><ele>35.6</ele><time>2024-04-27T10:48:34.000Z</time></trkpt><trkpt lat="40.010658" lon="116.381511"><ele>35.7</ele><time>2024-04-27T10:48:41.000Z</time></trkpt><trkpt lat="40.01063" lon="116.381643"><ele>35.7</ele><time>2024-04-27T10:48:45.000Z</time></trkpt><trkpt lat="40.010601" lon="116.382231"><ele>35.0</ele><time>2024-04-27T10:49:03.000Z</time></trkpt><trkpt lat="40.010639" lon="116.38295"><ele>34.1</ele><time>2024-04-27T10:49:24.000Z</time></trkpt><trkpt lat="40.010759" lon="116.383636"><ele>33.5</ele><time>2024-04-27T10:49:44.000Z</time></trkpt><trkpt lat="40.010743" lon="116.384187"><ele>33.6</ele><time>2024-04-27T10:49:53.000Z</time></trkpt><trkpt lat="40.010606" lon="116.38469"><ele>34.6</ele><time>2024-04-27T10:50:03.000Z</time></trkpt><trkpt lat="40.010436" lon="116.384986"><ele>35.2</ele><time>2024-04-27T10:50:11.000Z</time></trkpt></trkseg></trk></gpx>