<?xml version="1.0" encoding="UTF-8"?><gpx creator="Health" xsi:schemaLocation="http://www.topografix.com/GPX/1/0 http://www.topografix.com/GPX/1/0/gpx.xsd" version="1.0" xmlns="http://www.topografix.com/GPX/1/0" xmlns:xsi="http://www.w3.org/2001/XMLSchema-instance"><metadata><time>2024-06-01T23:31:19.000Z</time></metadata><trk><type>户外跑步</type><extensions><totalTime>9364.0</totalTime><cumulativeDecrease>99.4000015258789</cumulativeDecrease><cumulativeClimb>106.5999984741211</cumulativeClimb><totalDistance>21100.0</totalDistance></extensions><trkseg><trkpt lat="40.069228" lon="116.458322"><ele>26.8</ele><time>2024-06-01T23:31:19.000Z</time></trkpt><trkpt lat="40.069291" lon="116.45908"><ele>26.8</ele><time>2024-06-01T23:31:41.000Z</time></trkpt><trkpt lat="40.069403" lon="116.459431"><ele>26.8</ele><time>2024-06-01T23:31:52.000Z</time></trkpt><trkpt lat="40.069489" lon="116.459593"><ele>26.7</ele><time>2024-06-01T23:31:58.000Z</time></trkpt><trkpt lat="40.069594" lon="116.459711"><ele>26.7</ele><time>2024-06-01T23:32:03.000Z</time></trkpt><trkpt lat="40.069844" lon="116.459867"><ele>26.8</ele><time>2024-06-01T23:32:14.000Z</time></trkpt><trkpt lat="40.070126" lon="116.459943"><ele>26.8</ele><time>2024-06-01T23:32:25.000Z</time></trkpt><trkpt lat="40.070407" lon="116.459923"><ele>27.1</ele><time>2024-06-01T23:32:35.000Z</time></trkpt><trkpt lat="40.070686" lon="116.45982"><ele>27.3</ele><time>2024-06-01T23:32:45.000Z</time></trkpt><trkpt lat="40.071292" lon="116.45949"><ele>26.9</ele><time>2024-06-01T23:33:12.000Z</time></trkpt><trkpt lat="40.071556" lon="116.45942"><ele>26.8</ele><time>2024-06-01T23:33:23.000Z</time></trkpt><trkpt lat="40.071765" lon="116.459446"><ele>26.9</ele><time>2024-06-01T23:33:31.000Z</time></trkpt><trkpt lat="40.071895" lon="116.459504"><ele>27.0</ele><time>2024-06-01T23:33:36.000Z</time></trkpt><trkpt lat="40.072041" lon="116.459629"><ele>27.0</ele><time>2024-06-01T23:33:42.000Z</time></trkpt><trkpt lat="40.072375" lon="116.460025"><ele>26.3</ele><time>2024-06-01T23:34:00.000Z</time></trkpt><trkpt lat="40.072656" lon="116.460299"><ele>26.1</ele><time>2024-06-01T23:34:14.000Z</time></trkpt><trkpt lat="40.073232" lon="116.460714"><ele>26.4</ele><time>2024-06-01T23:34:40.000Z</time></trkpt><trkpt lat="40.073614" lon="116.460838"><ele>26.6</ele><time>2024-06-01T23:34:55.000Z</time></trkpt><trkpt lat="40.074292" lon="116.460788"><ele>26.9</ele><time>2024-06-01T23:35:22.000Z</time></trkpt><trkpt lat="40.074645" lon="116.460829"><ele>26.8</ele><time>2024-06-01T23:35:36.000Z</time></trkpt><trkpt lat="40.074926" lon="116.460738"><ele>26.6</ele><time>2024-06-01T23:35:48.000Z</time></trkpt><trkpt lat="40.075027" lon="116.46074"><ele>26.6</ele><time>2024-06-01T23:35:52.000Z</time></trkpt><trkpt lat="40.075188" lon="116.460844"><ele>27.0</ele><time>2024-06-01T23:35:59.000Z</time></trkpt><trkpt lat="40.07546" lon="116.46114"><ele>27.0</ele><time>2024-06-01T23:36:13.000Z</time></trkpt><trkpt lat="40.07583" lon="116.461394"><ele>27.0</ele><time>2024-06-01T23:36:30.000Z</time></trkpt><trkpt lat="40.076023" lon="116.461487"><ele>27.4</ele><time>2024-06-01T23:36:38.000Z</time></trkpt><trkpt lat="40.076211" lon="116.461652"><ele>28.0</ele><time>2024-06-01T23:36:46.000Z</time></trkpt><trkpt lat="40.076302" lon="116.461684"><ele>27.7</ele><time>2024-06-01T23:36:50.000Z</time></trkpt><trkpt lat="40.076534" lon="116.46167"><ele>26.6</ele><time>2024-06-01T23:37:00.000Z</time></trkpt><trkpt lat="40.076624" lon="116.461732"><ele>26.2</ele><time>2024-06-01T23:37:04.000Z</time></trkpt><trkpt lat="40.076689" lon="116.461842"><ele>26.2</ele><time>2024-06-01T23:37:08.000Z</time></trkpt><trkpt lat="40.07678" lon="116.462132"><ele>25.7</ele><time>2024-06-01T23:37:16.000Z</time></trkpt><trkpt lat="40.076709" lon="116.462487"><ele>25.5</ele><time>2024-06-01T23:37:26.000Z</time></trkpt><trkpt lat="40.076592" lon="116.462817"><ele>25.4</ele><time>2024-06-01T23:37:38.000Z</time></trkpt><trkpt lat="40.076336" lon="116.462949"><ele>25.5</ele><time>2024-06-01T23:37:50.000Z</time></trkpt><trkpt lat="40.076232" lon="116.463225"><ele>26.3</ele><time>2024-06-01T23:38:00.000Z</time></trkpt><trkpt lat="40.076136" lon="116.463364"><ele>26.9</ele><time>2024-06-01T23:38:06.000Z</time></trkpt><trkpt lat="40.075473" lon="116.463885"><ele>28.5</ele><time>2024-06-01T23:38:38.000Z</time></trkpt><trkpt lat="40.075201" lon="116.464019"><ele>28.2</ele><time>2024-06-01T23:38:50.000Z</time></trkpt><trkpt lat="40.075139" lon="116.46401"><ele>28.2</ele><time>2024-06-01T23:38:53.000Z</time></trkpt><trkpt lat="40.075093" lon="116.463958"><ele>28.1</ele><time>2024-06-01T23:38:56.000Z</time></trkpt><trkpt lat="40.074913" lon="116.463469"><ele>27.7</ele><time>2024-06-01T23:39:13.000Z</time></trkpt><trkpt lat="40.074748" lon="116.463245"><ele>27.6</ele><time>2024-06-01T23:39:23.000Z</time></trkpt><trkpt lat="40.074613" lon="116.463176"><ele>27.6</ele><time>2024-06-01T23:39:29.000Z</time></trkpt><trkpt lat="40.073797" lon="116.462986"><ele>27.4</ele><time>2024-06-01T23:40:03.000Z</time></trkpt><trkpt lat="40.073578" lon="116.462769"><ele>27.5</ele><time>2024-06-01T23:40:14.000Z</time></trkpt><trkpt lat="40.073263" lon="116.462355"><ele>27.4</ele><time>2024-06-01T23:40:32.000Z</time></trkpt><trkpt lat="40.073039" lon="116.462194"><ele>27.4</ele><time>2024-06-01T23:40:42.000Z</time></trkpt><trkpt lat="40.072283" lon="116.4621"><ele>27.4</ele><time>2024-06-01T23:41:12.000Z</time></trkpt><trkpt lat="40.071465" lon="116.46186"><ele>27.2</ele><time>2024-06-01T23:41:47.000Z</time></trkpt><trkpt lat="40.071293" lon="116.461849"><ele>27.6</ele><time>2024-06-01T23:41:54.000Z</time></trkpt><trkpt lat="40.071074" lon="116.461926"><ele>27.7</ele><time>2024-06-01T23:42:03.000Z</time></trkpt><trkpt lat="40.070896" lon="116.462091"><ele>27.8</ele><time>2024-06-01T23:42:12.000Z</time></trkpt><trkpt lat="40.070808" lon="116.462252"><ele>27.8</ele><time>2024-06-01T23:42:18.000Z</time></trkpt><trkpt lat="40.070747" lon="116.462526"><ele>27.8</ele><time>2024-06-01T23:42:26.000Z</time></trkpt><trkpt lat="40.070812" lon="116.463235"><ele>27.7</ele><time>2024-06-01T23:42:47.000Z</time></trkpt><trkpt lat="40.070925" lon="116.463878"><ele>27.8</ele><time>2024-06-01T23:43:07.000Z</time></trkpt><trkpt lat="40.070937" lon="116.464202"><ele>27.6</ele><time>2024-06-01T23:43:17.000Z</time></trkpt><trkpt lat="40.070906" lon="116.464726"><ele>27.8</ele><time>2024-06-01T23:43:33.000Z</time></trkpt><trkpt lat="40.070924" lon="116.464982"><ele>28.0</ele><time>2024-06-01T23:43:41.000Z</time></trkpt><trkpt lat="40.071127" lon="116.465925"><ele>28.3</ele><time>2024-06-01T23:44:12.000Z</time></trkpt><trkpt lat="40.071512" lon="116.466897"><ele>28.4</ele><time>2024-06-01T23:45:06.000Z</time></trkpt><trkpt lat="40.071553" lon="116.467129"><ele>28.4</ele><time>2024-06-01T23:45:13.000Z</time></trkpt><trkpt lat="40.071546" lon="116.467467"><ele>28.3</ele><time>2024-06-01T23:45:23.000Z</time></trkpt><trkpt lat="40.071468" lon="116.467803"><ele>28.3</ele><time>2024-06-01T23:45:33.000Z</time></trkpt><trkpt lat="40.071444" lon="116.4681"><ele>28.4</ele><time>2024-06-01T23:45:40.000Z</time></trkpt><trkpt lat="40.071445" lon="116.468259"><ele>28.4</ele><time>2024-06-01T23:45:44.000Z</time></trkpt><trkpt lat="40.071503" lon="116.46846"><ele>28.3</ele><time>2024-06-01T23:45:50.000Z</time></trkpt><trkpt lat="40.07189" lon="116.469002"><ele>27.8</ele><time>2024-06-01T23:46:12.000Z</time></trkpt><trkpt lat="40.072257" lon="116.469008"><ele>28.0</ele><time>2024-06-01T23:46:27.000Z</time></trkpt><trkpt lat="40.072674" lon="116.469212"><ele>28.1</ele><time>2024-06-01T23:46:45.000Z</time></trkpt><trkpt lat="40.072878" lon="116.469176"><ele>28.2</ele><time>2024-06-01T23:46:53.000Z</time></trkpt><trkpt lat="40.073083" lon="116.46905"><ele>28.4</ele><time>2024-06-01T23:47:02.000Z</time></trkpt><trkpt lat="40.073226" lon="116.468878"><ele>28.7</ele><time>2024-06-01T23:47:10.000Z</time></trkpt><trkpt lat="40.073364" lon="116.468573"><ele>29.0</ele><time>2024-06-01T23:47:24.000Z</time></trkpt><trkpt lat="40.073171" lon="116.468986"><ele>29.0</ele><time>2024-06-01T23:47:40.000Z</time></trkpt><trkpt lat="40.073027" lon="116.469112"><ele>29.0</ele><time>2024-06-01T23:47:47.000Z</time></trkpt><trkpt lat="40.072876" lon="116.469186"><ele>29.0</ele><time>2024-06-01T23:47:53.000Z</time></trkpt><trkpt lat="40.072614" lon="116.469221"><ele>29.0</ele><time>2024-06-01T23:48:03.000Z</time></trkpt><trkpt lat="40.072203" lon="116.46902"><ele>28.5</ele><time>2024-06-01T23:48:19.000Z</time></trkpt><trkpt lat="40.07204" lon="116.469044"><ele>28.4</ele><time>2024-06-01T23:48:25.000Z</time></trkpt><trkpt lat="40.071947" lon="116.469134"><ele>28.3</ele><time>2024-06-01T23:48:30.000Z</time></trkpt><trkpt lat="40.072007" lon="116.469386"><ele>28.2</ele><time>2024-06-01T23:48:38.000Z</time></trkpt><trkpt lat="40.072463" lon="116.470034"><ele>28.1</ele><time>2024-06-01T23:49:06.000Z</time></trkpt><trkpt lat="40.072605" lon="116.47037"><ele>28.1</ele><time>2024-06-01T23:49:18.000Z</time></trkpt><trkpt lat="40.072655" lon="116.470721"><ele>28.1</ele><time>2024-06-01T23:49:28.000Z</time></trkpt><trkpt lat="40.072686" lon="116.471552"><ele>27.8</ele><time>2024-06-01T23:49:54.000Z</time></trkpt><trkpt lat="40.072789" lon="116.471892"><ele>27.7</ele><time>2024-06-01T23:50:05.000Z</time></trkpt><trkpt lat="40.073074" lon="116.472286"><ele>27.6</ele><time>2024-06-01T23:50:22.000Z</time></trkpt><trkpt lat="40.073264" lon="116.472484"><ele>27.7</ele><time>2024-06-01T23:50:32.000Z</time></trkpt><trkpt lat="40.073407" lon="116.472582"><ele>28.0</ele><time>2024-06-01T23:50:39.000Z</time></trkpt><trkpt lat="40.073647" lon="116.472601"><ele>29.0</ele><time>2024-06-01T23:50:49.000Z</time></trkpt><trkpt lat="40.074145" lon="116.472404"><ele>32.1</ele><time>2024-06-01T23:51:14.000Z</time></trkpt><trkpt lat="40.074333" lon="116.472403"><ele>32.5</ele><time>2024-06-01T23:51:23.000Z</time></trkpt><trkpt lat="40.074599" lon="116.472575"><ele>33.0</ele><time>2024-06-01T23:51:35.000Z</time></trkpt><trkpt lat="40.075094" lon="116.473048"><ele>30.2</ele><time>2024-06-01T23:52:01.000Z</time></trkpt><trkpt lat="40.075416" lon="116.473153"><ele>27.7</ele><time>2024-06-01T23:52:14.000Z</time></trkpt><trkpt lat="40.075841" lon="116.473197"><ele>26.1</ele><time>2024-06-01T23:52:32.000Z</time></trkpt><trkpt lat="40.076024" lon="116.473102"><ele>25.9</ele><time>2024-06-01T23:52:40.000Z</time></trkpt><trkpt lat="40.076322" lon="116.472726"><ele>25.4</ele><time>2024-06-01T23:52:57.000Z</time></trkpt><trkpt lat="40.076593" lon="116.472584"><ele>25.2</ele><time>2024-06-01T23:53:10.000Z</time></trkpt><trkpt lat="40.076762" lon="116.472576"><ele>25.2</ele><time>2024-06-01T23:53:17.000Z</time></trkpt><trkpt lat="40.077102" lon="116.472672"><ele>25.4</ele><time>2024-06-01T23:53:32.000Z</time></trkpt><trkpt lat="40.077316" lon="116.472691"><ele>25.4</ele><time>2024-06-01T23:53:40.000Z</time></trkpt><trkpt lat="40.077489" lon="116.472627"><ele>25.3</ele><time>2024-06-01T23:53:47.000Z</time></trkpt><trkpt lat="40.077921" lon="116.472332"><ele>25.1</ele><time>2024-06-01T23:54:06.000Z</time></trkpt><trkpt lat="40.078138" lon="116.47225"><ele>25.3</ele><time>2024-06-01T23:54:15.000Z</time></trkpt><trkpt lat="40.078312" lon="116.472228"><ele>25.3</ele><time>2024-06-01T23:54:22.000Z</time></trkpt><trkpt lat="40.078609" lon="116.472341"><ele>25.1</ele><time>2024-06-01T23:54:35.000Z</time></trkpt><trkpt lat="40.078794" lon="116.47233"><ele>25.1</ele><time>2024-06-01T23:54:43.000Z</time></trkpt><trkpt lat="40.078945" lon="116.472206"><ele>25.3</ele><time>2024-06-01T23:54:50.000Z</time></trkpt><trkpt lat="40.079133" lon="116.471956"><ele>26.0</ele><time>2024-06-01T23:55:01.000Z</time></trkpt><trkpt lat="40.079231" lon="116.47178"><ele>26.5</ele><time>2024-06-01T23:55:08.000Z</time></trkpt><trkpt lat="40.079301" lon="116.471549"><ele>26.8</ele><time>2024-06-01T23:55:16.000Z</time></trkpt><trkpt lat="40.079296" lon="116.471244"><ele>26.2</ele><time>2024-06-01T23:55:26.000Z</time></trkpt><trkpt lat="40.079117" lon="116.470742"><ele>25.4</ele><time>2024-06-01T23:55:44.000Z</time></trkpt><trkpt lat="40.079069" lon="116.470412"><ele>25.4</ele><time>2024-06-01T23:55:55.000Z</time></trkpt><trkpt lat="40.079081" lon="116.470075"><ele>25.6</ele><time>2024-06-01T23:56:06.000Z</time></trkpt><trkpt lat="40.079192" lon="116.469402"><ele>26.3</ele><time>2024-06-01T23:56:28.000Z</time></trkpt><trkpt lat="40.079159" lon="116.468894"><ele>26.8</ele><time>2024-06-01T23:56:44.000Z</time></trkpt><trkpt lat="40.079052" lon="116.468426"><ele>27.0</ele><time>2024-06-01T23:56:59.000Z</time></trkpt><trkpt lat="40.078835" lon="116.467929"><ele>27.4</ele><time>2024-06-01T23:57:17.000Z</time></trkpt><trkpt lat="40.078711" lon="116.467562"><ele>27.7</ele><time>2024-06-01T23:57:30.000Z</time></trkpt><trkpt lat="40.078562" lon="116.466747"><ele>28.2</ele><time>2024-06-01T23:57:56.000Z</time></trkpt><trkpt lat="40.078588" lon="116.465953"><ele>28.5</ele><time>2024-06-01T23:58:22.000Z</time></trkpt><trkpt lat="40.078784" lon="116.464901"><ele>28.2</ele><time>2024-06-01T23:59:14.000Z</time></trkpt><trkpt lat="40.07872" lon="116.4644"><ele>27.9</ele><time>2024-06-01T23:59:30.000Z</time></trkpt><trkpt lat="40.078564" lon="116.464027"><ele>27.3</ele><time>2024-06-01T23:59:46.000Z</time></trkpt><trkpt lat="40.078354" lon="116.463764"><ele>27.1</ele><time>2024-06-01T23:59:59.000Z</time></trkpt><trkpt lat="40.077773" lon="116.463391"><ele>26.8</ele><time>2024-06-02T00:00:25.000Z</time></trkpt><trkpt lat="40.077305" lon="116.463217"><ele>27.0</ele><time>2024-06-02T00:00:44.000Z</time></trkpt><trkpt lat="40.076843" lon="116.462886"><ele>27.9</ele><time>2024-06-02T00:01:05.000Z</time></trkpt><trkpt lat="40.076764" lon="116.462661"><ele>26.9</ele><time>2024-06-02T00:01:14.000Z</time></trkpt><trkpt lat="40.076872" lon="116.462359"><ele>25.9</ele><time>2024-06-02T00:01:24.000Z</time></trkpt><trkpt lat="40.076843" lon="116.461635"><ele>25.7</ele><time>2024-06-02T00:01:46.000Z</time></trkpt><trkpt lat="40.076778" lon="116.461394"><ele>25.8</ele><time>2024-06-02T00:01:54.000Z</time></trkpt><trkpt lat="40.07656" lon="116.461021"><ele>26.9</ele><time>2024-06-02T00:02:09.000Z</time></trkpt><trkpt lat="40.07651" lon="116.46084"><ele>27.3</ele><time>2024-06-02T00:02:16.000Z</time></trkpt><trkpt lat="40.076584" lon="116.460735"><ele>27.6</ele><time>2024-06-02T00:02:22.000Z</time></trkpt><trkpt lat="40.076938" lon="116.460733"><ele>28.9</ele><time>2024-06-02T00:02:39.000Z</time></trkpt><trkpt lat="40.077206" lon="116.460883"><ele>29.0</ele><time>2024-06-02T00:02:52.000Z</time></trkpt><trkpt lat="40.077541" lon="116.461242"><ele>29.4</ele><time>2024-06-02T00:03:11.000Z</time></trkpt><trkpt lat="40.077694" lon="116.46129"><ele>29.5</ele><time>2024-06-02T00:03:18.000Z</time></trkpt><trkpt lat="40.078092" lon="116.461328"><ele>29.7</ele><time>2024-06-02T00:03:35.000Z</time></trkpt><trkpt lat="40.078783" lon="116.461242"><ele>29.5</ele><time>2024-06-02T00:04:04.000Z</time></trkpt><trkpt lat="40.079021" lon="116.461072"><ele>29.3</ele><time>2024-06-02T00:04:15.000Z</time></trkpt><trkpt lat="40.079158" lon="116.460913"><ele>29.3</ele><time>2024-06-02T00:04:23.000Z</time></trkpt><trkpt lat="40.079247" lon="116.460719"><ele>29.2</ele><time>2024-06-02T00:04:30.000Z</time></trkpt><trkpt lat="40.079311" lon="116.46048"><ele>29.1</ele><time>2024-06-02T00:04:38.000Z</time></trkpt><trkpt lat="40.079312" lon="116.460064"><ele>28.5</ele><time>2024-06-02T00:04:51.000Z</time></trkpt><trkpt lat="40.079235" lon="116.459623"><ele>27.9</ele><time>2024-06-02T00:05:05.000Z</time></trkpt><trkpt lat="40.079037" lon="116.459172"><ele>27.3</ele><time>2024-06-02T00:05:21.000Z</time></trkpt><trkpt lat="40.078953" lon="116.458858"><ele>26.8</ele><time>2024-06-02T00:05:31.000Z</time></trkpt><trkpt lat="40.078914" lon="116.458492"><ele>26.4</ele><time>2024-06-02T00:05:43.000Z</time></trkpt><trkpt lat="40.078914" lon="116.457556"><ele>26.8</ele><time>2024-06-02T00:06:14.000Z</time></trkpt><trkpt lat="40.078881" lon="116.457351"><ele>27.0</ele><time>2024-06-02T00:06:21.000Z</time></trkpt><trkpt lat="40.078824" lon="116.457209"><ele>27.2</ele><time>2024-06-02T00:06:27.000Z</time></trkpt><trkpt lat="40.078633" lon="116.457"><ele>29.1</ele><time>2024-06-02T00:06:39.000Z</time></trkpt><trkpt lat="40.07807" lon="116.456944"><ele>31.5</ele><time>2024-06-02T00:07:03.000Z</time></trkpt><trkpt lat="40.077696" lon="116.456669"><ele>31.4</ele><time>2024-06-02T00:07:24.000Z</time></trkpt><trkpt lat="40.077511" lon="116.456667"><ele>31.4</ele><time>2024-06-02T00:07:33.000Z</time></trkpt><trkpt lat="40.077245" lon="116.456838"><ele>31.6</ele><time>2024-06-02T00:07:46.000Z</time></trkpt><trkpt lat="40.077128" lon="116.456842"><ele>31.6</ele><time>2024-06-02T00:07:51.000Z</time></trkpt><trkpt lat="40.077037" lon="116.456785"><ele>31.4</ele><time>2024-06-02T00:07:55.000Z</time></trkpt><trkpt lat="40.076877" lon="116.456582"><ele>30.7</ele><time>2024-06-02T00:08:04.000Z</time></trkpt><trkpt lat="40.076723" lon="116.456513"><ele>30.4</ele><time>2024-06-02T00:08:11.000Z</time></trkpt><trkpt lat="40.07657" lon="116.456587"><ele>30.1</ele><time>2024-06-02T00:08:18.000Z</time></trkpt><trkpt lat="40.076311" lon="116.456976"><ele>28.8</ele><time>2024-06-02T00:08:33.000Z</time></trkpt><trkpt lat="40.076188" lon="116.457078"><ele>27.7</ele><time>2024-06-02T00:08:39.000Z</time></trkpt><trkpt lat="40.075839" lon="116.456766"><ele>27.1</ele><time>2024-06-02T00:08:56.000Z</time></trkpt><trkpt lat="40.07553" lon="116.456649"><ele>26.9</ele><time>2024-06-02T00:09:09.000Z</time></trkpt><trkpt lat="40.075196" lon="116.456667"><ele>27.2</ele><time>2024-06-02T00:09:23.000Z</time></trkpt><trkpt lat="40.074809" lon="116.456847"><ele>27.6</ele><time>2024-06-02T00:09:40.000Z</time></trkpt><trkpt lat="40.074622" lon="116.456884"><ele>27.7</ele><time>2024-06-02T00:09:48.000Z</time></trkpt><trkpt lat="40.074134" lon="116.456726"><ele>28.2</ele><time>2024-06-02T00:10:10.000Z</time></trkpt><trkpt lat="40.073866" lon="116.456842"><ele>28.5</ele><time>2024-06-02T00:10:22.000Z</time></trkpt><trkpt lat="40.073516" lon="116.457088"><ele>28.6</ele><time>2024-06-02T00:10:39.000Z</time></trkpt><trkpt lat="40.07315" lon="116.457261"><ele>28.4</ele><time>2024-06-02T00:10:55.000Z</time></trkpt><trkpt lat="40.072792" lon="116.457346"><ele>28.4</ele><time>2024-06-02T00:11:10.000Z</time></trkpt><trkpt lat="40.072526" lon="116.457343"><ele>28.3</ele><time>2024-06-02T00:11:21.000Z</time></trkpt><trkpt lat="40.072276" lon="116.457217"><ele>28.1</ele><time>2024-06-02T00:11:32.000Z</time></trkpt><trkpt lat="40.072124" lon="116.456943"><ele>27.7</ele><time>2024-06-02T00:11:42.000Z</time></trkpt><trkpt lat="40.072074" lon="116.456626"><ele>26.7</ele><time>2024-06-02T00:11:53.000Z</time></trkpt><trkpt lat="40.07215" lon="116.456195"><ele>26.6</ele><time>2024-06-02T00:12:22.000Z</time></trkpt><trkpt lat="40.072144" lon="116.455878"><ele>26.7</ele><time>2024-06-02T00:12:34.000Z</time></trkpt><trkpt lat="40.072059" lon="116.455576"><ele>26.7</ele><time>2024-06-02T00:12:46.000Z</time></trkpt><trkpt lat="40.071876" lon="116.455312"><ele>26.6</ele><time>2024-06-02T00:12:58.000Z</time></trkpt><trkpt lat="40.07166" lon="116.45519"><ele>26.3</ele><time>2024-06-02T00:13:09.000Z</time></trkpt><trkpt lat="40.071328" lon="116.45512"><ele>26.3</ele><time>2024-06-02T00:13:29.000Z</time></trkpt><trkpt lat="40.071099" lon="116.454934"><ele>26.3</ele><time>2024-06-02T00:13:40.000Z</time></trkpt><trkpt lat="40.071039" lon="116.454929"><ele>26.3</ele><time>2024-06-02T00:13:43.000Z</time></trkpt><trkpt lat="40.070977" lon="116.455031"><ele>26.3</ele><time>2024-06-02T00:13:47.000Z</time></trkpt><trkpt lat="40.070795" lon="116.455701"><ele>26.4</ele><time>2024-06-02T00:14:10.000Z</time></trkpt><trkpt lat="40.070762" lon="116.456215"><ele>26.7</ele><time>2024-06-02T00:14:26.000Z</time></trkpt><trkpt lat="40.070823" lon="116.456733"><ele>26.7</ele><time>2024-06-02T00:14:44.000Z</time></trkpt><trkpt lat="40.070927" lon="116.457079"><ele>26.7</ele><time>2024-06-02T00:14:57.000Z</time></trkpt><trkpt lat="40.071192" lon="116.457584"><ele>26.6</ele><time>2024-06-02T00:15:17.000Z</time></trkpt><trkpt lat="40.071276" lon="116.457824"><ele>26.8</ele><time>2024-06-02T00:15:26.000Z</time></trkpt><trkpt lat="40.071318" lon="116.458063"><ele>27.0</ele><time>2024-06-02T00:15:35.000Z</time></trkpt><trkpt lat="40.071389" lon="116.459012"><ele>27.3</ele><time>2024-06-02T00:16:26.000Z</time></trkpt><trkpt lat="40.071457" lon="116.459187"><ele>27.2</ele><time>2024-06-02T00:16:32.000Z</time></trkpt><trkpt lat="40.071583" lon="116.459365"><ele>27.2</ele><time>2024-06-02T00:16:39.000Z</time></trkpt><trkpt lat="40.071945" lon="116.459536"><ele>27.6</ele><time>2024-06-02T00:16:55.000Z</time></trkpt><trkpt lat="40.072494" lon="116.460145"><ele>26.7</ele><time>2024-06-02T00:17:26.000Z</time></trkpt><trkpt lat="40.072853" lon="116.460449"><ele>26.8</ele><time>2024-06-02T00:17:44.000Z</time></trkpt><trkpt lat="40.073257" lon="116.460717"><ele>27.1</ele><time>2024-06-02T00:18:04.000Z</time></trkpt><trkpt lat="40.073609" lon="116.460828"><ele>27.5</ele><time>2024-06-02T00:18:20.000Z</time></trkpt><trkpt lat="40.074251" lon="116.460775"><ele>28.3</ele><time>2024-06-02T00:18:46.000Z</time></trkpt><trkpt lat="40.074683" lon="116.460821"><ele>27.9</ele><time>2024-06-02T00:19:03.000Z</time></trkpt><trkpt lat="40.074922" lon="116.460745"><ele>27.7</ele><time>2024-06-02T00:19:14.000Z</time></trkpt><trkpt lat="40.075052" lon="116.460752"><ele>27.9</ele><time>2024-06-02T00:19:20.000Z</time></trkpt><trkpt lat="40.075198" lon="116.460843"><ele>28.1</ele><time>2024-06-02T00:19:27.000Z</time></trkpt><trkpt lat="40.075415" lon="116.461091"><ele>28.2</ele><time>2024-06-02T00:19:39.000Z</time></trkpt><trkpt lat="40.075829" lon="116.461385"><ele>28.5</ele><time>2024-06-02T00:20:01.000Z</time></trkpt><trkpt lat="40.076011" lon="116.461465"><ele>29.4</ele><time>2024-06-02T00:20:09.000Z</time></trkpt><trkpt lat="40.076207" lon="116.461648"><ele>29.4</ele><time>2024-06-02T00:20:19.000Z</time></trkpt><trkpt lat="40.076299" lon="116.461679"><ele>29.4</ele><time>2024-06-02T00:20:23.000Z</time></trkpt><trkpt lat="40.076532" lon="116.461668"><ele>28.4</ele><time>2024-06-02T00:20:33.000Z</time></trkpt><trkpt lat="40.076622" lon="116.461726"><ele>27.8</ele><time>2024-06-02T00:20:37.000Z</time></trkpt><trkpt lat="40.076688" lon="116.461855"><ele>27.3</ele><time>2024-06-02T00:20:42.000Z</time></trkpt><trkpt lat="40.076727" lon="116.462065"><ele>27.0</ele><time>2024-06-02T00:20:49.000Z</time></trkpt><trkpt lat="40.07671" lon="116.462319"><ele>26.9</ele><time>2024-06-02T00:20:57.000Z</time></trkpt><trkpt lat="40.076638" lon="116.462676"><ele>26.8</ele><time>2024-06-02T00:21:10.000Z</time></trkpt><trkpt lat="40.076581" lon="116.462816"><ele>26.8</ele><time>2024-06-02T00:21:15.000Z</time></trkpt><trkpt lat="40.076323" lon="116.462948"><ele>26.8</ele><time>2024-06-02T00:21:25.000Z</time></trkpt><trkpt lat="40.076194" lon="116.463269"><ele>27.4</ele><time>2024-06-02T00:21:35.000Z</time></trkpt><trkpt lat="40.076094" lon="116.463399"><ele>28.3</ele><time>2024-06-02T00:21:42.000Z</time></trkpt><trkpt lat="40.075527" lon="116.463821"><ele>29.9</ele><time>2024-06-02T00:22:13.000Z</time></trkpt><trkpt lat="40.075179" lon="116.463999"><ele>29.6</ele><time>2024-06-02T00:22:29.000Z</time></trkpt><trkpt lat="40.07509" lon="116.463956"><ele>29.5</ele><time>2024-06-02T00:22:35.000Z</time></trkpt><trkpt lat="40.074912" lon="116.463462"><ele>29.2</ele><time>2024-06-02T00:22:58.000Z</time></trkpt><trkpt lat="40.074844" lon="116.463336"><ele>29.2</ele><time>2024-06-02T00:23:04.000Z</time></trkpt><trkpt lat="40.07472" lon="116.463217"><ele>29.1</ele><time>2024-06-02T00:23:11.000Z</time></trkpt><trkpt lat="40.073766" lon="116.46296"><ele>28.8</ele><time>2024-06-02T00:23:55.000Z</time></trkpt><trkpt lat="40.073524" lon="116.462696"><ele>28.9</ele><time>2024-06-02T00:24:11.000Z</time></trkpt><trkpt lat="40.073378" lon="116.462474"><ele>28.9</ele><time>2024-06-02T00:24:22.000Z</time></trkpt><trkpt lat="40.073184" lon="116.462287"><ele>28.8</ele><time>2024-06-02T00:24:33.000Z</time></trkpt><trkpt lat="40.073036" lon="116.462204"><ele>29.0</ele><time>2024-06-02T00:24:40.000Z</time></trkpt><trkpt lat="40.072282" lon="116.462106"><ele>28.8</ele><time>2024-06-02T00:25:12.000Z</time></trkpt><trkpt lat="40.071535" lon="116.461873"><ele>28.7</ele><time>2024-06-02T00:25:45.000Z</time></trkpt><trkpt lat="40.07127" lon="116.461848"><ele>29.1</ele><time>2024-06-02T00:25:56.000Z</time></trkpt><trkpt lat="40.071047" lon="116.46194"><ele>29.4</ele><time>2024-06-02T00:26:05.000Z</time></trkpt><trkpt lat="40.070872" lon="116.46211"><ele>29.4</ele><time>2024-06-02T00:26:14.000Z</time></trkpt><trkpt lat="40.070774" lon="116.462337"><ele>29.4</ele><time>2024-06-02T00:26:23.000Z</time></trkpt><trkpt lat="40.070747" lon="116.462519"><ele>29.3</ele><time>2024-06-02T00:26:29.000Z</time></trkpt><trkpt lat="40.070814" lon="116.463249"><ele>29.4</ele><time>2024-06-02T00:26:54.000Z</time></trkpt><trkpt lat="40.070928" lon="116.463816"><ele>29.2</ele><time>2024-06-02T00:27:15.000Z</time></trkpt><trkpt lat="40.070935" lon="116.464174"><ele>28.9</ele><time>2024-06-02T00:27:28.000Z</time></trkpt><trkpt lat="40.070901" lon="116.464658"><ele>29.4</ele><time>2024-06-02T00:27:44.000Z</time></trkpt><trkpt lat="40.070929" lon="116.465012"><ele>29.6</ele><time>2024-06-02T00:27:56.000Z</time></trkpt><trkpt lat="40.071128" lon="116.465899"><ele>29.9</ele><time>2024-06-02T00:28:27.000Z</time></trkpt><trkpt lat="40.071302" lon="116.466411"><ele>30.1</ele><time>2024-06-02T00:28:43.000Z</time></trkpt><trkpt lat="40.071505" lon="116.466883"><ele>29.8</ele><time>2024-06-02T00:29:22.000Z</time></trkpt><trkpt lat="40.071555" lon="116.46714"><ele>30.0</ele><time>2024-06-02T00:29:39.000Z</time></trkpt><trkpt lat="40.071559" lon="116.467505"><ele>30.0</ele><time>2024-06-02T00:29:55.000Z</time></trkpt><trkpt lat="40.071472" lon="116.467736"><ele>29.9</ele><time>2024-06-02T00:30:07.000Z</time></trkpt><trkpt lat="40.071493" lon="116.467844"><ele>29.8</ele><time>2024-06-02T00:30:16.000Z</time></trkpt><trkpt lat="40.071452" lon="116.468089"><ele>29.7</ele><time>2024-06-02T00:30:26.000Z</time></trkpt><trkpt lat="40.071504" lon="116.468425"><ele>29.5</ele><time>2024-06-02T00:30:44.000Z</time></trkpt><trkpt lat="40.071896" lon="116.469001"><ele>29.5</ele><time>2024-06-02T00:31:31.000Z</time></trkpt><trkpt lat="40.072267" lon="116.468996"><ele>29.6</ele><time>2024-06-02T00:31:44.000Z</time></trkpt><trkpt lat="40.072677" lon="116.469206"><ele>29.8</ele><time>2024-06-02T00:32:00.000Z</time></trkpt><trkpt lat="40.072882" lon="116.469169"><ele>29.9</ele><time>2024-06-02T00:32:08.000Z</time></trkpt><trkpt lat="40.073058" lon="116.469072"><ele>30.1</ele><time>2024-06-02T00:32:16.000Z</time></trkpt><trkpt lat="40.073239" lon="116.468865"><ele>30.6</ele><time>2024-06-02T00:32:33.000Z</time></trkpt><trkpt lat="40.073361" lon="116.468582"><ele>30.7</ele><time>2024-06-02T00:32:46.000Z</time></trkpt><trkpt lat="40.073185" lon="116.468958"><ele>30.6</ele><time>2024-06-02T00:33:00.000Z</time></trkpt><trkpt lat="40.073039" lon="116.469114"><ele>30.5</ele><time>2024-06-02T00:33:09.000Z</time></trkpt><trkpt lat="40.072918" lon="116.469175"><ele>30.5</ele><time>2024-06-02T00:33:15.000Z</time></trkpt><trkpt lat="40.072766" lon="116.46922"><ele>30.5</ele><time>2024-06-02T00:33:21.000Z</time></trkpt><trkpt lat="40.0726" lon="116.469212"><ele>30.4</ele><time>2024-06-02T00:33:28.000Z</time></trkpt><trkpt lat="40.072316" lon="116.469033"><ele>30.1</ele><time>2024-06-02T00:33:41.000Z</time></trkpt><trkpt lat="40.072208" lon="116.469005"><ele>29.9</ele><time>2024-06-02T00:33:45.000Z</time></trkpt><trkpt lat="40.072017" lon="116.469037"><ele>29.8</ele><time>2024-06-02T00:33:52.000Z</time></trkpt><trkpt lat="40.07193" lon="116.469121"><ele>29.7</ele><time>2024-06-02T00:33:57.000Z</time></trkpt><trkpt lat="40.071943" lon="116.469242"><ele>29.7</ele><time>2024-06-02T00:34:01.000Z</time></trkpt><trkpt lat="40.072011" lon="116.469391"><ele>29.6</ele><time>2024-06-02T00:34:06.000Z</time></trkpt><trkpt lat="40.07242" lon="116.469955"><ele>29.6</ele><time>2024-06-02T00:34:32.000Z</time></trkpt><trkpt lat="40.072566" lon="116.470252"><ele>29.5</ele><time>2024-06-02T00:34:44.000Z</time></trkpt><trkpt lat="40.072646" lon="116.470667"><ele>29.7</ele><time>2024-06-02T00:34:59.000Z</time></trkpt><trkpt lat="40.072676" lon="116.471544"><ele>29.5</ele><time>2024-06-02T00:35:30.000Z</time></trkpt><trkpt lat="40.072774" lon="116.471875"><ele>29.5</ele><time>2024-06-02T00:35:42.000Z</time></trkpt><trkpt lat="40.073071" lon="116.47228"><ele>29.6</ele><time>2024-06-02T00:35:59.000Z</time></trkpt><trkpt lat="40.073308" lon="116.472516"><ele>29.7</ele><time>2024-06-02T00:36:06.000Z</time></trkpt><trkpt lat="40.073434" lon="116.472596"><ele>29.9</ele><time>2024-06-02T00:36:09.000Z</time></trkpt><trkpt lat="40.07363" lon="116.472625"><ele>30.5</ele><time>2024-06-02T00:36:14.000Z</time></trkpt><trkpt lat="40.074132" lon="116.472419"><ele>33.4</ele><time>2024-06-02T00:36:37.000Z</time></trkpt><trkpt lat="40.074319" lon="116.472404"><ele>34.5</ele><time>2024-06-02T00:36:46.000Z</time></trkpt><trkpt lat="40.074574" lon="116.472562"><ele>35.0</ele><time>2024-06-02T00:37:01.000Z</time></trkpt><trkpt lat="40.075034" lon="116.473041"><ele>32.3</ele><time>2024-06-02T00:37:30.000Z</time></trkpt><trkpt lat="40.075416" lon="116.473166"><ele>30.0</ele><time>2024-06-02T00:37:48.000Z</time></trkpt><trkpt lat="40.07581" lon="116.473216"><ele>28.3</ele><time>2024-06-02T00:38:07.000Z</time></trkpt><trkpt lat="40.075928" lon="116.473204"><ele>28.3</ele><time>2024-06-02T00:38:13.000Z</time></trkpt><trkpt lat="40.076013" lon="116.473145"><ele>28.3</ele><time>2024-06-02T00:38:18.000Z</time></trkpt><trkpt lat="40.076323" lon="116.472753"><ele>27.6</ele><time>2024-06-02T00:38:39.000Z</time></trkpt><trkpt lat="40.076458" lon="116.472659"><ele>27.6</ele><time>2024-06-02T00:38:47.000Z</time></trkpt><trkpt lat="40.07662" lon="116.472601"><ele>27.4</ele><time>2024-06-02T00:38:55.000Z</time></trkpt><trkpt lat="40.076872" lon="116.472618"><ele>27.5</ele><time>2024-06-02T00:39:07.000Z</time></trkpt><trkpt lat="40.077092" lon="116.472691"><ele>27.4</ele><time>2024-06-02T00:39:29.000Z</time></trkpt><trkpt lat="40.077365" lon="116.472687"><ele>27.2</ele><time>2024-06-02T00:39:42.000Z</time></trkpt><trkpt lat="40.077474" lon="116.472648"><ele>27.3</ele><time>2024-06-02T00:39:47.000Z</time></trkpt><trkpt lat="40.077959" lon="116.472318"><ele>27.1</ele><time>2024-06-02T00:40:11.000Z</time></trkpt><trkpt lat="40.07826" lon="116.472225"><ele>27.4</ele><time>2024-06-02T00:40:24.000Z</time></trkpt><trkpt lat="40.078629" lon="116.472346"><ele>26.9</ele><time>2024-06-02T00:40:41.000Z</time></trkpt><trkpt lat="40.078779" lon="116.472349"><ele>27.0</ele><time>2024-06-02T00:40:48.000Z</time></trkpt><trkpt lat="40.078919" lon="116.47225"><ele>27.0</ele><time>2024-06-02T00:40:55.000Z</time></trkpt><trkpt lat="40.079082" lon="116.472057"><ele>27.6</ele><time>2024-06-02T00:41:05.000Z</time></trkpt><trkpt lat="40.079223" lon="116.471806"><ele>28.1</ele><time>2024-06-02T00:41:15.000Z</time></trkpt><trkpt lat="40.079299" lon="116.471587"><ele>28.3</ele><time>2024-06-02T00:41:23.000Z</time></trkpt><trkpt lat="40.079296" lon="116.471244"><ele>27.5</ele><time>2024-06-02T00:41:34.000Z</time></trkpt><trkpt lat="40.079114" lon="116.470707"><ele>26.8</ele><time>2024-06-02T00:41:54.000Z</time></trkpt><trkpt lat="40.079074" lon="116.47045"><ele>26.8</ele><time>2024-06-02T00:42:03.000Z</time></trkpt><trkpt lat="40.079085" lon="116.470134"><ele>27.0</ele><time>2024-06-02T00:42:14.000Z</time></trkpt><trkpt lat="40.079179" lon="116.469444"><ele>27.5</ele><time>2024-06-02T00:42:40.000Z</time></trkpt><trkpt lat="40.079134" lon="116.4688"><ele>27.9</ele><time>2024-06-02T00:43:04.000Z</time></trkpt><trkpt lat="40.079025" lon="116.468375"><ele>28.0</ele><time>2024-06-02T00:43:20.000Z</time></trkpt><trkpt lat="40.078704" lon="116.467571"><ele>28.5</ele><time>2024-06-02T00:43:52.000Z</time></trkpt><trkpt lat="40.078618" lon="116.467212"><ele>28.8</ele><time>2024-06-02T00:44:05.000Z</time></trkpt><trkpt lat="40.078564" lon="116.466773"><ele>28.9</ele><time>2024-06-02T00:44:20.000Z</time></trkpt><trkpt lat="40.078555" lon="116.4663"><ele>29.1</ele><time>2024-06-02T00:44:36.000Z</time></trkpt><trkpt lat="40.078603" lon="116.465795"><ele>29.0</ele><time>2024-06-02T00:44:54.000Z</time></trkpt><trkpt lat="40.078636" lon="116.46556"><ele>28.7</ele><time>2024-06-02T00:45:13.000Z</time></trkpt><trkpt lat="40.078738" lon="116.465214"><ele>28.4</ele><time>2024-06-02T00:45:55.000Z</time></trkpt><trkpt lat="40.07878" lon="116.464905"><ele>28.5</ele><time>2024-06-02T00:46:16.000Z</time></trkpt><trkpt lat="40.078774" lon="116.464647"><ele>28.3</ele><time>2024-06-02T00:46:27.000Z</time></trkpt><trkpt lat="40.078722" lon="116.464363"><ele>28.0</ele><time>2024-06-02T00:46:39.000Z</time></trkpt><trkpt lat="40.078575" lon="116.464045"><ele>27.6</ele><time>2024-06-02T00:47:01.000Z</time></trkpt><trkpt lat="40.078383" lon="116.463764"><ele>27.2</ele><time>2024-06-02T00:47:23.000Z</time></trkpt><trkpt lat="40.077902" lon="116.463465"><ele>27.1</ele><time>2024-06-02T00:47:59.000Z</time></trkpt><trkpt lat="40.077287" lon="116.463189"><ele>27.3</ele><time>2024-06-02T00:48:13.000Z</time></trkpt><trkpt lat="40.076931" lon="116.462959"><ele>28.8</ele><time>2024-06-02T00:48:28.000Z</time></trkpt><trkpt lat="40.076844" lon="116.462865"><ele>28.9</ele><time>2024-06-02T00:48:32.000Z</time></trkpt><trkpt lat="40.076758" lon="116.462641"><ele>27.1</ele><time>2024-06-02T00:48:44.000Z</time></trkpt><trkpt lat="40.076775" lon="116.462575"><ele>26.6</ele><time>2024-06-02T00:48:52.000Z</time></trkpt><trkpt lat="40.076815" lon="116.462572"><ele>26.1</ele><time>2024-06-02T00:49:02.000Z</time></trkpt><trkpt lat="40.076869" lon="116.462377"><ele>26.1</ele><time>2024-06-02T00:49:22.000Z</time></trkpt><trkpt lat="40.076866" lon="116.461905"><ele>26.6</ele><time>2024-06-02T00:49:40.000Z</time></trkpt><trkpt lat="40.076837" lon="116.461706"><ele>26.7</ele><time>2024-06-02T00:49:47.000Z</time></trkpt><trkpt lat="40.076755" lon="116.461377"><ele>26.7</ele><time>2024-06-02T00:49:55.000Z</time></trkpt><trkpt lat="40.076555" lon="116.460992"><ele>26.9</ele><time>2024-06-02T00:50:02.000Z</time></trkpt><trkpt lat="40.076511" lon="116.46085"><ele>27.6</ele><time>2024-06-02T00:50:05.000Z</time></trkpt><trkpt lat="40.076534" lon="116.460758"><ele>27.6</ele><time>2024-06-02T00:50:08.000Z</time></trkpt><trkpt lat="40.076595" lon="116.460726"><ele>28.7</ele><time>2024-06-02T00:50:11.000Z</time></trkpt><trkpt lat="40.076907" lon="116.460746"><ele>30.1</ele><time>2024-06-02T00:50:31.000Z</time></trkpt><trkpt lat="40.077213" lon="116.460901"><ele>30.3</ele><time>2024-06-02T00:50:55.000Z</time></trkpt><trkpt lat="40.077557" lon="116.461246"><ele>30.8</ele><time>2024-06-02T00:51:17.000Z</time></trkpt><trkpt lat="40.078073" lon="116.461336"><ele>31.2</ele><time>2024-06-02T00:51:41.000Z</time></trkpt><trkpt lat="40.078774" lon="116.461273"><ele>31.1</ele><time>2024-06-02T00:52:18.000Z</time></trkpt><trkpt lat="40.078939" lon="116.461171"><ele>31.0</ele><time>2024-06-02T00:52:27.000Z</time></trkpt><trkpt lat="40.079162" lon="116.460914"><ele>31.0</ele><time>2024-06-02T00:52:40.000Z</time></trkpt><trkpt lat="40.079298" lon="116.460567"><ele>30.9</ele><time>2024-06-02T00:52:53.000Z</time></trkpt><trkpt lat="40.079325" lon="116.460357"><ele>30.5</ele><time>2024-06-02T00:53:00.000Z</time></trkpt><trkpt lat="40.079308" lon="116.460113"><ele>30.0</ele><time>2024-06-02T00:53:09.000Z</time></trkpt><trkpt lat="40.079227" lon="116.459652"><ele>29.5</ele><time>2024-06-02T00:53:27.000Z</time></trkpt><trkpt lat="40.079027" lon="116.459182"><ele>28.9</ele><time>2024-06-02T00:53:45.000Z</time></trkpt><trkpt lat="40.07895" lon="116.458898"><ele>28.3</ele><time>2024-06-02T00:53:55.000Z</time></trkpt><trkpt lat="40.078906" lon="116.458519"><ele>27.6</ele><time>2024-06-02T00:54:09.000Z</time></trkpt><trkpt lat="40.078908" lon="116.457614"><ele>28.0</ele><time>2024-06-02T00:54:30.000Z</time></trkpt><trkpt lat="40.078832" lon="116.457236"><ele>28.3</ele><time>2024-06-02T00:54:36.000Z</time></trkpt><trkpt lat="40.078655" lon="116.456997"><ele>28.9</ele><time>2024-06-02T00:54:43.000Z</time></trkpt><trkpt lat="40.078027" lon="116.456936"><ele>32.5</ele><time>2024-06-02T00:55:27.000Z</time></trkpt><trkpt lat="40.077731" lon="116.456675"><ele>32.1</ele><time>2024-06-02T00:55:58.000Z</time></trkpt><trkpt lat="40.077542" lon="116.456679"><ele>32.3</ele><time>2024-06-02T00:56:16.000Z</time></trkpt><trkpt lat="40.077234" lon="116.456873"><ele>32.1</ele><time>2024-06-02T00:56:49.000Z</time></trkpt><trkpt lat="40.077115" lon="116.456878"><ele>31.8</ele><time>2024-06-02T00:57:01.000Z</time></trkpt><trkpt lat="40.077005" lon="116.456796"><ele>31.6</ele><time>2024-06-02T00:57:15.000Z</time></trkpt><trkpt lat="40.076859" lon="116.456597"><ele>31.0</ele><time>2024-06-02T00:57:36.000Z</time></trkpt><trkpt lat="40.076692" lon="116.456537"><ele>30.5</ele><time>2024-06-02T00:57:49.000Z</time></trkpt><trkpt lat="40.076568" lon="116.456597"><ele>30.4</ele><time>2024-06-02T00:57:58.000Z</time></trkpt><trkpt lat="40.076382" lon="116.456892"><ele>29.1</ele><time>2024-06-02T00:58:22.000Z</time></trkpt><trkpt lat="40.076206" lon="116.45708"><ele>28.5</ele><time>2024-06-02T00:58:35.000Z</time></trkpt><trkpt lat="40.076123" lon="116.457043"><ele>28.4</ele><time>2024-06-02T00:58:40.000Z</time></trkpt><trkpt lat="40.075861" lon="116.456792"><ele>28.2</ele><time>2024-06-02T00:58:54.000Z</time></trkpt><trkpt lat="40.075759" lon="116.456735"><ele>28.2</ele><time>2024-06-02T00:58:59.000Z</time></trkpt><trkpt lat="40.075509" lon="116.456649"><ele>28.3</ele><time>2024-06-02T00:59:10.000Z</time></trkpt><trkpt lat="40.075314" lon="116.456645"><ele>28.5</ele><time>2024-06-02T00:59:18.000Z</time></trkpt><trkpt lat="40.075057" lon="116.456709"><ele>29.1</ele><time>2024-06-02T00:59:29.000Z</time></trkpt><trkpt lat="40.07485" lon="116.456829"><ele>29.3</ele><time>2024-06-02T00:59:39.000Z</time></trkpt><trkpt lat="40.074654" lon="116.45688"><ele>29.3</ele><time>2024-06-02T00:59:47.000Z</time></trkpt><trkpt lat="40.074227" lon="116.456741"><ele>29.9</ele><time>2024-06-02T01:00:05.000Z</time></trkpt><trkpt lat="40.074088" lon="116.45674"><ele>30.1</ele><time>2024-06-02T01:00:11.000Z</time></trkpt><trkpt lat="40.07389" lon="116.456825"><ele>30.5</ele><time>2024-06-02T01:00:20.000Z</time></trkpt><trkpt lat="40.073497" lon="116.457103"><ele>30.6</ele><time>2024-06-02T01:00:40.000Z</time></trkpt><trkpt lat="40.07313" lon="116.457273"><ele>30.4</ele><time>2024-06-02T01:00:58.000Z</time></trkpt><trkpt lat="40.072757" lon="116.457346"><ele>30.5</ele><time>2024-06-02T01:01:15.000Z</time></trkpt><trkpt lat="40.072472" lon="116.457329"><ele>30.5</ele><time>2024-06-02T01:01:32.000Z</time></trkpt><trkpt lat="40.072278" lon="116.457216"><ele>30.1</ele><time>2024-06-02T01:01:45.000Z</time></trkpt><trkpt lat="40.072118" lon="116.456933"><ele>29.9</ele><time>2024-06-02T01:01:52.000Z</time></trkpt><trkpt lat="40.072066" lon="116.456622"><ele>29.4</ele><time>2024-06-02T01:02:01.000Z</time></trkpt><trkpt lat="40.072153" lon="116.456232"><ele>29.1</ele><time>2024-06-02T01:02:34.000Z</time></trkpt><trkpt lat="40.072154" lon="116.455965"><ele>29.4</ele><time>2024-06-02T01:02:56.000Z</time></trkpt><trkpt lat="40.072081" lon="116.455618"><ele>29.1</ele><time>2024-06-02T01:03:16.000Z</time></trkpt><trkpt lat="40.07192" lon="116.455362"><ele>29.0</ele><time>2024-06-02T01:03:37.000Z</time></trkpt><trkpt lat="40.071767" lon="116.455226"><ele>29.0</ele><time>2024-06-02T01:03:50.000Z</time></trkpt><trkpt lat="40.071324" lon="116.455129"><ele>29.2</ele><time>2024-06-02T01:04:12.000Z</time></trkpt><trkpt lat="40.071069" lon="116.454906"><ele>29.4</ele><time>2024-06-02T01:04:25.000Z</time></trkpt><trkpt lat="40.07099" lon="116.454986"><ele>29.5</ele><time>2024-06-02T01:04:30.000Z</time></trkpt><trkpt lat="40.070806" lon="116.455644"><ele>29.6</ele><time>2024-06-02T01:04:54.000Z</time></trkpt><trkpt lat="40.070755" lon="116.456171"><ele>29.8</ele><time>2024-06-02T01:05:11.000Z</time></trkpt><trkpt lat="40.070838" lon="116.456785"><ele>29.8</ele><time>2024-06-02T01:05:32.000Z</time></trkpt><trkpt lat="40.07092" lon="116.457057"><ele>29.8</ele><time>2024-06-02T01:05:43.000Z</time></trkpt><trkpt lat="40.071259" lon="116.457773"><ele>30.2</ele><time>2024-06-02T01:06:11.000Z</time></trkpt><trkpt lat="40.071318" lon="116.458055"><ele>30.1</ele><time>2024-06-02T01:06:33.000Z</time></trkpt><trkpt lat="40.071402" lon="116.459003"><ele>30.1</ele><time>2024-06-02T01:08:14.000Z</time></trkpt><trkpt lat="40.071467" lon="116.459176"><ele>29.9</ele><time>2024-06-02T01:08:20.000Z</time></trkpt><trkpt lat="40.071574" lon="116.45931"><ele>29.8</ele><time>2024-06-02T01:08:26.000Z</time></trkpt><trkpt lat="40.071979" lon="116.459556"><ele>30.1</ele><time>2024-06-02T01:08:45.000Z</time></trkpt><trkpt lat="40.072191" lon="116.459825"><ele>30.1</ele><time>2024-06-02T01:08:58.000Z</time></trkpt><trkpt lat="40.072559" lon="116.4602"><ele>29.2</ele><time>2024-06-02T01:09:22.000Z</time></trkpt><trkpt lat="40.073118" lon="116.460667"><ele>30.0</ele><time>2024-06-02T01:09:56.000Z</time></trkpt><trkpt lat="40.073495" lon="116.460832"><ele>30.1</ele><time>2024-06-02T01:10:14.000Z</time></trkpt><trkpt lat="40.07386" lon="116.460872"><ele>30.3</ele><time>2024-06-02T01:10:30.000Z</time></trkpt><trkpt lat="40.074346" lon="116.460817"><ele>30.8</ele><time>2024-06-02T01:10:52.000Z</time></trkpt><trkpt lat="40.074688" lon="116.460868"><ele>30.3</ele><time>2024-06-02T01:11:08.000Z</time></trkpt><trkpt lat="40.074918" lon="116.460793"><ele>30.2</ele><time>2024-06-02T01:11:20.000Z</time></trkpt><trkpt lat="40.075049" lon="116.460804"><ele>30.5</ele><time>2024-06-02T01:11:26.000Z</time></trkpt><trkpt lat="40.07547" lon="116.461192"><ele>30.8</ele><time>2024-06-02T01:11:48.000Z</time></trkpt><trkpt lat="40.075801" lon="116.461393"><ele>31.5</ele><time>2024-06-02T01:12:11.000Z</time></trkpt><trkpt lat="40.075692" lon="116.461256"><ele>32.2</ele><time>2024-06-02T01:12:26.000Z</time></trkpt><trkpt lat="40.075815" lon="116.461371"><ele>32.0</ele><time>2024-06-02T01:12:37.000Z</time></trkpt><trkpt lat="40.075999" lon="116.461447"><ele>32.0</ele><time>2024-06-02T01:12:45.000Z</time></trkpt><trkpt lat="40.07619" lon="116.461641"><ele>31.6</ele><time>2024-06-02T01:12:56.000Z</time></trkpt><trkpt lat="40.076295" lon="116.461664"><ele>31.1</ele><time>2024-06-02T01:13:02.000Z</time></trkpt><trkpt lat="40.076467" lon="116.461623"><ele>29.7</ele><time>2024-06-02T01:13:14.000Z</time></trkpt><trkpt lat="40.076564" lon="116.461648"><ele>29.7</ele><time>2024-06-02T01:13:18.000Z</time></trkpt><trkpt lat="40.076648" lon="116.461733"><ele>29.4</ele><time>2024-06-02T01:13:22.000Z</time></trkpt><trkpt lat="40.076711" lon="116.461876"><ele>29.3</ele><time>2024-06-02T01:13:27.000Z</time></trkpt><trkpt lat="40.076743" lon="116.462064"><ele>29.2</ele><time>2024-06-02T01:13:34.000Z</time></trkpt><trkpt lat="40.076587" lon="116.462756"><ele>28.8</ele><time>2024-06-02T01:14:00.000Z</time></trkpt><trkpt lat="40.076324" lon="116.462932"><ele>29.0</ele><time>2024-06-02T01:14:14.000Z</time></trkpt><trkpt lat="40.07624" lon="116.463213"><ele>29.8</ele><time>2024-06-02T01:14:26.000Z</time></trkpt><trkpt lat="40.076161" lon="116.463324"><ele>30.4</ele><time>2024-06-02T01:14:32.000Z</time></trkpt><trkpt lat="40.075624" lon="116.46374"><ele>31.7</ele><time>2024-06-02T01:15:02.000Z</time></trkpt><trkpt lat="40.07522" lon="116.463956"><ele>31.6</ele><time>2024-06-02T01:15:21.000Z</time></trkpt><trkpt lat="40.075101" lon="116.463901"><ele>31.5</ele><time>2024-06-02T01:15:27.000Z</time></trkpt><trkpt lat="40.074899" lon="116.46342"><ele>31.1</ele><time>2024-06-02T01:15:46.000Z</time></trkpt><trkpt lat="40.074762" lon="116.46325"><ele>31.0</ele><time>2024-06-02T01:15:54.000Z</time></trkpt><trkpt lat="40.074597" lon="116.463167"><ele>31.0</ele><time>2024-06-02T01:16:02.000Z</time></trkpt><trkpt lat="40.074353" lon="116.463149"><ele>30.9</ele><time>2024-06-02T01:16:12.000Z</time></trkpt><trkpt lat="40.073774" lon="116.463002"><ele>30.6</ele><time>2024-06-02T01:16:37.000Z</time></trkpt><trkpt lat="40.073285" lon="116.46238"><ele>30.7</ele><time>2024-06-02T01:17:09.000Z</time></trkpt><trkpt lat="40.073038" lon="116.462213"><ele>30.9</ele><time>2024-06-02T01:17:22.000Z</time></trkpt><trkpt lat="40.072297" lon="116.462128"><ele>30.8</ele><time>2024-06-02T01:17:54.000Z</time></trkpt><trkpt lat="40.071569" lon="116.461899"><ele>30.7</ele><time>2024-06-02T01:18:28.000Z</time></trkpt><trkpt lat="40.071278" lon="116.46187"><ele>31.3</ele><time>2024-06-02T01:18:40.000Z</time></trkpt><trkpt lat="40.071075" lon="116.461936"><ele>31.6</ele><time>2024-06-02T01:18:49.000Z</time></trkpt><trkpt lat="40.070903" lon="116.462094"><ele>31.8</ele><time>2024-06-02T01:18:59.000Z</time></trkpt><trkpt lat="40.070802" lon="116.462293"><ele>31.8</ele><time>2024-06-02T01:19:08.000Z</time></trkpt><trkpt lat="40.070761" lon="116.462502"><ele>31.7</ele><time>2024-06-02T01:19:15.000Z</time></trkpt><trkpt lat="40.070805" lon="116.462857"><ele>31.8</ele><time>2024-06-02T01:19:27.000Z</time></trkpt><trkpt lat="40.070773" lon="116.463093"><ele>31.9</ele><time>2024-06-02T01:19:36.000Z</time></trkpt><trkpt lat="40.070895" lon="116.463811"><ele>31.9</ele><time>2024-06-02T01:20:03.000Z</time></trkpt><trkpt lat="40.070905" lon="116.464372"><ele>31.6</ele><time>2024-06-02T01:20:24.000Z</time></trkpt><trkpt lat="40.070867" lon="116.464914"><ele>32.0</ele><time>2024-06-02T01:20:43.000Z</time></trkpt><trkpt lat="40.071131" lon="116.465999"><ele>32.4</ele><time>2024-06-02T01:21:13.000Z</time></trkpt><trkpt lat="40.071511" lon="116.466864"><ele>32.7</ele><time>2024-06-02T01:22:24.000Z</time></trkpt><trkpt lat="40.071572" lon="116.467091"><ele>32.6</ele><time>2024-06-02T01:22:41.000Z</time></trkpt><trkpt lat="40.071587" lon="116.467429"><ele>32.5</ele><time>2024-06-02T01:23:05.000Z</time></trkpt><trkpt lat="40.07147" lon="116.467995"><ele>32.5</ele><time>2024-06-02T01:23:29.000Z</time></trkpt><trkpt lat="40.071499" lon="116.468311"><ele>32.5</ele><time>2024-06-02T01:23:39.000Z</time></trkpt><trkpt lat="40.071542" lon="116.46845"><ele>32.5</ele><time>2024-06-02T01:23:44.000Z</time></trkpt><trkpt lat="40.071784" lon="116.468776"><ele>32.2</ele><time>2024-06-02T01:23:59.000Z</time></trkpt><trkpt lat="40.071892" lon="116.468985"><ele>32.3</ele><time>2024-06-02T01:24:08.000Z</time></trkpt><trkpt lat="40.071988" lon="116.469012"><ele>32.3</ele><time>2024-06-02T01:24:12.000Z</time></trkpt><trkpt lat="40.072295" lon="116.468977"><ele>32.5</ele><time>2024-06-02T01:24:25.000Z</time></trkpt><trkpt lat="40.072575" lon="116.469148"><ele>32.5</ele><time>2024-06-02T01:24:41.000Z</time></trkpt><trkpt lat="40.072692" lon="116.469184"><ele>32.5</ele><time>2024-06-02T01:24:47.000Z</time></trkpt><trkpt lat="40.072924" lon="116.469141"><ele>32.6</ele><time>2024-06-02T01:24:58.000Z</time></trkpt><trkpt lat="40.073097" lon="116.469022"><ele>32.8</ele><time>2024-06-02T01:25:07.000Z</time></trkpt><trkpt lat="40.073217" lon="116.468864"><ele>33.1</ele><time>2024-06-02T01:25:14.000Z</time></trkpt><trkpt lat="40.073367" lon="116.468572"><ele>33.4</ele><time>2024-06-02T01:25:28.000Z</time></trkpt><trkpt lat="40.073312" lon="116.468763"><ele>33.4</ele><time>2024-06-02T01:25:37.000Z</time></trkpt><trkpt lat="40.073141" lon="116.469018"><ele>33.3</ele><time>2024-06-02T01:25:49.000Z</time></trkpt><trkpt lat="40.072865" lon="116.469192"><ele>33.3</ele><time>2024-06-02T01:26:03.000Z</time></trkpt><trkpt lat="40.072627" lon="116.46922"><ele>33.1</ele><time>2024-06-02T01:26:14.000Z</time></trkpt><trkpt lat="40.072248" lon="116.469026"><ele>32.9</ele><time>2024-06-02T01:26:33.000Z</time></trkpt><trkpt lat="40.07204" lon="116.469057"><ele>33.0</ele><time>2024-06-02T01:26:42.000Z</time></trkpt><trkpt lat="40.071954" lon="116.469131"><ele>33.0</ele><time>2024-06-02T01:26:47.000Z</time></trkpt><trkpt lat="40.072037" lon="116.469419"><ele>32.8</ele><time>2024-06-02T01:26:58.000Z</time></trkpt><trkpt lat="40.072425" lon="116.470008"><ele>32.6</ele><time>2024-06-02T01:27:25.000Z</time></trkpt><trkpt lat="40.072565" lon="116.470285"><ele>32.6</ele><time>2024-06-02T01:27:37.000Z</time></trkpt><trkpt lat="40.072637" lon="116.470742"><ele>32.9</ele><time>2024-06-02T01:27:54.000Z</time></trkpt><trkpt lat="40.072667" lon="116.471562"><ele>32.7</ele><time>2024-06-02T01:28:23.000Z</time></trkpt><trkpt lat="40.072784" lon="116.471917"><ele>32.7</ele><time>2024-06-02T01:28:36.000Z</time></trkpt><trkpt lat="40.073011" lon="116.472234"><ele>32.4</ele><time>2024-06-02T01:28:52.000Z</time></trkpt><trkpt lat="40.073365" lon="116.472595"><ele>33.4</ele><time>2024-06-02T01:29:21.000Z</time></trkpt><trkpt lat="40.073667" lon="116.472608"><ele>34.8</ele><time>2024-06-02T01:29:47.000Z</time></trkpt><trkpt lat="40.073931" lon="116.472516"><ele>36.4</ele><time>2024-06-02T01:30:09.000Z</time></trkpt><trkpt lat="40.074105" lon="116.472416"><ele>37.2</ele><time>2024-06-02T01:30:24.000Z</time></trkpt><trkpt lat="40.074304" lon="116.472413"><ele>38.0</ele><time>2024-06-02T01:30:39.000Z</time></trkpt><trkpt lat="40.074558" lon="116.472561"><ele>38.0</ele><time>2024-06-02T01:30:57.000Z</time></trkpt><trkpt lat="40.075" lon="116.473021"><ele>34.9</ele><time>2024-06-02T01:31:39.000Z</time></trkpt><trkpt lat="40.075334" lon="116.473102"><ele>33.2</ele><time>2024-06-02T01:32:03.000Z</time></trkpt><trkpt lat="40.075438" lon="116.473166"><ele>32.3</ele><time>2024-06-02T01:32:12.000Z</time></trkpt><trkpt lat="40.075797" lon="116.473214"><ele>31.8</ele><time>2024-06-02T01:32:29.000Z</time></trkpt><trkpt lat="40.076034" lon="116.473134"><ele>32.0</ele><time>2024-06-02T01:32:40.000Z</time></trkpt><trkpt lat="40.076286" lon="116.472771"><ele>31.5</ele><time>2024-06-02T01:32:57.000Z</time></trkpt><trkpt lat="40.076488" lon="116.472637"><ele>31.3</ele><time>2024-06-02T01:33:06.000Z</time></trkpt><trkpt lat="40.07674" lon="116.472597"><ele>31.3</ele><time>2024-06-02T01:33:15.000Z</time></trkpt><trkpt lat="40.07733" lon="116.472709"><ele>31.4</ele><time>2024-06-02T01:33:38.000Z</time></trkpt><trkpt lat="40.077558" lon="116.472624"><ele>31.4</ele><time>2024-06-02T01:33:49.000Z</time></trkpt><trkpt lat="40.077917" lon="116.472346"><ele>31.3</ele><time>2024-06-02T01:34:24.000Z</time></trkpt><trkpt lat="40.078182" lon="116.47225"><ele>31.1</ele><time>2024-06-02T01:34:46.000Z</time></trkpt><trkpt lat="40.078329" lon="116.472239"><ele>30.9</ele><time>2024-06-02T01:34:58.000Z</time></trkpt><trkpt lat="40.078688" lon="116.472363"><ele>30.6</ele><time>2024-06-02T01:35:28.000Z</time></trkpt><trkpt lat="40.078832" lon="116.472328"><ele>30.8</ele><time>2024-06-02T01:35:41.000Z</time></trkpt><trkpt lat="40.078953" lon="116.472231"><ele>31.1</ele><time>2024-06-02T01:35:53.000Z</time></trkpt><trkpt lat="40.079175" lon="116.471906"><ele>32.1</ele><time>2024-06-02T01:36:21.000Z</time></trkpt><trkpt lat="40.079304" lon="116.471574"><ele>31.7</ele><time>2024-06-02T01:36:46.000Z</time></trkpt><trkpt lat="40.079308" lon="116.471216"><ele>30.9</ele><time>2024-06-02T01:37:10.000Z</time></trkpt><trkpt lat="40.079111" lon="116.470696"><ele>30.9</ele><time>2024-06-02T01:37:46.000Z</time></trkpt><trkpt lat="40.079079" lon="116.4705"><ele>31.0</ele><time>2024-06-02T01:37:57.000Z</time></trkpt><trkpt lat="40.079102" lon="116.470018"><ele>31.3</ele><time>2024-06-02T01:38:28.000Z</time></trkpt><trkpt lat="40.079199" lon="116.469344"><ele>31.9</ele><time>2024-06-02T01:38:52.000Z</time></trkpt><trkpt lat="40.07919" lon="116.469069"><ele>32.3</ele><time>2024-06-02T01:38:59.000Z</time></trkpt><trkpt lat="40.079103" lon="116.468568"><ele>32.6</ele><time>2024-06-02T01:39:14.000Z</time></trkpt><trkpt lat="40.078803" lon="116.46776"><ele>33.2</ele><time>2024-06-02T01:39:44.000Z</time></trkpt><trkpt lat="40.078702" lon="116.467395"><ele>33.4</ele><time>2024-06-02T01:39:58.000Z</time></trkpt><trkpt lat="40.078627" lon="116.467069"><ele>33.7</ele><time>2024-06-02T01:40:11.000Z</time></trkpt><trkpt lat="40.078575" lon="116.466621"><ele>33.9</ele><time>2024-06-02T01:40:26.000Z</time></trkpt><trkpt lat="40.078625" lon="116.465649"><ele>33.8</ele><time>2024-06-02T01:40:59.000Z</time></trkpt><trkpt lat="40.07878" lon="116.464936"><ele>33.6</ele><time>2024-06-02T01:41:46.000Z</time></trkpt><trkpt lat="40.078739" lon="116.46447"><ele>33.3</ele><time>2024-06-02T01:42:05.000Z</time></trkpt><trkpt lat="40.078631" lon="116.464176"><ele>32.9</ele><time>2024-06-02T01:42:19.000Z</time></trkpt><trkpt lat="40.078514" lon="116.463973"><ele>32.8</ele><time>2024-06-02T01:42:28.000Z</time></trkpt><trkpt lat="40.07806" lon="116.463544"><ele>32.3</ele><time>2024-06-02T01:42:55.000Z</time></trkpt><trkpt lat="40.077806" lon="116.463395"><ele>32.2</ele><time>2024-06-02T01:43:07.000Z</time></trkpt><trkpt lat="40.077331" lon="116.463234"><ele>32.6</ele><time>2024-06-02T01:43:29.000Z</time></trkpt><trkpt lat="40.077124" lon="116.463055"><ele>33.2</ele><time>2024-06-02T01:43:40.000Z</time></trkpt><trkpt lat="40.076882" lon="116.462911"><ele>33.4</ele><time>2024-06-02T01:43:51.000Z</time></trkpt><trkpt lat="40.07685" lon="116.462674"><ele>32.5</ele><time>2024-06-02T01:44:00.000Z</time></trkpt><trkpt lat="40.076911" lon="116.462458"><ele>31.8</ele><time>2024-06-02T01:44:08.000Z</time></trkpt><trkpt lat="40.076898" lon="116.462132"><ele>31.0</ele><time>2024-06-02T01:44:18.000Z</time></trkpt><trkpt lat="40.076931" lon="116.461895"><ele>31.0</ele><time>2024-06-02T01:44:27.000Z</time></trkpt><trkpt lat="40.076809" lon="116.461442"><ele>31.2</ele><time>2024-06-02T01:44:41.000Z</time></trkpt><trkpt lat="40.076572" lon="116.461031"><ele>32.1</ele><time>2024-06-02T01:44:57.000Z</time></trkpt><trkpt lat="40.07652" lon="116.460849"><ele>32.5</ele><time>2024-06-02T01:45:03.000Z</time></trkpt><trkpt lat="40.076539" lon="116.460784"><ele>32.9</ele><time>2024-06-02T01:45:06.000Z</time></trkpt><trkpt lat="40.076614" lon="116.460741"><ele>33.3</ele><time>2024-06-02T01:45:10.000Z</time></trkpt><trkpt lat="40.076952" lon="116.460757"><ele>34.1</ele><time>2024-06-02T01:45:26.000Z</time></trkpt><trkpt lat="40.077194" lon="116.460881"><ele>34.4</ele><time>2024-06-02T01:45:37.000Z</time></trkpt><trkpt lat="40.077444" lon="116.461165"><ele>34.5</ele><time>2024-06-02T01:45:52.000Z</time></trkpt><trkpt lat="40.077592" lon="116.461274"><ele>34.8</ele><time>2024-06-02T01:45:59.000Z</time></trkpt><trkpt lat="40.078073" lon="116.461341"><ele>34.9</ele><time>2024-06-02T01:46:20.000Z</time></trkpt><trkpt lat="40.078552" lon="116.461312"><ele>35.0</ele><time>2024-06-02T01:46:41.000Z</time></trkpt><trkpt lat="40.078791" lon="116.461258"><ele>34.7</ele><time>2024-06-02T01:46:51.000Z</time></trkpt><trkpt lat="40.078926" lon="116.461183"><ele>34.6</ele><time>2024-06-02T01:46:57.000Z</time></trkpt><trkpt lat="40.079138" lon="116.460961"><ele>34.6</ele><time>2024-06-02T01:47:08.000Z</time></trkpt><trkpt lat="40.079306" lon="116.460633"><ele>34.3</ele><time>2024-06-02T01:47:20.000Z</time></trkpt><trkpt lat="40.079331" lon="116.460306"><ele>34.0</ele><time>2024-06-02T01:47:30.000Z</time></trkpt><trkpt lat="40.079229" lon="116.459684"><ele>33.3</ele><time>2024-06-02T01:47:50.000Z</time></trkpt><trkpt lat="40.07895" lon="116.458972"><ele>31.9</ele><time>2024-06-02T01:48:14.000Z</time></trkpt><trkpt lat="40.078904" lon="116.458395"><ele>31.2</ele><time>2024-06-02T01:48:33.000Z</time></trkpt><trkpt lat="40.078911" lon="116.457596"><ele>31.9</ele><time>2024-06-02T01:49:03.000Z</time></trkpt><trkpt lat="40.078829" lon="116.457282"><ele>32.4</ele><time>2024-06-02T01:49:16.000Z</time></trkpt><trkpt lat="40.078731" lon="116.45714"><ele>32.7</ele><time>2024-06-02T01:49:23.000Z</time></trkpt><trkpt lat="40.078554" lon="116.457011"><ele>34.9</ele><time>2024-06-02T01:49:34.000Z</time></trkpt><trkpt lat="40.078363" lon="116.456967"><ele>36.1</ele><time>2024-06-02T01:49:44.000Z</time></trkpt><trkpt lat="40.078066" lon="116.45698"><ele>36.5</ele><time>2024-06-02T01:49:58.000Z</time></trkpt><trkpt lat="40.077946" lon="116.456916"><ele>36.3</ele><time>2024-06-02T01:50:04.000Z</time></trkpt><trkpt lat="40.077694" lon="116.456693"><ele>36.0</ele><time>2024-06-02T01:50:19.000Z</time></trkpt><trkpt lat="40.077556" lon="116.456683"><ele>35.9</ele><time>2024-06-02T01:50:26.000Z</time></trkpt><trkpt lat="40.07731" lon="116.456833"><ele>36.1</ele><time>2024-06-02T01:50:39.000Z</time></trkpt><trkpt lat="40.077185" lon="116.456845"><ele>36.0</ele><time>2024-06-02T01:50:45.000Z</time></trkpt><trkpt lat="40.077071" lon="116.456803"><ele>35.9</ele><time>2024-06-02T01:50:51.000Z</time></trkpt><trkpt lat="40.076874" lon="116.456585"><ele>35.4</ele><time>2024-06-02T01:51:03.000Z</time></trkpt><trkpt lat="40.076731" lon="116.456541"><ele>34.9</ele><time>2024-06-02T01:51:10.000Z</time></trkpt><trkpt lat="40.076597" lon="116.456594"><ele>34.6</ele><time>2024-06-02T01:51:16.000Z</time></trkpt><trkpt lat="40.076289" lon="116.457002"><ele>32.9</ele><time>2024-06-02T01:51:36.000Z</time></trkpt><trkpt lat="40.076198" lon="116.457073"><ele>32.5</ele><time>2024-06-02T01:51:41.000Z</time></trkpt><trkpt lat="40.075748" lon="116.456723"><ele>31.6</ele><time>2024-06-02T01:52:06.000Z</time></trkpt><trkpt lat="40.07534" lon="116.456625"><ele>32.2</ele><time>2024-06-02T01:52:25.000Z</time></trkpt><trkpt lat="40.075145" lon="116.456679"><ele>32.5</ele><time>2024-06-02T01:52:34.000Z</time></trkpt><trkpt lat="40.074881" lon="116.456824"><ele>32.6</ele><time>2024-06-02T01:52:46.000Z</time></trkpt><trkpt lat="40.074692" lon="116.456868"><ele>32.6</ele><time>2024-06-02T01:52:53.000Z</time></trkpt><trkpt lat="40.074505" lon="116.456861"><ele>32.6</ele><time>2024-06-02T01:53:00.000Z</time></trkpt><trkpt lat="40.074206" lon="116.456752"><ele>32.9</ele><time>2024-06-02T01:53:13.000Z</time></trkpt><trkpt lat="40.074054" lon="116.456765"><ele>33.2</ele><time>2024-06-02T01:53:20.000Z</time></trkpt><trkpt lat="40.073558" lon="116.457091"><ele>33.6</ele><time>2024-06-02T01:53:44.000Z</time></trkpt><trkpt lat="40.073233" lon="116.457224"><ele>33.4</ele><time>2024-06-02T01:53:58.000Z</time></trkpt><trkpt lat="40.072865" lon="116.457317"><ele>33.3</ele><time>2024-06-02T01:54:15.000Z</time></trkpt><trkpt lat="40.072501" lon="116.457317"><ele>33.2</ele><time>2024-06-02T01:54:31.000Z</time></trkpt><trkpt lat="40.072274" lon="116.457157"><ele>33.0</ele><time>2024-06-02T01:54:41.000Z</time></trkpt><trkpt lat="40.072144" lon="116.456911"><ele>32.4</ele><time>2024-06-02T01:54:51.000Z</time></trkpt><trkpt lat="40.072097" lon="116.456587"><ele>31.2</ele><time>2024-06-02T01:55:05.000Z</time></trkpt><trkpt lat="40.072145" lon="116.456235"><ele>31.3</ele><time>2024-06-02T01:55:42.000Z</time></trkpt><trkpt lat="40.072139" lon="116.45591"><ele>31.5</ele><time>2024-06-02T01:55:52.000Z</time></trkpt><trkpt lat="40.072094" lon="116.455677"><ele>31.7</ele><time>2024-06-02T01:55:59.000Z</time></trkpt><trkpt lat="40.071943" lon="116.455362"><ele>31.4</ele><time>2024-06-02T01:56:17.000Z</time></trkpt><trkpt lat="40.071718" lon="116.455216"><ele>31.1</ele><time>2024-06-02T01:56:35.000Z</time></trkpt><trkpt lat="40.07132" lon="116.455095"><ele>31.3</ele><time>2024-06-02T01:56:49.000Z</time></trkpt><trkpt lat="40.071059" lon="116.45485"><ele>31.5</ele><time>2024-06-02T01:57:00.000Z</time></trkpt><trkpt lat="40.070891" lon="116.454796"><ele>31.4</ele><time>2024-06-02T01:57:06.000Z</time></trkpt><trkpt lat="40.070505" lon="116.454863"><ele>31.2</ele><time>2024-06-02T01:57:25.000Z</time></trkpt><trkpt lat="40.070267" lon="116.454829"><ele>31.1</ele><time>2024-06-02T01:57:38.000Z</time></trkpt><trkpt lat="40.070139" lon="116.454906"><ele>31.4</ele><time>2024-06-02T01:57:45.000Z</time></trkpt><trkpt lat="40.070065" lon="116.455055"><ele>31.5</ele><time>2024-06-02T01:57:52.000Z</time></trkpt><trkpt lat="40.070055" lon="116.455344"><ele>31.9</ele><time>2024-06-02T01:58:32.000Z</time></trkpt><trkpt lat="40.070014" lon="116.45551"><ele>31.6</ele><time>2024-06-02T01:59:01.000Z</time></trkpt><trkpt lat="40.0699" lon="116.455792"><ele>31.9</ele><time>2024-06-02T01:59:13.000Z</time></trkpt><trkpt lat="40.069217" lon="116.456401"><ele>31.3</ele><time>2024-06-02T02:00:22.000Z</time></trkpt><trkpt lat="40.069054" lon="116.456635"><ele>31.3</ele><time>2024-06-02T02:00:32.000Z</time></trkpt><trkpt lat="40.068952" lon="116.456994"><ele>31.4</ele><time>2024-06-02T02:00:41.000Z</time></trkpt><trkpt lat="40.068941" lon="116.457265"><ele>31.5</ele><time>2024-06-02T02:00:47.000Z</time></trkpt><trkpt lat="40.068965" lon="116.457472"><ele>31.8</ele><time>2024-06-02T02:00:54.000Z</time></trkpt><trkpt lat="40.069127" lon="116.457819"><ele>31.9</ele><time>2024-06-02T02:01:40.000Z</time></trkpt><trkpt lat="40.069165" lon="116.457969"><ele>32.0</ele><time>2024-06-02T02:03:41.000Z</time></trkpt><trkpt lat="40.069138" lon="116.4581"><ele>31.7</ele><time>2024-06-02T02:03:57.000Z</time></trkpt><trkpt lat="40.069071" lon="116.458133"><ele>31.8</ele><time>2024-06-02T02:04:05.000Z</time></trkpt><trkpt lat="40.068917" lon="116.458081"><ele>32.2</ele><time>2024-06-02T02:04:20.000Z</time></trkpt><trkpt lat="40.068822" lon="116.457758"><ele>33.3</ele><time>2024-06-02T02:04:47.000Z</time></trkpt><trkpt lat="40.068725" lon="116.457656"><ele>33.0</ele><time>2024-06-02T02:04:59.000Z</time></trkpt><trkpt lat="40.068632" lon="116.457612"><ele>33.5</ele><time>2024-06-02T02:05:19.000Z</time></trkpt><trkpt lat="40.06862" lon="116.457504"><ele>33.9</ele><time>2024-06-02T02:05:30.000Z</time></trkpt><trkpt lat="40.06872" lon="116.456967"><ele>33.1</ele><time>2024-06-02T02:06:33.000Z</time></trkpt><trkpt lat="40.068635" lon="116.457098"><ele>33.3</ele><time>2024-06-02T02:06:56.000Z</time></trkpt><trkpt lat="40.068689" lon="116.4572"><ele>33.6</ele><time>2024-06-02T02:07:12.000Z</time></trkpt><trkpt lat="40.068668" lon="116.457217"><ele>33.7</ele><time>2024-06-02T02:07:19.000Z</time></trkpt></trkseg></trk></gpx>