<?xml version="1.0" encoding="UTF-8"?><gpx creator="Health" xsi:schemaLocation="http://www.topografix.com/GPX/1/0 http://www.topografix.com/GPX/1/0/gpx.xsd" version="1.0" xmlns="http://www.topografix.com/GPX/1/0" xmlns:xsi="http://www.w3.org/2001/XMLSchema-instance"><metadata><time>2024-06-25T11:21:24.000Z</time></metadata><trk><type>户外跑步</type><extensions><totalTime>3348.0</totalTime><cumulativeDecrease>276.70001220703125</cumulativeDecrease><cumulativeClimb>286.3999938964844</cumulativeClimb><totalDistance>10130.0</totalDistance></extensions><trkseg><trkpt lat="40.014606" lon="116.384083"><ele>46.7</ele><time>2024-06-25T11:21:24.000Z</time></trkpt><trkpt lat="40.014711" lon="116.383814"><ele>46.7</ele><time>2024-06-25T11:21:33.000Z</time></trkpt><trkpt lat="40.014809" lon="116.383659"><ele>47.0</ele><time>2024-06-25T11:21:39.000Z</time></trkpt><trkpt lat="40.015097" lon="116.383454"><ele>49.8</ele><time>2024-06-25T11:21:53.000Z</time></trkpt><trkpt lat="40.015267" lon="116.383447"><ele>50.8</ele><time>2024-06-25T11:22:00.000Z</time></trkpt><trkpt lat="40.015559" lon="116.383517"><ele>53.6</ele><time>2024-06-25T11:22:12.000Z</time></trkpt><trkpt lat="40.015804" lon="116.38349"><ele>55.3</ele><time>2024-06-25T11:22:22.000Z</time></trkpt><trkpt lat="40.016081" lon="116.383325"><ele>57.1</ele><time>2024-06-25T11:22:34.000Z</time></trkpt><trkpt lat="40.01655" lon="116.382887"><ele>61.1</ele><time>2024-06-25T11:22:58.000Z</time></trkpt><trkpt lat="40.016715" lon="116.382848"><ele>61.5</ele><time>2024-06-25T11:23:05.000Z</time></trkpt><trkpt lat="40.01686" lon="116.38289"><ele>61.9</ele><time>2024-06-25T11:23:11.000Z</time></trkpt><trkpt lat="40.017026" lon="116.383082"><ele>62.9</ele><time>2024-06-25T11:23:20.000Z</time></trkpt><trkpt lat="40.017154" lon="116.383444"><ele>65.0</ele><time>2024-06-25T11:23:33.000Z</time></trkpt><trkpt lat="40.017291" lon="116.383676"><ele>66.5</ele><time>2024-06-25T11:23:42.000Z</time></trkpt><trkpt lat="40.017454" lon="116.383797"><ele>67.3</ele><time>2024-06-25T11:23:49.000Z</time></trkpt><trkpt lat="40.017726" lon="116.383908"><ele>68.8</ele><time>2024-06-25T11:24:00.000Z</time></trkpt><trkpt lat="40.017833" lon="116.384047"><ele>69.5</ele><time>2024-06-25T11:24:06.000Z</time></trkpt><trkpt lat="40.017687" lon="116.384365"><ele>71.6</ele><time>2024-06-25T11:24:17.000Z</time></trkpt><trkpt lat="40.017621" lon="116.384736"><ele>73.2</ele><time>2024-06-25T11:24:28.000Z</time></trkpt><trkpt lat="40.017691" lon="116.385512"><ele>77.3</ele><time>2024-06-25T11:24:53.000Z</time></trkpt><trkpt lat="40.017807" lon="116.385929"><ele>80.5</ele><time>2024-06-25T11:25:07.000Z</time></trkpt><trkpt lat="40.017822" lon="116.386179"><ele>81.7</ele><time>2024-06-25T11:25:17.000Z</time></trkpt><trkpt lat="40.017832" lon="116.385999"><ele>81.9</ele><time>2024-06-25T11:25:24.000Z</time></trkpt><trkpt lat="40.017715" lon="116.385575"><ele>81.7</ele><time>2024-06-25T11:25:37.000Z</time></trkpt><trkpt lat="40.017643" lon="116.384961"><ele>80.9</ele><time>2024-06-25T11:25:51.000Z</time></trkpt><trkpt lat="40.017651" lon="116.384654"><ele>78.6</ele><time>2024-06-25T11:25:58.000Z</time></trkpt><trkpt lat="40.017811" lon="116.384114"><ele>75.9</ele><time>2024-06-25T11:26:11.000Z</time></trkpt><trkpt lat="40.017805" lon="116.383933"><ele>74.8</ele><time>2024-06-25T11:26:15.000Z</time></trkpt><trkpt lat="40.017751" lon="116.383867"><ele>73.8</ele><time>2024-06-25T11:26:17.000Z</time></trkpt><trkpt lat="40.017399" lon="116.383772"><ele>71.8</ele><time>2024-06-25T11:26:28.000Z</time></trkpt><trkpt lat="40.017286" lon="116.383691"><ele>70.8</ele><time>2024-06-25T11:26:32.000Z</time></trkpt><trkpt lat="40.017188" lon="116.383556"><ele>70.8</ele><time>2024-06-25T11:26:36.000Z</time></trkpt><trkpt lat="40.016985" lon="116.383028"><ele>68.0</ele><time>2024-06-25T11:26:49.000Z</time></trkpt><trkpt lat="40.016837" lon="116.382852"><ele>67.0</ele><time>2024-06-25T11:26:55.000Z</time></trkpt><trkpt lat="40.016677" lon="116.382803"><ele>65.9</ele><time>2024-06-25T11:27:00.000Z</time></trkpt><trkpt lat="40.016574" lon="116.382827"><ele>64.9</ele><time>2024-06-25T11:27:03.000Z</time></trkpt><trkpt lat="40.016254" lon="116.383148"><ele>63.0</ele><time>2024-06-25T11:27:15.000Z</time></trkpt><trkpt lat="40.015954" lon="116.383387"><ele>61.6</ele><time>2024-06-25T11:27:25.000Z</time></trkpt><trkpt lat="40.015736" lon="116.383512"><ele>60.1</ele><time>2024-06-25T11:27:32.000Z</time></trkpt><trkpt lat="40.015531" lon="116.383527"><ele>59.2</ele><time>2024-06-25T11:27:38.000Z</time></trkpt><trkpt lat="40.015167" lon="116.38347"><ele>56.8</ele><time>2024-06-25T11:27:49.000Z</time></trkpt><trkpt lat="40.014992" lon="116.383507"><ele>55.6</ele><time>2024-06-25T11:27:54.000Z</time></trkpt><trkpt lat="40.014809" lon="116.383652"><ele>54.2</ele><time>2024-06-25T11:28:00.000Z</time></trkpt><trkpt lat="40.014586" lon="116.384036"><ele>50.1</ele><time>2024-06-25T11:28:12.000Z</time></trkpt><trkpt lat="40.0146" lon="116.384091"><ele>50.1</ele><time>2024-06-25T11:28:14.000Z</time></trkpt><trkpt lat="40.014651" lon="116.384066"><ele>45.9</ele><time>2024-06-25T11:28:17.000Z</time></trkpt><trkpt lat="40.014844" lon="116.383642"><ele>44.0</ele><time>2024-06-25T11:28:30.000Z</time></trkpt><trkpt lat="40.015054" lon="116.38347"><ele>45.2</ele><time>2024-06-25T11:28:39.000Z</time></trkpt><trkpt lat="40.015304" lon="116.38344"><ele>47.4</ele><time>2024-06-25T11:28:48.000Z</time></trkpt><trkpt lat="40.015562" lon="116.38351"><ele>49.6</ele><time>2024-06-25T11:28:57.000Z</time></trkpt><trkpt lat="40.015782" lon="116.383489"><ele>50.6</ele><time>2024-06-25T11:29:05.000Z</time></trkpt><trkpt lat="40.016006" lon="116.383382"><ele>52.6</ele><time>2024-06-25T11:29:14.000Z</time></trkpt><trkpt lat="40.016617" lon="116.382858"><ele>57.2</ele><time>2024-06-25T11:29:44.000Z</time></trkpt><trkpt lat="40.016687" lon="116.382852"><ele>57.6</ele><time>2024-06-25T11:29:47.000Z</time></trkpt><trkpt lat="40.016867" lon="116.382925"><ele>58.0</ele><time>2024-06-25T11:29:56.000Z</time></trkpt><trkpt lat="40.017036" lon="116.383177"><ele>59.5</ele><time>2024-06-25T11:30:08.000Z</time></trkpt><trkpt lat="40.017294" lon="116.383665"><ele>62.2</ele><time>2024-06-25T11:30:29.000Z</time></trkpt><trkpt lat="40.017444" lon="116.383778"><ele>63.6</ele><time>2024-06-25T11:30:38.000Z</time></trkpt><trkpt lat="40.01771" lon="116.383872"><ele>64.8</ele><time>2024-06-25T11:30:51.000Z</time></trkpt><trkpt lat="40.017806" lon="116.383987"><ele>65.8</ele><time>2024-06-25T11:30:57.000Z</time></trkpt><trkpt lat="40.017816" lon="116.384078"><ele>65.8</ele><time>2024-06-25T11:31:00.000Z</time></trkpt><trkpt lat="40.017697" lon="116.384317"><ele>67.0</ele><time>2024-06-25T11:31:09.000Z</time></trkpt><trkpt lat="40.017636" lon="116.384709"><ele>69.1</ele><time>2024-06-25T11:31:22.000Z</time></trkpt><trkpt lat="40.01768" lon="116.385367"><ele>71.9</ele><time>2024-06-25T11:31:45.000Z</time></trkpt><trkpt lat="40.017837" lon="116.385899"><ele>75.4</ele><time>2024-06-25T11:32:04.000Z</time></trkpt><trkpt lat="40.017845" lon="116.386157"><ele>76.7</ele><time>2024-06-25T11:32:14.000Z</time></trkpt><trkpt lat="40.01783" lon="116.385976"><ele>76.9</ele><time>2024-06-25T11:32:21.000Z</time></trkpt><trkpt lat="40.017678" lon="116.385285"><ele>76.2</ele><time>2024-06-25T11:32:43.000Z</time></trkpt><trkpt lat="40.017638" lon="116.384929"><ele>75.4</ele><time>2024-06-25T11:32:51.000Z</time></trkpt><trkpt lat="40.017667" lon="116.384479"><ele>72.9</ele><time>2024-06-25T11:33:01.000Z</time></trkpt><trkpt lat="40.017806" lon="116.384082"><ele>70.4</ele><time>2024-06-25T11:33:11.000Z</time></trkpt><trkpt lat="40.017803" lon="116.383967"><ele>69.2</ele><time>2024-06-25T11:33:14.000Z</time></trkpt><trkpt lat="40.017743" lon="116.383863"><ele>68.2</ele><time>2024-06-25T11:33:17.000Z</time></trkpt><trkpt lat="40.017428" lon="116.383765"><ele>66.2</ele><time>2024-06-25T11:33:27.000Z</time></trkpt><trkpt lat="40.017311" lon="116.38368"><ele>66.2</ele><time>2024-06-25T11:33:31.000Z</time></trkpt><trkpt lat="40.017189" lon="116.383513"><ele>65.2</ele><time>2024-06-25T11:33:36.000Z</time></trkpt><trkpt lat="40.01697" lon="116.382988"><ele>62.3</ele><time>2024-06-25T11:33:50.000Z</time></trkpt><trkpt lat="40.01683" lon="116.382848"><ele>61.3</ele><time>2024-06-25T11:33:55.000Z</time></trkpt><trkpt lat="40.01669" lon="116.382802"><ele>60.2</ele><time>2024-06-25T11:33:59.000Z</time></trkpt><trkpt lat="40.016532" lon="116.382853"><ele>59.1</ele><time>2024-06-25T11:34:04.000Z</time></trkpt><trkpt lat="40.016147" lon="116.38323"><ele>56.4</ele><time>2024-06-25T11:34:19.000Z</time></trkpt><trkpt lat="40.015721" lon="116.383504"><ele>54.4</ele><time>2024-06-25T11:34:32.000Z</time></trkpt><trkpt lat="40.015476" lon="116.383522"><ele>53.4</ele><time>2024-06-25T11:34:39.000Z</time></trkpt><trkpt lat="40.015202" lon="116.383445"><ele>50.6</ele><time>2024-06-25T11:34:47.000Z</time></trkpt><trkpt lat="40.014946" lon="116.383502"><ele>49.1</ele><time>2024-06-25T11:34:54.000Z</time></trkpt><trkpt lat="40.014781" lon="116.383655"><ele>47.8</ele><time>2024-06-25T11:35:00.000Z</time></trkpt><trkpt lat="40.014603" lon="116.384063"><ele>45.0</ele><time>2024-06-25T11:35:11.000Z</time></trkpt><trkpt lat="40.014606" lon="116.384118"><ele>43.6</ele><time>2024-06-25T11:35:13.000Z</time></trkpt><trkpt lat="40.014663" lon="116.384086"><ele>43.6</ele><time>2024-06-25T11:35:16.000Z</time></trkpt><trkpt lat="40.014718" lon="116.383897"><ele>44.5</ele><time>2024-06-25T11:35:22.000Z</time></trkpt><trkpt lat="40.014813" lon="116.383749"><ele>44.2</ele><time>2024-06-25T11:35:28.000Z</time></trkpt><trkpt lat="40.015024" lon="116.383555"><ele>45.5</ele><time>2024-06-25T11:35:39.000Z</time></trkpt><trkpt lat="40.015216" lon="116.383492"><ele>47.6</ele><time>2024-06-25T11:35:47.000Z</time></trkpt><trkpt lat="40.015546" lon="116.383549"><ele>49.5</ele><time>2024-06-25T11:36:00.000Z</time></trkpt><trkpt lat="40.015811" lon="116.383527"><ele>52.3</ele><time>2024-06-25T11:36:12.000Z</time></trkpt><trkpt lat="40.016002" lon="116.383417"><ele>53.1</ele><time>2024-06-25T11:36:21.000Z</time></trkpt><trkpt lat="40.016587" lon="116.382875"><ele>58.0</ele><time>2024-06-25T11:36:54.000Z</time></trkpt><trkpt lat="40.016672" lon="116.382845"><ele>58.3</ele><time>2024-06-25T11:36:58.000Z</time></trkpt><trkpt lat="40.016917" lon="116.382912"><ele>59.1</ele><time>2024-06-25T11:37:11.000Z</time></trkpt><trkpt lat="40.01699" lon="116.382995"><ele>59.6</ele><time>2024-06-25T11:37:16.000Z</time></trkpt><trkpt lat="40.017101" lon="116.383284"><ele>61.3</ele><time>2024-06-25T11:37:29.000Z</time></trkpt><trkpt lat="40.017316" lon="116.383681"><ele>63.8</ele><time>2024-06-25T11:37:49.000Z</time></trkpt><trkpt lat="40.017486" lon="116.383803"><ele>65.1</ele><time>2024-06-25T11:37:59.000Z</time></trkpt><trkpt lat="40.01776" lon="116.383902"><ele>66.7</ele><time>2024-06-25T11:38:12.000Z</time></trkpt><trkpt lat="40.017815" lon="116.383995"><ele>67.2</ele><time>2024-06-25T11:38:17.000Z</time></trkpt><trkpt lat="40.017815" lon="116.384075"><ele>67.2</ele><time>2024-06-25T11:38:20.000Z</time></trkpt><trkpt lat="40.017659" lon="116.384459"><ele>69.1</ele><time>2024-06-25T11:38:34.000Z</time></trkpt><trkpt lat="40.017617" lon="116.384714"><ele>70.6</ele><time>2024-06-25T11:38:43.000Z</time></trkpt><trkpt lat="40.017686" lon="116.385379"><ele>73.7</ele><time>2024-06-25T11:39:06.000Z</time></trkpt><trkpt lat="40.017818" lon="116.385871"><ele>77.2</ele><time>2024-06-25T11:39:25.000Z</time></trkpt><trkpt lat="40.017847" lon="116.386142"><ele>78.4</ele><time>2024-06-25T11:39:35.000Z</time></trkpt><trkpt lat="40.017845" lon="116.386012"><ele>78.8</ele><time>2024-06-25T11:39:40.000Z</time></trkpt><trkpt lat="40.01767" lon="116.385267"><ele>78.5</ele><time>2024-06-25T11:40:02.000Z</time></trkpt><trkpt lat="40.017633" lon="116.384817"><ele>77.7</ele><time>2024-06-25T11:40:11.000Z</time></trkpt><trkpt lat="40.017662" lon="116.384475"><ele>75.0</ele><time>2024-06-25T11:40:19.000Z</time></trkpt><trkpt lat="40.017796" lon="116.384134"><ele>72.2</ele><time>2024-06-25T11:40:28.000Z</time></trkpt><trkpt lat="40.01782" lon="116.383932"><ele>71.2</ele><time>2024-06-25T11:40:33.000Z</time></trkpt><trkpt lat="40.01778" lon="116.383885"><ele>71.2</ele><time>2024-06-25T11:40:35.000Z</time></trkpt><trkpt lat="40.017391" lon="116.383736"><ele>68.4</ele><time>2024-06-25T11:40:48.000Z</time></trkpt><trkpt lat="40.017183" lon="116.383492"><ele>67.5</ele><time>2024-06-25T11:40:56.000Z</time></trkpt><trkpt lat="40.016932" lon="116.382958"><ele>65.0</ele><time>2024-06-25T11:41:10.000Z</time></trkpt><trkpt lat="40.016709" lon="116.382778"><ele>62.9</ele><time>2024-06-25T11:41:17.000Z</time></trkpt><trkpt lat="40.016594" lon="116.382792"><ele>62.9</ele><time>2024-06-25T11:41:20.000Z</time></trkpt><trkpt lat="40.016497" lon="116.382857"><ele>61.9</ele><time>2024-06-25T11:41:23.000Z</time></trkpt><trkpt lat="40.016031" lon="116.383327"><ele>58.6</ele><time>2024-06-25T11:41:42.000Z</time></trkpt><trkpt lat="40.015766" lon="116.383495"><ele>58.0</ele><time>2024-06-25T11:41:51.000Z</time></trkpt><trkpt lat="40.015559" lon="116.383529"><ele>56.2</ele><time>2024-06-25T11:41:57.000Z</time></trkpt><trkpt lat="40.015174" lon="116.383457"><ele>53.7</ele><time>2024-06-25T11:42:10.000Z</time></trkpt><trkpt lat="40.014984" lon="116.383485"><ele>52.4</ele><time>2024-06-25T11:42:16.000Z</time></trkpt><trkpt lat="40.014758" lon="116.383667"><ele>50.0</ele><time>2024-06-25T11:42:24.000Z</time></trkpt><trkpt lat="40.014598" lon="116.38409"><ele>47.7</ele><time>2024-06-25T11:42:36.000Z</time></trkpt><trkpt lat="40.014631" lon="116.38411"><ele>46.5</ele><time>2024-06-25T11:42:39.000Z</time></trkpt><trkpt lat="40.014729" lon="116.383859"><ele>44.1</ele><time>2024-06-25T11:42:48.000Z</time></trkpt><trkpt lat="40.014828" lon="116.383712"><ele>43.8</ele><time>2024-06-25T11:42:54.000Z</time></trkpt><trkpt lat="40.015026" lon="116.383532"><ele>45.2</ele><time>2024-06-25T11:43:04.000Z</time></trkpt><trkpt lat="40.015241" lon="116.383477"><ele>47.3</ele><time>2024-06-25T11:43:15.000Z</time></trkpt><trkpt lat="40.015607" lon="116.383552"><ele>50.6</ele><time>2024-06-25T11:43:36.000Z</time></trkpt><trkpt lat="40.015787" lon="116.383495"><ele>51.9</ele><time>2024-06-25T11:43:46.000Z</time></trkpt><trkpt lat="40.015974" lon="116.383407"><ele>53.2</ele><time>2024-06-25T11:43:56.000Z</time></trkpt><trkpt lat="40.016312" lon="116.383143"><ele>56.2</ele><time>2024-06-25T11:44:12.000Z</time></trkpt><trkpt lat="40.016594" lon="116.382842"><ele>58.0</ele><time>2024-06-25T11:44:27.000Z</time></trkpt><trkpt lat="40.016705" lon="116.382815"><ele>58.4</ele><time>2024-06-25T11:44:32.000Z</time></trkpt><trkpt lat="40.016849" lon="116.382838"><ele>58.7</ele><time>2024-06-25T11:44:38.000Z</time></trkpt><trkpt lat="40.017056" lon="116.383117"><ele>59.8</ele><time>2024-06-25T11:44:51.000Z</time></trkpt><trkpt lat="40.017146" lon="116.38341"><ele>61.9</ele><time>2024-06-25T11:45:02.000Z</time></trkpt><trkpt lat="40.017293" lon="116.38364"><ele>63.2</ele><time>2024-06-25T11:45:12.000Z</time></trkpt><trkpt lat="40.017419" lon="116.383755"><ele>63.9</ele><time>2024-06-25T11:45:19.000Z</time></trkpt><trkpt lat="40.01775" lon="116.38388"><ele>66.0</ele><time>2024-06-25T11:45:34.000Z</time></trkpt><trkpt lat="40.017806" lon="116.383962"><ele>66.6</ele><time>2024-06-25T11:45:38.000Z</time></trkpt><trkpt lat="40.017652" lon="116.38439"><ele>68.6</ele><time>2024-06-25T11:45:54.000Z</time></trkpt><trkpt lat="40.017607" lon="116.384752"><ele>70.6</ele><time>2024-06-25T11:46:08.000Z</time></trkpt><trkpt lat="40.01766" lon="116.385347"><ele>73.3</ele><time>2024-06-25T11:46:30.000Z</time></trkpt><trkpt lat="40.017795" lon="116.385876"><ele>77.3</ele><time>2024-06-25T11:46:56.000Z</time></trkpt><trkpt lat="40.017817" lon="116.386129"><ele>78.4</ele><time>2024-06-25T11:47:08.000Z</time></trkpt><trkpt lat="40.017837" lon="116.386082"><ele>78.4</ele><time>2024-06-25T11:47:11.000Z</time></trkpt><trkpt lat="40.017803" lon="116.385847"><ele>78.7</ele><time>2024-06-25T11:47:20.000Z</time></trkpt><trkpt lat="40.017695" lon="116.385524"><ele>78.6</ele><time>2024-06-25T11:47:30.000Z</time></trkpt><trkpt lat="40.017638" lon="116.384936"><ele>77.2</ele><time>2024-06-25T11:47:44.000Z</time></trkpt><trkpt lat="40.017676" lon="116.384442"><ele>74.7</ele><time>2024-06-25T11:47:56.000Z</time></trkpt><trkpt lat="40.017816" lon="116.384068"><ele>72.1</ele><time>2024-06-25T11:48:06.000Z</time></trkpt><trkpt lat="40.017806" lon="116.383945"><ele>71.0</ele><time>2024-06-25T11:48:09.000Z</time></trkpt><trkpt lat="40.017751" lon="116.383862"><ele>70.1</ele><time>2024-06-25T11:48:12.000Z</time></trkpt><trkpt lat="40.017429" lon="116.383768"><ele>68.3</ele><time>2024-06-25T11:48:22.000Z</time></trkpt><trkpt lat="40.017241" lon="116.383628"><ele>67.4</ele><time>2024-06-25T11:48:28.000Z</time></trkpt><trkpt lat="40.017011" lon="116.383094"><ele>65.5</ele><time>2024-06-25T11:48:40.000Z</time></trkpt><trkpt lat="40.016924" lon="116.38295"><ele>64.5</ele><time>2024-06-25T11:48:44.000Z</time></trkpt><trkpt lat="40.016797" lon="116.382852"><ele>63.4</ele><time>2024-06-25T11:48:48.000Z</time></trkpt><trkpt lat="40.01666" lon="116.382813"><ele>62.2</ele><time>2024-06-25T11:48:52.000Z</time></trkpt><trkpt lat="40.016525" lon="116.382857"><ele>62.2</ele><time>2024-06-25T11:48:56.000Z</time></trkpt><trkpt lat="40.016131" lon="116.383235"><ele>59.2</ele><time>2024-06-25T11:49:10.000Z</time></trkpt><trkpt lat="40.015756" lon="116.383495"><ele>57.7</ele><time>2024-06-25T11:49:21.000Z</time></trkpt><trkpt lat="40.015514" lon="116.38353"><ele>56.0</ele><time>2024-06-25T11:49:27.000Z</time></trkpt><trkpt lat="40.015126" lon="116.383472"><ele>53.1</ele><time>2024-06-25T11:49:38.000Z</time></trkpt><trkpt lat="40.014902" lon="116.383555"><ele>51.5</ele><time>2024-06-25T11:49:44.000Z</time></trkpt><trkpt lat="40.014739" lon="116.383749"><ele>49.9</ele><time>2024-06-25T11:49:50.000Z</time></trkpt><trkpt lat="40.014603" lon="116.38407"><ele>47.0</ele><time>2024-06-25T11:49:57.000Z</time></trkpt><trkpt lat="40.018873" lon="116.381078"><ele>45.9</ele><time>2024-06-25T12:21:00.000Z</time></trkpt><trkpt lat="40.0185" lon="116.381335"><ele>46.8</ele><time>2024-06-25T12:21:13.000Z</time></trkpt><trkpt lat="40.018149" lon="116.381703"><ele>49.1</ele><time>2024-06-25T12:21:26.000Z</time></trkpt><trkpt lat="40.018007" lon="116.381948"><ele>51.4</ele><time>2024-06-25T12:21:33.000Z</time></trkpt><trkpt lat="40.017908" lon="116.382283"><ele>52.6</ele><time>2024-06-25T12:21:42.000Z</time></trkpt><trkpt lat="40.017865" lon="116.382575"><ele>55.0</ele><time>2024-06-25T12:21:49.000Z</time></trkpt><trkpt lat="40.017865" lon="116.382803"><ele>56.3</ele><time>2024-06-25T12:21:55.000Z</time></trkpt><trkpt lat="40.017919" lon="116.383084"><ele>58.7</ele><time>2024-06-25T12:22:04.000Z</time></trkpt><trkpt lat="40.017938" lon="116.38355"><ele>61.5</ele><time>2024-06-25T12:22:19.000Z</time></trkpt><trkpt lat="40.017873" lon="116.383865"><ele>63.2</ele><time>2024-06-25T12:22:29.000Z</time></trkpt><trkpt lat="40.017681" lon="116.384334"><ele>65.6</ele><time>2024-06-25T12:22:47.000Z</time></trkpt><trkpt lat="40.017612" lon="116.384727"><ele>67.8</ele><time>2024-06-25T12:23:00.000Z</time></trkpt><trkpt lat="40.017665" lon="116.385525"><ele>71.9</ele><time>2024-06-25T12:23:29.000Z</time></trkpt><trkpt lat="40.017762" lon="116.385855"><ele>73.8</ele><time>2024-06-25T12:23:40.000Z</time></trkpt><trkpt lat="40.017808" lon="116.386137"><ele>75.5</ele><time>2024-06-25T12:23:50.000Z</time></trkpt><trkpt lat="40.017823" lon="116.386062"><ele>75.9</ele><time>2024-06-25T12:23:53.000Z</time></trkpt><trkpt lat="40.017685" lon="116.38555"><ele>76.1</ele><time>2024-06-25T12:24:08.000Z</time></trkpt><trkpt lat="40.017629" lon="116.385057"><ele>75.3</ele><time>2024-06-25T12:24:20.000Z</time></trkpt><trkpt lat="40.017646" lon="116.384585"><ele>73.0</ele><time>2024-06-25T12:24:31.000Z</time></trkpt><trkpt lat="40.017783" lon="116.38411"><ele>69.0</ele><time>2024-06-25T12:24:43.000Z</time></trkpt><trkpt lat="40.017783" lon="116.383942"><ele>69.0</ele><time>2024-06-25T12:24:47.000Z</time></trkpt><trkpt lat="40.017718" lon="116.383853"><ele>68.0</ele><time>2024-06-25T12:24:50.000Z</time></trkpt><trkpt lat="40.017424" lon="116.38375"><ele>66.2</ele><time>2024-06-25T12:24:59.000Z</time></trkpt><trkpt lat="40.017246" lon="116.38359"><ele>65.3</ele><time>2024-06-25T12:25:05.000Z</time></trkpt><trkpt lat="40.01697" lon="116.383038"><ele>62.1</ele><time>2024-06-25T12:25:18.000Z</time></trkpt><trkpt lat="40.016819" lon="116.382855"><ele>60.9</ele><time>2024-06-25T12:25:24.000Z</time></trkpt><trkpt lat="40.016652" lon="116.382821"><ele>59.6</ele><time>2024-06-25T12:25:28.000Z</time></trkpt><trkpt lat="40.016534" lon="116.382846"><ele>59.6</ele><time>2024-06-25T12:25:31.000Z</time></trkpt><trkpt lat="40.016024" lon="116.383293"><ele>55.9</ele><time>2024-06-25T12:25:48.000Z</time></trkpt><trkpt lat="40.015691" lon="116.383469"><ele>54.0</ele><time>2024-06-25T12:25:58.000Z</time></trkpt><trkpt lat="40.015411" lon="116.383505"><ele>53.0</ele><time>2024-06-25T12:26:06.000Z</time></trkpt><trkpt lat="40.015096" lon="116.383455"><ele>50.5</ele><time>2024-06-25T12:26:14.000Z</time></trkpt><trkpt lat="40.014902" lon="116.383512"><ele>49.1</ele><time>2024-06-25T12:26:18.000Z</time></trkpt><trkpt lat="40.014713" lon="116.383724"><ele>47.7</ele><time>2024-06-25T12:26:24.000Z</time></trkpt><trkpt lat="40.01455" lon="116.384108"><ele>44.7</ele><time>2024-06-25T12:26:33.000Z</time></trkpt><trkpt lat="40.014643" lon="116.383999"><ele>40.9</ele><time>2024-06-25T12:41:19.000Z</time></trkpt><trkpt lat="40.014799" lon="116.383679"><ele>51.4</ele><time>2024-06-25T12:41:29.000Z</time></trkpt><trkpt lat="40.014972" lon="116.383507"><ele>54.8</ele><time>2024-06-25T12:41:37.000Z</time></trkpt><trkpt lat="40.015164" lon="116.38348"><ele>54.8</ele><time>2024-06-25T12:41:44.000Z</time></trkpt><trkpt lat="40.015532" lon="116.38355"><ele>54.8</ele><time>2024-06-25T12:41:58.000Z</time></trkpt><trkpt lat="40.015799" lon="116.383504"><ele>54.8</ele><time>2024-06-25T12:42:08.000Z</time></trkpt><trkpt lat="40.016236" lon="116.38316"><ele>54.8</ele><time>2024-06-25T12:42:28.000Z</time></trkpt><trkpt lat="40.016524" lon="116.38286"><ele>54.8</ele><time>2024-06-25T12:42:42.000Z</time></trkpt><trkpt lat="40.016645" lon="116.382826"><ele>54.8</ele><time>2024-06-25T12:42:47.000Z</time></trkpt><trkpt lat="40.01679" lon="116.38287"><ele>54.8</ele><time>2024-06-25T12:42:53.000Z</time></trkpt><trkpt lat="40.016897" lon="116.38295"><ele>55.3</ele><time>2024-06-25T12:42:58.000Z</time></trkpt><trkpt lat="40.016991" lon="116.383078"><ele>55.9</ele><time>2024-06-25T12:43:03.000Z</time></trkpt><trkpt lat="40.017166" lon="116.383521"><ele>58.9</ele><time>2024-06-25T12:43:19.000Z</time></trkpt><trkpt lat="40.017314" lon="116.383715"><ele>59.7</ele><time>2024-06-25T12:43:28.000Z</time></trkpt><trkpt lat="40.017673" lon="116.383878"><ele>61.8</ele><time>2024-06-25T12:43:42.000Z</time></trkpt><trkpt lat="40.017775" lon="116.383975"><ele>62.6</ele><time>2024-06-25T12:43:48.000Z</time></trkpt><trkpt lat="40.017781" lon="116.384082"><ele>63.3</ele><time>2024-06-25T12:43:52.000Z</time></trkpt><trkpt lat="40.017718" lon="116.384223"><ele>63.9</ele><time>2024-06-25T12:43:58.000Z</time></trkpt><trkpt lat="40.017622" lon="116.384617"><ele>66.4</ele><time>2024-06-25T12:44:12.000Z</time></trkpt><trkpt lat="40.017606" lon="116.384866"><ele>67.8</ele><time>2024-06-25T12:44:20.000Z</time></trkpt><trkpt lat="40.017658" lon="116.385567"><ele>71.7</ele><time>2024-06-25T12:44:45.000Z</time></trkpt><trkpt lat="40.017798" lon="116.386091"><ele>74.9</ele><time>2024-06-25T12:45:04.000Z</time></trkpt><trkpt lat="40.017808" lon="116.385997"><ele>74.9</ele><time>2024-06-25T12:45:08.000Z</time></trkpt><trkpt lat="40.017705" lon="116.385604"><ele>75.8</ele><time>2024-06-25T12:45:22.000Z</time></trkpt><trkpt lat="40.017646" lon="116.385168"><ele>74.9</ele><time>2024-06-25T12:45:34.000Z</time></trkpt><trkpt lat="40.017621" lon="116.384734"><ele>72.9</ele><time>2024-06-25T12:45:46.000Z</time></trkpt><trkpt lat="40.017694" lon="116.3843"><ele>70.6</ele><time>2024-06-25T12:45:58.000Z</time></trkpt><trkpt lat="40.017788" lon="116.384112"><ele>68.4</ele><time>2024-06-25T12:46:04.000Z</time></trkpt><trkpt lat="40.017795" lon="116.38395"><ele>68.4</ele><time>2024-06-25T12:46:08.000Z</time></trkpt><trkpt lat="40.017736" lon="116.383877"><ele>67.6</ele><time>2024-06-25T12:46:11.000Z</time></trkpt><trkpt lat="40.017471" lon="116.383775"><ele>66.0</ele><time>2024-06-25T12:46:20.000Z</time></trkpt><trkpt lat="40.017253" lon="116.38364"><ele>65.2</ele><time>2024-06-25T12:46:27.000Z</time></trkpt><trkpt lat="40.017168" lon="116.383501"><ele>64.4</ele><time>2024-06-25T12:46:31.000Z</time></trkpt><trkpt lat="40.016985" lon="116.383022"><ele>61.4</ele><time>2024-06-25T12:46:44.000Z</time></trkpt><trkpt lat="40.01682" lon="116.382845"><ele>60.4</ele><time>2024-06-25T12:46:50.000Z</time></trkpt><trkpt lat="40.01664" lon="116.3828"><ele>59.4</ele><time>2024-06-25T12:46:55.000Z</time></trkpt><trkpt lat="40.016484" lon="116.382848"><ele>58.4</ele><time>2024-06-25T12:47:00.000Z</time></trkpt><trkpt lat="40.016037" lon="116.383302"><ele>55.9</ele><time>2024-06-25T12:47:18.000Z</time></trkpt><trkpt lat="40.015699" lon="116.383504"><ele>53.7</ele><time>2024-06-25T12:47:29.000Z</time></trkpt><trkpt lat="40.015474" lon="116.383515"><ele>52.8</ele><time>2024-06-25T12:47:36.000Z</time></trkpt><trkpt lat="40.015187" lon="116.383447"><ele>50.4</ele><time>2024-06-25T12:47:45.000Z</time></trkpt><trkpt lat="40.014956" lon="116.3835"><ele>49.1</ele><time>2024-06-25T12:47:52.000Z</time></trkpt><trkpt lat="40.014743" lon="116.383709"><ele>46.3</ele><time>2024-06-25T12:47:59.000Z</time></trkpt><trkpt lat="40.014619" lon="116.383927"><ele>44.9</ele><time>2024-06-25T12:48:05.000Z</time></trkpt><trkpt lat="40.01458" lon="116.384075"><ele>43.6</ele><time>2024-06-25T12:48:09.000Z</time></trkpt><trkpt lat="40.014631" lon="116.384085"><ele>43.6</ele><time>2024-06-25T12:48:12.000Z</time></trkpt><trkpt lat="40.014756" lon="116.38373"><ele>44.8</ele><time>2024-06-25T12:48:23.000Z</time></trkpt><trkpt lat="40.014937" lon="116.383517"><ele>43.9</ele><time>2024-06-25T12:48:33.000Z</time></trkpt><trkpt lat="40.015081" lon="116.383467"><ele>45.9</ele><time>2024-06-25T12:48:40.000Z</time></trkpt><trkpt lat="40.015464" lon="116.38352"><ele>48.8</ele><time>2024-06-25T12:48:58.000Z</time></trkpt><trkpt lat="40.015742" lon="116.383482"><ele>51.5</ele><time>2024-06-25T12:49:11.000Z</time></trkpt><trkpt lat="40.016132" lon="116.383237"><ele>54.7</ele><time>2024-06-25T12:49:30.000Z</time></trkpt><trkpt lat="40.01658" lon="116.382866"><ele>57.6</ele><time>2024-06-25T12:49:52.000Z</time></trkpt><trkpt lat="40.016667" lon="116.382843"><ele>58.0</ele><time>2024-06-25T12:49:56.000Z</time></trkpt><trkpt lat="40.016812" lon="116.382872"><ele>58.8</ele><time>2024-06-25T12:50:04.000Z</time></trkpt><trkpt lat="40.016942" lon="116.383005"><ele>59.2</ele><time>2024-06-25T12:50:11.000Z</time></trkpt><trkpt lat="40.016972" lon="116.38306"><ele>59.2</ele><time>2024-06-25T12:50:13.000Z</time></trkpt><trkpt lat="40.016952" lon="116.383115"><ele>59.7</ele><time>2024-06-25T12:50:15.000Z</time></trkpt><trkpt lat="40.017259" lon="116.383653"><ele>62.6</ele><time>2024-06-25T12:50:37.000Z</time></trkpt><trkpt lat="40.017361" lon="116.383741"><ele>63.5</ele><time>2024-06-25T12:50:43.000Z</time></trkpt><trkpt lat="40.017686" lon="116.383868"><ele>66.1</ele><time>2024-06-25T12:50:59.000Z</time></trkpt><trkpt lat="40.017763" lon="116.383978"><ele>66.1</ele><time>2024-06-25T12:51:03.000Z</time></trkpt><trkpt lat="40.017649" lon="116.384405"><ele>67.9</ele><time>2024-06-25T12:51:18.000Z</time></trkpt><trkpt lat="40.017588" lon="116.384909"><ele>70.5</ele><time>2024-06-25T12:51:33.000Z</time></trkpt><trkpt lat="40.01766" lon="116.3855"><ele>74.5</ele><time>2024-06-25T12:51:57.000Z</time></trkpt><trkpt lat="40.017748" lon="116.385845"><ele>77.1</ele><time>2024-06-25T12:52:11.000Z</time></trkpt><trkpt lat="40.017787" lon="116.386132"><ele>78.5</ele><time>2024-06-25T12:52:22.000Z</time></trkpt><trkpt lat="40.017815" lon="116.386046"><ele>78.9</ele><time>2024-06-25T12:52:26.000Z</time></trkpt><trkpt lat="40.017808" lon="116.38591"><ele>79.1</ele><time>2024-06-25T12:52:31.000Z</time></trkpt><trkpt lat="40.017726" lon="116.385609"><ele>79.2</ele><time>2024-06-25T12:52:41.000Z</time></trkpt><trkpt lat="40.017629" lon="116.384921"><ele>78.3</ele><time>2024-06-25T12:52:57.000Z</time></trkpt><trkpt lat="40.017649" lon="116.384492"><ele>76.1</ele><time>2024-06-25T12:53:08.000Z</time></trkpt><trkpt lat="40.017736" lon="116.38419"><ele>73.4</ele><time>2024-06-25T12:53:16.000Z</time></trkpt><trkpt lat="40.017733" lon="116.384152"><ele>73.4</ele><time>2024-06-25T12:53:18.000Z</time></trkpt><trkpt lat="40.01771" lon="116.384218"><ele>69.8</ele><time>2024-06-25T12:54:26.000Z</time></trkpt><trkpt lat="40.01778" lon="116.384083"><ele>68.1</ele><time>2024-06-25T12:54:31.000Z</time></trkpt><trkpt lat="40.017786" lon="116.383957"><ele>65.4</ele><time>2024-06-25T12:54:34.000Z</time></trkpt><trkpt lat="40.017718" lon="116.383841"><ele>61.0</ele><time>2024-06-25T12:54:38.000Z</time></trkpt><trkpt lat="40.017393" lon="116.383726"><ele>56.3</ele><time>2024-06-25T12:54:49.000Z</time></trkpt><trkpt lat="40.017218" lon="116.38358"><ele>55.1</ele><time>2024-06-25T12:54:55.000Z</time></trkpt><trkpt lat="40.016929" lon="116.382932"><ele>50.7</ele><time>2024-06-25T12:55:11.000Z</time></trkpt><trkpt lat="40.016824" lon="116.38284"><ele>49.3</ele><time>2024-06-25T12:55:15.000Z</time></trkpt><trkpt lat="40.016699" lon="116.382791"><ele>47.9</ele><time>2024-06-25T12:55:19.000Z</time></trkpt><trkpt lat="40.01652" lon="116.382833"><ele>45.8</ele><time>2024-06-25T12:55:24.000Z</time></trkpt><trkpt lat="40.016079" lon="116.383272"><ele>43.2</ele><time>2024-06-25T12:55:40.000Z</time></trkpt><trkpt lat="40.015844" lon="116.383474"><ele>43.7</ele><time>2024-06-25T12:55:47.000Z</time></trkpt><trkpt lat="40.015739" lon="116.383524"><ele>44.6</ele><time>2024-06-25T12:55:50.000Z</time></trkpt><trkpt lat="40.015509" lon="116.383555"><ele>45.6</ele><time>2024-06-25T12:55:56.000Z</time></trkpt><trkpt lat="40.015106" lon="116.38348"><ele>47.6</ele><time>2024-06-25T12:56:08.000Z</time></trkpt><trkpt lat="40.014934" lon="116.383515"><ele>48.7</ele><time>2024-06-25T12:56:12.000Z</time></trkpt><trkpt lat="40.014831" lon="116.383582"><ele>49.8</ele><time>2024-06-25T12:56:15.000Z</time></trkpt><trkpt lat="40.014724" lon="116.38372"><ele>50.8</ele><time>2024-06-25T12:56:19.000Z</time></trkpt><trkpt lat="40.014555" lon="116.384078"><ele>51.8</ele><time>2024-06-25T12:56:28.000Z</time></trkpt><trkpt lat="40.014575" lon="116.384141"><ele>52.8</ele><time>2024-06-25T12:56:31.000Z</time></trkpt><trkpt lat="40.014641" lon="116.38409"><ele>53.7</ele><time>2024-06-25T12:56:34.000Z</time></trkpt><trkpt lat="40.014676" lon="116.383865"><ele>54.6</ele><time>2024-06-25T12:56:41.000Z</time></trkpt><trkpt lat="40.014791" lon="116.383609"><ele>56.3</ele><time>2024-06-25T12:56:50.000Z</time></trkpt><trkpt lat="40.014866" lon="116.383519"><ele>57.0</ele><time>2024-06-25T12:56:54.000Z</time></trkpt><trkpt lat="40.015021" lon="116.383433"><ele>57.5</ele><time>2024-06-25T12:57:01.000Z</time></trkpt><trkpt lat="40.015179" lon="116.383412"><ele>58.0</ele><time>2024-06-25T12:57:08.000Z</time></trkpt><trkpt lat="40.015414" lon="116.38352"><ele>58.4</ele><time>2024-06-25T12:57:16.000Z</time></trkpt><trkpt lat="40.015641" lon="116.383535"><ele>58.4</ele><time>2024-06-25T12:57:24.000Z</time></trkpt><trkpt lat="40.015822" lon="116.383469"><ele>58.4</ele><time>2024-06-25T12:57:31.000Z</time></trkpt><trkpt lat="40.016092" lon="116.38328"><ele>58.4</ele><time>2024-06-25T12:57:43.000Z</time></trkpt><trkpt lat="40.016324" lon="116.383088"><ele>58.4</ele><time>2024-06-25T12:57:55.000Z</time></trkpt><trkpt lat="40.016535" lon="116.382856"><ele>58.4</ele><time>2024-06-25T12:58:06.000Z</time></trkpt><trkpt lat="40.01682" lon="116.382882"><ele>58.4</ele><time>2024-06-25T12:58:20.000Z</time></trkpt><trkpt lat="40.01697" lon="116.383045"><ele>59.4</ele><time>2024-06-25T12:58:29.000Z</time></trkpt><trkpt lat="40.017148" lon="116.383474"><ele>61.9</ele><time>2024-06-25T12:58:47.000Z</time></trkpt><trkpt lat="40.017221" lon="116.383576"><ele>62.6</ele><time>2024-06-25T12:58:52.000Z</time></trkpt><trkpt lat="40.017394" lon="116.38374"><ele>64.0</ele><time>2024-06-25T12:59:03.000Z</time></trkpt><trkpt lat="40.017726" lon="116.383898"><ele>65.9</ele><time>2024-06-25T12:59:19.000Z</time></trkpt><trkpt lat="40.017785" lon="116.383995"><ele>66.5</ele><time>2024-06-25T12:59:24.000Z</time></trkpt><trkpt lat="40.017596" lon="116.384554"><ele>69.9</ele><time>2024-06-25T12:59:47.000Z</time></trkpt><trkpt lat="40.017583" lon="116.384981"><ele>71.6</ele><time>2024-06-25T13:00:04.000Z</time></trkpt><trkpt lat="40.017658" lon="116.385442"><ele>74.2</ele><time>2024-06-25T13:00:26.000Z</time></trkpt><trkpt lat="40.017783" lon="116.385942"><ele>77.7</ele><time>2024-06-25T13:00:49.000Z</time></trkpt><trkpt lat="40.017793" lon="116.386149"><ele>78.4</ele><time>2024-06-25T13:00:58.000Z</time></trkpt><trkpt lat="40.017817" lon="116.385977"><ele>78.5</ele><time>2024-06-25T13:01:06.000Z</time></trkpt><trkpt lat="40.017695" lon="116.385535"><ele>78.3</ele><time>2024-06-25T13:01:22.000Z</time></trkpt><trkpt lat="40.017644" lon="116.384766"><ele>76.2</ele><time>2024-06-25T13:01:41.000Z</time></trkpt><trkpt lat="40.017679" lon="116.384415"><ele>73.5</ele><time>2024-06-25T13:01:50.000Z</time></trkpt><trkpt lat="40.017796" lon="116.384037"><ele>71.3</ele><time>2024-06-25T13:02:00.000Z</time></trkpt><trkpt lat="40.017781" lon="116.383918"><ele>70.5</ele><time>2024-06-25T13:02:03.000Z</time></trkpt><trkpt lat="40.017671" lon="116.383818"><ele>69.7</ele><time>2024-06-25T13:02:07.000Z</time></trkpt><trkpt lat="40.017411" lon="116.383723"><ele>68.8</ele><time>2024-06-25T13:02:16.000Z</time></trkpt><trkpt lat="40.017278" lon="116.383603"><ele>67.9</ele><time>2024-06-25T13:02:21.000Z</time></trkpt><trkpt lat="40.016954" lon="116.382943"><ele>64.2</ele><time>2024-06-25T13:02:38.000Z</time></trkpt><trkpt lat="40.016875" lon="116.382867"><ele>64.2</ele><time>2024-06-25T13:02:41.000Z</time></trkpt><trkpt lat="40.016719" lon="116.382796"><ele>63.1</ele><time>2024-06-25T13:02:46.000Z</time></trkpt><trkpt lat="40.016515" lon="116.38284"><ele>60.9</ele><time>2024-06-25T13:02:52.000Z</time></trkpt><trkpt lat="40.015977" lon="116.383342"><ele>58.4</ele><time>2024-06-25T13:03:11.000Z</time></trkpt><trkpt lat="40.015692" lon="116.383497"><ele>57.0</ele><time>2024-06-25T13:03:19.000Z</time></trkpt><trkpt lat="40.015484" lon="116.383535"><ele>56.2</ele><time>2024-06-25T13:03:25.000Z</time></trkpt><trkpt lat="40.015212" lon="116.383454"><ele>53.8</ele><time>2024-06-25T13:03:34.000Z</time></trkpt><trkpt lat="40.014972" lon="116.383489"><ele>52.4</ele><time>2024-06-25T13:03:40.000Z</time></trkpt><trkpt lat="40.014751" lon="116.383692"><ele>51.0</ele><time>2024-06-25T13:03:46.000Z</time></trkpt><trkpt lat="40.014571" lon="116.384076"><ele>48.0</ele><time>2024-06-25T13:03:55.000Z</time></trkpt></trkseg></trk></gpx>