<?xml version="1.0" encoding="UTF-8"?><gpx creator="Health" xsi:schemaLocation="http://www.topografix.com/GPX/1/0 http://www.topografix.com/GPX/1/0/gpx.xsd" version="1.0" xmlns="http://www.topografix.com/GPX/1/0" xmlns:xsi="http://www.w3.org/2001/XMLSchema-instance"><metadata><time>2024-05-31T09:54:51.000Z</time></metadata><trk><type>户外跑步</type><extensions><totalTime>3720.0</totalTime><cumulativeDecrease>7.199999809265137</cumulativeDecrease><cumulativeClimb>6.0</cumulativeClimb><totalDistance>10010.0</totalDistance></extensions><trkseg><trkpt lat="40.066001" lon="116.542529"><ele>21.7</ele><time>2024-05-31T09:54:51.000Z</time></trkpt><trkpt lat="40.06548" lon="116.542545"><ele>21.9</ele><time>2024-05-31T09:55:06.000Z</time></trkpt><trkpt lat="40.065154" lon="116.542505"><ele>21.8</ele><time>2024-05-31T09:55:17.000Z</time></trkpt><trkpt lat="40.06497" lon="116.542624"><ele>21.8</ele><time>2024-05-31T09:55:26.000Z</time></trkpt><trkpt lat="40.064763" lon="116.542616"><ele>21.8</ele><time>2024-05-31T09:55:34.000Z</time></trkpt><trkpt lat="40.06381" lon="116.542461"><ele>21.4</ele><time>2024-05-31T09:56:11.000Z</time></trkpt><trkpt lat="40.063251" lon="116.542427"><ele>21.1</ele><time>2024-05-31T09:56:31.000Z</time></trkpt><trkpt lat="40.062787" lon="116.542225"><ele>21.0</ele><time>2024-05-31T09:56:49.000Z</time></trkpt><trkpt lat="40.06247" lon="116.541927"><ele>20.8</ele><time>2024-05-31T09:57:05.000Z</time></trkpt><trkpt lat="40.060264" lon="116.538803"><ele>21.2</ele><time>2024-05-31T09:59:08.000Z</time></trkpt><trkpt lat="40.060171" lon="116.538654"><ele>21.2</ele><time>2024-05-31T09:59:14.000Z</time></trkpt><trkpt lat="40.060141" lon="116.538522"><ele>21.2</ele><time>2024-05-31T09:59:18.000Z</time></trkpt><trkpt lat="40.060173" lon="116.53837"><ele>21.2</ele><time>2024-05-31T09:59:22.000Z</time></trkpt><trkpt lat="40.060256" lon="116.538236"><ele>21.1</ele><time>2024-05-31T09:59:27.000Z</time></trkpt><trkpt lat="40.061758" lon="116.536329"><ele>21.5</ele><time>2024-05-31T10:00:46.000Z</time></trkpt><trkpt lat="40.062333" lon="116.535709"><ele>21.6</ele><time>2024-05-31T10:01:14.000Z</time></trkpt><trkpt lat="40.064429" lon="116.533166"><ele>21.6</ele><time>2024-05-31T10:03:11.000Z</time></trkpt><trkpt lat="40.065105" lon="116.532386"><ele>21.7</ele><time>2024-05-31T10:03:51.000Z</time></trkpt><trkpt lat="40.065219" lon="116.532332"><ele>21.8</ele><time>2024-05-31T10:03:56.000Z</time></trkpt><trkpt lat="40.065342" lon="116.532386"><ele>21.8</ele><time>2024-05-31T10:04:01.000Z</time></trkpt><trkpt lat="40.069361" lon="116.535334"><ele>22.0</ele><time>2024-05-31T10:07:09.000Z</time></trkpt><trkpt lat="40.070047" lon="116.535901"><ele>22.2</ele><time>2024-05-31T10:07:43.000Z</time></trkpt><trkpt lat="40.070101" lon="116.536"><ele>22.2</ele><time>2024-05-31T10:07:48.000Z</time></trkpt><trkpt lat="40.070088" lon="116.536045"><ele>22.2</ele><time>2024-05-31T10:07:51.000Z</time></trkpt><trkpt lat="40.068151" lon="116.537845"><ele>22.0</ele><time>2024-05-31T10:09:38.000Z</time></trkpt><trkpt lat="40.067635" lon="116.538469"><ele>21.7</ele><time>2024-05-31T10:10:06.000Z</time></trkpt><trkpt lat="40.067316" lon="116.538946"><ele>21.6</ele><time>2024-05-31T10:10:24.000Z</time></trkpt><trkpt lat="40.067007" lon="116.539519"><ele>21.4</ele><time>2024-05-31T10:10:44.000Z</time></trkpt><trkpt lat="40.06678" lon="116.540063"><ele>21.5</ele><time>2024-05-31T10:11:03.000Z</time></trkpt><trkpt lat="40.066" lon="116.542607"><ele>21.7</ele><time>2024-05-31T10:12:30.000Z</time></trkpt><trkpt lat="40.065895" lon="116.542669"><ele>21.7</ele><time>2024-05-31T10:12:35.000Z</time></trkpt><trkpt lat="40.065651" lon="116.542678"><ele>21.7</ele><time>2024-05-31T10:12:44.000Z</time></trkpt><trkpt lat="40.064874" lon="116.542621"><ele>21.7</ele><time>2024-05-31T10:13:17.000Z</time></trkpt><trkpt lat="40.063255" lon="116.542407"><ele>21.4</ele><time>2024-05-31T10:14:24.000Z</time></trkpt><trkpt lat="40.062975" lon="116.542335"><ele>21.2</ele><time>2024-05-31T10:14:37.000Z</time></trkpt><trkpt lat="40.062733" lon="116.542206"><ele>21.1</ele><time>2024-05-31T10:14:48.000Z</time></trkpt><trkpt lat="40.062465" lon="116.541924"><ele>21.0</ele><time>2024-05-31T10:15:01.000Z</time></trkpt><trkpt lat="40.060445" lon="116.539073"><ele>21.3</ele><time>2024-05-31T10:17:06.000Z</time></trkpt><trkpt lat="40.060158" lon="116.538636"><ele>21.3</ele><time>2024-05-31T10:17:26.000Z</time></trkpt><trkpt lat="40.060124" lon="116.538505"><ele>21.2</ele><time>2024-05-31T10:17:31.000Z</time></trkpt><trkpt lat="40.060166" lon="116.538357"><ele>21.2</ele><time>2024-05-31T10:17:36.000Z</time></trkpt><trkpt lat="40.060414" lon="116.538023"><ele>21.1</ele><time>2024-05-31T10:17:50.000Z</time></trkpt><trkpt lat="40.061568" lon="116.536615"><ele>21.2</ele><time>2024-05-31T10:18:55.000Z</time></trkpt><trkpt lat="40.061809" lon="116.536272"><ele>21.3</ele><time>2024-05-31T10:19:08.000Z</time></trkpt><trkpt lat="40.062286" lon="116.535772"><ele>21.4</ele><time>2024-05-31T10:19:35.000Z</time></trkpt><trkpt lat="40.062961" lon="116.534901"><ele>21.6</ele><time>2024-05-31T10:20:18.000Z</time></trkpt><trkpt lat="40.065078" lon="116.53239"><ele>22.0</ele><time>2024-05-31T10:22:21.000Z</time></trkpt><trkpt lat="40.065167" lon="116.532324"><ele>22.1</ele><time>2024-05-31T10:22:26.000Z</time></trkpt><trkpt lat="40.065279" lon="116.532343"><ele>22.1</ele><time>2024-05-31T10:22:31.000Z</time></trkpt><trkpt lat="40.065822" lon="116.532725"><ele>22.3</ele><time>2024-05-31T10:22:58.000Z</time></trkpt><trkpt lat="40.069" lon="116.535065"><ele>22.4</ele><time>2024-05-31T10:25:37.000Z</time></trkpt><trkpt lat="40.070007" lon="116.535861"><ele>22.7</ele><time>2024-05-31T10:26:29.000Z</time></trkpt><trkpt lat="40.07008" lon="116.535996"><ele>22.8</ele><time>2024-05-31T10:26:35.000Z</time></trkpt><trkpt lat="40.068025" lon="116.537965"><ele>22.9</ele><time>2024-05-31T10:28:16.000Z</time></trkpt><trkpt lat="40.067566" lon="116.538539"><ele>22.6</ele><time>2024-05-31T10:28:44.000Z</time></trkpt><trkpt lat="40.067342" lon="116.538867"><ele>22.6</ele><time>2024-05-31T10:28:59.000Z</time></trkpt><trkpt lat="40.066979" lon="116.539538"><ele>22.7</ele><time>2024-05-31T10:29:28.000Z</time></trkpt><trkpt lat="40.066761" lon="116.540048"><ele>22.7</ele><time>2024-05-31T10:29:48.000Z</time></trkpt><trkpt lat="40.066641" lon="116.540388"><ele>22.8</ele><time>2024-05-31T10:30:01.000Z</time></trkpt><trkpt lat="40.066047" lon="116.54247"><ele>22.9</ele><time>2024-05-31T10:31:13.000Z</time></trkpt><trkpt lat="40.065959" lon="116.542632"><ele>22.9</ele><time>2024-05-31T10:31:18.000Z</time></trkpt><trkpt lat="40.065749" lon="116.542674"><ele>23.6</ele><time>2024-05-31T10:31:25.000Z</time></trkpt><trkpt lat="40.065004" lon="116.542646"><ele>23.7</ele><time>2024-05-31T10:31:47.000Z</time></trkpt><trkpt lat="40.063058" lon="116.542365"><ele>22.9</ele><time>2024-05-31T10:33:14.000Z</time></trkpt><trkpt lat="40.062762" lon="116.54222"><ele>22.7</ele><time>2024-05-31T10:33:29.000Z</time></trkpt><trkpt lat="40.062463" lon="116.541895"><ele>22.4</ele><time>2024-05-31T10:33:47.000Z</time></trkpt><trkpt lat="40.060461" lon="116.539106"><ele>22.7</ele><time>2024-05-31T10:35:43.000Z</time></trkpt><trkpt lat="40.060119" lon="116.538574"><ele>22.4</ele><time>2024-05-31T10:36:07.000Z</time></trkpt><trkpt lat="40.060111" lon="116.538488"><ele>22.4</ele><time>2024-05-31T10:36:10.000Z</time></trkpt><trkpt lat="40.060167" lon="116.538352"><ele>22.4</ele><time>2024-05-31T10:36:14.000Z</time></trkpt><trkpt lat="40.061879" lon="116.536181"><ele>22.0</ele><time>2024-05-31T10:37:50.000Z</time></trkpt><trkpt lat="40.062422" lon="116.53559"><ele>22.2</ele><time>2024-05-31T10:38:24.000Z</time></trkpt><trkpt lat="40.062902" lon="116.534957"><ele>22.3</ele><time>2024-05-31T10:38:56.000Z</time></trkpt><trkpt lat="40.063819" lon="116.53389"><ele>22.2</ele><time>2024-05-31T10:39:48.000Z</time></trkpt><trkpt lat="40.065047" lon="116.53238"><ele>22.5</ele><time>2024-05-31T10:41:02.000Z</time></trkpt><trkpt lat="40.065143" lon="116.532301"><ele>22.5</ele><time>2024-05-31T10:41:07.000Z</time></trkpt><trkpt lat="40.065342" lon="116.532378"><ele>22.5</ele><time>2024-05-31T10:41:17.000Z</time></trkpt><trkpt lat="40.067378" lon="116.533855"><ele>22.3</ele><time>2024-05-31T10:42:57.000Z</time></trkpt><trkpt lat="40.06918" lon="116.535182"><ele>22.7</ele><time>2024-05-31T10:44:33.000Z</time></trkpt><trkpt lat="40.070068" lon="116.53589"><ele>22.9</ele><time>2024-05-31T10:45:19.000Z</time></trkpt><trkpt lat="40.070088" lon="116.535958"><ele>22.9</ele><time>2024-05-31T10:45:22.000Z</time></trkpt><trkpt lat="40.070056" lon="116.536041"><ele>22.9</ele><time>2024-05-31T10:45:26.000Z</time></trkpt><trkpt lat="40.068018" lon="116.537961"><ele>22.5</ele><time>2024-05-31T10:47:21.000Z</time></trkpt><trkpt lat="40.067579" lon="116.538515"><ele>22.4</ele><time>2024-05-31T10:47:45.000Z</time></trkpt><trkpt lat="40.067325" lon="116.538887"><ele>22.2</ele><time>2024-05-31T10:48:01.000Z</time></trkpt><trkpt lat="40.067059" lon="116.539365"><ele>22.1</ele><time>2024-05-31T10:48:20.000Z</time></trkpt><trkpt lat="40.066711" lon="116.540187"><ele>22.3</ele><time>2024-05-31T10:48:51.000Z</time></trkpt><trkpt lat="40.066039" lon="116.54253"><ele>22.4</ele><time>2024-05-31T10:50:17.000Z</time></trkpt><trkpt lat="40.065979" lon="116.542633"><ele>23.6</ele><time>2024-05-31T10:50:22.000Z</time></trkpt><trkpt lat="40.065893" lon="116.542672"><ele>23.6</ele><time>2024-05-31T10:50:27.000Z</time></trkpt><trkpt lat="40.063192" lon="116.542402"><ele>23.0</ele><time>2024-05-31T10:52:14.000Z</time></trkpt><trkpt lat="40.062989" lon="116.542325"><ele>23.0</ele><time>2024-05-31T10:52:20.000Z</time></trkpt><trkpt lat="40.062683" lon="116.542133"><ele>22.9</ele><time>2024-05-31T10:52:29.000Z</time></trkpt><trkpt lat="40.062531" lon="116.541995"><ele>22.9</ele><time>2024-05-31T10:52:34.000Z</time></trkpt><trkpt lat="40.062308" lon="116.541698"><ele>22.8</ele><time>2024-05-31T10:52:43.000Z</time></trkpt><trkpt lat="40.060158" lon="116.538676"><ele>22.7</ele><time>2024-05-31T10:55:00.000Z</time></trkpt><trkpt lat="40.0601" lon="116.538493"><ele>22.6</ele><time>2024-05-31T10:55:06.000Z</time></trkpt><trkpt lat="40.060175" lon="116.538275"><ele>22.6</ele><time>2024-05-31T10:55:13.000Z</time></trkpt><trkpt lat="40.061074" lon="116.537151"><ele>22.4</ele><time>2024-05-31T10:56:05.000Z</time></trkpt><trkpt lat="40.061575" lon="116.536612"><ele>22.5</ele><time>2024-05-31T10:56:26.000Z</time></trkpt><trkpt lat="40.061847" lon="116.536221"><ele>22.4</ele><time>2024-05-31T10:56:46.000Z</time></trkpt></trkseg></trk></gpx>