<?xml version="1.0" encoding="UTF-8"?><gpx creator="Health" xsi:schemaLocation="http://www.topografix.com/GPX/1/0 http://www.topografix.com/GPX/1/0/gpx.xsd" version="1.0" xmlns="http://www.topografix.com/GPX/1/0" xmlns:xsi="http://www.w3.org/2001/XMLSchema-instance"><metadata><time>2024-06-29T10:56:15.000Z</time></metadata><trk><type>户外跑步</type><extensions><totalTime>2779.0</totalTime><cumulativeDecrease>0.0</cumulativeDecrease><cumulativeClimb>151.3000030517578</cumulativeClimb><totalDistance>7110.0</totalDistance></extensions><trkseg><trkpt lat="40.909456" lon="115.332153"><ele>1330.7</ele><time>2024-06-29T10:56:15.000Z</time></trkpt><trkpt lat="40.909116" lon="115.332312"><ele>1330.7</ele><time>2024-06-29T10:56:27.000Z</time></trkpt><trkpt lat="40.90771" lon="115.332788"><ele>1333.2</ele><time>2024-06-29T10:57:19.000Z</time></trkpt><trkpt lat="40.907576" lon="115.332905"><ele>1333.4</ele><time>2024-06-29T10:57:25.000Z</time></trkpt><trkpt lat="40.907487" lon="115.333054"><ele>1333.6</ele><time>2024-06-29T10:57:31.000Z</time></trkpt><trkpt lat="40.907397" lon="115.333296"><ele>1334.2</ele><time>2024-06-29T10:57:39.000Z</time></trkpt><trkpt lat="40.907351" lon="115.33358"><ele>1334.5</ele><time>2024-06-29T10:57:47.000Z</time></trkpt><trkpt lat="40.907495" lon="115.335656"><ele>1336.4</ele><time>2024-06-29T10:58:51.000Z</time></trkpt><trkpt lat="40.907662" lon="115.337163"><ele>1337.7</ele><time>2024-06-29T10:59:35.000Z</time></trkpt><trkpt lat="40.907727" lon="115.338158"><ele>1338.6</ele><time>2024-06-29T11:00:03.000Z</time></trkpt><trkpt lat="40.907925" lon="115.340332"><ele>1340.3</ele><time>2024-06-29T11:01:06.000Z</time></trkpt><trkpt lat="40.908014" lon="115.342236"><ele>1342.7</ele><time>2024-06-29T11:02:05.000Z</time></trkpt><trkpt lat="40.907879" lon="115.3446"><ele>1348.4</ele><time>2024-06-29T11:03:18.000Z</time></trkpt><trkpt lat="40.907858" lon="115.345546"><ele>1350.6</ele><time>2024-06-29T11:03:49.000Z</time></trkpt><trkpt lat="40.90771" lon="115.348666"><ele>1355.8</ele><time>2024-06-29T11:05:24.000Z</time></trkpt><trkpt lat="40.907623" lon="115.349441"><ele>1357.0</ele><time>2024-06-29T11:05:48.000Z</time></trkpt><trkpt lat="40.907498" lon="115.349951"><ele>1357.6</ele><time>2024-06-29T11:06:05.000Z</time></trkpt><trkpt lat="40.907292" lon="115.350485"><ele>1358.6</ele><time>2024-06-29T11:06:23.000Z</time></trkpt><trkpt lat="40.907024" lon="115.350947"><ele>1359.3</ele><time>2024-06-29T11:06:41.000Z</time></trkpt><trkpt lat="40.906812" lon="115.351239"><ele>1360.1</ele><time>2024-06-29T11:06:54.000Z</time></trkpt><trkpt lat="40.90641" lon="115.351641"><ele>1361.2</ele><time>2024-06-29T11:07:16.000Z</time></trkpt><trkpt lat="40.905898" lon="115.351997"><ele>1362.7</ele><time>2024-06-29T11:07:41.000Z</time></trkpt><trkpt lat="40.905108" lon="115.352417"><ele>1365.1</ele><time>2024-06-29T11:08:16.000Z</time></trkpt><trkpt lat="40.904492" lon="115.35264"><ele>1366.7</ele><time>2024-06-29T11:08:42.000Z</time></trkpt><trkpt lat="40.903049" lon="115.353335"><ele>1371.1</ele><time>2024-06-29T11:09:46.000Z</time></trkpt><trkpt lat="40.902848" lon="115.353478"><ele>1371.8</ele><time>2024-06-29T11:09:55.000Z</time></trkpt><trkpt lat="40.902594" lon="115.353726"><ele>1372.6</ele><time>2024-06-29T11:10:07.000Z</time></trkpt><trkpt lat="40.902359" lon="115.354064"><ele>1373.9</ele><time>2024-06-29T11:10:22.000Z</time></trkpt><trkpt lat="40.902177" lon="115.354514"><ele>1375.0</ele><time>2024-06-29T11:10:38.000Z</time></trkpt><trkpt lat="40.902109" lon="115.354857"><ele>1375.5</ele><time>2024-06-29T11:10:49.000Z</time></trkpt><trkpt lat="40.902088" lon="115.355384"><ele>1376.4</ele><time>2024-06-29T11:11:05.000Z</time></trkpt><trkpt lat="40.90214" lon="115.355734"><ele>1377.0</ele><time>2024-06-29T11:11:16.000Z</time></trkpt><trkpt lat="40.902315" lon="115.356242"><ele>1378.1</ele><time>2024-06-29T11:11:34.000Z</time></trkpt><trkpt lat="40.902517" lon="115.356572"><ele>1378.5</ele><time>2024-06-29T11:11:47.000Z</time></trkpt><trkpt lat="40.902761" lon="115.356837"><ele>1379.1</ele><time>2024-06-29T11:12:00.000Z</time></trkpt><trkpt lat="40.905339" lon="115.359007"><ele>1387.9</ele><time>2024-06-29T11:14:08.000Z</time></trkpt><trkpt lat="40.90578" lon="115.359323"><ele>1389.9</ele><time>2024-06-29T11:14:29.000Z</time></trkpt><trkpt lat="40.906175" lon="115.359695"><ele>1391.8</ele><time>2024-06-29T11:14:51.000Z</time></trkpt><trkpt lat="40.907113" lon="115.360458"><ele>1396.6</ele><time>2024-06-29T11:15:40.000Z</time></trkpt><trkpt lat="40.907628" lon="115.360961"><ele>1399.5</ele><time>2024-06-29T11:16:09.000Z</time></trkpt><trkpt lat="40.90791" lon="115.361331"><ele>1400.8</ele><time>2024-06-29T11:16:27.000Z</time></trkpt><trkpt lat="40.908099" lon="115.361651"><ele>1402.1</ele><time>2024-06-29T11:16:41.000Z</time></trkpt><trkpt lat="40.908235" lon="115.3621"><ele>1404.0</ele><time>2024-06-29T11:16:58.000Z</time></trkpt><trkpt lat="40.908327" lon="115.362526"><ele>1405.5</ele><time>2024-06-29T11:17:13.000Z</time></trkpt><trkpt lat="40.908357" lon="115.363051"><ele>1406.9</ele><time>2024-06-29T11:17:31.000Z</time></trkpt><trkpt lat="40.908184" lon="115.364931"><ele>1413.4</ele><time>2024-06-29T11:18:35.000Z</time></trkpt><trkpt lat="40.908181" lon="115.365593"><ele>1415.1</ele><time>2024-06-29T11:18:57.000Z</time></trkpt><trkpt lat="40.908213" lon="115.365962"><ele>1415.9</ele><time>2024-06-29T11:19:09.000Z</time></trkpt><trkpt lat="40.908562" lon="115.36781"><ele>1417.0</ele><time>2024-06-29T11:20:06.000Z</time></trkpt><trkpt lat="40.908623" lon="115.368769"><ele>1417.4</ele><time>2024-06-29T11:20:34.000Z</time></trkpt><trkpt lat="40.908621" lon="115.369501"><ele>1417.9</ele><time>2024-06-29T11:20:55.000Z</time></trkpt><trkpt lat="40.908432" lon="115.373663"><ele>1422.0</ele><time>2024-06-29T11:23:09.000Z</time></trkpt><trkpt lat="40.908322" lon="115.374661"><ele>1422.9</ele><time>2024-06-29T11:23:45.000Z</time></trkpt><trkpt lat="40.907603" lon="115.377731"><ele>1426.7</ele><time>2024-06-29T11:25:41.000Z</time></trkpt><trkpt lat="40.907515" lon="115.378671"><ele>1427.8</ele><time>2024-06-29T11:26:14.000Z</time></trkpt><trkpt lat="40.907423" lon="115.381044"><ele>1430.3</ele><time>2024-06-29T11:27:41.000Z</time></trkpt><trkpt lat="40.90735" lon="115.38195"><ele>1431.5</ele><time>2024-06-29T11:28:15.000Z</time></trkpt><trkpt lat="40.907175" lon="115.382938"><ele>1432.7</ele><time>2024-06-29T11:28:52.000Z</time></trkpt><trkpt lat="40.906533" lon="115.385877"><ele>1437.8</ele><time>2024-06-29T11:30:35.000Z</time></trkpt><trkpt lat="40.906396" lon="115.38672"><ele>1439.7</ele><time>2024-06-29T11:31:02.000Z</time></trkpt><trkpt lat="40.906389" lon="115.387483"><ele>1442.3</ele><time>2024-06-29T11:31:30.000Z</time></trkpt><trkpt lat="40.906547" lon="115.388344"><ele>1444.6</ele><time>2024-06-29T11:32:04.000Z</time></trkpt><trkpt lat="40.906757" lon="115.388829"><ele>1446.0</ele><time>2024-06-29T11:32:25.000Z</time></trkpt><trkpt lat="40.907025" lon="115.389298"><ele>1447.7</ele><time>2024-06-29T11:32:48.000Z</time></trkpt><trkpt lat="40.908537" lon="115.391117"><ele>1454.0</ele><time>2024-06-29T11:34:26.000Z</time></trkpt><trkpt lat="40.908957" lon="115.39156"><ele>1455.1</ele><time>2024-06-29T11:34:49.000Z</time></trkpt><trkpt lat="40.909397" lon="115.392151"><ele>1456.4</ele><time>2024-06-29T11:35:20.000Z</time></trkpt><trkpt lat="40.909555" lon="115.39242"><ele>1456.9</ele><time>2024-06-29T11:35:32.000Z</time></trkpt><trkpt lat="40.909786" lon="115.392879"><ele>1457.5</ele><time>2024-06-29T11:35:52.000Z</time></trkpt><trkpt lat="40.910003" lon="115.393461"><ele>1458.7</ele><time>2024-06-29T11:36:14.000Z</time></trkpt><trkpt lat="40.91073" lon="115.395694"><ele>1463.7</ele><time>2024-06-29T11:37:44.000Z</time></trkpt><trkpt lat="40.910957" lon="115.396251"><ele>1465.6</ele><time>2024-06-29T11:38:09.000Z</time></trkpt><trkpt lat="40.911102" lon="115.396504"><ele>1466.3</ele><time>2024-06-29T11:38:21.000Z</time></trkpt><trkpt lat="40.911402" lon="115.396949"><ele>1468.0</ele><time>2024-06-29T11:38:44.000Z</time></trkpt><trkpt lat="40.911797" lon="115.397379"><ele>1469.4</ele><time>2024-06-29T11:39:10.000Z</time></trkpt><trkpt lat="40.912836" lon="115.39834"><ele>1472.6</ele><time>2024-06-29T11:40:12.000Z</time></trkpt><trkpt lat="40.913209" lon="115.398755"><ele>1474.3</ele><time>2024-06-29T11:40:34.000Z</time></trkpt><trkpt lat="40.913802" lon="115.399669"><ele>1476.6</ele><time>2024-06-29T11:41:17.000Z</time></trkpt><trkpt lat="40.914672" lon="115.401283"><ele>1481.9</ele><time>2024-06-29T11:42:27.000Z</time></trkpt></trkseg></trk></gpx>