<?xml version="1.0" encoding="UTF-8"?><gpx creator="Health" xsi:schemaLocation="http://www.topografix.com/GPX/1/0 http://www.topografix.com/GPX/1/0/gpx.xsd" version="1.0" xmlns="http://www.topografix.com/GPX/1/0" xmlns:xsi="http://www.w3.org/2001/XMLSchema-instance"><metadata><time>2024-04-01T10:51:48.000Z</time></metadata><trk><type>户外跑步</type><extensions><totalTime>2891.0</totalTime><cumulativeDecrease>10.399999618530273</cumulativeDecrease><cumulativeClimb>8.699999809265137</cumulativeClimb><totalDistance>8290.0</totalDistance></extensions><trkseg><trkpt lat="40.06775" lon="116.547859"><ele>25.1</ele><time>2024-04-01T10:51:48.000Z</time></trkpt><trkpt lat="40.067902" lon="116.547799"><ele>25.1</ele><time>2024-04-01T10:51:52.000Z</time></trkpt><trkpt lat="40.068132" lon="116.547809"><ele>25.1</ele><time>2024-04-01T10:51:59.000Z</time></trkpt><trkpt lat="40.069173" lon="116.548019"><ele>25.0</ele><time>2024-04-01T10:52:40.000Z</time></trkpt><trkpt lat="40.070005" lon="116.548134"><ele>24.8</ele><time>2024-04-01T10:53:14.000Z</time></trkpt><trkpt lat="40.070277" lon="116.548102"><ele>24.7</ele><time>2024-04-01T10:53:24.000Z</time></trkpt><trkpt lat="40.070591" lon="116.548151"><ele>24.6</ele><time>2024-04-01T10:53:37.000Z</time></trkpt><trkpt lat="40.07088" lon="116.548115"><ele>24.3</ele><time>2024-04-01T10:53:48.000Z</time></trkpt><trkpt lat="40.071202" lon="116.548144"><ele>24.2</ele><time>2024-04-01T10:54:02.000Z</time></trkpt><trkpt lat="40.071445" lon="116.548102"><ele>24.3</ele><time>2024-04-01T10:54:13.000Z</time></trkpt><trkpt lat="40.071213" lon="116.5481"><ele>24.2</ele><time>2024-04-01T10:54:26.000Z</time></trkpt><trkpt lat="40.070742" lon="116.548017"><ele>24.0</ele><time>2024-04-01T10:54:47.000Z</time></trkpt><trkpt lat="40.07055" lon="116.547934"><ele>23.9</ele><time>2024-04-01T10:54:56.000Z</time></trkpt><trkpt lat="40.070225" lon="116.547861"><ele>23.7</ele><time>2024-04-01T10:55:11.000Z</time></trkpt><trkpt lat="40.069949" lon="116.547843"><ele>23.8</ele><time>2024-04-01T10:55:22.000Z</time></trkpt><trkpt lat="40.069768" lon="116.547766"><ele>23.8</ele><time>2024-04-01T10:55:30.000Z</time></trkpt><trkpt lat="40.06946" lon="116.547761"><ele>23.6</ele><time>2024-04-01T10:55:43.000Z</time></trkpt><trkpt lat="40.068995" lon="116.54765"><ele>23.6</ele><time>2024-04-01T10:56:01.000Z</time></trkpt><trkpt lat="40.068673" lon="116.547648"><ele>23.6</ele><time>2024-04-01T10:56:14.000Z</time></trkpt><trkpt lat="40.068587" lon="116.547589"><ele>23.6</ele><time>2024-04-01T10:56:19.000Z</time></trkpt><trkpt lat="40.067943" lon="116.547466"><ele>23.6</ele><time>2024-04-01T10:56:45.000Z</time></trkpt><trkpt lat="40.067654" lon="116.547358"><ele>23.5</ele><time>2024-04-01T10:56:58.000Z</time></trkpt><trkpt lat="40.065971" lon="116.547108"><ele>23.8</ele><time>2024-04-01T10:58:07.000Z</time></trkpt><trkpt lat="40.065493" lon="116.546942"><ele>24.1</ele><time>2024-04-01T10:58:28.000Z</time></trkpt><trkpt lat="40.065417" lon="116.546884"><ele>24.1</ele><time>2024-04-01T10:58:32.000Z</time></trkpt><trkpt lat="40.065245" lon="116.546863"><ele>24.2</ele><time>2024-04-01T10:58:43.000Z</time></trkpt><trkpt lat="40.065427" lon="116.546263"><ele>24.6</ele><time>2024-04-01T10:59:06.000Z</time></trkpt><trkpt lat="40.065641" lon="116.54533"><ele>25.2</ele><time>2024-04-01T10:59:36.000Z</time></trkpt><trkpt lat="40.065949" lon="116.544293"><ele>25.4</ele><time>2024-04-01T11:00:10.000Z</time></trkpt><trkpt lat="40.066099" lon="116.543907"><ele>25.5</ele><time>2024-04-01T11:00:24.000Z</time></trkpt><trkpt lat="40.066916" lon="116.540962"><ele>26.0</ele><time>2024-04-01T11:01:54.000Z</time></trkpt><trkpt lat="40.06729" lon="116.53993"><ele>25.6</ele><time>2024-04-01T11:02:25.000Z</time></trkpt><trkpt lat="40.067855" lon="116.538905"><ele>25.0</ele><time>2024-04-01T11:03:04.000Z</time></trkpt><trkpt lat="40.068268" lon="116.538414"><ele>24.9</ele><time>2024-04-01T11:03:29.000Z</time></trkpt><trkpt lat="40.068929" lon="116.537716"><ele>24.8</ele><time>2024-04-01T11:04:02.000Z</time></trkpt><trkpt lat="40.069315" lon="116.537426"><ele>24.7</ele><time>2024-04-01T11:04:21.000Z</time></trkpt><trkpt lat="40.07013" lon="116.536617"><ele>24.6</ele><time>2024-04-01T11:05:01.000Z</time></trkpt><trkpt lat="40.070351" lon="116.536447"><ele>24.4</ele><time>2024-04-01T11:05:11.000Z</time></trkpt><trkpt lat="40.070444" lon="116.536413"><ele>24.3</ele><time>2024-04-01T11:05:15.000Z</time></trkpt><trkpt lat="40.070548" lon="116.536436"><ele>24.3</ele><time>2024-04-01T11:05:19.000Z</time></trkpt><trkpt lat="40.071376" lon="116.536972"><ele>23.8</ele><time>2024-04-01T11:05:56.000Z</time></trkpt><trkpt lat="40.071792" lon="116.537151"><ele>23.6</ele><time>2024-04-01T11:06:13.000Z</time></trkpt><trkpt lat="40.072267" lon="116.537169"><ele>23.6</ele><time>2024-04-01T11:06:30.000Z</time></trkpt><trkpt lat="40.072549" lon="116.537135"><ele>23.6</ele><time>2024-04-01T11:06:42.000Z</time></trkpt><trkpt lat="40.072779" lon="116.537052"><ele>23.6</ele><time>2024-04-01T11:06:51.000Z</time></trkpt><trkpt lat="40.076899" lon="116.535113"><ele>23.6</ele><time>2024-04-01T11:09:46.000Z</time></trkpt><trkpt lat="40.077213" lon="116.534918"><ele>23.7</ele><time>2024-04-01T11:10:00.000Z</time></trkpt><trkpt lat="40.077939" lon="116.534615"><ele>23.7</ele><time>2024-04-01T11:10:32.000Z</time></trkpt><trkpt lat="40.078175" lon="116.534438"><ele>23.6</ele><time>2024-04-01T11:10:42.000Z</time></trkpt><trkpt lat="40.079338" lon="116.53387"><ele>24.0</ele><time>2024-04-01T11:11:25.000Z</time></trkpt><trkpt lat="40.081248" lon="116.533021"><ele>23.8</ele><time>2024-04-01T11:12:41.000Z</time></trkpt><trkpt lat="40.08296" lon="116.532174"><ele>24.3</ele><time>2024-04-01T11:13:55.000Z</time></trkpt><trkpt lat="40.083363" lon="116.531941"><ele>24.4</ele><time>2024-04-01T11:14:11.000Z</time></trkpt><trkpt lat="40.084188" lon="116.531603"><ele>24.4</ele><time>2024-04-01T11:14:45.000Z</time></trkpt><trkpt lat="40.084598" lon="116.531389"><ele>24.3</ele><time>2024-04-01T11:15:03.000Z</time></trkpt><trkpt lat="40.084677" lon="116.531416"><ele>24.3</ele><time>2024-04-01T11:15:18.000Z</time></trkpt><trkpt lat="40.085066" lon="116.531129"><ele>24.4</ele><time>2024-04-01T11:15:36.000Z</time></trkpt><trkpt lat="40.085442" lon="116.53091"><ele>24.4</ele><time>2024-04-01T11:15:53.000Z</time></trkpt><trkpt lat="40.085855" lon="116.530749"><ele>24.4</ele><time>2024-04-01T11:16:12.000Z</time></trkpt><trkpt lat="40.086157" lon="116.530577"><ele>24.4</ele><time>2024-04-01T11:16:26.000Z</time></trkpt><trkpt lat="40.086586" lon="116.53042"><ele>24.4</ele><time>2024-04-01T11:16:45.000Z</time></trkpt><trkpt lat="40.08686" lon="116.530246"><ele>24.5</ele><time>2024-04-01T11:16:58.000Z</time></trkpt><trkpt lat="40.088178" lon="116.529663"><ele>24.7</ele><time>2024-04-01T11:17:53.000Z</time></trkpt><trkpt lat="40.088373" lon="116.529513"><ele>24.7</ele><time>2024-04-01T11:18:03.000Z</time></trkpt><trkpt lat="40.08868" lon="116.529382"><ele>24.8</ele><time>2024-04-01T11:18:15.000Z</time></trkpt><trkpt lat="40.088923" lon="116.5292"><ele>24.8</ele><time>2024-04-01T11:18:25.000Z</time></trkpt><trkpt lat="40.089445" lon="116.528901"><ele>24.8</ele><time>2024-04-01T11:18:46.000Z</time></trkpt><trkpt lat="40.08966" lon="116.528814"><ele>24.9</ele><time>2024-04-01T11:18:56.000Z</time></trkpt><trkpt lat="40.089979" lon="116.528607"><ele>25.0</ele><time>2024-04-01T11:19:11.000Z</time></trkpt><trkpt lat="40.090067" lon="116.528622"><ele>25.1</ele><time>2024-04-01T11:19:15.000Z</time></trkpt><trkpt lat="40.090107" lon="116.528784"><ele>25.2</ele><time>2024-04-01T11:19:21.000Z</time></trkpt><trkpt lat="40.090217" lon="116.530211"><ele>25.4</ele><time>2024-04-01T11:20:08.000Z</time></trkpt><trkpt lat="40.090308" lon="116.530571"><ele>25.4</ele><time>2024-04-01T11:20:21.000Z</time></trkpt><trkpt lat="40.0903" lon="116.530786"><ele>25.3</ele><time>2024-04-01T11:20:28.000Z</time></trkpt><trkpt lat="40.090358" lon="116.531135"><ele>25.3</ele><time>2024-04-01T11:20:38.000Z</time></trkpt><trkpt lat="40.090357" lon="116.531403"><ele>25.3</ele><time>2024-04-01T11:20:46.000Z</time></trkpt><trkpt lat="40.090437" lon="116.531899"><ele>25.3</ele><time>2024-04-01T11:21:02.000Z</time></trkpt><trkpt lat="40.090417" lon="116.532252"><ele>25.4</ele><time>2024-04-01T11:21:13.000Z</time></trkpt><trkpt lat="40.090471" lon="116.532923"><ele>25.6</ele><time>2024-04-01T11:21:35.000Z</time></trkpt><trkpt lat="40.090419" lon="116.533049"><ele>25.6</ele><time>2024-04-01T11:21:40.000Z</time></trkpt><trkpt lat="40.09038" lon="116.533079"><ele>25.6</ele><time>2024-04-01T11:21:42.000Z</time></trkpt><trkpt lat="40.089609" lon="116.533375"><ele>25.6</ele><time>2024-04-01T11:22:13.000Z</time></trkpt><trkpt lat="40.088923" lon="116.533451"><ele>25.7</ele><time>2024-04-01T11:22:42.000Z</time></trkpt><trkpt lat="40.087303" lon="116.533884"><ele>25.6</ele><time>2024-04-01T11:23:40.000Z</time></trkpt><trkpt lat="40.087224" lon="116.534114"><ele>25.7</ele><time>2024-04-01T11:23:46.000Z</time></trkpt><trkpt lat="40.087219" lon="116.534461"><ele>25.7</ele><time>2024-04-01T11:23:55.000Z</time></trkpt><trkpt lat="40.087179" lon="116.534776"><ele>25.8</ele><time>2024-04-01T11:24:03.000Z</time></trkpt><trkpt lat="40.087156" lon="116.536008"><ele>26.2</ele><time>2024-04-01T11:24:29.000Z</time></trkpt><trkpt lat="40.087663" lon="116.536016"><ele>25.8</ele><time>2024-04-01T12:08:16.000Z</time></trkpt><trkpt lat="40.08754" lon="116.53587"><ele>24.7</ele><time>2024-04-01T12:08:19.000Z</time></trkpt><trkpt lat="40.087587" lon="116.535858"><ele>24.8</ele><time>2024-04-01T12:08:20.000Z</time></trkpt><trkpt lat="40.087554" lon="116.535908"><ele>24.9</ele><time>2024-04-01T12:08:21.000Z</time></trkpt><trkpt lat="40.087602" lon="116.53592"><ele>25.1</ele><time>2024-04-01T12:08:24.000Z</time></trkpt><trkpt lat="40.087574" lon="116.535765"><ele>25.1</ele><time>2024-04-01T12:08:27.000Z</time></trkpt><trkpt lat="40.087611" lon="116.535685"><ele>25.1</ele><time>2024-04-01T12:08:29.000Z</time></trkpt><trkpt lat="40.087519" lon="116.535297"><ele>25.1</ele><time>2024-04-01T12:08:33.000Z</time></trkpt><trkpt lat="40.087601" lon="116.535426"><ele>25.5</ele><time>2024-04-01T12:08:36.000Z</time></trkpt><trkpt lat="40.087529" lon="116.534821"><ele>25.9</ele><time>2024-04-01T12:08:47.000Z</time></trkpt><trkpt lat="40.087448" lon="116.534764"><ele>26.4</ele><time>2024-04-01T12:08:51.000Z</time></trkpt><trkpt lat="40.087258" lon="116.534457"><ele>26.2</ele><time>2024-04-01T12:08:59.000Z</time></trkpt><trkpt lat="40.087183" lon="116.534054"><ele>26.2</ele><time>2024-04-01T12:09:10.000Z</time></trkpt><trkpt lat="40.087196" lon="116.533932"><ele>26.2</ele><time>2024-04-01T12:09:15.000Z</time></trkpt><trkpt lat="40.087146" lon="116.533318"><ele>26.2</ele><time>2024-04-01T12:09:31.000Z</time></trkpt><trkpt lat="40.087182" lon="116.533032"><ele>26.2</ele><time>2024-04-01T12:09:40.000Z</time></trkpt><trkpt lat="40.087156" lon="116.532687"><ele>26.2</ele><time>2024-04-01T12:09:49.000Z</time></trkpt><trkpt lat="40.087187" lon="116.532611"><ele>26.2</ele><time>2024-04-01T12:09:51.000Z</time></trkpt><trkpt lat="40.087149" lon="116.532417"><ele>26.2</ele><time>2024-04-01T12:09:57.000Z</time></trkpt><trkpt lat="40.087163" lon="116.532148"><ele>26.2</ele><time>2024-04-01T12:10:05.000Z</time></trkpt><trkpt lat="40.087138" lon="116.532004"><ele>26.2</ele><time>2024-04-01T12:10:09.000Z</time></trkpt><trkpt lat="40.087143" lon="116.53177"><ele>26.2</ele><time>2024-04-01T12:10:16.000Z</time></trkpt><trkpt lat="40.087182" lon="116.531722"><ele>26.2</ele><time>2024-04-01T12:10:20.000Z</time></trkpt><trkpt lat="40.087212" lon="116.5315"><ele>26.2</ele><time>2024-04-01T12:10:29.000Z</time></trkpt><trkpt lat="40.08713" lon="116.530562"><ele>26.2</ele><time>2024-04-01T12:10:56.000Z</time></trkpt><trkpt lat="40.087216" lon="116.530483"><ele>26.2</ele><time>2024-04-01T12:10:59.000Z</time></trkpt><trkpt lat="40.08703" lon="116.530426"><ele>26.2</ele><time>2024-04-01T12:11:06.000Z</time></trkpt><trkpt lat="40.086733" lon="116.530703"><ele>26.2</ele><time>2024-04-01T12:11:22.000Z</time></trkpt><trkpt lat="40.086501" lon="116.530824"><ele>26.2</ele><time>2024-04-01T12:11:31.000Z</time></trkpt><trkpt lat="40.086155" lon="116.531086"><ele>26.1</ele><time>2024-04-01T12:11:47.000Z</time></trkpt><trkpt lat="40.085966" lon="116.531157"><ele>26.1</ele><time>2024-04-01T12:11:55.000Z</time></trkpt><trkpt lat="40.085535" lon="116.531407"><ele>25.9</ele><time>2024-04-01T12:12:11.000Z</time></trkpt><trkpt lat="40.085453" lon="116.531442"><ele>25.8</ele><time>2024-04-01T12:12:14.000Z</time></trkpt><trkpt lat="40.08512" lon="116.531437"><ele>25.7</ele><time>2024-04-01T12:12:23.000Z</time></trkpt><trkpt lat="40.08486" lon="116.531528"><ele>25.5</ele><time>2024-04-01T12:12:30.000Z</time></trkpt><trkpt lat="40.084598" lon="116.531487"><ele>24.9</ele><time>2024-04-01T12:12:38.000Z</time></trkpt><trkpt lat="40.084167" lon="116.531674"><ele>24.4</ele><time>2024-04-01T12:12:55.000Z</time></trkpt><trkpt lat="40.083733" lon="116.531763"><ele>24.2</ele><time>2024-04-01T12:13:12.000Z</time></trkpt><trkpt lat="40.083256" lon="116.531944"><ele>24.1</ele><time>2024-04-01T12:13:29.000Z</time></trkpt><trkpt lat="40.082716" lon="116.532189"><ele>23.9</ele><time>2024-04-01T12:13:50.000Z</time></trkpt><trkpt lat="40.082348" lon="116.53248"><ele>23.6</ele><time>2024-04-01T12:14:05.000Z</time></trkpt><trkpt lat="40.081791" lon="116.532712"><ele>23.7</ele><time>2024-04-01T12:14:25.000Z</time></trkpt><trkpt lat="40.080475" lon="116.533354"><ele>23.9</ele><time>2024-04-01T12:15:19.000Z</time></trkpt><trkpt lat="40.079464" lon="116.533891"><ele>24.0</ele><time>2024-04-01T12:16:33.000Z</time></trkpt><trkpt lat="40.079219" lon="116.533962"><ele>23.9</ele><time>2024-04-01T12:16:44.000Z</time></trkpt><trkpt lat="40.078774" lon="116.534188"><ele>23.7</ele><time>2024-04-01T12:17:03.000Z</time></trkpt><trkpt lat="40.078591" lon="116.534232"><ele>23.7</ele><time>2024-04-01T12:17:09.000Z</time></trkpt><trkpt lat="40.078178" lon="116.534483"><ele>23.6</ele><time>2024-04-01T12:17:28.000Z</time></trkpt><trkpt lat="40.078053" lon="116.534489"><ele>23.7</ele><time>2024-04-01T12:17:33.000Z</time></trkpt><trkpt lat="40.077363" lon="116.5349"><ele>23.5</ele><time>2024-04-01T12:18:06.000Z</time></trkpt><trkpt lat="40.076391" lon="116.535306"><ele>23.1</ele><time>2024-04-01T12:18:50.000Z</time></trkpt><trkpt lat="40.076157" lon="116.535444"><ele>23.1</ele><time>2024-04-01T12:19:00.000Z</time></trkpt><trkpt lat="40.075204" lon="116.535878"><ele>22.9</ele><time>2024-04-01T12:19:43.000Z</time></trkpt><trkpt lat="40.074814" lon="116.536115"><ele>22.9</ele><time>2024-04-01T12:19:59.000Z</time></trkpt><trkpt lat="40.07264" lon="116.537083"><ele>22.5</ele><time>2024-04-01T12:21:28.000Z</time></trkpt><trkpt lat="40.072359" lon="116.537177"><ele>22.3</ele><time>2024-04-01T12:21:41.000Z</time></trkpt><trkpt lat="40.072075" lon="116.537209"><ele>22.4</ele><time>2024-04-01T12:21:53.000Z</time></trkpt><trkpt lat="40.071592" lon="116.5371"><ele>22.5</ele><time>2024-04-01T12:22:13.000Z</time></trkpt><trkpt lat="40.071075" lon="116.536774"><ele>22.7</ele><time>2024-04-01T12:22:36.000Z</time></trkpt><trkpt lat="40.070937" lon="116.53672"><ele>22.6</ele><time>2024-04-01T12:22:42.000Z</time></trkpt><trkpt lat="40.070184" lon="116.536107"><ele>23.1</ele><time>2024-04-01T12:24:02.000Z</time></trkpt><trkpt lat="40.070101" lon="116.536081"><ele>23.2</ele><time>2024-04-01T12:24:05.000Z</time></trkpt><trkpt lat="40.069904" lon="116.536199"><ele>23.6</ele><time>2024-04-01T12:24:13.000Z</time></trkpt><trkpt lat="40.068897" lon="116.53714"><ele>23.6</ele><time>2024-04-01T12:25:04.000Z</time></trkpt></trkseg></trk></gpx>