<?xml version="1.0" encoding="UTF-8"?><gpx creator="Health" xsi:schemaLocation="http://www.topografix.com/GPX/1/0 http://www.topografix.com/GPX/1/0/gpx.xsd" version="1.0" xmlns="http://www.topografix.com/GPX/1/0" xmlns:xsi="http://www.w3.org/2001/XMLSchema-instance"><metadata><time>2024-08-04T07:13:42.000Z</time></metadata><trk><type>户外跑步</type><extensions><totalTime>480.0</totalTime><cumulativeDecrease>3.299999952316284</cumulativeDecrease><cumulativeClimb>2.5</cumulativeClimb><totalDistance>1300.0</totalDistance></extensions><trkseg><trkpt lat="34.671665" lon="112.43957"><ele>149.1</ele><time>2024-08-04T07:13:42.000Z</time></trkpt><trkpt lat="34.671694" lon="112.439557"><ele>149.1</ele><time>2024-08-04T07:13:43.000Z</time></trkpt><trkpt lat="34.671704" lon="112.439554"><ele>149.1</ele><time>2024-08-04T07:13:44.000Z</time></trkpt><trkpt lat="34.671727" lon="112.439546"><ele>149.1</ele><time>2024-08-04T07:13:45.000Z</time></trkpt><trkpt lat="34.671748" lon="112.43954"><ele>149.1</ele><time>2024-08-04T07:13:46.000Z</time></trkpt><trkpt lat="34.671771" lon="112.439535"><ele>149.1</ele><time>2024-08-04T07:13:47.000Z</time></trkpt><trkpt lat="34.67179" lon="112.439533"><ele>149.1</ele><time>2024-08-04T07:13:48.000Z</time></trkpt><trkpt lat="34.671811" lon="112.439529"><ele>149.1</ele><time>2024-08-04T07:13:49.000Z</time></trkpt><trkpt lat="34.671831" lon="112.439523"><ele>149.1</ele><time>2024-08-04T07:13:50.000Z</time></trkpt><trkpt lat="34.671851" lon="112.439512"><ele>149.1</ele><time>2024-08-04T07:13:51.000Z</time></trkpt><trkpt lat="34.67187" lon="112.439496"><ele>149.1</ele><time>2024-08-04T07:13:52.000Z</time></trkpt><trkpt lat="34.671889" lon="112.439478"><ele>149.1</ele><time>2024-08-04T07:13:53.000Z</time></trkpt><trkpt lat="34.671906" lon="112.439458"><ele>149.1</ele><time>2024-08-04T07:13:54.000Z</time></trkpt><trkpt lat="34.671921" lon="112.43944"><ele>149.1</ele><time>2024-08-04T07:13:55.000Z</time></trkpt><trkpt lat="34.671935" lon="112.439424"><ele>149.1</ele><time>2024-08-04T07:13:56.000Z</time></trkpt><trkpt lat="34.67195" lon="112.43941"><ele>149.1</ele><time>2024-08-04T07:13:57.000Z</time></trkpt><trkpt lat="34.671961" lon="112.439399"><ele>149.1</ele><time>2024-08-04T07:13:58.000Z</time></trkpt><trkpt lat="34.671975" lon="112.439388"><ele>149.1</ele><time>2024-08-04T07:13:59.000Z</time></trkpt><trkpt lat="34.671987" lon="112.439381"><ele>149.1</ele><time>2024-08-04T07:14:00.000Z</time></trkpt><trkpt lat="34.672002" lon="112.439372"><ele>149.1</ele><time>2024-08-04T07:14:01.000Z</time></trkpt><trkpt lat="34.672015" lon="112.439364"><ele>149.1</ele><time>2024-08-04T07:14:02.000Z</time></trkpt><trkpt lat="34.67203" lon="112.439355"><ele>149.2</ele><time>2024-08-04T07:14:03.000Z</time></trkpt><trkpt lat="34.672045" lon="112.439345"><ele>149.2</ele><time>2024-08-04T07:14:04.000Z</time></trkpt><trkpt lat="34.67206" lon="112.439334"><ele>149.2</ele><time>2024-08-04T07:14:05.000Z</time></trkpt><trkpt lat="34.672079" lon="112.439322"><ele>149.2</ele><time>2024-08-04T07:14:06.000Z</time></trkpt><trkpt lat="34.672098" lon="112.439312"><ele>149.2</ele><time>2024-08-04T07:14:07.000Z</time></trkpt><trkpt lat="34.672122" lon="112.439301"><ele>149.4</ele><time>2024-08-04T07:14:08.000Z</time></trkpt><trkpt lat="34.672145" lon="112.439291"><ele>149.4</ele><time>2024-08-04T07:14:09.000Z</time></trkpt><trkpt lat="34.672172" lon="112.439281"><ele>149.4</ele><time>2024-08-04T07:14:10.000Z</time></trkpt><trkpt lat="34.672198" lon="112.439271"><ele>149.4</ele><time>2024-08-04T07:14:11.000Z</time></trkpt><trkpt lat="34.672223" lon="112.43926"><ele>149.4</ele><time>2024-08-04T07:14:12.000Z</time></trkpt><trkpt lat="34.672249" lon="112.439249"><ele>149.5</ele><time>2024-08-04T07:14:13.000Z</time></trkpt><trkpt lat="34.672274" lon="112.439239"><ele>149.5</ele><time>2024-08-04T07:14:14.000Z</time></trkpt><trkpt lat="34.672302" lon="112.439229"><ele>149.5</ele><time>2024-08-04T07:14:15.000Z</time></trkpt><trkpt lat="34.672329" lon="112.43922"><ele>149.5</ele><time>2024-08-04T07:14:16.000Z</time></trkpt><trkpt lat="34.672356" lon="112.439212"><ele>149.5</ele><time>2024-08-04T07:14:17.000Z</time></trkpt><trkpt lat="34.672383" lon="112.439204"><ele>149.5</ele><time>2024-08-04T07:14:18.000Z</time></trkpt><trkpt lat="34.67241" lon="112.439193"><ele>149.5</ele><time>2024-08-04T07:14:19.000Z</time></trkpt><trkpt lat="34.672438" lon="112.439182"><ele>149.5</ele><time>2024-08-04T07:14:20.000Z</time></trkpt><trkpt lat="34.672464" lon="112.43917"><ele>149.5</ele><time>2024-08-04T07:14:21.000Z</time></trkpt><trkpt lat="34.672492" lon="112.439157"><ele>149.5</ele><time>2024-08-04T07:14:22.000Z</time></trkpt><trkpt lat="34.672521" lon="112.439144"><ele>149.4</ele><time>2024-08-04T07:14:23.000Z</time></trkpt><trkpt lat="34.672553" lon="112.43913"><ele>149.4</ele><time>2024-08-04T07:14:24.000Z</time></trkpt><trkpt lat="34.672583" lon="112.439117"><ele>149.4</ele><time>2024-08-04T07:14:25.000Z</time></trkpt><trkpt lat="34.672613" lon="112.439105"><ele>149.4</ele><time>2024-08-04T07:14:26.000Z</time></trkpt><trkpt lat="34.672641" lon="112.439094"><ele>149.4</ele><time>2024-08-04T07:14:27.000Z</time></trkpt><trkpt lat="34.672669" lon="112.439083"><ele>149.3</ele><time>2024-08-04T07:14:28.000Z</time></trkpt><trkpt lat="34.672699" lon="112.439071"><ele>149.3</ele><time>2024-08-04T07:14:29.000Z</time></trkpt><trkpt lat="34.672726" lon="112.439059"><ele>149.3</ele><time>2024-08-04T07:14:30.000Z</time></trkpt><trkpt lat="34.672754" lon="112.439044"><ele>149.3</ele><time>2024-08-04T07:14:31.000Z</time></trkpt><trkpt lat="34.672781" lon="112.439028"><ele>149.3</ele><time>2024-08-04T07:14:32.000Z</time></trkpt><trkpt lat="34.672807" lon="112.43901"><ele>149.3</ele><time>2024-08-04T07:14:33.000Z</time></trkpt><trkpt lat="34.672835" lon="112.438989"><ele>149.3</ele><time>2024-08-04T07:14:34.000Z</time></trkpt><trkpt lat="34.672859" lon="112.438969"><ele>149.3</ele><time>2024-08-04T07:14:35.000Z</time></trkpt><trkpt lat="34.672883" lon="112.438947"><ele>149.3</ele><time>2024-08-04T07:14:36.000Z</time></trkpt><trkpt lat="34.672904" lon="112.438925"><ele>149.3</ele><time>2024-08-04T07:14:37.000Z</time></trkpt><trkpt lat="34.672923" lon="112.438904"><ele>149.3</ele><time>2024-08-04T07:14:38.000Z</time></trkpt><trkpt lat="34.672943" lon="112.438888"><ele>149.3</ele><time>2024-08-04T07:14:39.000Z</time></trkpt><trkpt lat="34.672963" lon="112.438877"><ele>149.3</ele><time>2024-08-04T07:14:40.000Z</time></trkpt><trkpt lat="34.672986" lon="112.438866"><ele>149.3</ele><time>2024-08-04T07:14:41.000Z</time></trkpt><trkpt lat="34.673008" lon="112.438855"><ele>149.3</ele><time>2024-08-04T07:14:42.000Z</time></trkpt><trkpt lat="34.673032" lon="112.438844"><ele>149.3</ele><time>2024-08-04T07:14:43.000Z</time></trkpt><trkpt lat="34.673054" lon="112.438835"><ele>149.3</ele><time>2024-08-04T07:14:44.000Z</time></trkpt><trkpt lat="34.673076" lon="112.438825"><ele>149.3</ele><time>2024-08-04T07:14:45.000Z</time></trkpt><trkpt lat="34.673098" lon="112.438814"><ele>149.3</ele><time>2024-08-04T07:14:46.000Z</time></trkpt><trkpt lat="34.673119" lon="112.438802"><ele>149.3</ele><time>2024-08-04T07:14:47.000Z</time></trkpt><trkpt lat="34.673139" lon="112.438787"><ele>149.3</ele><time>2024-08-04T07:14:48.000Z</time></trkpt><trkpt lat="34.673158" lon="112.438771"><ele>149.3</ele><time>2024-08-04T07:14:49.000Z</time></trkpt><trkpt lat="34.673178" lon="112.438755"><ele>149.3</ele><time>2024-08-04T07:14:50.000Z</time></trkpt><trkpt lat="34.673199" lon="112.438738"><ele>149.3</ele><time>2024-08-04T07:14:51.000Z</time></trkpt><trkpt lat="34.67322" lon="112.438721"><ele>149.3</ele><time>2024-08-04T07:14:52.000Z</time></trkpt><trkpt lat="34.673244" lon="112.438702"><ele>149.2</ele><time>2024-08-04T07:14:53.000Z</time></trkpt><trkpt lat="34.673266" lon="112.438686"><ele>149.2</ele><time>2024-08-04T07:14:54.000Z</time></trkpt><trkpt lat="34.673289" lon="112.438669"><ele>149.2</ele><time>2024-08-04T07:14:55.000Z</time></trkpt><trkpt lat="34.673312" lon="112.438654"><ele>149.2</ele><time>2024-08-04T07:14:56.000Z</time></trkpt><trkpt lat="34.673333" lon="112.43864"><ele>149.2</ele><time>2024-08-04T07:14:57.000Z</time></trkpt><trkpt lat="34.673356" lon="112.438625"><ele>149.2</ele><time>2024-08-04T07:14:58.000Z</time></trkpt><trkpt lat="34.673376" lon="112.438611"><ele>149.2</ele><time>2024-08-04T07:14:59.000Z</time></trkpt><trkpt lat="34.673395" lon="112.438598"><ele>149.2</ele><time>2024-08-04T07:15:00.000Z</time></trkpt><trkpt lat="34.673415" lon="112.438587"><ele>149.2</ele><time>2024-08-04T07:15:01.000Z</time></trkpt><trkpt lat="34.673436" lon="112.438576"><ele>149.2</ele><time>2024-08-04T07:15:02.000Z</time></trkpt><trkpt lat="34.673459" lon="112.438565"><ele>149.2</ele><time>2024-08-04T07:15:03.000Z</time></trkpt><trkpt lat="34.673481" lon="112.438555"><ele>149.2</ele><time>2024-08-04T07:15:04.000Z</time></trkpt><trkpt lat="34.673503" lon="112.438545"><ele>149.2</ele><time>2024-08-04T07:15:05.000Z</time></trkpt><trkpt lat="34.673524" lon="112.438536"><ele>149.2</ele><time>2024-08-04T07:15:06.000Z</time></trkpt><trkpt lat="34.673546" lon="112.438527"><ele>149.2</ele><time>2024-08-04T07:15:07.000Z</time></trkpt><trkpt lat="34.673567" lon="112.438519"><ele>149.2</ele><time>2024-08-04T07:15:08.000Z</time></trkpt><trkpt lat="34.673586" lon="112.438512"><ele>149.2</ele><time>2024-08-04T07:15:09.000Z</time></trkpt><trkpt lat="34.673607" lon="112.438504"><ele>149.2</ele><time>2024-08-04T07:15:10.000Z</time></trkpt><trkpt lat="34.673627" lon="112.438497"><ele>149.2</ele><time>2024-08-04T07:15:11.000Z</time></trkpt><trkpt lat="34.673647" lon="112.43849"><ele>149.2</ele><time>2024-08-04T07:15:12.000Z</time></trkpt><trkpt lat="34.673668" lon="112.438483"><ele>149.2</ele><time>2024-08-04T07:15:13.000Z</time></trkpt><trkpt lat="34.673688" lon="112.438474"><ele>149.2</ele><time>2024-08-04T07:15:14.000Z</time></trkpt><trkpt lat="34.673711" lon="112.438465"><ele>149.2</ele><time>2024-08-04T07:15:15.000Z</time></trkpt><trkpt lat="34.673731" lon="112.438455"><ele>149.2</ele><time>2024-08-04T07:15:16.000Z</time></trkpt><trkpt lat="34.673752" lon="112.438445"><ele>149.2</ele><time>2024-08-04T07:15:17.000Z</time></trkpt><trkpt lat="34.673772" lon="112.438431"><ele>149.2</ele><time>2024-08-04T07:15:18.000Z</time></trkpt><trkpt lat="34.673791" lon="112.438418"><ele>149.2</ele><time>2024-08-04T07:15:19.000Z</time></trkpt><trkpt lat="34.673811" lon="112.438402"><ele>149.2</ele><time>2024-08-04T07:15:20.000Z</time></trkpt><trkpt lat="34.673828" lon="112.438386"><ele>149.2</ele><time>2024-08-04T07:15:21.000Z</time></trkpt><trkpt lat="34.673844" lon="112.438369"><ele>149.2</ele><time>2024-08-04T07:15:22.000Z</time></trkpt><trkpt lat="34.673857" lon="112.438351"><ele>149.3</ele><time>2024-08-04T07:15:23.000Z</time></trkpt><trkpt lat="34.673868" lon="112.43833"><ele>149.2</ele><time>2024-08-04T07:16:24.000Z</time></trkpt><trkpt lat="34.673881" lon="112.438311"><ele>149.3</ele><time>2024-08-04T07:16:25.000Z</time></trkpt><trkpt lat="34.673895" lon="112.438294"><ele>149.5</ele><time>2024-08-04T07:16:26.000Z</time></trkpt><trkpt lat="34.673915" lon="112.438281"><ele>149.6</ele><time>2024-08-04T07:16:27.000Z</time></trkpt><trkpt lat="34.673936" lon="112.438267"><ele>149.8</ele><time>2024-08-04T07:16:28.000Z</time></trkpt><trkpt lat="34.673958" lon="112.438254"><ele>149.8</ele><time>2024-08-04T07:16:29.000Z</time></trkpt><trkpt lat="34.673982" lon="112.438242"><ele>149.9</ele><time>2024-08-04T07:16:30.000Z</time></trkpt><trkpt lat="34.674006" lon="112.438231"><ele>150.1</ele><time>2024-08-04T07:16:31.000Z</time></trkpt><trkpt lat="34.674033" lon="112.43822"><ele>150.1</ele><time>2024-08-04T07:16:32.000Z</time></trkpt><trkpt lat="34.674058" lon="112.43821"><ele>150.1</ele><time>2024-08-04T07:16:33.000Z</time></trkpt><trkpt lat="34.674086" lon="112.438198"><ele>150.2</ele><time>2024-08-04T07:16:34.000Z</time></trkpt><trkpt lat="34.67411" lon="112.438186"><ele>150.3</ele><time>2024-08-04T07:16:35.000Z</time></trkpt><trkpt lat="34.674135" lon="112.438174"><ele>150.4</ele><time>2024-08-04T07:16:36.000Z</time></trkpt><trkpt lat="34.674161" lon="112.438163"><ele>150.4</ele><time>2024-08-04T07:16:37.000Z</time></trkpt><trkpt lat="34.674184" lon="112.438152"><ele>150.5</ele><time>2024-08-04T07:16:38.000Z</time></trkpt><trkpt lat="34.674207" lon="112.438139"><ele>150.5</ele><time>2024-08-04T07:16:39.000Z</time></trkpt><trkpt lat="34.674227" lon="112.438127"><ele>150.5</ele><time>2024-08-04T07:16:40.000Z</time></trkpt><trkpt lat="34.674247" lon="112.438114"><ele>150.5</ele><time>2024-08-04T07:16:41.000Z</time></trkpt><trkpt lat="34.674267" lon="112.438101"><ele>150.5</ele><time>2024-08-04T07:16:42.000Z</time></trkpt><trkpt lat="34.674288" lon="112.438088"><ele>150.6</ele><time>2024-08-04T07:16:43.000Z</time></trkpt><trkpt lat="34.674309" lon="112.438074"><ele>150.6</ele><time>2024-08-04T07:16:44.000Z</time></trkpt><trkpt lat="34.674331" lon="112.43806"><ele>150.6</ele><time>2024-08-04T07:16:45.000Z</time></trkpt><trkpt lat="34.674355" lon="112.438045"><ele>150.6</ele><time>2024-08-04T07:16:46.000Z</time></trkpt><trkpt lat="34.674378" lon="112.438031"><ele>150.6</ele><time>2024-08-04T07:16:47.000Z</time></trkpt><trkpt lat="34.674398" lon="112.438017"><ele>150.7</ele><time>2024-08-04T07:16:48.000Z</time></trkpt><trkpt lat="34.674419" lon="112.438005"><ele>150.7</ele><time>2024-08-04T07:16:49.000Z</time></trkpt><trkpt lat="34.674439" lon="112.437992"><ele>150.7</ele><time>2024-08-04T07:16:50.000Z</time></trkpt><trkpt lat="34.674462" lon="112.437978"><ele>150.7</ele><time>2024-08-04T07:16:51.000Z</time></trkpt><trkpt lat="34.674481" lon="112.437966"><ele>150.7</ele><time>2024-08-04T07:16:52.000Z</time></trkpt><trkpt lat="34.674501" lon="112.437954"><ele>150.7</ele><time>2024-08-04T07:16:53.000Z</time></trkpt><trkpt lat="34.674522" lon="112.43794"><ele>150.7</ele><time>2024-08-04T07:16:54.000Z</time></trkpt><trkpt lat="34.674543" lon="112.437927"><ele>150.7</ele><time>2024-08-04T07:16:55.000Z</time></trkpt><trkpt lat="34.674566" lon="112.437912"><ele>150.7</ele><time>2024-08-04T07:16:56.000Z</time></trkpt><trkpt lat="34.674586" lon="112.437898"><ele>150.7</ele><time>2024-08-04T07:16:57.000Z</time></trkpt><trkpt lat="34.674605" lon="112.437885"><ele>150.5</ele><time>2024-08-04T07:16:58.000Z</time></trkpt><trkpt lat="34.674625" lon="112.437872"><ele>150.5</ele><time>2024-08-04T07:16:59.000Z</time></trkpt><trkpt lat="34.674646" lon="112.437858"><ele>150.5</ele><time>2024-08-04T07:17:00.000Z</time></trkpt><trkpt lat="34.674669" lon="112.437843"><ele>150.5</ele><time>2024-08-04T07:17:01.000Z</time></trkpt><trkpt lat="34.674689" lon="112.43783"><ele>150.5</ele><time>2024-08-04T07:17:02.000Z</time></trkpt><trkpt lat="34.674709" lon="112.437817"><ele>150.4</ele><time>2024-08-04T07:17:03.000Z</time></trkpt><trkpt lat="34.674729" lon="112.437803"><ele>150.4</ele><time>2024-08-04T07:17:04.000Z</time></trkpt><trkpt lat="34.674749" lon="112.43779"><ele>150.4</ele><time>2024-08-04T07:17:05.000Z</time></trkpt><trkpt lat="34.674772" lon="112.437775"><ele>150.4</ele><time>2024-08-04T07:17:06.000Z</time></trkpt><trkpt lat="34.674791" lon="112.437763"><ele>150.4</ele><time>2024-08-04T07:17:07.000Z</time></trkpt><trkpt lat="34.674811" lon="112.437751"><ele>150.4</ele><time>2024-08-04T07:17:08.000Z</time></trkpt><trkpt lat="34.674831" lon="112.437738"><ele>150.4</ele><time>2024-08-04T07:17:09.000Z</time></trkpt><trkpt lat="34.674852" lon="112.437726"><ele>150.4</ele><time>2024-08-04T07:17:10.000Z</time></trkpt><trkpt lat="34.674875" lon="112.437712"><ele>150.4</ele><time>2024-08-04T07:17:11.000Z</time></trkpt><trkpt lat="34.674898" lon="112.437699"><ele>150.4</ele><time>2024-08-04T07:17:12.000Z</time></trkpt><trkpt lat="34.674921" lon="112.437687"><ele>150.5</ele><time>2024-08-04T07:17:13.000Z</time></trkpt><trkpt lat="34.674941" lon="112.437676"><ele>150.5</ele><time>2024-08-04T07:17:14.000Z</time></trkpt><trkpt lat="34.674962" lon="112.437664"><ele>150.5</ele><time>2024-08-04T07:17:15.000Z</time></trkpt><trkpt lat="34.674984" lon="112.437652"><ele>150.5</ele><time>2024-08-04T07:17:16.000Z</time></trkpt><trkpt lat="34.675008" lon="112.437639"><ele>150.5</ele><time>2024-08-04T07:17:17.000Z</time></trkpt><trkpt lat="34.675029" lon="112.437627"><ele>150.6</ele><time>2024-08-04T07:17:18.000Z</time></trkpt><trkpt lat="34.67505" lon="112.437615"><ele>150.6</ele><time>2024-08-04T07:17:19.000Z</time></trkpt><trkpt lat="34.675073" lon="112.437603"><ele>150.6</ele><time>2024-08-04T07:17:20.000Z</time></trkpt><trkpt lat="34.675094" lon="112.43759"><ele>150.6</ele><time>2024-08-04T07:17:21.000Z</time></trkpt><trkpt lat="34.675119" lon="112.437576"><ele>150.6</ele><time>2024-08-04T07:17:22.000Z</time></trkpt><trkpt lat="34.675141" lon="112.437563"><ele>150.6</ele><time>2024-08-04T07:17:23.000Z</time></trkpt><trkpt lat="34.675163" lon="112.437551"><ele>150.6</ele><time>2024-08-04T07:17:24.000Z</time></trkpt><trkpt lat="34.675185" lon="112.437538"><ele>150.6</ele><time>2024-08-04T07:17:25.000Z</time></trkpt><trkpt lat="34.675208" lon="112.437524"><ele>150.6</ele><time>2024-08-04T07:17:26.000Z</time></trkpt><trkpt lat="34.67523" lon="112.437511"><ele>150.6</ele><time>2024-08-04T07:17:27.000Z</time></trkpt><trkpt lat="34.675253" lon="112.437497"><ele>150.6</ele><time>2024-08-04T07:17:28.000Z</time></trkpt><trkpt lat="34.675275" lon="112.437483"><ele>150.6</ele><time>2024-08-04T07:17:29.000Z</time></trkpt><trkpt lat="34.6753" lon="112.437468"><ele>150.6</ele><time>2024-08-04T07:17:30.000Z</time></trkpt><trkpt lat="34.675321" lon="112.437454"><ele>150.6</ele><time>2024-08-04T07:17:31.000Z</time></trkpt><trkpt lat="34.675343" lon="112.437439"><ele>150.6</ele><time>2024-08-04T07:17:32.000Z</time></trkpt><trkpt lat="34.675364" lon="112.437424"><ele>150.6</ele><time>2024-08-04T07:17:33.000Z</time></trkpt><trkpt lat="34.675385" lon="112.437409"><ele>150.6</ele><time>2024-08-04T07:17:34.000Z</time></trkpt><trkpt lat="34.675408" lon="112.437391"><ele>150.6</ele><time>2024-08-04T07:17:35.000Z</time></trkpt><trkpt lat="34.675428" lon="112.437375"><ele>150.6</ele><time>2024-08-04T07:17:36.000Z</time></trkpt><trkpt lat="34.675447" lon="112.437358"><ele>150.6</ele><time>2024-08-04T07:17:37.000Z</time></trkpt><trkpt lat="34.675467" lon="112.43734"><ele>150.7</ele><time>2024-08-04T07:17:38.000Z</time></trkpt><trkpt lat="34.675486" lon="112.437322"><ele>150.7</ele><time>2024-08-04T07:17:39.000Z</time></trkpt><trkpt lat="34.675507" lon="112.4373"><ele>150.7</ele><time>2024-08-04T07:17:40.000Z</time></trkpt><trkpt lat="34.675525" lon="112.437281"><ele>150.7</ele><time>2024-08-04T07:17:41.000Z</time></trkpt><trkpt lat="34.675544" lon="112.43726"><ele>150.7</ele><time>2024-08-04T07:17:42.000Z</time></trkpt><trkpt lat="34.67556" lon="112.437239"><ele>150.8</ele><time>2024-08-04T07:17:43.000Z</time></trkpt><trkpt lat="34.675575" lon="112.437217"><ele>150.8</ele><time>2024-08-04T07:17:44.000Z</time></trkpt><trkpt lat="34.675587" lon="112.437189"><ele>150.8</ele><time>2024-08-04T07:17:45.000Z</time></trkpt><trkpt lat="34.675596" lon="112.437159"><ele>150.8</ele><time>2024-08-04T07:17:46.000Z</time></trkpt><trkpt lat="34.675603" lon="112.437125"><ele>150.8</ele><time>2024-08-04T07:17:47.000Z</time></trkpt><trkpt lat="34.675609" lon="112.437094"><ele>150.8</ele><time>2024-08-04T07:17:48.000Z</time></trkpt><trkpt lat="34.675614" lon="112.437067"><ele>150.8</ele><time>2024-08-04T07:17:49.000Z</time></trkpt><trkpt lat="34.67562" lon="112.437037"><ele>150.8</ele><time>2024-08-04T07:17:50.000Z</time></trkpt><trkpt lat="34.675625" lon="112.43701"><ele>150.8</ele><time>2024-08-04T07:17:51.000Z</time></trkpt><trkpt lat="34.675629" lon="112.436982"><ele>150.8</ele><time>2024-08-04T07:17:52.000Z</time></trkpt><trkpt lat="34.675632" lon="112.436955"><ele>150.9</ele><time>2024-08-04T07:17:53.000Z</time></trkpt><trkpt lat="34.675634" lon="112.436927"><ele>150.9</ele><time>2024-08-04T07:17:54.000Z</time></trkpt><trkpt lat="34.675636" lon="112.436901"><ele>150.9</ele><time>2024-08-04T07:17:55.000Z</time></trkpt><trkpt lat="34.675637" lon="112.436873"><ele>150.9</ele><time>2024-08-04T07:17:56.000Z</time></trkpt><trkpt lat="34.675637" lon="112.436847"><ele>150.9</ele><time>2024-08-04T07:17:57.000Z</time></trkpt><trkpt lat="34.675636" lon="112.436818"><ele>151.0</ele><time>2024-08-04T07:17:58.000Z</time></trkpt><trkpt lat="34.675633" lon="112.436792"><ele>151.0</ele><time>2024-08-04T07:17:59.000Z</time></trkpt><trkpt lat="34.675628" lon="112.436765"><ele>151.0</ele><time>2024-08-04T07:18:00.000Z</time></trkpt><trkpt lat="34.67562" lon="112.436739"><ele>151.0</ele><time>2024-08-04T07:18:01.000Z</time></trkpt><trkpt lat="34.675612" lon="112.436713"><ele>151.0</ele><time>2024-08-04T07:18:02.000Z</time></trkpt><trkpt lat="34.675603" lon="112.436686"><ele>151.1</ele><time>2024-08-04T07:18:03.000Z</time></trkpt><trkpt lat="34.675594" lon="112.436662"><ele>151.1</ele><time>2024-08-04T07:18:04.000Z</time></trkpt><trkpt lat="34.675582" lon="112.436635"><ele>151.1</ele><time>2024-08-04T07:18:05.000Z</time></trkpt><trkpt lat="34.675571" lon="112.436609"><ele>151.1</ele><time>2024-08-04T07:18:06.000Z</time></trkpt><trkpt lat="34.675559" lon="112.436581"><ele>151.1</ele><time>2024-08-04T07:18:07.000Z</time></trkpt><trkpt lat="34.675547" lon="112.436557"><ele>151.1</ele><time>2024-08-04T07:18:08.000Z</time></trkpt><trkpt lat="34.675535" lon="112.436534"><ele>151.1</ele><time>2024-08-04T07:18:09.000Z</time></trkpt><trkpt lat="34.675521" lon="112.43651"><ele>151.1</ele><time>2024-08-04T07:18:10.000Z</time></trkpt><trkpt lat="34.675506" lon="112.436487"><ele>151.1</ele><time>2024-08-04T07:18:11.000Z</time></trkpt><trkpt lat="34.675488" lon="112.436461"><ele>151.1</ele><time>2024-08-04T07:18:12.000Z</time></trkpt><trkpt lat="34.67547" lon="112.436438"><ele>151.1</ele><time>2024-08-04T07:18:13.000Z</time></trkpt><trkpt lat="34.675451" lon="112.436414"><ele>151.1</ele><time>2024-08-04T07:18:14.000Z</time></trkpt><trkpt lat="34.675431" lon="112.436391"><ele>151.1</ele><time>2024-08-04T07:18:15.000Z</time></trkpt><trkpt lat="34.675411" lon="112.43637"><ele>151.1</ele><time>2024-08-04T07:18:16.000Z</time></trkpt><trkpt lat="34.67539" lon="112.436349"><ele>151.1</ele><time>2024-08-04T07:18:17.000Z</time></trkpt><trkpt lat="34.67537" lon="112.436332"><ele>151.1</ele><time>2024-08-04T07:18:18.000Z</time></trkpt><trkpt lat="34.675351" lon="112.436315"><ele>151.1</ele><time>2024-08-04T07:18:19.000Z</time></trkpt><trkpt lat="34.675331" lon="112.436299"><ele>151.1</ele><time>2024-08-04T07:18:20.000Z</time></trkpt><trkpt lat="34.675311" lon="112.436286"><ele>151.1</ele><time>2024-08-04T07:18:21.000Z</time></trkpt><trkpt lat="34.675288" lon="112.436274"><ele>151.1</ele><time>2024-08-04T07:18:22.000Z</time></trkpt><trkpt lat="34.675268" lon="112.436265"><ele>151.1</ele><time>2024-08-04T07:18:23.000Z</time></trkpt><trkpt lat="34.675245" lon="112.436255"><ele>151.1</ele><time>2024-08-04T07:18:24.000Z</time></trkpt><trkpt lat="34.675224" lon="112.436248"><ele>151.1</ele><time>2024-08-04T07:18:25.000Z</time></trkpt><trkpt lat="34.675201" lon="112.43624"><ele>151.1</ele><time>2024-08-04T07:18:26.000Z</time></trkpt><trkpt lat="34.675179" lon="112.436233"><ele>151.1</ele><time>2024-08-04T07:18:27.000Z</time></trkpt><trkpt lat="34.675157" lon="112.436227"><ele>151.1</ele><time>2024-08-04T07:18:28.000Z</time></trkpt><trkpt lat="34.675134" lon="112.436222"><ele>151.1</ele><time>2024-08-04T07:18:29.000Z</time></trkpt><trkpt lat="34.675113" lon="112.436219"><ele>151.1</ele><time>2024-08-04T07:18:30.000Z</time></trkpt><trkpt lat="34.675088" lon="112.436219"><ele>151.1</ele><time>2024-08-04T07:18:31.000Z</time></trkpt><trkpt lat="34.675063" lon="112.436221"><ele>151.1</ele><time>2024-08-04T07:18:32.000Z</time></trkpt><trkpt lat="34.675036" lon="112.436224"><ele>150.3</ele><time>2024-08-04T07:18:33.000Z</time></trkpt><trkpt lat="34.675011" lon="112.436228"><ele>150.3</ele><time>2024-08-04T07:18:34.000Z</time></trkpt><trkpt lat="34.674986" lon="112.436232"><ele>150.3</ele><time>2024-08-04T07:18:35.000Z</time></trkpt><trkpt lat="34.67496" lon="112.436236"><ele>150.3</ele><time>2024-08-04T07:18:36.000Z</time></trkpt><trkpt lat="34.674935" lon="112.436241"><ele>150.3</ele><time>2024-08-04T07:18:37.000Z</time></trkpt><trkpt lat="34.674913" lon="112.436247"><ele>150.3</ele><time>2024-08-04T07:18:38.000Z</time></trkpt><trkpt lat="34.674893" lon="112.43626"><ele>150.3</ele><time>2024-08-04T07:18:39.000Z</time></trkpt><trkpt lat="34.674871" lon="112.436273"><ele>150.3</ele><time>2024-08-04T07:18:40.000Z</time></trkpt><trkpt lat="34.674847" lon="112.436286"><ele>150.3</ele><time>2024-08-04T07:18:41.000Z</time></trkpt><trkpt lat="34.674821" lon="112.436293"><ele>150.3</ele><time>2024-08-04T07:18:42.000Z</time></trkpt><trkpt lat="34.674795" lon="112.436301"><ele>150.4</ele><time>2024-08-04T07:18:43.000Z</time></trkpt><trkpt lat="34.674769" lon="112.436309"><ele>150.4</ele><time>2024-08-04T07:18:44.000Z</time></trkpt><trkpt lat="34.674742" lon="112.436317"><ele>150.4</ele><time>2024-08-04T07:18:45.000Z</time></trkpt><trkpt lat="34.674715" lon="112.436326"><ele>150.4</ele><time>2024-08-04T07:18:46.000Z</time></trkpt><trkpt lat="34.674687" lon="112.436334"><ele>150.4</ele><time>2024-08-04T07:18:47.000Z</time></trkpt><trkpt lat="34.674662" lon="112.436342"><ele>150.3</ele><time>2024-08-04T07:18:48.000Z</time></trkpt><trkpt lat="34.674636" lon="112.43635"><ele>150.3</ele><time>2024-08-04T07:18:49.000Z</time></trkpt><trkpt lat="34.674611" lon="112.436359"><ele>150.3</ele><time>2024-08-04T07:18:50.000Z</time></trkpt><trkpt lat="34.674584" lon="112.436369"><ele>150.3</ele><time>2024-08-04T07:18:51.000Z</time></trkpt><trkpt lat="34.67456" lon="112.436379"><ele>150.3</ele><time>2024-08-04T07:18:52.000Z</time></trkpt><trkpt lat="34.674536" lon="112.436391"><ele>150.3</ele><time>2024-08-04T07:18:53.000Z</time></trkpt><trkpt lat="34.674514" lon="112.436402"><ele>150.3</ele><time>2024-08-04T07:18:54.000Z</time></trkpt><trkpt lat="34.674493" lon="112.436414"><ele>150.3</ele><time>2024-08-04T07:18:55.000Z</time></trkpt><trkpt lat="34.674474" lon="112.436425"><ele>150.3</ele><time>2024-08-04T07:18:56.000Z</time></trkpt><trkpt lat="34.674456" lon="112.436436"><ele>150.3</ele><time>2024-08-04T07:18:57.000Z</time></trkpt><trkpt lat="34.674438" lon="112.436445"><ele>150.3</ele><time>2024-08-04T07:18:58.000Z</time></trkpt><trkpt lat="34.674419" lon="112.436454"><ele>150.3</ele><time>2024-08-04T07:18:59.000Z</time></trkpt><trkpt lat="34.6744" lon="112.436462"><ele>150.3</ele><time>2024-08-04T07:19:00.000Z</time></trkpt><trkpt lat="34.674381" lon="112.43647"><ele>150.3</ele><time>2024-08-04T07:19:01.000Z</time></trkpt><trkpt lat="34.674362" lon="112.436477"><ele>150.3</ele><time>2024-08-04T07:19:02.000Z</time></trkpt><trkpt lat="34.674344" lon="112.436484"><ele>150.4</ele><time>2024-08-04T07:19:03.000Z</time></trkpt><trkpt lat="34.674324" lon="112.436492"><ele>150.4</ele><time>2024-08-04T07:19:04.000Z</time></trkpt><trkpt lat="34.674306" lon="112.436501"><ele>150.4</ele><time>2024-08-04T07:19:05.000Z</time></trkpt><trkpt lat="34.674286" lon="112.43651"><ele>150.4</ele><time>2024-08-04T07:19:06.000Z</time></trkpt><trkpt lat="34.674268" lon="112.436519"><ele>150.4</ele><time>2024-08-04T07:19:07.000Z</time></trkpt><trkpt lat="34.674247" lon="112.43653"><ele>150.3</ele><time>2024-08-04T07:19:08.000Z</time></trkpt><trkpt lat="34.674227" lon="112.43654"><ele>150.3</ele><time>2024-08-04T07:19:09.000Z</time></trkpt><trkpt lat="34.674207" lon="112.436552"><ele>150.3</ele><time>2024-08-04T07:19:10.000Z</time></trkpt><trkpt lat="34.674188" lon="112.436563"><ele>150.3</ele><time>2024-08-04T07:19:11.000Z</time></trkpt><trkpt lat="34.674171" lon="112.436576"><ele>150.3</ele><time>2024-08-04T07:19:12.000Z</time></trkpt><trkpt lat="34.674153" lon="112.436589"><ele>150.2</ele><time>2024-08-04T07:19:13.000Z</time></trkpt><trkpt lat="34.674134" lon="112.436604"><ele>150.2</ele><time>2024-08-04T07:19:14.000Z</time></trkpt><trkpt lat="34.674116" lon="112.436619"><ele>150.2</ele><time>2024-08-04T07:19:15.000Z</time></trkpt><trkpt lat="34.674095" lon="112.436634"><ele>150.2</ele><time>2024-08-04T07:19:16.000Z</time></trkpt><trkpt lat="34.674075" lon="112.436647"><ele>150.2</ele><time>2024-08-04T07:19:17.000Z</time></trkpt><trkpt lat="34.674052" lon="112.436663"><ele>150.1</ele><time>2024-08-04T07:19:18.000Z</time></trkpt><trkpt lat="34.674032" lon="112.436677"><ele>150.1</ele><time>2024-08-04T07:19:19.000Z</time></trkpt><trkpt lat="34.674011" lon="112.436688"><ele>150.1</ele><time>2024-08-04T07:19:20.000Z</time></trkpt><trkpt lat="34.673989" lon="112.436697"><ele>150.1</ele><time>2024-08-04T07:19:21.000Z</time></trkpt><trkpt lat="34.673966" lon="112.436705"><ele>150.1</ele><time>2024-08-04T07:19:22.000Z</time></trkpt><trkpt lat="34.673943" lon="112.436715"><ele>150.0</ele><time>2024-08-04T07:19:23.000Z</time></trkpt><trkpt lat="34.673921" lon="112.436727"><ele>150.0</ele><time>2024-08-04T07:19:24.000Z</time></trkpt><trkpt lat="34.6739" lon="112.436742"><ele>150.0</ele><time>2024-08-04T07:19:25.000Z</time></trkpt><trkpt lat="34.673879" lon="112.436758"><ele>150.0</ele><time>2024-08-04T07:19:26.000Z</time></trkpt><trkpt lat="34.673858" lon="112.436774"><ele>150.0</ele><time>2024-08-04T07:19:27.000Z</time></trkpt><trkpt lat="34.673839" lon="112.43679"><ele>150.0</ele><time>2024-08-04T07:19:28.000Z</time></trkpt><trkpt lat="34.673814" lon="112.436821"><ele>150.0</ele><time>2024-08-04T07:19:29.000Z</time></trkpt><trkpt lat="34.673791" lon="112.436852"><ele>150.0</ele><time>2024-08-04T07:19:30.000Z</time></trkpt><trkpt lat="34.673766" lon="112.436883"><ele>149.9</ele><time>2024-08-04T07:20:23.000Z</time></trkpt><trkpt lat="34.673747" lon="112.436899"><ele>149.8</ele><time>2024-08-04T07:20:24.000Z</time></trkpt><trkpt lat="34.673728" lon="112.436909"><ele>149.7</ele><time>2024-08-04T07:20:25.000Z</time></trkpt><trkpt lat="34.673705" lon="112.436916"><ele>149.7</ele><time>2024-08-04T07:20:26.000Z</time></trkpt><trkpt lat="34.673682" lon="112.436922"><ele>149.6</ele><time>2024-08-04T07:20:27.000Z</time></trkpt><trkpt lat="34.673656" lon="112.43693"><ele>149.6</ele><time>2024-08-04T07:20:28.000Z</time></trkpt><trkpt lat="34.673632" lon="112.436938"><ele>149.5</ele><time>2024-08-04T07:20:29.000Z</time></trkpt><trkpt lat="34.673604" lon="112.436947"><ele>149.5</ele><time>2024-08-04T07:20:30.000Z</time></trkpt><trkpt lat="34.673578" lon="112.436955"><ele>149.5</ele><time>2024-08-04T07:20:31.000Z</time></trkpt><trkpt lat="34.673548" lon="112.436967"><ele>149.5</ele><time>2024-08-04T07:20:32.000Z</time></trkpt><trkpt lat="34.673519" lon="112.436978"><ele>149.4</ele><time>2024-08-04T07:20:33.000Z</time></trkpt><trkpt lat="34.67349" lon="112.436991"><ele>149.3</ele><time>2024-08-04T07:20:34.000Z</time></trkpt><trkpt lat="34.67346" lon="112.437003"><ele>149.2</ele><time>2024-08-04T07:20:35.000Z</time></trkpt><trkpt lat="34.673431" lon="112.437014"><ele>149.2</ele><time>2024-08-04T07:20:36.000Z</time></trkpt><trkpt lat="34.6734" lon="112.437024"><ele>149.2</ele><time>2024-08-04T07:20:37.000Z</time></trkpt><trkpt lat="34.67337" lon="112.437034"><ele>149.2</ele><time>2024-08-04T07:20:38.000Z</time></trkpt><trkpt lat="34.673342" lon="112.437045"><ele>149.2</ele><time>2024-08-04T07:20:39.000Z</time></trkpt><trkpt lat="34.673311" lon="112.437058"><ele>149.2</ele><time>2024-08-04T07:20:40.000Z</time></trkpt><trkpt lat="34.673284" lon="112.437071"><ele>149.2</ele><time>2024-08-04T07:20:41.000Z</time></trkpt><trkpt lat="34.673254" lon="112.437086"><ele>149.2</ele><time>2024-08-04T07:20:42.000Z</time></trkpt><trkpt lat="34.673227" lon="112.4371"><ele>149.1</ele><time>2024-08-04T07:20:43.000Z</time></trkpt><trkpt lat="34.673199" lon="112.437114"><ele>149.1</ele><time>2024-08-04T07:20:44.000Z</time></trkpt><trkpt lat="34.673173" lon="112.437126"><ele>149.1</ele><time>2024-08-04T07:20:45.000Z</time></trkpt><trkpt lat="34.673149" lon="112.437137"><ele>149.1</ele><time>2024-08-04T07:20:46.000Z</time></trkpt><trkpt lat="34.673126" lon="112.437149"><ele>149.1</ele><time>2024-08-04T07:20:47.000Z</time></trkpt><trkpt lat="34.673105" lon="112.43716"><ele>149.1</ele><time>2024-08-04T07:20:48.000Z</time></trkpt><trkpt lat="34.673085" lon="112.437171"><ele>149.1</ele><time>2024-08-04T07:20:49.000Z</time></trkpt><trkpt lat="34.673069" lon="112.437179"><ele>149.1</ele><time>2024-08-04T07:20:50.000Z</time></trkpt><trkpt lat="34.67305" lon="112.437187"><ele>149.1</ele><time>2024-08-04T07:20:51.000Z</time></trkpt><trkpt lat="34.673032" lon="112.437196"><ele>149.1</ele><time>2024-08-04T07:20:52.000Z</time></trkpt><trkpt lat="34.673014" lon="112.437206"><ele>149.1</ele><time>2024-08-04T07:20:53.000Z</time></trkpt><trkpt lat="34.672999" lon="112.437214"><ele>149.1</ele><time>2024-08-04T07:20:54.000Z</time></trkpt><trkpt lat="34.672983" lon="112.437223"><ele>149.1</ele><time>2024-08-04T07:20:55.000Z</time></trkpt><trkpt lat="34.672966" lon="112.437233"><ele>149.1</ele><time>2024-08-04T07:20:56.000Z</time></trkpt><trkpt lat="34.672945" lon="112.437245"><ele>149.1</ele><time>2024-08-04T07:20:57.000Z</time></trkpt><trkpt lat="34.672926" lon="112.437256"><ele>149.1</ele><time>2024-08-04T07:20:58.000Z</time></trkpt><trkpt lat="34.672905" lon="112.437269"><ele>149.1</ele><time>2024-08-04T07:20:59.000Z</time></trkpt><trkpt lat="34.672886" lon="112.437281"><ele>149.1</ele><time>2024-08-04T07:21:00.000Z</time></trkpt><trkpt lat="34.672868" lon="112.437293"><ele>149.1</ele><time>2024-08-04T07:21:01.000Z</time></trkpt><trkpt lat="34.672849" lon="112.437307"><ele>149.1</ele><time>2024-08-04T07:21:02.000Z</time></trkpt><trkpt lat="34.672829" lon="112.437321"><ele>149.1</ele><time>2024-08-04T07:21:03.000Z</time></trkpt><trkpt lat="34.672811" lon="112.437336"><ele>149.1</ele><time>2024-08-04T07:21:04.000Z</time></trkpt><trkpt lat="34.672795" lon="112.437349"><ele>149.1</ele><time>2024-08-04T07:21:05.000Z</time></trkpt><trkpt lat="34.672778" lon="112.437362"><ele>149.1</ele><time>2024-08-04T07:21:06.000Z</time></trkpt><trkpt lat="34.672763" lon="112.437373"><ele>149.1</ele><time>2024-08-04T07:21:07.000Z</time></trkpt><trkpt lat="34.672747" lon="112.437382"><ele>149.1</ele><time>2024-08-04T07:21:08.000Z</time></trkpt><trkpt lat="34.672732" lon="112.437391"><ele>149.1</ele><time>2024-08-04T07:21:09.000Z</time></trkpt><trkpt lat="34.672717" lon="112.4374"><ele>149.1</ele><time>2024-08-04T07:21:10.000Z</time></trkpt><trkpt lat="34.672702" lon="112.437408"><ele>149.1</ele><time>2024-08-04T07:21:11.000Z</time></trkpt><trkpt lat="34.672688" lon="112.437415"><ele>149.1</ele><time>2024-08-04T07:21:12.000Z</time></trkpt><trkpt lat="34.672674" lon="112.437423"><ele>149.1</ele><time>2024-08-04T07:21:13.000Z</time></trkpt><trkpt lat="34.672658" lon="112.43743"><ele>149.1</ele><time>2024-08-04T07:21:14.000Z</time></trkpt><trkpt lat="34.672639" lon="112.437437"><ele>149.1</ele><time>2024-08-04T07:21:15.000Z</time></trkpt><trkpt lat="34.67262" lon="112.437442"><ele>149.1</ele><time>2024-08-04T07:21:16.000Z</time></trkpt><trkpt lat="34.672605" lon="112.437446"><ele>149.1</ele><time>2024-08-04T07:21:17.000Z</time></trkpt><trkpt lat="34.672591" lon="112.437449"><ele>149.1</ele><time>2024-08-04T07:21:18.000Z</time></trkpt><trkpt lat="34.672577" lon="112.437454"><ele>149.1</ele><time>2024-08-04T07:21:19.000Z</time></trkpt><trkpt lat="34.67256" lon="112.437463"><ele>149.1</ele><time>2024-08-04T07:21:20.000Z</time></trkpt><trkpt lat="34.672542" lon="112.437474"><ele>149.1</ele><time>2024-08-04T07:21:21.000Z</time></trkpt><trkpt lat="34.672521" lon="112.437485"><ele>149.1</ele><time>2024-08-04T07:21:22.000Z</time></trkpt><trkpt lat="34.6725" lon="112.437495"><ele>149.1</ele><time>2024-08-04T07:21:23.000Z</time></trkpt><trkpt lat="34.672477" lon="112.437507"><ele>149.1</ele><time>2024-08-04T07:21:24.000Z</time></trkpt><trkpt lat="34.672454" lon="112.437521"><ele>149.1</ele><time>2024-08-04T07:21:25.000Z</time></trkpt><trkpt lat="34.672429" lon="112.437534"><ele>149.1</ele><time>2024-08-04T07:21:26.000Z</time></trkpt><trkpt lat="34.672403" lon="112.437548"><ele>149.1</ele><time>2024-08-04T07:21:27.000Z</time></trkpt><trkpt lat="34.672381" lon="112.437564"><ele>149.1</ele><time>2024-08-04T07:21:28.000Z</time></trkpt><trkpt lat="34.672362" lon="112.437581"><ele>149.1</ele><time>2024-08-04T07:21:29.000Z</time></trkpt><trkpt lat="34.672346" lon="112.437595"><ele>149.1</ele><time>2024-08-04T07:21:30.000Z</time></trkpt><trkpt lat="34.672328" lon="112.437605"><ele>149.1</ele><time>2024-08-04T07:21:31.000Z</time></trkpt><trkpt lat="34.672308" lon="112.437614"><ele>149.1</ele><time>2024-08-04T07:21:32.000Z</time></trkpt><trkpt lat="34.672289" lon="112.437627"><ele>149.1</ele><time>2024-08-04T07:21:33.000Z</time></trkpt><trkpt lat="34.672274" lon="112.437644"><ele>149.1</ele><time>2024-08-04T07:21:34.000Z</time></trkpt><trkpt lat="34.672258" lon="112.437662"><ele>149.1</ele><time>2024-08-04T07:21:35.000Z</time></trkpt><trkpt lat="34.672244" lon="112.437679"><ele>149.1</ele><time>2024-08-04T07:21:36.000Z</time></trkpt><trkpt lat="34.672229" lon="112.437695"><ele>149.1</ele><time>2024-08-04T07:21:37.000Z</time></trkpt><trkpt lat="34.672215" lon="112.437708"><ele>149.1</ele><time>2024-08-04T07:21:38.000Z</time></trkpt><trkpt lat="34.6722" lon="112.437717"><ele>149.1</ele><time>2024-08-04T07:21:39.000Z</time></trkpt><trkpt lat="34.672187" lon="112.437721"><ele>149.1</ele><time>2024-08-04T07:21:40.000Z</time></trkpt><trkpt lat="34.672175" lon="112.437727"><ele>149.1</ele><time>2024-08-04T07:21:41.000Z</time></trkpt><trkpt lat="34.672162" lon="112.437734"><ele>149.1</ele><time>2024-08-04T07:21:42.000Z</time></trkpt><trkpt lat="34.672148" lon="112.437743"><ele>149.1</ele><time>2024-08-04T07:21:43.000Z</time></trkpt><trkpt lat="34.672131" lon="112.437751"><ele>149.1</ele><time>2024-08-04T07:21:44.000Z</time></trkpt><trkpt lat="34.672116" lon="112.437759"><ele>149.1</ele><time>2024-08-04T07:21:45.000Z</time></trkpt><trkpt lat="34.672095" lon="112.437767"><ele>149.1</ele><time>2024-08-04T07:21:46.000Z</time></trkpt><trkpt lat="34.672078" lon="112.437774"><ele>149.1</ele><time>2024-08-04T07:21:47.000Z</time></trkpt><trkpt lat="34.672059" lon="112.43778"><ele>149.1</ele><time>2024-08-04T07:21:48.000Z</time></trkpt><trkpt lat="34.672043" lon="112.437786"><ele>149.1</ele><time>2024-08-04T07:21:49.000Z</time></trkpt><trkpt lat="34.672025" lon="112.437792"><ele>149.1</ele><time>2024-08-04T07:21:50.000Z</time></trkpt><trkpt lat="34.672006" lon="112.4378"><ele>149.1</ele><time>2024-08-04T07:21:51.000Z</time></trkpt><trkpt lat="34.671984" lon="112.437807"><ele>149.1</ele><time>2024-08-04T07:21:52.000Z</time></trkpt><trkpt lat="34.67196" lon="112.437812"><ele>149.1</ele><time>2024-08-04T07:21:53.000Z</time></trkpt><trkpt lat="34.671933" lon="112.437816"><ele>149.1</ele><time>2024-08-04T07:21:54.000Z</time></trkpt><trkpt lat="34.671908" lon="112.437819"><ele>149.1</ele><time>2024-08-04T07:21:55.000Z</time></trkpt><trkpt lat="34.671883" lon="112.437822"><ele>149.1</ele><time>2024-08-04T07:21:56.000Z</time></trkpt><trkpt lat="34.67186" lon="112.437826"><ele>149.1</ele><time>2024-08-04T07:21:57.000Z</time></trkpt><trkpt lat="34.671835" lon="112.437833"><ele>149.1</ele><time>2024-08-04T07:21:58.000Z</time></trkpt><trkpt lat="34.671808" lon="112.437842"><ele>149.1</ele><time>2024-08-04T07:21:59.000Z</time></trkpt><trkpt lat="34.671783" lon="112.437851"><ele>149.1</ele><time>2024-08-04T07:22:00.000Z</time></trkpt><trkpt lat="34.671758" lon="112.437862"><ele>149.1</ele><time>2024-08-04T07:22:01.000Z</time></trkpt><trkpt lat="34.671733" lon="112.437873"><ele>149.1</ele><time>2024-08-04T07:22:02.000Z</time></trkpt><trkpt lat="34.671709" lon="112.437884"><ele>149.1</ele><time>2024-08-04T07:22:03.000Z</time></trkpt><trkpt lat="34.671687" lon="112.437896"><ele>149.1</ele><time>2024-08-04T07:22:04.000Z</time></trkpt><trkpt lat="34.671665" lon="112.43791"><ele>149.1</ele><time>2024-08-04T07:22:05.000Z</time></trkpt><trkpt lat="34.671644" lon="112.437923"><ele>149.1</ele><time>2024-08-04T07:22:06.000Z</time></trkpt><trkpt lat="34.671624" lon="112.437936"><ele>149.1</ele><time>2024-08-04T07:22:07.000Z</time></trkpt><trkpt lat="34.671604" lon="112.437947"><ele>149.1</ele><time>2024-08-04T07:22:08.000Z</time></trkpt><trkpt lat="34.671582" lon="112.437959"><ele>149.1</ele><time>2024-08-04T07:22:09.000Z</time></trkpt><trkpt lat="34.67156" lon="112.437974"><ele>149.1</ele><time>2024-08-04T07:22:10.000Z</time></trkpt><trkpt lat="34.671537" lon="112.43799"><ele>149.1</ele><time>2024-08-04T07:22:11.000Z</time></trkpt><trkpt lat="34.67151" lon="112.438009"><ele>149.1</ele><time>2024-08-04T07:22:12.000Z</time></trkpt><trkpt lat="34.67148" lon="112.438027"><ele>149.1</ele><time>2024-08-04T07:22:13.000Z</time></trkpt><trkpt lat="34.67145" lon="112.438045"><ele>149.1</ele><time>2024-08-04T07:22:14.000Z</time></trkpt><trkpt lat="34.67142" lon="112.438065"><ele>149.1</ele><time>2024-08-04T07:22:15.000Z</time></trkpt><trkpt lat="34.671393" lon="112.438086"><ele>149.1</ele><time>2024-08-04T07:22:16.000Z</time></trkpt><trkpt lat="34.671366" lon="112.438108"><ele>149.1</ele><time>2024-08-04T07:22:17.000Z</time></trkpt><trkpt lat="34.67134" lon="112.438132"><ele>149.1</ele><time>2024-08-04T07:22:18.000Z</time></trkpt><trkpt lat="34.671314" lon="112.438156"><ele>149.1</ele><time>2024-08-04T07:22:19.000Z</time></trkpt><trkpt lat="34.671285" lon="112.43818"><ele>149.1</ele><time>2024-08-04T07:22:20.000Z</time></trkpt><trkpt lat="34.671258" lon="112.4382"><ele>149.1</ele><time>2024-08-04T07:22:21.000Z</time></trkpt><trkpt lat="34.671229" lon="112.43822"><ele>149.1</ele><time>2024-08-04T07:22:22.000Z</time></trkpt><trkpt lat="34.671203" lon="112.438239"><ele>149.1</ele><time>2024-08-04T07:22:23.000Z</time></trkpt><trkpt lat="34.671177" lon="112.438259"><ele>149.1</ele><time>2024-08-04T07:22:24.000Z</time></trkpt><trkpt lat="34.671155" lon="112.438278"><ele>149.1</ele><time>2024-08-04T07:22:25.000Z</time></trkpt><trkpt lat="34.671134" lon="112.438294"><ele>149.1</ele><time>2024-08-04T07:22:26.000Z</time></trkpt><trkpt lat="34.671117" lon="112.438307"><ele>149.1</ele><time>2024-08-04T07:22:27.000Z</time></trkpt><trkpt lat="34.6711" lon="112.438324"><ele>149.1</ele><time>2024-08-04T07:22:28.000Z</time></trkpt><trkpt lat="34.671087" lon="112.438341"><ele>149.1</ele><time>2024-08-04T07:22:29.000Z</time></trkpt><trkpt lat="34.671076" lon="112.438363"><ele>149.1</ele><time>2024-08-04T07:22:30.000Z</time></trkpt><trkpt lat="34.67107" lon="112.438387"><ele>149.1</ele><time>2024-08-04T07:22:31.000Z</time></trkpt><trkpt lat="34.671068" lon="112.438414"><ele>149.1</ele><time>2024-08-04T07:22:32.000Z</time></trkpt><trkpt lat="34.671069" lon="112.438442"><ele>149.1</ele><time>2024-08-04T07:22:33.000Z</time></trkpt><trkpt lat="34.671073" lon="112.438473"><ele>149.1</ele><time>2024-08-04T07:22:34.000Z</time></trkpt><trkpt lat="34.671077" lon="112.438505"><ele>149.1</ele><time>2024-08-04T07:22:35.000Z</time></trkpt><trkpt lat="34.671084" lon="112.438541"><ele>149.1</ele><time>2024-08-04T07:22:36.000Z</time></trkpt><trkpt lat="34.671091" lon="112.438575"><ele>149.1</ele><time>2024-08-04T07:22:37.000Z</time></trkpt><trkpt lat="34.671102" lon="112.43861"><ele>149.1</ele><time>2024-08-04T07:22:38.000Z</time></trkpt><trkpt lat="34.671115" lon="112.438643"><ele>149.1</ele><time>2024-08-04T07:22:39.000Z</time></trkpt><trkpt lat="34.67113" lon="112.438675"><ele>149.1</ele><time>2024-08-04T07:22:40.000Z</time></trkpt><trkpt lat="34.671148" lon="112.43871"><ele>149.1</ele><time>2024-08-04T07:22:41.000Z</time></trkpt><trkpt lat="34.671165" lon="112.438743"><ele>149.1</ele><time>2024-08-04T07:22:42.000Z</time></trkpt><trkpt lat="34.671182" lon="112.438777"><ele>149.1</ele><time>2024-08-04T07:22:43.000Z</time></trkpt><trkpt lat="34.671199" lon="112.438809"><ele>149.1</ele><time>2024-08-04T07:22:44.000Z</time></trkpt><trkpt lat="34.671215" lon="112.438841"><ele>148.9</ele><time>2024-08-04T07:22:45.000Z</time></trkpt><trkpt lat="34.67123" lon="112.438872"><ele>148.9</ele><time>2024-08-04T07:22:46.000Z</time></trkpt><trkpt lat="34.671243" lon="112.438902"><ele>148.9</ele><time>2024-08-04T07:22:47.000Z</time></trkpt><trkpt lat="34.671256" lon="112.438932"><ele>148.9</ele><time>2024-08-04T07:22:48.000Z</time></trkpt><trkpt lat="34.67127" lon="112.438963"><ele>148.9</ele><time>2024-08-04T07:22:49.000Z</time></trkpt><trkpt lat="34.671282" lon="112.43899"><ele>148.8</ele><time>2024-08-04T07:22:50.000Z</time></trkpt><trkpt lat="34.671295" lon="112.439018"><ele>148.8</ele><time>2024-08-04T07:22:51.000Z</time></trkpt><trkpt lat="34.671308" lon="112.439042"><ele>148.8</ele><time>2024-08-04T07:22:52.000Z</time></trkpt><trkpt lat="34.671324" lon="112.43907"><ele>148.8</ele><time>2024-08-04T07:22:53.000Z</time></trkpt><trkpt lat="34.671339" lon="112.439096"><ele>148.8</ele><time>2024-08-04T07:22:54.000Z</time></trkpt><trkpt lat="34.671354" lon="112.439123"><ele>148.8</ele><time>2024-08-04T07:22:55.000Z</time></trkpt><trkpt lat="34.671369" lon="112.43915"><ele>148.8</ele><time>2024-08-04T07:22:56.000Z</time></trkpt><trkpt lat="34.671384" lon="112.439178"><ele>148.8</ele><time>2024-08-04T07:22:57.000Z</time></trkpt><trkpt lat="34.671399" lon="112.439209"><ele>148.8</ele><time>2024-08-04T07:22:58.000Z</time></trkpt><trkpt lat="34.671412" lon="112.439237"><ele>148.8</ele><time>2024-08-04T07:22:59.000Z</time></trkpt><trkpt lat="34.671425" lon="112.439266"><ele>148.7</ele><time>2024-08-04T07:23:00.000Z</time></trkpt><trkpt lat="34.671437" lon="112.439291"><ele>148.7</ele><time>2024-08-04T07:23:01.000Z</time></trkpt><trkpt lat="34.671449" lon="112.439318"><ele>148.7</ele><time>2024-08-04T07:23:02.000Z</time></trkpt><trkpt lat="34.67146" lon="112.439345"><ele>148.7</ele><time>2024-08-04T07:23:03.000Z</time></trkpt><trkpt lat="34.671471" lon="112.439373"><ele>148.7</ele><time>2024-08-04T07:23:04.000Z</time></trkpt><trkpt lat="34.671482" lon="112.4394"><ele>148.6</ele><time>2024-08-04T07:23:05.000Z</time></trkpt><trkpt lat="34.671492" lon="112.439427"><ele>148.6</ele><time>2024-08-04T07:23:06.000Z</time></trkpt><trkpt lat="34.671501" lon="112.439453"><ele>148.6</ele><time>2024-08-04T07:23:07.000Z</time></trkpt><trkpt lat="34.67151" lon="112.439477"><ele>148.6</ele><time>2024-08-04T07:23:08.000Z</time></trkpt><trkpt lat="34.67152" lon="112.439497"><ele>148.6</ele><time>2024-08-04T07:23:09.000Z</time></trkpt><trkpt lat="34.67153" lon="112.439511"><ele>148.4</ele><time>2024-08-04T07:23:10.000Z</time></trkpt><trkpt lat="34.671545" lon="112.439519"><ele>148.4</ele><time>2024-08-04T07:23:11.000Z</time></trkpt><trkpt lat="34.67156" lon="112.439521"><ele>148.4</ele><time>2024-08-04T07:23:12.000Z</time></trkpt><trkpt lat="34.671577" lon="112.43952"><ele>148.4</ele><time>2024-08-04T07:23:13.000Z</time></trkpt><trkpt lat="34.671594" lon="112.439515"><ele>148.4</ele><time>2024-08-04T07:23:14.000Z</time></trkpt><trkpt lat="34.671613" lon="112.439508"><ele>148.3</ele><time>2024-08-04T07:23:15.000Z</time></trkpt><trkpt lat="34.671632" lon="112.439499"><ele>148.3</ele><time>2024-08-04T07:23:16.000Z</time></trkpt><trkpt lat="34.671651" lon="112.439488"><ele>148.3</ele><time>2024-08-04T07:23:17.000Z</time></trkpt><trkpt lat="34.671671" lon="112.439474"><ele>148.3</ele><time>2024-08-04T07:23:18.000Z</time></trkpt><trkpt lat="34.671693" lon="112.439458"><ele>148.3</ele><time>2024-08-04T07:23:19.000Z</time></trkpt><trkpt lat="34.671714" lon="112.439444"><ele>148.2</ele><time>2024-08-04T07:23:20.000Z</time></trkpt><trkpt lat="34.671738" lon="112.439429"><ele>148.2</ele><time>2024-08-04T07:23:21.000Z</time></trkpt><trkpt lat="34.671763" lon="112.439417"><ele>148.2</ele><time>2024-08-04T07:23:22.000Z</time></trkpt><trkpt lat="34.67179" lon="112.439406"><ele>148.2</ele><time>2024-08-04T07:23:23.000Z</time></trkpt><trkpt lat="34.671817" lon="112.439396"><ele>148.2</ele><time>2024-08-04T07:23:24.000Z</time></trkpt><trkpt lat="34.671843" lon="112.439388"><ele>147.8</ele><time>2024-08-04T07:23:25.000Z</time></trkpt><trkpt lat="34.671868" lon="112.439382"><ele>147.8</ele><time>2024-08-04T07:23:26.000Z</time></trkpt><trkpt lat="34.671892" lon="112.439376"><ele>147.8</ele><time>2024-08-04T07:23:27.000Z</time></trkpt><trkpt lat="34.671915" lon="112.439371"><ele>147.8</ele><time>2024-08-04T07:23:28.000Z</time></trkpt><trkpt lat="34.671927" lon="112.439367"><ele>147.8</ele><time>2024-08-04T07:23:29.000Z</time></trkpt><trkpt lat="34.671934" lon="112.439365"><ele>147.8</ele><time>2024-08-04T07:23:30.000Z</time></trkpt></trkseg></trk></gpx>