<?xml version="1.0" encoding="UTF-8"?><gpx creator="Health" xsi:schemaLocation="http://www.topografix.com/GPX/1/0 http://www.topografix.com/GPX/1/0/gpx.xsd" version="1.0" xmlns="http://www.topografix.com/GPX/1/0" xmlns:xsi="http://www.w3.org/2001/XMLSchema-instance"><metadata><time>2024-04-25T22:53:27.000Z</time></metadata><trk><type>户外跑步</type><extensions><totalTime>3338.0</totalTime><cumulativeDecrease>3.299999952316284</cumulativeDecrease><cumulativeClimb>3.5999999046325684</cumulativeClimb><totalDistance>10010.0</totalDistance></extensions><trkseg><trkpt lat="40.06075" lon="116.541589"><ele>23.0</ele><time>2024-04-25T22:53:27.000Z</time></trkpt><trkpt lat="40.060794" lon="116.541369"><ele>23.0</ele><time>2024-04-25T22:53:33.000Z</time></trkpt><trkpt lat="40.060777" lon="116.541248"><ele>23.0</ele><time>2024-04-25T22:53:37.000Z</time></trkpt><trkpt lat="40.060708" lon="116.541148"><ele>23.0</ele><time>2024-04-25T22:53:41.000Z</time></trkpt><trkpt lat="40.060541" lon="116.541011"><ele>23.1</ele><time>2024-04-25T22:53:50.000Z</time></trkpt><trkpt lat="40.060437" lon="116.540846"><ele>23.1</ele><time>2024-04-25T22:53:57.000Z</time></trkpt><trkpt lat="40.060412" lon="116.540734"><ele>23.1</ele><time>2024-04-25T22:54:01.000Z</time></trkpt><trkpt lat="40.06046" lon="116.540446"><ele>23.1</ele><time>2024-04-25T22:54:09.000Z</time></trkpt><trkpt lat="40.060528" lon="116.540254"><ele>23.2</ele><time>2024-04-25T22:54:14.000Z</time></trkpt><trkpt lat="40.060805" lon="116.539958"><ele>23.4</ele><time>2024-04-25T22:54:26.000Z</time></trkpt><trkpt lat="40.060858" lon="116.539871"><ele>23.6</ele><time>2024-04-25T22:54:29.000Z</time></trkpt><trkpt lat="40.060859" lon="116.539796"><ele>23.6</ele><time>2024-04-25T22:54:31.000Z</time></trkpt><trkpt lat="40.060819" lon="116.539652"><ele>23.8</ele><time>2024-04-25T22:54:34.000Z</time></trkpt><trkpt lat="40.060711" lon="116.539476"><ele>24.0</ele><time>2024-04-25T22:54:39.000Z</time></trkpt><trkpt lat="40.060112" lon="116.538674"><ele>24.0</ele><time>2024-04-25T22:55:05.000Z</time></trkpt><trkpt lat="40.060073" lon="116.538507"><ele>24.0</ele><time>2024-04-25T22:55:10.000Z</time></trkpt><trkpt lat="40.060128" lon="116.53834"><ele>24.0</ele><time>2024-04-25T22:55:15.000Z</time></trkpt><trkpt lat="40.061838" lon="116.536206"><ele>23.6</ele><time>2024-04-25T22:56:35.000Z</time></trkpt><trkpt lat="40.062197" lon="116.535867"><ele>23.5</ele><time>2024-04-25T22:56:51.000Z</time></trkpt><trkpt lat="40.064236" lon="116.533366"><ele>23.5</ele><time>2024-04-25T22:58:24.000Z</time></trkpt><trkpt lat="40.064732" lon="116.532669"><ele>23.6</ele><time>2024-04-25T22:58:47.000Z</time></trkpt><trkpt lat="40.065291" lon="116.532102"><ele>23.9</ele><time>2024-04-25T22:59:10.000Z</time></trkpt><trkpt lat="40.065669" lon="116.531652"><ele>23.9</ele><time>2024-04-25T22:59:25.000Z</time></trkpt><trkpt lat="40.06593" lon="116.531272"><ele>23.9</ele><time>2024-04-25T22:59:37.000Z</time></trkpt><trkpt lat="40.066075" lon="116.531143"><ele>23.9</ele><time>2024-04-25T22:59:43.000Z</time></trkpt><trkpt lat="40.066554" lon="116.530562"><ele>23.5</ele><time>2024-04-25T23:00:03.000Z</time></trkpt><trkpt lat="40.067371" lon="116.529501"><ele>23.2</ele><time>2024-04-25T23:00:41.000Z</time></trkpt><trkpt lat="40.067759" lon="116.528962"><ele>23.5</ele><time>2024-04-25T23:00:58.000Z</time></trkpt><trkpt lat="40.068051" lon="116.528491"><ele>23.6</ele><time>2024-04-25T23:01:13.000Z</time></trkpt><trkpt lat="40.06874" lon="116.527663"><ele>23.8</ele><time>2024-04-25T23:01:45.000Z</time></trkpt><trkpt lat="40.069661" lon="116.526378"><ele>23.3</ele><time>2024-04-25T23:02:34.000Z</time></trkpt><trkpt lat="40.070586" lon="116.525006"><ele>23.3</ele><time>2024-04-25T23:03:23.000Z</time></trkpt><trkpt lat="40.071048" lon="116.524222"><ele>23.5</ele><time>2024-04-25T23:03:48.000Z</time></trkpt><trkpt lat="40.071498" lon="116.523697"><ele>23.5</ele><time>2024-04-25T23:04:09.000Z</time></trkpt><trkpt lat="40.071896" lon="116.522881"><ele>23.7</ele><time>2024-04-25T23:04:37.000Z</time></trkpt><trkpt lat="40.072074" lon="116.522219"><ele>23.8</ele><time>2024-04-25T23:05:00.000Z</time></trkpt><trkpt lat="40.072231" lon="116.521323"><ele>23.8</ele><time>2024-04-25T23:05:30.000Z</time></trkpt><trkpt lat="40.072257" lon="116.520758"><ele>23.9</ele><time>2024-04-25T23:05:49.000Z</time></trkpt><trkpt lat="40.072239" lon="116.520003"><ele>23.8</ele><time>2024-04-25T23:06:13.000Z</time></trkpt><trkpt lat="40.07229" lon="116.517166"><ele>23.5</ele><time>2024-04-25T23:07:27.000Z</time></trkpt><trkpt lat="40.072258" lon="116.513996"><ele>23.3</ele><time>2024-04-25T23:08:51.000Z</time></trkpt><trkpt lat="40.072175" lon="116.51327"><ele>23.4</ele><time>2024-04-25T23:09:10.000Z</time></trkpt><trkpt lat="40.072071" lon="116.511872"><ele>23.6</ele><time>2024-04-25T23:09:49.000Z</time></trkpt><trkpt lat="40.071944" lon="116.510776"><ele>23.2</ele><time>2024-04-25T23:10:19.000Z</time></trkpt><trkpt lat="40.071932" lon="116.510562"><ele>23.2</ele><time>2024-04-25T23:10:25.000Z</time></trkpt><trkpt lat="40.071961" lon="116.510479"><ele>23.2</ele><time>2024-04-25T23:10:28.000Z</time></trkpt><trkpt lat="40.072073" lon="116.510397"><ele>23.2</ele><time>2024-04-25T23:10:33.000Z</time></trkpt><trkpt lat="40.072445" lon="116.510394"><ele>23.2</ele><time>2024-04-25T23:10:47.000Z</time></trkpt><trkpt lat="40.073404" lon="116.510435"><ele>23.0</ele><time>2024-04-25T23:11:21.000Z</time></trkpt><trkpt lat="40.074517" lon="116.510388"><ele>23.1</ele><time>2024-04-25T23:12:02.000Z</time></trkpt><trkpt lat="40.078157" lon="116.510432"><ele>23.3</ele><time>2024-04-25T23:14:12.000Z</time></trkpt><trkpt lat="40.078589" lon="116.510385"><ele>23.2</ele><time>2024-04-25T23:14:27.000Z</time></trkpt><trkpt lat="40.079413" lon="116.51045"><ele>23.4</ele><time>2024-04-25T23:15:00.000Z</time></trkpt><trkpt lat="40.079824" lon="116.510437"><ele>23.4</ele><time>2024-04-25T23:15:16.000Z</time></trkpt><trkpt lat="40.079904" lon="116.510483"><ele>23.4</ele><time>2024-04-25T23:15:20.000Z</time></trkpt><trkpt lat="40.079934" lon="116.510568"><ele>23.4</ele><time>2024-04-25T23:15:23.000Z</time></trkpt><trkpt lat="40.079922" lon="116.511277"><ele>23.5</ele><time>2024-04-25T23:15:45.000Z</time></trkpt><trkpt lat="40.079969" lon="116.51259"><ele>23.2</ele><time>2024-04-25T23:16:23.000Z</time></trkpt><trkpt lat="40.079927" lon="116.513125"><ele>23.1</ele><time>2024-04-25T23:16:38.000Z</time></trkpt><trkpt lat="40.079903" lon="116.516048"><ele>23.3</ele><time>2024-04-25T23:17:56.000Z</time></trkpt><trkpt lat="40.079922" lon="116.516407"><ele>23.4</ele><time>2024-04-25T23:18:06.000Z</time></trkpt><trkpt lat="40.079882" lon="116.517003"><ele>23.1</ele><time>2024-04-25T23:18:25.000Z</time></trkpt><trkpt lat="40.079897" lon="116.517471"><ele>23.0</ele><time>2024-04-25T23:18:40.000Z</time></trkpt><trkpt lat="40.079864" lon="116.518722"><ele>22.7</ele><time>2024-04-25T23:19:19.000Z</time></trkpt><trkpt lat="40.079877" lon="116.519991"><ele>22.9</ele><time>2024-04-25T23:19:58.000Z</time></trkpt><trkpt lat="40.079822" lon="116.520747"><ele>23.2</ele><time>2024-04-25T23:20:21.000Z</time></trkpt><trkpt lat="40.079844" lon="116.521601"><ele>23.2</ele><time>2024-04-25T23:20:46.000Z</time></trkpt><trkpt lat="40.079826" lon="116.522901"><ele>22.9</ele><time>2024-04-25T23:21:22.000Z</time></trkpt><trkpt lat="40.079843" lon="116.524842"><ele>23.2</ele><time>2024-04-25T23:22:15.000Z</time></trkpt><trkpt lat="40.079808" lon="116.526779"><ele>23.3</ele><time>2024-04-25T23:23:14.000Z</time></trkpt><trkpt lat="40.079778" lon="116.52696"><ele>23.2</ele><time>2024-04-25T23:23:20.000Z</time></trkpt><trkpt lat="40.079652" lon="116.527124"><ele>23.2</ele><time>2024-04-25T23:23:27.000Z</time></trkpt><trkpt lat="40.077972" lon="116.528669"><ele>23.0</ele><time>2024-04-25T23:24:46.000Z</time></trkpt><trkpt lat="40.076841" lon="116.529764"><ele>23.2</ele><time>2024-04-25T23:25:39.000Z</time></trkpt><trkpt lat="40.075844" lon="116.530692"><ele>23.0</ele><time>2024-04-25T23:26:23.000Z</time></trkpt><trkpt lat="40.075259" lon="116.531189"><ele>23.0</ele><time>2024-04-25T23:26:53.000Z</time></trkpt><trkpt lat="40.073261" lon="116.533088"><ele>23.7</ele><time>2024-04-25T23:28:27.000Z</time></trkpt><trkpt lat="40.072131" lon="116.534102"><ele>23.4</ele><time>2024-04-25T23:29:21.000Z</time></trkpt><trkpt lat="40.071214" lon="116.535005"><ele>23.2</ele><time>2024-04-25T23:30:06.000Z</time></trkpt><trkpt lat="40.070972" lon="116.535185"><ele>23.2</ele><time>2024-04-25T23:30:17.000Z</time></trkpt><trkpt lat="40.070389" lon="116.535739"><ele>23.5</ele><time>2024-04-25T23:30:47.000Z</time></trkpt><trkpt lat="40.070248" lon="116.535795"><ele>23.5</ele><time>2024-04-25T23:30:53.000Z</time></trkpt><trkpt lat="40.070109" lon="116.535748"><ele>23.5</ele><time>2024-04-25T23:30:59.000Z</time></trkpt><trkpt lat="40.069416" lon="116.535318"><ele>23.5</ele><time>2024-04-25T23:31:32.000Z</time></trkpt><trkpt lat="40.067843" lon="116.534165"><ele>23.4</ele><time>2024-04-25T23:32:45.000Z</time></trkpt><trkpt lat="40.067172" lon="116.533633"><ele>23.1</ele><time>2024-04-25T23:33:19.000Z</time></trkpt><trkpt lat="40.065577" lon="116.532522"><ele>23.5</ele><time>2024-04-25T23:34:30.000Z</time></trkpt><trkpt lat="40.0654" lon="116.532348"><ele>23.5</ele><time>2024-04-25T23:34:39.000Z</time></trkpt><trkpt lat="40.065329" lon="116.532204"><ele>23.6</ele><time>2024-04-25T23:34:45.000Z</time></trkpt><trkpt lat="40.065333" lon="116.532083"><ele>23.6</ele><time>2024-04-25T23:34:49.000Z</time></trkpt><trkpt lat="40.065386" lon="116.531981"><ele>23.6</ele><time>2024-04-25T23:34:53.000Z</time></trkpt><trkpt lat="40.065909" lon="116.531317"><ele>23.6</ele><time>2024-04-25T23:35:22.000Z</time></trkpt><trkpt lat="40.066878" lon="116.53018"><ele>23.1</ele><time>2024-04-25T23:36:12.000Z</time></trkpt><trkpt lat="40.067541" lon="116.529233"><ele>23.4</ele><time>2024-04-25T23:36:51.000Z</time></trkpt><trkpt lat="40.06812" lon="116.528492"><ele>23.6</ele><time>2024-04-25T23:37:25.000Z</time></trkpt><trkpt lat="40.068463" lon="116.527961"><ele>23.7</ele><time>2024-04-25T23:37:45.000Z</time></trkpt><trkpt lat="40.068922" lon="116.527535"><ele>23.6</ele><time>2024-04-25T23:38:07.000Z</time></trkpt><trkpt lat="40.069044" lon="116.527557"><ele>23.6</ele><time>2024-04-25T23:38:12.000Z</time></trkpt><trkpt lat="40.069179" lon="116.527658"><ele>23.5</ele><time>2024-04-25T23:38:17.000Z</time></trkpt><trkpt lat="40.070422" lon="116.529269"><ele>22.9</ele><time>2024-04-25T23:39:35.000Z</time></trkpt><trkpt lat="40.070904" lon="116.52978"><ele>23.0</ele><time>2024-04-25T23:40:01.000Z</time></trkpt><trkpt lat="40.071042" lon="116.530016"><ele>23.0</ele><time>2024-04-25T23:40:10.000Z</time></trkpt><trkpt lat="40.071624" lon="116.530688"><ele>23.1</ele><time>2024-04-25T23:40:43.000Z</time></trkpt><trkpt lat="40.071953" lon="116.531179"><ele>23.0</ele><time>2024-04-25T23:41:04.000Z</time></trkpt><trkpt lat="40.07219" lon="116.531428"><ele>22.9</ele><time>2024-04-25T23:41:16.000Z</time></trkpt><trkpt lat="40.072533" lon="116.531895"><ele>22.7</ele><time>2024-04-25T23:41:36.000Z</time></trkpt><trkpt lat="40.073037" lon="116.532487"><ele>22.7</ele><time>2024-04-25T23:42:04.000Z</time></trkpt><trkpt lat="40.073281" lon="116.53282"><ele>22.7</ele><time>2024-04-25T23:42:18.000Z</time></trkpt><trkpt lat="40.07332" lon="116.532964"><ele>22.7</ele><time>2024-04-25T23:42:22.000Z</time></trkpt><trkpt lat="40.073081" lon="116.533234"><ele>22.8</ele><time>2024-04-25T23:42:33.000Z</time></trkpt><trkpt lat="40.068306" lon="116.53769"><ele>23.0</ele><time>2024-04-25T23:46:06.000Z</time></trkpt><trkpt lat="40.067737" lon="116.538304"><ele>22.8</ele><time>2024-04-25T23:46:35.000Z</time></trkpt><trkpt lat="40.067256" lon="116.538996"><ele>22.5</ele><time>2024-04-25T23:47:06.000Z</time></trkpt><trkpt lat="40.06684" lon="116.539856"><ele>22.6</ele><time>2024-04-25T23:47:40.000Z</time></trkpt><trkpt lat="40.066619" lon="116.540491"><ele>22.8</ele><time>2024-04-25T23:48:00.000Z</time></trkpt><trkpt lat="40.065993" lon="116.542593"><ele>23.2</ele><time>2024-04-25T23:49:02.000Z</time></trkpt></trkseg></trk></gpx>