<?xml version="1.0" encoding="UTF-8"?><gpx creator="Health" xsi:schemaLocation="http://www.topografix.com/GPX/1/0 http://www.topografix.com/GPX/1/0/gpx.xsd" version="1.0" xmlns="http://www.topografix.com/GPX/1/0" xmlns:xsi="http://www.w3.org/2001/XMLSchema-instance"><metadata><time>2024-07-02T10:52:22.000Z</time></metadata><trk><type>户外跑步</type><extensions><totalTime>4013.0</totalTime><cumulativeDecrease>311.5</cumulativeDecrease><cumulativeClimb>313.6000061035156</cumulativeClimb><totalDistance>11410.0</totalDistance></extensions><trkseg><trkpt lat="40.010701" lon="116.384649"><ele>40.0</ele><time>2024-07-02T10:52:22.000Z</time></trkpt><trkpt lat="40.010769" lon="116.384177"><ele>40.0</ele><time>2024-07-02T10:52:33.000Z</time></trkpt><trkpt lat="40.010786" lon="116.383702"><ele>39.7</ele><time>2024-07-02T10:52:45.000Z</time></trkpt><trkpt lat="40.010747" lon="116.383182"><ele>38.6</ele><time>2024-07-02T10:53:00.000Z</time></trkpt><trkpt lat="40.010674" lon="116.38268"><ele>38.2</ele><time>2024-07-02T10:53:15.000Z</time></trkpt><trkpt lat="40.010655" lon="116.381898"><ele>39.1</ele><time>2024-07-02T10:53:41.000Z</time></trkpt><trkpt lat="40.01068" lon="116.381683"><ele>39.4</ele><time>2024-07-02T10:53:48.000Z</time></trkpt><trkpt lat="40.010737" lon="116.381505"><ele>39.7</ele><time>2024-07-02T10:53:53.000Z</time></trkpt><trkpt lat="40.011209" lon="116.380796"><ele>40.4</ele><time>2024-07-02T10:54:18.000Z</time></trkpt><trkpt lat="40.011397" lon="116.380577"><ele>40.0</ele><time>2024-07-02T10:54:27.000Z</time></trkpt><trkpt lat="40.011537" lon="116.380487"><ele>39.6</ele><time>2024-07-02T10:54:32.000Z</time></trkpt><trkpt lat="40.011833" lon="116.380381"><ele>38.2</ele><time>2024-07-02T10:54:42.000Z</time></trkpt><trkpt lat="40.012138" lon="116.380327"><ele>36.6</ele><time>2024-07-02T10:54:57.000Z</time></trkpt><trkpt lat="40.012433" lon="116.38015"><ele>36.8</ele><time>2024-07-02T10:55:10.000Z</time></trkpt><trkpt lat="40.012746" lon="116.379858"><ele>38.2</ele><time>2024-07-02T10:55:26.000Z</time></trkpt><trkpt lat="40.01297" lon="116.379397"><ele>39.6</ele><time>2024-07-02T10:55:42.000Z</time></trkpt><trkpt lat="40.013067" lon="116.379372"><ele>40.0</ele><time>2024-07-02T10:55:46.000Z</time></trkpt><trkpt lat="40.01326" lon="116.379526"><ele>40.2</ele><time>2024-07-02T10:55:54.000Z</time></trkpt><trkpt lat="40.013368" lon="116.379733"><ele>39.8</ele><time>2024-07-02T10:56:01.000Z</time></trkpt><trkpt lat="40.01358" lon="116.379975"><ele>38.9</ele><time>2024-07-02T10:56:10.000Z</time></trkpt><trkpt lat="40.013742" lon="116.380257"><ele>37.2</ele><time>2024-07-02T10:56:19.000Z</time></trkpt><trkpt lat="40.01377" lon="116.380541"><ele>36.4</ele><time>2024-07-02T10:56:28.000Z</time></trkpt><trkpt lat="40.013792" lon="116.381634"><ele>36.1</ele><time>2024-07-02T10:56:58.000Z</time></trkpt><trkpt lat="40.013907" lon="116.38223"><ele>36.5</ele><time>2024-07-02T10:57:14.000Z</time></trkpt><trkpt lat="40.013943" lon="116.382584"><ele>36.6</ele><time>2024-07-02T10:57:23.000Z</time></trkpt><trkpt lat="40.014106" lon="116.383233"><ele>37.1</ele><time>2024-07-02T10:57:42.000Z</time></trkpt><trkpt lat="40.014376" lon="116.383789"><ele>37.8</ele><time>2024-07-02T10:58:00.000Z</time></trkpt><trkpt lat="40.014488" lon="116.383919"><ele>38.1</ele><time>2024-07-02T10:58:06.000Z</time></trkpt><trkpt lat="40.014619" lon="116.383945"><ele>38.2</ele><time>2024-07-02T10:58:11.000Z</time></trkpt><trkpt lat="40.014739" lon="116.383842"><ele>38.2</ele><time>2024-07-02T10:58:17.000Z</time></trkpt><trkpt lat="40.014864" lon="116.383664"><ele>38.5</ele><time>2024-07-02T10:58:23.000Z</time></trkpt><trkpt lat="40.014981" lon="116.383575"><ele>39.3</ele><time>2024-07-02T10:58:28.000Z</time></trkpt><trkpt lat="40.015161" lon="116.383512"><ele>40.3</ele><time>2024-07-02T10:58:35.000Z</time></trkpt><trkpt lat="40.015699" lon="116.383524"><ele>45.7</ele><time>2024-07-02T10:58:57.000Z</time></trkpt><trkpt lat="40.015967" lon="116.383389"><ele>47.7</ele><time>2024-07-02T10:59:10.000Z</time></trkpt><trkpt lat="40.016635" lon="116.382836"><ele>52.6</ele><time>2024-07-02T10:59:45.000Z</time></trkpt><trkpt lat="40.016784" lon="116.382828"><ele>53.4</ele><time>2024-07-02T10:59:52.000Z</time></trkpt><trkpt lat="40.016904" lon="116.382892"><ele>53.8</ele><time>2024-07-02T10:59:57.000Z</time></trkpt><trkpt lat="40.016999" lon="116.383015"><ele>54.4</ele><time>2024-07-02T11:00:02.000Z</time></trkpt><trkpt lat="40.017112" lon="116.383249"><ele>55.1</ele><time>2024-07-02T11:00:10.000Z</time></trkpt><trkpt lat="40.017218" lon="116.383588"><ele>57.5</ele><time>2024-07-02T11:00:23.000Z</time></trkpt><trkpt lat="40.017331" lon="116.383693"><ele>58.3</ele><time>2024-07-02T11:00:30.000Z</time></trkpt><trkpt lat="40.017725" lon="116.383873"><ele>61.1</ele><time>2024-07-02T11:00:47.000Z</time></trkpt><trkpt lat="40.017798" lon="116.383983"><ele>61.7</ele><time>2024-07-02T11:00:53.000Z</time></trkpt><trkpt lat="40.017692" lon="116.38429"><ele>63.8</ele><time>2024-07-02T11:01:06.000Z</time></trkpt><trkpt lat="40.017611" lon="116.384714"><ele>65.7</ele><time>2024-07-02T11:01:22.000Z</time></trkpt><trkpt lat="40.017665" lon="116.385457"><ele>69.2</ele><time>2024-07-02T11:01:50.000Z</time></trkpt><trkpt lat="40.017696" lon="116.38563"><ele>71.1</ele><time>2024-07-02T11:01:57.000Z</time></trkpt><trkpt lat="40.017793" lon="116.385864"><ele>72.9</ele><time>2024-07-02T11:02:07.000Z</time></trkpt><trkpt lat="40.017779" lon="116.38618"><ele>73.8</ele><time>2024-07-02T11:02:18.000Z</time></trkpt><trkpt lat="40.017803" lon="116.386027"><ele>74.1</ele><time>2024-07-02T11:02:26.000Z</time></trkpt><trkpt lat="40.017671" lon="116.385418"><ele>73.8</ele><time>2024-07-02T11:02:47.000Z</time></trkpt><trkpt lat="40.017627" lon="116.384722"><ele>71.4</ele><time>2024-07-02T11:03:05.000Z</time></trkpt><trkpt lat="40.017677" lon="116.38437"><ele>68.8</ele><time>2024-07-02T11:03:15.000Z</time></trkpt><trkpt lat="40.017853" lon="116.383997"><ele>65.8</ele><time>2024-07-02T11:03:26.000Z</time></trkpt><trkpt lat="40.017933" lon="116.38365"><ele>64.9</ele><time>2024-07-02T11:03:34.000Z</time></trkpt><trkpt lat="40.017932" lon="116.383107"><ele>61.7</ele><time>2024-07-02T11:03:47.000Z</time></trkpt><trkpt lat="40.01786" lon="116.38254"><ele>59.4</ele><time>2024-07-02T11:04:00.000Z</time></trkpt><trkpt lat="40.017918" lon="116.382208"><ele>57.0</ele><time>2024-07-02T11:04:08.000Z</time></trkpt><trkpt lat="40.018026" lon="116.381929"><ele>55.7</ele><time>2024-07-02T11:04:15.000Z</time></trkpt><trkpt lat="40.018239" lon="116.381592"><ele>53.2</ele><time>2024-07-02T11:04:25.000Z</time></trkpt><trkpt lat="40.018577" lon="116.381285"><ele>49.5</ele><time>2024-07-02T11:04:38.000Z</time></trkpt><trkpt lat="40.018892" lon="116.381055"><ele>47.0</ele><time>2024-07-02T11:04:49.000Z</time></trkpt><trkpt lat="40.019018" lon="116.381083"><ele>45.8</ele><time>2024-07-02T11:04:53.000Z</time></trkpt><trkpt lat="40.01915" lon="116.381275"><ele>44.7</ele><time>2024-07-02T11:04:59.000Z</time></trkpt><trkpt lat="40.019209" lon="116.381445"><ele>43.5</ele><time>2024-07-02T11:05:03.000Z</time></trkpt><trkpt lat="40.019236" lon="116.381743"><ele>42.2</ele><time>2024-07-02T11:05:10.000Z</time></trkpt><trkpt lat="40.019057" lon="116.38235"><ele>37.4</ele><time>2024-07-02T11:05:26.000Z</time></trkpt><trkpt lat="40.01906" lon="116.382436"><ele>37.4</ele><time>2024-07-02T11:05:30.000Z</time></trkpt><trkpt lat="40.019103" lon="116.382408"><ele>36.5</ele><time>2024-07-02T11:05:33.000Z</time></trkpt><trkpt lat="40.019179" lon="116.381996"><ele>35.9</ele><time>2024-07-02T11:05:44.000Z</time></trkpt><trkpt lat="40.019205" lon="116.381657"><ele>36.2</ele><time>2024-07-02T11:05:54.000Z</time></trkpt><trkpt lat="40.01908" lon="116.381213"><ele>38.7</ele><time>2024-07-02T11:06:09.000Z</time></trkpt><trkpt lat="40.019002" lon="116.38111"><ele>39.7</ele><time>2024-07-02T11:06:14.000Z</time></trkpt><trkpt lat="40.0189" lon="116.381095"><ele>40.5</ele><time>2024-07-02T11:06:18.000Z</time></trkpt><trkpt lat="40.01862" lon="116.381273"><ele>43.4</ele><time>2024-07-02T11:06:31.000Z</time></trkpt><trkpt lat="40.018284" lon="116.381582"><ele>46.1</ele><time>2024-07-02T11:06:50.000Z</time></trkpt><trkpt lat="40.018122" lon="116.381809"><ele>48.6</ele><time>2024-07-02T11:07:02.000Z</time></trkpt><trkpt lat="40.018004" lon="116.382059"><ele>50.1</ele><time>2024-07-02T11:07:13.000Z</time></trkpt><trkpt lat="40.017943" lon="116.382291"><ele>51.7</ele><time>2024-07-02T11:07:22.000Z</time></trkpt><trkpt lat="40.017915" lon="116.382575"><ele>53.3</ele><time>2024-07-02T11:07:33.000Z</time></trkpt><trkpt lat="40.017919" lon="116.38278"><ele>54.8</ele><time>2024-07-02T11:07:43.000Z</time></trkpt><trkpt lat="40.017979" lon="116.383082"><ele>56.8</ele><time>2024-07-02T11:07:56.000Z</time></trkpt><trkpt lat="40.017963" lon="116.383568"><ele>59.0</ele><time>2024-07-02T11:08:14.000Z</time></trkpt><trkpt lat="40.017904" lon="116.383826"><ele>60.5</ele><time>2024-07-02T11:08:24.000Z</time></trkpt><trkpt lat="40.017682" lon="116.384404"><ele>64.2</ele><time>2024-07-02T11:08:47.000Z</time></trkpt><trkpt lat="40.017642" lon="116.384727"><ele>65.4</ele><time>2024-07-02T11:09:00.000Z</time></trkpt><trkpt lat="40.017641" lon="116.385293"><ele>68.8</ele><time>2024-07-02T11:09:22.000Z</time></trkpt><trkpt lat="40.017793" lon="116.3859"><ele>72.6</ele><time>2024-07-02T11:09:43.000Z</time></trkpt><trkpt lat="40.017798" lon="116.386145"><ele>73.8</ele><time>2024-07-02T11:09:54.000Z</time></trkpt><trkpt lat="40.017793" lon="116.385874"><ele>74.2</ele><time>2024-07-02T11:10:04.000Z</time></trkpt><trkpt lat="40.017701" lon="116.385612"><ele>74.3</ele><time>2024-07-02T11:10:14.000Z</time></trkpt><trkpt lat="40.017663" lon="116.385355"><ele>73.8</ele><time>2024-07-02T11:10:22.000Z</time></trkpt><trkpt lat="40.017631" lon="116.38478"><ele>71.0</ele><time>2024-07-02T11:10:39.000Z</time></trkpt><trkpt lat="40.017677" lon="116.384469"><ele>68.7</ele><time>2024-07-02T11:10:49.000Z</time></trkpt><trkpt lat="40.017878" lon="116.38393"><ele>66.2</ele><time>2024-07-02T11:11:05.000Z</time></trkpt><trkpt lat="40.017954" lon="116.383566"><ele>64.5</ele><time>2024-07-02T11:11:14.000Z</time></trkpt><trkpt lat="40.017951" lon="116.383277"><ele>62.5</ele><time>2024-07-02T11:11:21.000Z</time></trkpt><trkpt lat="40.017867" lon="116.382653"><ele>60.2</ele><time>2024-07-02T11:11:33.000Z</time></trkpt><trkpt lat="40.017904" lon="116.38228"><ele>59.0</ele><time>2024-07-02T11:11:40.000Z</time></trkpt><trkpt lat="40.018089" lon="116.381814"><ele>56.1</ele><time>2024-07-02T11:11:50.000Z</time></trkpt><trkpt lat="40.018302" lon="116.381523"><ele>53.0</ele><time>2024-07-02T11:11:58.000Z</time></trkpt><trkpt lat="40.018832" lon="116.381071"><ele>48.6</ele><time>2024-07-02T11:12:14.000Z</time></trkpt><trkpt lat="40.018963" lon="116.381016"><ele>47.2</ele><time>2024-07-02T11:12:18.000Z</time></trkpt><trkpt lat="40.019095" lon="116.381048"><ele>45.7</ele><time>2024-07-02T11:12:23.000Z</time></trkpt><trkpt lat="40.019078" lon="116.38121"><ele>42.6</ele><time>2024-07-02T11:39:05.000Z</time></trkpt><trkpt lat="40.019174" lon="116.38141"><ele>38.1</ele><time>2024-07-02T11:39:10.000Z</time></trkpt><trkpt lat="40.019211" lon="116.381744"><ele>42.4</ele><time>2024-07-02T11:39:16.000Z</time></trkpt><trkpt lat="40.019121" lon="116.382185"><ele>45.6</ele><time>2024-07-02T11:39:26.000Z</time></trkpt><trkpt lat="40.019229" lon="116.381834"><ele>45.6</ele><time>2024-07-02T11:39:37.000Z</time></trkpt><trkpt lat="40.019225" lon="116.381552"><ele>45.6</ele><time>2024-07-02T11:39:45.000Z</time></trkpt><trkpt lat="40.019087" lon="116.381166"><ele>45.6</ele><time>2024-07-02T11:39:57.000Z</time></trkpt><trkpt lat="40.018988" lon="116.38108"><ele>45.6</ele><time>2024-07-02T11:40:01.000Z</time></trkpt><trkpt lat="40.018912" lon="116.381061"><ele>45.6</ele><time>2024-07-02T11:40:04.000Z</time></trkpt><trkpt lat="40.018435" lon="116.38138"><ele>45.6</ele><time>2024-07-02T11:40:25.000Z</time></trkpt><trkpt lat="40.018159" lon="116.381667"><ele>48.6</ele><time>2024-07-02T11:40:39.000Z</time></trkpt><trkpt lat="40.018036" lon="116.381869"><ele>49.6</ele><time>2024-07-02T11:40:46.000Z</time></trkpt><trkpt lat="40.017904" lon="116.382269"><ele>51.5</ele><time>2024-07-02T11:40:58.000Z</time></trkpt><trkpt lat="40.017867" lon="116.382793"><ele>54.4</ele><time>2024-07-02T11:41:13.000Z</time></trkpt><trkpt lat="40.017926" lon="116.383115"><ele>56.5</ele><time>2024-07-02T11:41:23.000Z</time></trkpt><trkpt lat="40.017938" lon="116.383505"><ele>59.7</ele><time>2024-07-02T11:41:35.000Z</time></trkpt><trkpt lat="40.017876" lon="116.38383"><ele>61.6</ele><time>2024-07-02T11:41:44.000Z</time></trkpt><trkpt lat="40.017654" lon="116.38438"><ele>65.4</ele><time>2024-07-02T11:42:04.000Z</time></trkpt><trkpt lat="40.017592" lon="116.384632"><ele>67.1</ele><time>2024-07-02T11:42:14.000Z</time></trkpt><trkpt lat="40.017601" lon="116.385181"><ele>69.6</ele><time>2024-07-02T11:42:35.000Z</time></trkpt><trkpt lat="40.017685" lon="116.385645"><ele>73.1</ele><time>2024-07-02T11:42:54.000Z</time></trkpt><trkpt lat="40.017777" lon="116.385932"><ele>74.8</ele><time>2024-07-02T11:43:06.000Z</time></trkpt><trkpt lat="40.017795" lon="116.386144"><ele>75.7</ele><time>2024-07-02T11:43:14.000Z</time></trkpt><trkpt lat="40.01779" lon="116.385909"><ele>76.0</ele><time>2024-07-02T11:43:23.000Z</time></trkpt><trkpt lat="40.017668" lon="116.385515"><ele>76.4</ele><time>2024-07-02T11:43:36.000Z</time></trkpt><trkpt lat="40.017628" lon="116.385111"><ele>75.9</ele><time>2024-07-02T11:43:46.000Z</time></trkpt><trkpt lat="40.017634" lon="116.384595"><ele>72.6</ele><time>2024-07-02T11:43:59.000Z</time></trkpt><trkpt lat="40.017659" lon="116.384422"><ele>71.3</ele><time>2024-07-02T11:44:04.000Z</time></trkpt><trkpt lat="40.017934" lon="116.383615"><ele>67.2</ele><time>2024-07-02T11:44:26.000Z</time></trkpt><trkpt lat="40.017954" lon="116.383239"><ele>65.5</ele><time>2024-07-02T11:44:36.000Z</time></trkpt><trkpt lat="40.017887" lon="116.382588"><ele>62.2</ele><time>2024-07-02T11:44:51.000Z</time></trkpt><trkpt lat="40.017971" lon="116.382056"><ele>59.8</ele><time>2024-07-02T11:45:03.000Z</time></trkpt><trkpt lat="40.018059" lon="116.381842"><ele>58.5</ele><time>2024-07-02T11:45:08.000Z</time></trkpt><trkpt lat="40.018222" lon="116.381605"><ele>55.9</ele><time>2024-07-02T11:45:15.000Z</time></trkpt><trkpt lat="40.018537" lon="116.381313"><ele>53.3</ele><time>2024-07-02T11:45:26.000Z</time></trkpt><trkpt lat="40.018897" lon="116.38106"><ele>50.8</ele><time>2024-07-02T11:45:38.000Z</time></trkpt><trkpt lat="40.018967" lon="116.381065"><ele>49.5</ele><time>2024-07-02T11:45:40.000Z</time></trkpt><trkpt lat="40.01907" lon="116.381146"><ele>49.5</ele><time>2024-07-02T11:45:43.000Z</time></trkpt><trkpt lat="40.019142" lon="116.381265"><ele>48.2</ele><time>2024-07-02T11:45:46.000Z</time></trkpt><trkpt lat="40.019204" lon="116.381472"><ele>46.9</ele><time>2024-07-02T11:45:51.000Z</time></trkpt><trkpt lat="40.019189" lon="116.381903"><ele>44.2</ele><time>2024-07-02T11:46:01.000Z</time></trkpt><trkpt lat="40.019068" lon="116.382301"><ele>41.5</ele><time>2024-07-02T11:46:13.000Z</time></trkpt><trkpt lat="40.019093" lon="116.382288"><ele>40.2</ele><time>2024-07-02T11:46:15.000Z</time></trkpt><trkpt lat="40.019237" lon="116.381714"><ele>38.4</ele><time>2024-07-02T11:46:32.000Z</time></trkpt><trkpt lat="40.019209" lon="116.38146"><ele>39.2</ele><time>2024-07-02T11:46:39.000Z</time></trkpt><trkpt lat="40.019132" lon="116.381205"><ele>40.0</ele><time>2024-07-02T11:46:47.000Z</time></trkpt><trkpt lat="40.019042" lon="116.381085"><ele>41.0</ele><time>2024-07-02T11:46:52.000Z</time></trkpt><trkpt lat="40.018882" lon="116.38105"><ele>42.0</ele><time>2024-07-02T11:46:58.000Z</time></trkpt><trkpt lat="40.018434" lon="116.381405"><ele>46.9</ele><time>2024-07-02T11:47:20.000Z</time></trkpt><trkpt lat="40.018177" lon="116.381658"><ele>50.1</ele><time>2024-07-02T11:47:39.000Z</time></trkpt><trkpt lat="40.018061" lon="116.381811"><ele>50.8</ele><time>2024-07-02T11:47:48.000Z</time></trkpt><trkpt lat="40.017937" lon="116.382093"><ele>52.7</ele><time>2024-07-02T11:48:02.000Z</time></trkpt><trkpt lat="40.01785" lon="116.382548"><ele>54.6</ele><time>2024-07-02T11:48:17.000Z</time></trkpt><trkpt lat="40.017859" lon="116.382783"><ele>56.3</ele><time>2024-07-02T11:48:25.000Z</time></trkpt><trkpt lat="40.017937" lon="116.383224"><ele>59.1</ele><time>2024-07-02T11:48:40.000Z</time></trkpt><trkpt lat="40.017899" lon="116.38358"><ele>60.9</ele><time>2024-07-02T11:48:51.000Z</time></trkpt><trkpt lat="40.017854" lon="116.383815"><ele>61.8</ele><time>2024-07-02T11:48:58.000Z</time></trkpt><trkpt lat="40.017667" lon="116.384298"><ele>65.4</ele><time>2024-07-02T11:49:15.000Z</time></trkpt><trkpt lat="40.017581" lon="116.38464"><ele>67.0</ele><time>2024-07-02T11:49:27.000Z</time></trkpt><trkpt lat="40.017609" lon="116.385208"><ele>69.8</ele><time>2024-07-02T11:49:47.000Z</time></trkpt><trkpt lat="40.017773" lon="116.385897"><ele>75.2</ele><time>2024-07-02T11:50:14.000Z</time></trkpt><trkpt lat="40.017797" lon="116.386117"><ele>75.8</ele><time>2024-07-02T11:50:23.000Z</time></trkpt><trkpt lat="40.017798" lon="116.38593"><ele>76.4</ele><time>2024-07-02T11:50:30.000Z</time></trkpt><trkpt lat="40.017675" lon="116.385482"><ele>76.7</ele><time>2024-07-02T11:50:45.000Z</time></trkpt><trkpt lat="40.017614" lon="116.384817"><ele>75.1</ele><time>2024-07-02T11:51:03.000Z</time></trkpt><trkpt lat="40.017671" lon="116.384432"><ele>71.3</ele><time>2024-07-02T11:51:14.000Z</time></trkpt><trkpt lat="40.017888" lon="116.38382"><ele>68.3</ele><time>2024-07-02T11:51:30.000Z</time></trkpt><trkpt lat="40.017941" lon="116.383528"><ele>67.4</ele><time>2024-07-02T11:51:37.000Z</time></trkpt><trkpt lat="40.017934" lon="116.383094"><ele>65.4</ele><time>2024-07-02T11:51:47.000Z</time></trkpt><trkpt lat="40.017877" lon="116.382566"><ele>63.2</ele><time>2024-07-02T11:51:58.000Z</time></trkpt><trkpt lat="40.017951" lon="116.382113"><ele>60.7</ele><time>2024-07-02T11:52:08.000Z</time></trkpt><trkpt lat="40.018087" lon="116.381821"><ele>57.9</ele><time>2024-07-02T11:52:16.000Z</time></trkpt><trkpt lat="40.01828" lon="116.381525"><ele>55.1</ele><time>2024-07-02T11:52:24.000Z</time></trkpt><trkpt lat="40.01889" lon="116.38106"><ele>50.0</ele><time>2024-07-02T11:52:44.000Z</time></trkpt><trkpt lat="40.018993" lon="116.381066"><ele>50.0</ele><time>2024-07-02T11:52:47.000Z</time></trkpt><trkpt lat="40.019118" lon="116.381233"><ele>48.7</ele><time>2024-07-02T11:52:52.000Z</time></trkpt><trkpt lat="40.019197" lon="116.381387"><ele>47.5</ele><time>2024-07-02T11:52:56.000Z</time></trkpt><trkpt lat="40.01926" lon="116.381669"><ele>46.2</ele><time>2024-07-02T11:53:03.000Z</time></trkpt><trkpt lat="40.019091" lon="116.382246"><ele>42.1</ele><time>2024-07-02T11:53:18.000Z</time></trkpt><trkpt lat="40.019121" lon="116.382216"><ele>40.9</ele><time>2024-07-02T11:53:21.000Z</time></trkpt><trkpt lat="40.019204" lon="116.381911"><ele>39.0</ele><time>2024-07-02T11:53:30.000Z</time></trkpt><trkpt lat="40.019232" lon="116.381572"><ele>38.9</ele><time>2024-07-02T11:53:40.000Z</time></trkpt><trkpt lat="40.019068" lon="116.381138"><ele>41.3</ele><time>2024-07-02T11:53:54.000Z</time></trkpt><trkpt lat="40.018982" lon="116.381045"><ele>41.3</ele><time>2024-07-02T11:53:58.000Z</time></trkpt><trkpt lat="40.018903" lon="116.381023"><ele>42.3</ele><time>2024-07-02T11:54:01.000Z</time></trkpt><trkpt lat="40.018573" lon="116.381261"><ele>46.2</ele><time>2024-07-02T11:54:19.000Z</time></trkpt><trkpt lat="40.018172" lon="116.381638"><ele>50.0</ele><time>2024-07-02T11:54:44.000Z</time></trkpt><trkpt lat="40.018029" lon="116.381852"><ele>51.5</ele><time>2024-07-02T11:54:54.000Z</time></trkpt><trkpt lat="40.017917" lon="116.382163"><ele>52.8</ele><time>2024-07-02T11:55:06.000Z</time></trkpt><trkpt lat="40.017867" lon="116.382456"><ele>54.3</ele><time>2024-07-02T11:55:17.000Z</time></trkpt><trkpt lat="40.017869" lon="116.382685"><ele>55.9</ele><time>2024-07-02T11:55:25.000Z</time></trkpt><trkpt lat="40.017942" lon="116.383095"><ele>58.4</ele><time>2024-07-02T11:55:43.000Z</time></trkpt><trkpt lat="40.017938" lon="116.383615"><ele>61.9</ele><time>2024-07-02T11:56:04.000Z</time></trkpt><trkpt lat="40.017893" lon="116.383806"><ele>62.6</ele><time>2024-07-02T11:56:11.000Z</time></trkpt><trkpt lat="40.017637" lon="116.384407"><ele>65.7</ele><time>2024-07-02T11:56:33.000Z</time></trkpt><trkpt lat="40.017602" lon="116.38461"><ele>67.2</ele><time>2024-07-02T11:56:40.000Z</time></trkpt><trkpt lat="40.017656" lon="116.3855"><ele>71.9</ele><time>2024-07-02T11:57:11.000Z</time></trkpt><trkpt lat="40.017808" lon="116.38611"><ele>76.4</ele><time>2024-07-02T11:57:39.000Z</time></trkpt><trkpt lat="40.017655" lon="116.385355"><ele>76.7</ele><time>2024-07-02T11:58:03.000Z</time></trkpt><trkpt lat="40.017637" lon="116.384697"><ele>73.9</ele><time>2024-07-02T11:58:21.000Z</time></trkpt><trkpt lat="40.017652" lon="116.384524"><ele>72.6</ele><time>2024-07-02T11:58:26.000Z</time></trkpt><trkpt lat="40.017815" lon="116.38406"><ele>69.4</ele><time>2024-07-02T11:58:41.000Z</time></trkpt><trkpt lat="40.017936" lon="116.383588"><ele>67.0</ele><time>2024-07-02T11:58:55.000Z</time></trkpt><trkpt lat="40.017951" lon="116.383354"><ele>66.2</ele><time>2024-07-02T11:59:02.000Z</time></trkpt><trkpt lat="40.017859" lon="116.382621"><ele>62.4</ele><time>2024-07-02T11:59:23.000Z</time></trkpt><trkpt lat="40.017951" lon="116.382131"><ele>59.4</ele><time>2024-07-02T11:59:36.000Z</time></trkpt><trkpt lat="40.018122" lon="116.381777"><ele>57.2</ele><time>2024-07-02T11:59:47.000Z</time></trkpt><trkpt lat="40.018362" lon="116.381455"><ele>53.8</ele><time>2024-07-02T11:59:59.000Z</time></trkpt><trkpt lat="40.018542" lon="116.38128"><ele>52.7</ele><time>2024-07-02T12:00:06.000Z</time></trkpt><trkpt lat="40.018813" lon="116.381116"><ele>50.7</ele><time>2024-07-02T12:00:16.000Z</time></trkpt><trkpt lat="40.018975" lon="116.38109"><ele>49.7</ele><time>2024-07-02T12:00:22.000Z</time></trkpt><trkpt lat="40.019105" lon="116.381213"><ele>48.6</ele><time>2024-07-02T12:00:27.000Z</time></trkpt><trkpt lat="40.019187" lon="116.381443"><ele>47.5</ele><time>2024-07-02T12:00:33.000Z</time></trkpt><trkpt lat="40.019219" lon="116.381708"><ele>45.0</ele><time>2024-07-02T12:00:40.000Z</time></trkpt><trkpt lat="40.019076" lon="116.38229"><ele>41.4</ele><time>2024-07-02T12:00:58.000Z</time></trkpt><trkpt lat="40.019131" lon="116.382208"><ele>40.3</ele><time>2024-07-02T12:01:03.000Z</time></trkpt><trkpt lat="40.019209" lon="116.381778"><ele>38.9</ele><time>2024-07-02T12:01:21.000Z</time></trkpt><trkpt lat="40.019202" lon="116.381482"><ele>39.7</ele><time>2024-07-02T12:01:30.000Z</time></trkpt><trkpt lat="40.019093" lon="116.38119"><ele>41.4</ele><time>2024-07-02T12:01:39.000Z</time></trkpt><trkpt lat="40.019003" lon="116.381085"><ele>41.4</ele><time>2024-07-02T12:01:43.000Z</time></trkpt><trkpt lat="40.018887" lon="116.381048"><ele>42.4</ele><time>2024-07-02T12:01:47.000Z</time></trkpt><trkpt lat="40.018607" lon="116.381226"><ele>44.5</ele><time>2024-07-02T12:01:58.000Z</time></trkpt><trkpt lat="40.018154" lon="116.381673"><ele>49.7</ele><time>2024-07-02T12:02:23.000Z</time></trkpt><trkpt lat="40.017967" lon="116.381996"><ele>52.2</ele><time>2024-07-02T12:02:38.000Z</time></trkpt><trkpt lat="40.017891" lon="116.382238"><ele>54.4</ele><time>2024-07-02T12:02:49.000Z</time></trkpt><trkpt lat="40.017857" lon="116.3827"><ele>57.2</ele><time>2024-07-02T12:03:10.000Z</time></trkpt><trkpt lat="40.017922" lon="116.383077"><ele>59.2</ele><time>2024-07-02T12:03:28.000Z</time></trkpt><trkpt lat="40.017953" lon="116.383458"><ele>61.6</ele><time>2024-07-02T12:03:45.000Z</time></trkpt><trkpt lat="40.017939" lon="116.383638"><ele>62.2</ele><time>2024-07-02T12:03:52.000Z</time></trkpt><trkpt lat="40.017654" lon="116.384419"><ele>67.1</ele><time>2024-07-02T12:04:24.000Z</time></trkpt><trkpt lat="40.017596" lon="116.384749"><ele>68.5</ele><time>2024-07-02T12:04:36.000Z</time></trkpt><trkpt lat="40.017588" lon="116.385049"><ele>69.7</ele><time>2024-07-02T12:04:45.000Z</time></trkpt><trkpt lat="40.017643" lon="116.385453"><ele>72.3</ele><time>2024-07-02T12:05:02.000Z</time></trkpt><trkpt lat="40.01776" lon="116.38584"><ele>75.8</ele><time>2024-07-02T12:05:19.000Z</time></trkpt><trkpt lat="40.017805" lon="116.386147"><ele>76.8</ele><time>2024-07-02T12:05:32.000Z</time></trkpt><trkpt lat="40.01779" lon="116.385914"><ele>77.3</ele><time>2024-07-02T12:05:41.000Z</time></trkpt><trkpt lat="40.017658" lon="116.385482"><ele>77.3</ele><time>2024-07-02T12:05:55.000Z</time></trkpt><trkpt lat="40.017629" lon="116.384922"><ele>76.0</ele><time>2024-07-02T12:06:10.000Z</time></trkpt><trkpt lat="40.017659" lon="116.384489"><ele>73.4</ele><time>2024-07-02T12:06:21.000Z</time></trkpt><trkpt lat="40.017913" lon="116.383741"><ele>69.1</ele><time>2024-07-02T12:06:43.000Z</time></trkpt><trkpt lat="40.017973" lon="116.383468"><ele>67.3</ele><time>2024-07-02T12:06:51.000Z</time></trkpt><trkpt lat="40.017884" lon="116.382628"><ele>62.4</ele><time>2024-07-02T12:07:14.000Z</time></trkpt><trkpt lat="40.017964" lon="116.382051"><ele>59.3</ele><time>2024-07-02T12:07:29.000Z</time></trkpt><trkpt lat="40.01832" lon="116.381523"><ele>55.8</ele><time>2024-07-02T12:07:47.000Z</time></trkpt><trkpt lat="40.018578" lon="116.381281"><ele>53.5</ele><time>2024-07-02T12:07:58.000Z</time></trkpt><trkpt lat="40.018918" lon="116.38107"><ele>50.4</ele><time>2024-07-02T12:08:11.000Z</time></trkpt><trkpt lat="40.018997" lon="116.38108"><ele>49.4</ele><time>2024-07-02T12:08:14.000Z</time></trkpt><trkpt lat="40.019088" lon="116.38118"><ele>49.4</ele><time>2024-07-02T12:08:18.000Z</time></trkpt><trkpt lat="40.019214" lon="116.381517"><ele>47.3</ele><time>2024-07-02T12:08:28.000Z</time></trkpt><trkpt lat="40.019216" lon="116.381811"><ele>45.0</ele><time>2024-07-02T12:08:37.000Z</time></trkpt><trkpt lat="40.019106" lon="116.382146"><ele>41.8</ele><time>2024-07-02T12:08:49.000Z</time></trkpt><trkpt lat="40.019101" lon="116.382245"><ele>40.8</ele><time>2024-07-02T12:08:54.000Z</time></trkpt><trkpt lat="40.019126" lon="116.382221"><ele>40.8</ele><time>2024-07-02T12:08:57.000Z</time></trkpt><trkpt lat="40.019227" lon="116.381646"><ele>39.8</ele><time>2024-07-02T12:09:21.000Z</time></trkpt><trkpt lat="40.019158" lon="116.381293"><ele>41.8</ele><time>2024-07-02T12:09:34.000Z</time></trkpt><trkpt lat="40.019088" lon="116.381136"><ele>42.6</ele><time>2024-07-02T12:09:41.000Z</time></trkpt><trkpt lat="40.019005" lon="116.381048"><ele>43.4</ele><time>2024-07-02T12:09:46.000Z</time></trkpt><trkpt lat="40.018902" lon="116.38103"><ele>44.2</ele><time>2024-07-02T12:09:51.000Z</time></trkpt><trkpt lat="40.018472" lon="116.381351"><ele>48.1</ele><time>2024-07-02T12:10:14.000Z</time></trkpt><trkpt lat="40.018129" lon="116.381703"><ele>51.1</ele><time>2024-07-02T12:10:37.000Z</time></trkpt><trkpt lat="40.017959" lon="116.382031"><ele>53.2</ele><time>2024-07-02T12:10:53.000Z</time></trkpt><trkpt lat="40.017893" lon="116.382283"><ele>54.5</ele><time>2024-07-02T12:11:03.000Z</time></trkpt><trkpt lat="40.01787" lon="116.38266"><ele>56.7</ele><time>2024-07-02T12:11:18.000Z</time></trkpt><trkpt lat="40.017937" lon="116.383149"><ele>60.4</ele><time>2024-07-02T12:11:39.000Z</time></trkpt><trkpt lat="40.017931" lon="116.383581"><ele>62.5</ele><time>2024-07-02T12:11:54.000Z</time></trkpt><trkpt lat="40.017881" lon="116.383863"><ele>63.3</ele><time>2024-07-02T12:12:02.000Z</time></trkpt><trkpt lat="40.017631" lon="116.384385"><ele>67.4</ele><time>2024-07-02T12:12:24.000Z</time></trkpt><trkpt lat="40.017594" lon="116.384627"><ele>68.8</ele><time>2024-07-02T12:12:34.000Z</time></trkpt><trkpt lat="40.017626" lon="116.385322"><ele>71.7</ele><time>2024-07-02T12:13:03.000Z</time></trkpt><trkpt lat="40.017773" lon="116.386135"><ele>77.0</ele><time>2024-07-02T12:13:37.000Z</time></trkpt><trkpt lat="40.017807" lon="116.386171"><ele>77.3</ele><time>2024-07-02T12:13:40.000Z</time></trkpt><trkpt lat="40.017805" lon="116.385942"><ele>77.5</ele><time>2024-07-02T12:13:48.000Z</time></trkpt><trkpt lat="40.017675" lon="116.385493"><ele>77.7</ele><time>2024-07-02T12:14:02.000Z</time></trkpt><trkpt lat="40.017606" lon="116.384871"><ele>76.6</ele><time>2024-07-02T12:14:16.000Z</time></trkpt><trkpt lat="40.017676" lon="116.38444"><ele>72.6</ele><time>2024-07-02T12:14:29.000Z</time></trkpt><trkpt lat="40.017894" lon="116.38383"><ele>69.3</ele><time>2024-07-02T12:14:46.000Z</time></trkpt><trkpt lat="40.017954" lon="116.38353"><ele>67.6</ele><time>2024-07-02T12:14:54.000Z</time></trkpt><trkpt lat="40.017959" lon="116.383159"><ele>66.7</ele><time>2024-07-02T12:15:03.000Z</time></trkpt><trkpt lat="40.017909" lon="116.382683"><ele>63.5</ele><time>2024-07-02T12:15:14.000Z</time></trkpt><trkpt lat="40.017954" lon="116.382213"><ele>61.0</ele><time>2024-07-02T12:15:24.000Z</time></trkpt><trkpt lat="40.018139" lon="116.381777"><ele>58.3</ele><time>2024-07-02T12:15:35.000Z</time></trkpt><trkpt lat="40.018415" lon="116.381401"><ele>55.5</ele><time>2024-07-02T12:15:47.000Z</time></trkpt><trkpt lat="40.018705" lon="116.381155"><ele>53.0</ele><time>2024-07-02T12:15:57.000Z</time></trkpt><trkpt lat="40.018912" lon="116.38106"><ele>51.7</ele><time>2024-07-02T12:16:03.000Z</time></trkpt><trkpt lat="40.019037" lon="116.381096"><ele>50.6</ele><time>2024-07-02T12:16:07.000Z</time></trkpt><trkpt lat="40.01919" lon="116.381407"><ele>48.1</ele><time>2024-07-02T12:16:15.000Z</time></trkpt><trkpt lat="40.01923" lon="116.381656"><ele>46.7</ele><time>2024-07-02T12:16:21.000Z</time></trkpt><trkpt lat="40.019209" lon="116.381883"><ele>45.3</ele><time>2024-07-02T12:16:27.000Z</time></trkpt><trkpt lat="40.019126" lon="116.382091"><ele>44.0</ele><time>2024-07-02T12:16:32.000Z</time></trkpt><trkpt lat="40.019118" lon="116.382231"><ele>42.7</ele><time>2024-07-02T12:16:38.000Z</time></trkpt><trkpt lat="40.019186" lon="116.381958"><ele>40.3</ele><time>2024-07-02T12:16:48.000Z</time></trkpt><trkpt lat="40.019205" lon="116.381548"><ele>39.7</ele><time>2024-07-02T12:17:02.000Z</time></trkpt><trkpt lat="40.019108" lon="116.381205"><ele>41.9</ele><time>2024-07-02T12:17:15.000Z</time></trkpt><trkpt lat="40.01902" lon="116.381093"><ele>42.8</ele><time>2024-07-02T12:17:20.000Z</time></trkpt><trkpt lat="40.018935" lon="116.38105"><ele>43.6</ele><time>2024-07-02T12:17:24.000Z</time></trkpt><trkpt lat="40.018842" lon="116.381076"><ele>43.6</ele><time>2024-07-02T12:17:28.000Z</time></trkpt><trkpt lat="40.018637" lon="116.38122"><ele>45.3</ele><time>2024-07-02T12:17:38.000Z</time></trkpt><trkpt lat="40.018199" lon="116.381628"><ele>50.4</ele><time>2024-07-02T12:18:05.000Z</time></trkpt><trkpt lat="40.017996" lon="116.381929"><ele>52.5</ele><time>2024-07-02T12:18:20.000Z</time></trkpt><trkpt lat="40.017889" lon="116.382301"><ele>54.7</ele><time>2024-07-02T12:18:37.000Z</time></trkpt><trkpt lat="40.017874" lon="116.382768"><ele>57.4</ele><time>2024-07-02T12:18:57.000Z</time></trkpt><trkpt lat="40.017946" lon="116.383209"><ele>60.2</ele><time>2024-07-02T12:19:14.000Z</time></trkpt><trkpt lat="40.017939" lon="116.383501"><ele>61.6</ele><time>2024-07-02T12:19:27.000Z</time></trkpt><trkpt lat="40.017889" lon="116.383818"><ele>63.7</ele><time>2024-07-02T12:19:39.000Z</time></trkpt><trkpt lat="40.017698" lon="116.384237"><ele>65.8</ele><time>2024-07-02T12:19:58.000Z</time></trkpt><trkpt lat="40.017644" lon="116.384427"><ele>67.1</ele><time>2024-07-02T12:20:06.000Z</time></trkpt><trkpt lat="40.017599" lon="116.38463"><ele>67.7</ele><time>2024-07-02T12:20:13.000Z</time></trkpt><trkpt lat="40.017588" lon="116.384899"><ele>68.9</ele><time>2024-07-02T12:20:22.000Z</time></trkpt><trkpt lat="40.017663" lon="116.385495"><ele>72.5</ele><time>2024-07-02T12:20:48.000Z</time></trkpt><trkpt lat="40.01774" lon="116.385809"><ele>75.0</ele><time>2024-07-02T12:21:00.000Z</time></trkpt><trkpt lat="40.017785" lon="116.386154"><ele>76.4</ele><time>2024-07-02T12:21:12.000Z</time></trkpt><trkpt lat="40.017822" lon="116.386044"><ele>76.8</ele><time>2024-07-02T12:21:17.000Z</time></trkpt><trkpt lat="40.017808" lon="116.38591"><ele>77.0</ele><time>2024-07-02T12:21:21.000Z</time></trkpt><trkpt lat="40.017675" lon="116.385497"><ele>77.1</ele><time>2024-07-02T12:21:34.000Z</time></trkpt><trkpt lat="40.017643" lon="116.38525"><ele>76.9</ele><time>2024-07-02T12:21:40.000Z</time></trkpt><trkpt lat="40.017649" lon="116.384565"><ele>72.9</ele><time>2024-07-02T12:21:59.000Z</time></trkpt><trkpt lat="40.017714" lon="116.384258"><ele>71.7</ele><time>2024-07-02T12:22:08.000Z</time></trkpt><trkpt lat="40.017796" lon="116.384052"><ele>69.7</ele><time>2024-07-02T12:22:14.000Z</time></trkpt><trkpt lat="40.017796" lon="116.383947"><ele>69.7</ele><time>2024-07-02T12:22:17.000Z</time></trkpt><trkpt lat="40.017766" lon="116.383886"><ele>68.9</ele><time>2024-07-02T12:22:19.000Z</time></trkpt><trkpt lat="40.017676" lon="116.383821"><ele>68.9</ele><time>2024-07-02T12:22:23.000Z</time></trkpt><trkpt lat="40.017434" lon="116.383768"><ele>67.1</ele><time>2024-07-02T12:22:31.000Z</time></trkpt><trkpt lat="40.017293" lon="116.383663"><ele>66.1</ele><time>2024-07-02T12:22:36.000Z</time></trkpt><trkpt lat="40.017168" lon="116.383472"><ele>65.2</ele><time>2024-07-02T12:22:42.000Z</time></trkpt><trkpt lat="40.016949" lon="116.382965"><ele>62.6</ele><time>2024-07-02T12:22:55.000Z</time></trkpt><trkpt lat="40.016832" lon="116.382858"><ele>61.5</ele><time>2024-07-02T12:23:00.000Z</time></trkpt><trkpt lat="40.016644" lon="116.382796"><ele>60.4</ele><time>2024-07-02T12:23:06.000Z</time></trkpt><trkpt lat="40.016495" lon="116.382855"><ele>59.4</ele><time>2024-07-02T12:23:11.000Z</time></trkpt><trkpt lat="40.016194" lon="116.383155"><ele>57.6</ele><time>2024-07-02T12:23:23.000Z</time></trkpt><trkpt lat="40.015842" lon="116.383427"><ele>55.5</ele><time>2024-07-02T12:23:35.000Z</time></trkpt><trkpt lat="40.015537" lon="116.383497"><ele>53.8</ele><time>2024-07-02T12:23:45.000Z</time></trkpt><trkpt lat="40.015236" lon="116.383457"><ele>51.5</ele><time>2024-07-02T12:23:55.000Z</time></trkpt><trkpt lat="40.014962" lon="116.383488"><ele>50.3</ele><time>2024-07-02T12:24:02.000Z</time></trkpt><trkpt lat="40.014778" lon="116.383644"><ele>49.2</ele><time>2024-07-02T12:24:08.000Z</time></trkpt><trkpt lat="40.014593" lon="116.383934"><ele>46.7</ele><time>2024-07-02T12:24:18.000Z</time></trkpt><trkpt lat="40.014486" lon="116.38394"><ele>45.2</ele><time>2024-07-02T12:24:22.000Z</time></trkpt><trkpt lat="40.014276" lon="116.383582"><ele>41.4</ele><time>2024-07-02T12:24:34.000Z</time></trkpt><trkpt lat="40.014017" lon="116.382801"><ele>40.8</ele><time>2024-07-02T12:24:56.000Z</time></trkpt><trkpt lat="40.01381" lon="116.381773"><ele>39.7</ele><time>2024-07-02T12:25:21.000Z</time></trkpt><trkpt lat="40.013812" lon="116.380921"><ele>39.4</ele><time>2024-07-02T12:25:43.000Z</time></trkpt><trkpt lat="40.01379" lon="116.380779"><ele>39.3</ele><time>2024-07-02T12:25:47.000Z</time></trkpt></trkseg></trk></gpx>