<?xml version="1.0" encoding="UTF-8"?><gpx creator="Health" xsi:schemaLocation="http://www.topografix.com/GPX/1/0 http://www.topografix.com/GPX/1/0/gpx.xsd" version="1.0" xmlns="http://www.topografix.com/GPX/1/0" xmlns:xsi="http://www.w3.org/2001/XMLSchema-instance"><metadata><time>2024-05-20T13:58:26.000Z</time></metadata><trk><type>户外跑步</type><extensions><totalTime>4074.0</totalTime><cumulativeDecrease>6.199999809265137</cumulativeDecrease><cumulativeClimb>9.300000190734863</cumulativeClimb><totalDistance>12000.0</totalDistance></extensions><trkseg><trkpt lat="40.060838" lon="116.541706"><ele>25.9</ele><time>2024-05-20T13:58:26.000Z</time></trkpt><trkpt lat="40.060882" lon="116.54138"><ele>26.0</ele><time>2024-05-20T13:58:37.000Z</time></trkpt><trkpt lat="40.060865" lon="116.541305"><ele>26.0</ele><time>2024-05-20T13:58:39.000Z</time></trkpt><trkpt lat="40.060766" lon="116.541126"><ele>26.2</ele><time>2024-05-20T13:58:44.000Z</time></trkpt><trkpt lat="40.060493" lon="116.540776"><ele>26.5</ele><time>2024-05-20T13:58:59.000Z</time></trkpt><trkpt lat="40.060457" lon="116.540663"><ele>26.5</ele><time>2024-05-20T13:59:03.000Z</time></trkpt><trkpt lat="40.060479" lon="116.540448"><ele>26.4</ele><time>2024-05-20T13:59:09.000Z</time></trkpt><trkpt lat="40.060522" lon="116.540317"><ele>26.5</ele><time>2024-05-20T13:59:13.000Z</time></trkpt><trkpt lat="40.060653" lon="116.540129"><ele>26.6</ele><time>2024-05-20T13:59:21.000Z</time></trkpt><trkpt lat="40.06087" lon="116.539932"><ele>27.1</ele><time>2024-05-20T13:59:32.000Z</time></trkpt><trkpt lat="40.0609" lon="116.539854"><ele>27.1</ele><time>2024-05-20T13:59:35.000Z</time></trkpt><trkpt lat="40.060897" lon="116.539753"><ele>27.3</ele><time>2024-05-20T13:59:38.000Z</time></trkpt><trkpt lat="40.060147" lon="116.538661"><ele>27.9</ele><time>2024-05-20T14:00:21.000Z</time></trkpt><trkpt lat="40.060104" lon="116.538506"><ele>27.9</ele><time>2024-05-20T14:00:26.000Z</time></trkpt><trkpt lat="40.060143" lon="116.538332"><ele>27.8</ele><time>2024-05-20T14:00:31.000Z</time></trkpt><trkpt lat="40.061813" lon="116.536303"><ele>28.2</ele><time>2024-05-20T14:01:53.000Z</time></trkpt><trkpt lat="40.062302" lon="116.535759"><ele>27.3</ele><time>2024-05-20T14:10:36.000Z</time></trkpt><trkpt lat="40.064685" lon="116.532823"><ele>28.0</ele><time>2024-05-20T14:12:31.000Z</time></trkpt><trkpt lat="40.065141" lon="116.532331"><ele>28.0</ele><time>2024-05-20T14:12:52.000Z</time></trkpt><trkpt lat="40.065218" lon="116.532314"><ele>28.0</ele><time>2024-05-20T14:12:55.000Z</time></trkpt><trkpt lat="40.06534" lon="116.53238"><ele>28.0</ele><time>2024-05-20T14:13:00.000Z</time></trkpt><trkpt lat="40.067152" lon="116.533741"><ele>27.7</ele><time>2024-05-20T14:14:15.000Z</time></trkpt><trkpt lat="40.068724" lon="116.534868"><ele>27.9</ele><time>2024-05-20T14:15:19.000Z</time></trkpt><trkpt lat="40.07005" lon="116.535881"><ele>28.2</ele><time>2024-05-20T14:16:14.000Z</time></trkpt><trkpt lat="40.070117" lon="116.535986"><ele>28.2</ele><time>2024-05-20T14:16:18.000Z</time></trkpt><trkpt lat="40.070107" lon="116.536075"><ele>28.2</ele><time>2024-05-20T14:16:21.000Z</time></trkpt><trkpt lat="40.069676" lon="116.536424"><ele>28.4</ele><time>2024-05-20T14:16:39.000Z</time></trkpt><trkpt lat="40.068187" lon="116.537836"><ele>27.4</ele><time>2024-05-20T14:18:58.000Z</time></trkpt><trkpt lat="40.067837" lon="116.538226"><ele>27.5</ele><time>2024-05-20T14:19:14.000Z</time></trkpt><trkpt lat="40.067418" lon="116.538768"><ele>27.6</ele><time>2024-05-20T14:19:34.000Z</time></trkpt><trkpt lat="40.067082" lon="116.539361"><ele>27.7</ele><time>2024-05-20T14:19:52.000Z</time></trkpt><trkpt lat="40.066792" lon="116.540027"><ele>27.8</ele><time>2024-05-20T14:20:11.000Z</time></trkpt><trkpt lat="40.066292" lon="116.541617"><ele>27.7</ele><time>2024-05-20T14:20:56.000Z</time></trkpt><trkpt lat="40.066059" lon="116.542474"><ele>27.7</ele><time>2024-05-20T14:21:19.000Z</time></trkpt><trkpt lat="40.065974" lon="116.542644"><ele>27.7</ele><time>2024-05-20T14:21:24.000Z</time></trkpt><trkpt lat="40.065835" lon="116.542678"><ele>27.7</ele><time>2024-05-20T14:21:29.000Z</time></trkpt><trkpt lat="40.063285" lon="116.542421"><ele>27.3</ele><time>2024-05-20T14:22:56.000Z</time></trkpt><trkpt lat="40.063008" lon="116.54233"><ele>27.3</ele><time>2024-05-20T14:23:06.000Z</time></trkpt><trkpt lat="40.06269" lon="116.542173"><ele>27.1</ele><time>2024-05-20T14:23:18.000Z</time></trkpt><trkpt lat="40.062507" lon="116.541973"><ele>27.0</ele><time>2024-05-20T14:23:26.000Z</time></trkpt><trkpt lat="40.061688" lon="116.540853"><ele>26.9</ele><time>2024-05-20T14:24:05.000Z</time></trkpt><trkpt lat="40.06019" lon="116.538721"><ele>27.8</ele><time>2024-05-20T14:25:27.000Z</time></trkpt><trkpt lat="40.060112" lon="116.538544"><ele>27.8</ele><time>2024-05-20T14:25:33.000Z</time></trkpt><trkpt lat="40.060115" lon="116.53839"><ele>27.8</ele><time>2024-05-20T14:25:38.000Z</time></trkpt><trkpt lat="40.060179" lon="116.538265"><ele>27.8</ele><time>2024-05-20T14:25:42.000Z</time></trkpt><trkpt lat="40.06059" lon="116.537762"><ele>27.9</ele><time>2024-05-20T14:26:01.000Z</time></trkpt><trkpt lat="40.062269" lon="116.535789"><ele>28.4</ele><time>2024-05-20T14:27:24.000Z</time></trkpt><trkpt lat="40.063348" lon="116.534423"><ele>28.7</ele><time>2024-05-20T14:28:18.000Z</time></trkpt><trkpt lat="40.064395" lon="116.533201"><ele>28.6</ele><time>2024-05-20T14:29:11.000Z</time></trkpt><trkpt lat="40.064801" lon="116.532646"><ele>28.6</ele><time>2024-05-20T14:29:31.000Z</time></trkpt><trkpt lat="40.065087" lon="116.53236"><ele>28.7</ele><time>2024-05-20T14:29:44.000Z</time></trkpt><trkpt lat="40.065222" lon="116.532309"><ele>28.7</ele><time>2024-05-20T14:29:49.000Z</time></trkpt><trkpt lat="40.068702" lon="116.534847"><ele>27.2</ele><time>2024-05-20T14:32:19.000Z</time></trkpt><trkpt lat="40.070022" lon="116.53586"><ele>27.1</ele><time>2024-05-20T14:33:13.000Z</time></trkpt><trkpt lat="40.070111" lon="116.535989"><ele>27.1</ele><time>2024-05-20T14:33:19.000Z</time></trkpt><trkpt lat="40.070058" lon="116.536123"><ele>27.1</ele><time>2024-05-20T14:33:25.000Z</time></trkpt><trkpt lat="40.069579" lon="116.536519"><ele>27.1</ele><time>2024-05-20T14:33:48.000Z</time></trkpt><trkpt lat="40.06805" lon="116.537977"><ele>26.4</ele><time>2024-05-20T14:34:56.000Z</time></trkpt><trkpt lat="40.067572" lon="116.538558"><ele>26.1</ele><time>2024-05-20T14:35:20.000Z</time></trkpt><trkpt lat="40.067251" lon="116.539048"><ele>26.0</ele><time>2024-05-20T14:35:41.000Z</time></trkpt><trkpt lat="40.067028" lon="116.539473"><ele>26.0</ele><time>2024-05-20T14:35:58.000Z</time></trkpt><trkpt lat="40.066763" lon="116.540121"><ele>26.2</ele><time>2024-05-20T14:36:22.000Z</time></trkpt><trkpt lat="40.066056" lon="116.542501"><ele>26.9</ele><time>2024-05-20T14:37:43.000Z</time></trkpt><trkpt lat="40.065994" lon="116.542638"><ele>26.9</ele><time>2024-05-20T14:37:48.000Z</time></trkpt><trkpt lat="40.065904" lon="116.542669"><ele>26.9</ele><time>2024-05-20T14:37:52.000Z</time></trkpt><trkpt lat="40.065448" lon="116.542636"><ele>27.0</ele><time>2024-05-20T14:38:11.000Z</time></trkpt><trkpt lat="40.063462" lon="116.542428"><ele>26.5</ele><time>2024-05-20T14:39:33.000Z</time></trkpt><trkpt lat="40.063123" lon="116.542356"><ele>26.4</ele><time>2024-05-20T14:39:48.000Z</time></trkpt><trkpt lat="40.062682" lon="116.542143"><ele>26.2</ele><time>2024-05-20T14:40:06.000Z</time></trkpt><trkpt lat="40.061594" lon="116.540711"><ele>26.0</ele><time>2024-05-20T14:41:02.000Z</time></trkpt><trkpt lat="40.060189" lon="116.538679"><ele>26.3</ele><time>2024-05-20T14:42:28.000Z</time></trkpt><trkpt lat="40.060123" lon="116.538491"><ele>26.2</ele><time>2024-05-20T14:42:34.000Z</time></trkpt><trkpt lat="40.060141" lon="116.538352"><ele>26.2</ele><time>2024-05-20T14:42:38.000Z</time></trkpt><trkpt lat="40.060269" lon="116.538162"><ele>26.0</ele><time>2024-05-20T14:42:45.000Z</time></trkpt><trkpt lat="40.06454" lon="116.533014"><ele>26.1</ele><time>2024-05-20T14:46:29.000Z</time></trkpt><trkpt lat="40.064907" lon="116.532519"><ele>26.2</ele><time>2024-05-20T14:46:47.000Z</time></trkpt><trkpt lat="40.065144" lon="116.532305"><ele>26.4</ele><time>2024-05-20T14:46:57.000Z</time></trkpt><trkpt lat="40.065313" lon="116.532357"><ele>26.5</ele><time>2024-05-20T14:47:03.000Z</time></trkpt><trkpt lat="40.069406" lon="116.535384"><ele>27.1</ele><time>2024-05-20T14:50:03.000Z</time></trkpt><trkpt lat="40.070048" lon="116.535884"><ele>27.2</ele><time>2024-05-20T14:50:33.000Z</time></trkpt><trkpt lat="40.070108" lon="116.536001"><ele>27.2</ele><time>2024-05-20T14:50:38.000Z</time></trkpt><trkpt lat="40.070063" lon="116.536113"><ele>27.3</ele><time>2024-05-20T14:50:43.000Z</time></trkpt><trkpt lat="40.06903" lon="116.537038"><ele>27.5</ele><time>2024-05-20T14:51:36.000Z</time></trkpt><trkpt lat="40.068078" lon="116.537951"><ele>27.2</ele><time>2024-05-20T14:52:21.000Z</time></trkpt><trkpt lat="40.067576" lon="116.538546"><ele>26.7</ele><time>2024-05-20T14:52:46.000Z</time></trkpt><trkpt lat="40.067254" lon="116.539025"><ele>26.9</ele><time>2024-05-20T14:53:05.000Z</time></trkpt><trkpt lat="40.067023" lon="116.539447"><ele>26.8</ele><time>2024-05-20T14:53:22.000Z</time></trkpt><trkpt lat="40.066776" lon="116.540056"><ele>27.1</ele><time>2024-05-20T14:53:45.000Z</time></trkpt><trkpt lat="40.065991" lon="116.542622"><ele>28.1</ele><time>2024-05-20T14:55:10.000Z</time></trkpt><trkpt lat="40.065904" lon="116.542654"><ele>28.1</ele><time>2024-05-20T14:55:14.000Z</time></trkpt><trkpt lat="40.065464" lon="116.542635"><ele>28.4</ele><time>2024-05-20T14:55:33.000Z</time></trkpt><trkpt lat="40.063734" lon="116.542466"><ele>28.2</ele><time>2024-05-20T14:56:40.000Z</time></trkpt><trkpt lat="40.063178" lon="116.542373"><ele>28.0</ele><time>2024-05-20T14:57:00.000Z</time></trkpt><trkpt lat="40.062702" lon="116.54216"><ele>28.1</ele><time>2024-05-20T14:57:21.000Z</time></trkpt><trkpt lat="40.06249" lon="116.541919"><ele>28.1</ele><time>2024-05-20T14:57:31.000Z</time></trkpt><trkpt lat="40.061393" lon="116.540422"><ele>28.0</ele><time>2024-05-20T14:58:36.000Z</time></trkpt><trkpt lat="40.060194" lon="116.538686"><ele>28.0</ele><time>2024-05-20T14:59:47.000Z</time></trkpt><trkpt lat="40.06012" lon="116.538496"><ele>28.0</ele><time>2024-05-20T14:59:52.000Z</time></trkpt><trkpt lat="40.060129" lon="116.538375"><ele>28.0</ele><time>2024-05-20T14:59:55.000Z</time></trkpt><trkpt lat="40.060197" lon="116.538238"><ele>28.0</ele><time>2024-05-20T14:59:59.000Z</time></trkpt><trkpt lat="40.061839" lon="116.536234"><ele>27.5</ele><time>2024-05-20T15:01:32.000Z</time></trkpt><trkpt lat="40.064244" lon="116.53339"><ele>27.3</ele><time>2024-05-20T15:03:40.000Z</time></trkpt><trkpt lat="40.065064" lon="116.532341"><ele>27.4</ele><time>2024-05-20T15:04:24.000Z</time></trkpt><trkpt lat="40.065155" lon="116.532278"><ele>27.4</ele><time>2024-05-20T15:04:28.000Z</time></trkpt><trkpt lat="40.065235" lon="116.53229"><ele>27.5</ele><time>2024-05-20T15:04:31.000Z</time></trkpt><trkpt lat="40.069499" lon="116.535432"><ele>27.8</ele><time>2024-05-20T15:07:49.000Z</time></trkpt><trkpt lat="40.070079" lon="116.535924"><ele>27.9</ele><time>2024-05-20T15:08:18.000Z</time></trkpt><trkpt lat="40.070118" lon="116.536002"><ele>28.0</ele><time>2024-05-20T15:08:21.000Z</time></trkpt><trkpt lat="40.07011" lon="116.536078"><ele>28.0</ele><time>2024-05-20T15:08:24.000Z</time></trkpt><trkpt lat="40.069131" lon="116.536922"><ele>28.2</ele><time>2024-05-20T15:09:13.000Z</time></trkpt><trkpt lat="40.068591" lon="116.537486"><ele>27.8</ele><time>2024-05-20T15:09:37.000Z</time></trkpt><trkpt lat="40.068071" lon="116.537957"><ele>27.4</ele><time>2024-05-20T15:10:01.000Z</time></trkpt><trkpt lat="40.067861" lon="116.538185"><ele>27.4</ele><time>2024-05-20T15:10:11.000Z</time></trkpt><trkpt lat="40.067396" lon="116.538806"><ele>27.1</ele><time>2024-05-20T15:10:36.000Z</time></trkpt><trkpt lat="40.06706" lon="116.539414"><ele>26.9</ele><time>2024-05-20T15:11:01.000Z</time></trkpt><trkpt lat="40.06674" lon="116.540211"><ele>27.1</ele><time>2024-05-20T15:11:24.000Z</time></trkpt><trkpt lat="40.066138" lon="116.542262"><ele>27.4</ele><time>2024-05-20T15:12:28.000Z</time></trkpt><trkpt lat="40.066047" lon="116.542533"><ele>27.3</ele><time>2024-05-20T15:12:38.000Z</time></trkpt><trkpt lat="40.065976" lon="116.54265"><ele>27.1</ele><time>2024-05-20T15:12:43.000Z</time></trkpt><trkpt lat="40.065681" lon="116.54268"><ele>27.2</ele><time>2024-05-20T15:12:56.000Z</time></trkpt><trkpt lat="40.065154" lon="116.542594"><ele>27.2</ele><time>2024-05-20T15:13:19.000Z</time></trkpt><trkpt lat="40.064749" lon="116.542577"><ele>27.3</ele><time>2024-05-20T15:13:34.000Z</time></trkpt><trkpt lat="40.063235" lon="116.542394"><ele>27.1</ele><time>2024-05-20T15:14:33.000Z</time></trkpt><trkpt lat="40.062935" lon="116.5423"><ele>26.9</ele><time>2024-05-20T15:14:45.000Z</time></trkpt><trkpt lat="40.062766" lon="116.542206"><ele>26.8</ele><time>2024-05-20T15:14:52.000Z</time></trkpt><trkpt lat="40.062509" lon="116.54193"><ele>26.7</ele><time>2024-05-20T15:15:06.000Z</time></trkpt><trkpt lat="40.061623" lon="116.540702"><ele>26.6</ele><time>2024-05-20T15:15:55.000Z</time></trkpt></trkseg></trk></gpx>