<?xml version="1.0" encoding="UTF-8"?><gpx creator="Health" xsi:schemaLocation="http://www.topografix.com/GPX/1/0 http://www.topografix.com/GPX/1/0/gpx.xsd" version="1.0" xmlns="http://www.topografix.com/GPX/1/0" xmlns:xsi="http://www.w3.org/2001/XMLSchema-instance"><metadata><time>2024-06-05T04:45:00.000Z</time></metadata><trk><type>户外跑步</type><extensions><totalTime>4093.0</totalTime><cumulativeDecrease>4.400000095367432</cumulativeDecrease><cumulativeClimb>5.900000095367432</cumulativeClimb><totalDistance>10010.0</totalDistance></extensions><trkseg><trkpt lat="40.060793" lon="116.541601"><ele>26.8</ele><time>2024-06-05T04:45:00.000Z</time></trkpt><trkpt lat="40.060847" lon="116.541269"><ele>26.8</ele><time>2024-06-05T04:45:13.000Z</time></trkpt><trkpt lat="40.060643" lon="116.54112"><ele>27.1</ele><time>2024-06-05T04:45:24.000Z</time></trkpt><trkpt lat="40.060572" lon="116.541026"><ele>27.1</ele><time>2024-06-05T04:45:28.000Z</time></trkpt><trkpt lat="40.060488" lon="116.540854"><ele>27.1</ele><time>2024-06-05T04:45:35.000Z</time></trkpt><trkpt lat="40.060492" lon="116.540653"><ele>27.0</ele><time>2024-06-05T04:45:41.000Z</time></trkpt><trkpt lat="40.06055" lon="116.540358"><ele>27.0</ele><time>2024-06-05T04:45:50.000Z</time></trkpt><trkpt lat="40.060882" lon="116.540045"><ele>27.4</ele><time>2024-06-05T04:46:08.000Z</time></trkpt><trkpt lat="40.060913" lon="116.53989"><ele>27.7</ele><time>2024-06-05T04:46:14.000Z</time></trkpt><trkpt lat="40.060639" lon="116.539309"><ele>28.1</ele><time>2024-06-05T04:46:33.000Z</time></trkpt><trkpt lat="40.060233" lon="116.538646"><ele>28.0</ele><time>2024-06-05T04:46:59.000Z</time></trkpt><trkpt lat="40.060188" lon="116.538428"><ele>27.9</ele><time>2024-06-05T04:47:06.000Z</time></trkpt><trkpt lat="40.060229" lon="116.538314"><ele>27.8</ele><time>2024-06-05T04:47:10.000Z</time></trkpt><trkpt lat="40.061103" lon="116.537169"><ele>27.7</ele><time>2024-06-05T04:48:00.000Z</time></trkpt><trkpt lat="40.062188" lon="116.535925"><ele>28.1</ele><time>2024-06-05T04:48:58.000Z</time></trkpt><trkpt lat="40.063313" lon="116.534534"><ele>28.2</ele><time>2024-06-05T04:50:00.000Z</time></trkpt><trkpt lat="40.063558" lon="116.534273"><ele>28.1</ele><time>2024-06-05T04:50:14.000Z</time></trkpt><trkpt lat="40.06427" lon="116.533351"><ele>28.2</ele><time>2024-06-05T04:50:55.000Z</time></trkpt><trkpt lat="40.064787" lon="116.532801"><ele>28.5</ele><time>2024-06-05T04:51:24.000Z</time></trkpt><trkpt lat="40.065414" lon="116.531975"><ele>28.5</ele><time>2024-06-05T04:52:01.000Z</time></trkpt><trkpt lat="40.066226" lon="116.53107"><ele>28.4</ele><time>2024-06-05T04:52:49.000Z</time></trkpt><trkpt lat="40.066654" lon="116.530519"><ele>28.0</ele><time>2024-06-05T04:53:15.000Z</time></trkpt><trkpt lat="40.067438" lon="116.529429"><ele>28.1</ele><time>2024-06-05T04:54:04.000Z</time></trkpt><trkpt lat="40.068332" lon="116.528302"><ele>28.3</ele><time>2024-06-05T04:54:59.000Z</time></trkpt><trkpt lat="40.068777" lon="116.527626"><ele>28.3</ele><time>2024-06-05T04:55:28.000Z</time></trkpt><trkpt lat="40.068928" lon="116.527474"><ele>28.2</ele><time>2024-06-05T04:55:36.000Z</time></trkpt><trkpt lat="40.069212" lon="116.527051"><ele>28.0</ele><time>2024-06-05T04:55:54.000Z</time></trkpt><trkpt lat="40.070052" lon="116.525973"><ele>27.8</ele><time>2024-06-05T04:56:44.000Z</time></trkpt><trkpt lat="40.070319" lon="116.525527"><ele>27.8</ele><time>2024-06-05T04:57:03.000Z</time></trkpt><trkpt lat="40.07077" lon="116.524904"><ele>27.9</ele><time>2024-06-05T04:57:30.000Z</time></trkpt><trkpt lat="40.07108" lon="116.524399"><ele>28.0</ele><time>2024-06-05T04:57:52.000Z</time></trkpt><trkpt lat="40.071522" lon="116.52381"><ele>28.1</ele><time>2024-06-05T04:58:19.000Z</time></trkpt><trkpt lat="40.071725" lon="116.523452"><ele>28.0</ele><time>2024-06-05T04:58:35.000Z</time></trkpt><trkpt lat="40.071975" lon="116.522834"><ele>28.3</ele><time>2024-06-05T04:58:58.000Z</time></trkpt><trkpt lat="40.072134" lon="116.522298"><ele>28.4</ele><time>2024-06-05T04:59:15.000Z</time></trkpt><trkpt lat="40.072222" lon="116.52185"><ele>28.4</ele><time>2024-06-05T04:59:29.000Z</time></trkpt><trkpt lat="40.072305" lon="116.521073"><ele>28.3</ele><time>2024-06-05T04:59:54.000Z</time></trkpt><trkpt lat="40.072307" lon="116.518575"><ele>28.0</ele><time>2024-06-05T05:01:18.000Z</time></trkpt><trkpt lat="40.072356" lon="116.516004"><ele>27.8</ele><time>2024-06-05T05:02:46.000Z</time></trkpt><trkpt lat="40.072341" lon="116.514443"><ele>27.6</ele><time>2024-06-05T05:03:42.000Z</time></trkpt><trkpt lat="40.072306" lon="116.51369"><ele>27.8</ele><time>2024-06-05T05:04:09.000Z</time></trkpt><trkpt lat="40.072325" lon="116.513385"><ele>27.8</ele><time>2024-06-05T05:04:21.000Z</time></trkpt><trkpt lat="40.072119" lon="116.511523"><ele>27.8</ele><time>2024-06-05T05:05:26.000Z</time></trkpt><trkpt lat="40.072015" lon="116.510869"><ele>27.7</ele><time>2024-06-05T05:05:51.000Z</time></trkpt><trkpt lat="40.071998" lon="116.51057"><ele>27.6</ele><time>2024-06-05T05:06:03.000Z</time></trkpt><trkpt lat="40.072042" lon="116.510463"><ele>27.6</ele><time>2024-06-05T05:06:08.000Z</time></trkpt><trkpt lat="40.072873" lon="116.5104"><ele>27.4</ele><time>2024-06-05T05:06:49.000Z</time></trkpt><trkpt lat="40.073011" lon="116.510352"><ele>27.3</ele><time>2024-06-05T05:06:57.000Z</time></trkpt><trkpt lat="40.074164" lon="116.510438"><ele>27.5</ele><time>2024-06-05T05:07:51.000Z</time></trkpt><trkpt lat="40.075119" lon="116.510402"><ele>27.8</ele><time>2024-06-05T05:08:37.000Z</time></trkpt><trkpt lat="40.075795" lon="116.510455"><ele>28.1</ele><time>2024-06-05T05:09:09.000Z</time></trkpt><trkpt lat="40.076781" lon="116.51037"><ele>28.6</ele><time>2024-06-05T05:09:57.000Z</time></trkpt><trkpt lat="40.077504" lon="116.51044"><ele>28.3</ele><time>2024-06-05T05:10:28.000Z</time></trkpt><trkpt lat="40.079916" lon="116.510479"><ele>28.4</ele><time>2024-06-05T05:12:05.000Z</time></trkpt><trkpt lat="40.079979" lon="116.51052"><ele>28.5</ele><time>2024-06-05T05:12:08.000Z</time></trkpt><trkpt lat="40.08" lon="116.510693"><ele>28.5</ele><time>2024-06-05T05:12:14.000Z</time></trkpt><trkpt lat="40.079996" lon="116.512033"><ele>28.1</ele><time>2024-06-05T05:13:02.000Z</time></trkpt><trkpt lat="40.079966" lon="116.51282"><ele>28.1</ele><time>2024-06-05T05:13:31.000Z</time></trkpt><trkpt lat="40.079992" lon="116.513249"><ele>28.1</ele><time>2024-06-05T05:13:48.000Z</time></trkpt><trkpt lat="40.079951" lon="116.515255"><ele>28.6</ele><time>2024-06-05T05:15:01.000Z</time></trkpt><trkpt lat="40.079972" lon="116.517216"><ele>28.2</ele><time>2024-06-05T05:16:10.000Z</time></trkpt><trkpt lat="40.079937" lon="116.517587"><ele>28.2</ele><time>2024-06-05T05:16:21.000Z</time></trkpt><trkpt lat="40.079958" lon="116.518362"><ele>27.9</ele><time>2024-06-05T05:16:49.000Z</time></trkpt><trkpt lat="40.079921" lon="116.52058"><ele>28.2</ele><time>2024-06-05T05:18:07.000Z</time></trkpt><trkpt lat="40.079938" lon="116.521126"><ele>28.5</ele><time>2024-06-05T05:18:26.000Z</time></trkpt><trkpt lat="40.079906" lon="116.521738"><ele>28.5</ele><time>2024-06-05T05:18:47.000Z</time></trkpt><trkpt lat="40.079923" lon="116.522076"><ele>28.2</ele><time>2024-06-05T05:18:58.000Z</time></trkpt><trkpt lat="40.079887" lon="116.522377"><ele>28.0</ele><time>2024-06-05T05:19:10.000Z</time></trkpt><trkpt lat="40.079911" lon="116.522676"><ele>27.7</ele><time>2024-06-05T05:19:34.000Z</time></trkpt><trkpt lat="40.079888" lon="116.523685"><ele>27.7</ele><time>2024-06-05T05:20:11.000Z</time></trkpt><trkpt lat="40.079908" lon="116.524866"><ele>28.3</ele><time>2024-06-05T05:20:55.000Z</time></trkpt><trkpt lat="40.079855" lon="116.526953"><ele>28.1</ele><time>2024-06-05T05:22:12.000Z</time></trkpt><trkpt lat="40.079748" lon="116.527149"><ele>28.0</ele><time>2024-06-05T05:22:22.000Z</time></trkpt><trkpt lat="40.077677" lon="116.529098"><ele>27.4</ele><time>2024-06-05T05:24:26.000Z</time></trkpt><trkpt lat="40.076641" lon="116.530005"><ele>27.6</ele><time>2024-06-05T05:25:22.000Z</time></trkpt><trkpt lat="40.076329" lon="116.530352"><ele>27.2</ele><time>2024-06-05T05:25:41.000Z</time></trkpt><trkpt lat="40.075283" lon="116.53127"><ele>27.4</ele><time>2024-06-05T05:26:41.000Z</time></trkpt><trkpt lat="40.074432" lon="116.532107"><ele>27.9</ele><time>2024-06-05T05:27:29.000Z</time></trkpt><trkpt lat="40.073483" lon="116.53295"><ele>28.1</ele><time>2024-06-05T05:28:24.000Z</time></trkpt><trkpt lat="40.073325" lon="116.533136"><ele>28.0</ele><time>2024-06-05T05:28:34.000Z</time></trkpt><trkpt lat="40.071144" lon="116.535122"><ele>27.7</ele><time>2024-06-05T05:30:42.000Z</time></trkpt><trkpt lat="40.069323" lon="116.536848"><ele>28.3</ele><time>2024-06-05T05:32:27.000Z</time></trkpt><trkpt lat="40.068997" lon="116.537196"><ele>28.2</ele><time>2024-06-05T05:32:47.000Z</time></trkpt><trkpt lat="40.068342" lon="116.537759"><ele>27.7</ele><time>2024-06-05T05:33:24.000Z</time></trkpt><trkpt lat="40.067737" lon="116.538415"><ele>27.2</ele><time>2024-06-05T05:34:02.000Z</time></trkpt><trkpt lat="40.067306" lon="116.539067"><ele>27.1</ele><time>2024-06-05T05:34:32.000Z</time></trkpt><trkpt lat="40.066887" lon="116.539861"><ele>27.1</ele><time>2024-06-05T05:35:07.000Z</time></trkpt><trkpt lat="40.066703" lon="116.540407"><ele>27.2</ele><time>2024-06-05T05:35:28.000Z</time></trkpt><trkpt lat="40.066564" lon="116.540977"><ele>27.4</ele><time>2024-06-05T05:35:50.000Z</time></trkpt><trkpt lat="40.066347" lon="116.541505"><ele>27.6</ele><time>2024-06-05T05:36:10.000Z</time></trkpt><trkpt lat="40.066085" lon="116.542571"><ele>27.7</ele><time>2024-06-05T05:36:49.000Z</time></trkpt><trkpt lat="40.06597" lon="116.542733"><ele>27.8</ele><time>2024-06-05T05:36:58.000Z</time></trkpt><trkpt lat="40.065553" lon="116.542721"><ele>27.8</ele><time>2024-06-05T05:37:20.000Z</time></trkpt><trkpt lat="40.065174" lon="116.542645"><ele>27.7</ele><time>2024-06-05T05:37:37.000Z</time></trkpt><trkpt lat="40.064315" lon="116.542577"><ele>27.7</ele><time>2024-06-05T05:38:16.000Z</time></trkpt><trkpt lat="40.063331" lon="116.542439"><ele>27.4</ele><time>2024-06-05T05:39:03.000Z</time></trkpt><trkpt lat="40.062934" lon="116.542303"><ele>27.5</ele><time>2024-06-05T05:39:21.000Z</time></trkpt><trkpt lat="40.062763" lon="116.542194"><ele>27.2</ele><time>2024-06-05T05:39:31.000Z</time></trkpt><trkpt lat="40.062461" lon="116.541851"><ele>27.2</ele><time>2024-06-05T05:39:50.000Z</time></trkpt><trkpt lat="40.062003" lon="116.541165"><ele>26.9</ele><time>2024-06-05T05:40:25.000Z</time></trkpt><trkpt lat="40.060519" lon="116.539107"><ele>27.7</ele><time>2024-06-05T05:42:13.000Z</time></trkpt><trkpt lat="40.060223" lon="116.538678"><ele>27.7</ele><time>2024-06-05T05:42:35.000Z</time></trkpt><trkpt lat="40.060167" lon="116.538482"><ele>27.7</ele><time>2024-06-05T05:42:42.000Z</time></trkpt><trkpt lat="40.060227" lon="116.538302"><ele>27.6</ele><time>2024-06-05T05:42:48.000Z</time></trkpt><trkpt lat="40.06048" lon="116.537949"><ele>27.6</ele><time>2024-06-05T05:43:06.000Z</time></trkpt><trkpt lat="40.06102" lon="116.537344"><ele>27.7</ele><time>2024-06-05T05:43:42.000Z</time></trkpt><trkpt lat="40.061895" lon="116.536264"><ele>27.9</ele><time>2024-06-05T05:44:41.000Z</time></trkpt><trkpt lat="40.062176" lon="116.535972"><ele>27.9</ele><time>2024-06-05T05:44:59.000Z</time></trkpt><trkpt lat="40.063866" lon="116.533944"><ele>28.0</ele><time>2024-06-05T05:46:48.000Z</time></trkpt><trkpt lat="40.06421" lon="116.533476"><ele>28.0</ele><time>2024-06-05T05:47:11.000Z</time></trkpt><trkpt lat="40.065161" lon="116.532369"><ele>28.1</ele><time>2024-06-05T05:48:13.000Z</time></trkpt><trkpt lat="40.065248" lon="116.532335"><ele>28.1</ele><time>2024-06-05T05:48:17.000Z</time></trkpt><trkpt lat="40.065326" lon="116.532371"><ele>28.1</ele><time>2024-06-05T05:48:21.000Z</time></trkpt><trkpt lat="40.066147" lon="116.533024"><ele>28.2</ele><time>2024-06-05T05:49:03.000Z</time></trkpt><trkpt lat="40.066536" lon="116.533266"><ele>28.1</ele><time>2024-06-05T05:49:23.000Z</time></trkpt><trkpt lat="40.06848" lon="116.534718"><ele>27.9</ele><time>2024-06-05T05:51:03.000Z</time></trkpt><trkpt lat="40.069371" lon="116.535337"><ele>28.1</ele><time>2024-06-05T05:51:51.000Z</time></trkpt><trkpt lat="40.0701" lon="116.535944"><ele>28.2</ele><time>2024-06-05T05:52:33.000Z</time></trkpt><trkpt lat="40.070131" lon="116.536034"><ele>28.2</ele><time>2024-06-05T05:52:37.000Z</time></trkpt><trkpt lat="40.070085" lon="116.536124"><ele>28.2</ele><time>2024-06-05T05:52:42.000Z</time></trkpt><trkpt lat="40.06933" lon="116.536823"><ele>28.5</ele><time>2024-06-05T05:53:27.000Z</time></trkpt></trkseg></trk></gpx>