<?xml version="1.0" encoding="UTF-8"?><gpx creator="Health" xsi:schemaLocation="http://www.topografix.com/GPX/1/0 http://www.topografix.com/GPX/1/0/gpx.xsd" version="1.0" xmlns="http://www.topografix.com/GPX/1/0" xmlns:xsi="http://www.w3.org/2001/XMLSchema-instance"><metadata><time>2024-05-18T10:33:27.000Z</time></metadata><trk><type>户外跑步</type><extensions><totalTime>3784.0</totalTime><cumulativeDecrease>62.29999923706055</cumulativeDecrease><cumulativeClimb>57.20000076293945</cumulativeClimb><totalDistance>10670.0</totalDistance></extensions><trkseg><trkpt lat="40.010157" lon="116.38648"><ele>40.9</ele><time>2024-05-18T10:33:27.000Z</time></trkpt><trkpt lat="40.010375" lon="116.387229"><ele>40.8</ele><time>2024-05-18T10:33:55.000Z</time></trkpt><trkpt lat="40.01061" lon="116.38773"><ele>40.7</ele><time>2024-05-18T10:34:13.000Z</time></trkpt><trkpt lat="40.010679" lon="116.388079"><ele>40.5</ele><time>2024-05-18T10:34:24.000Z</time></trkpt><trkpt lat="40.010619" lon="116.388887"><ele>39.4</ele><time>2024-05-18T10:34:48.000Z</time></trkpt><trkpt lat="40.01066" lon="116.389282"><ele>39.1</ele><time>2024-05-18T10:34:59.000Z</time></trkpt><trkpt lat="40.010652" lon="116.389572"><ele>38.7</ele><time>2024-05-18T10:35:08.000Z</time></trkpt><trkpt lat="40.010552" lon="116.390256"><ele>38.4</ele><time>2024-05-18T10:35:28.000Z</time></trkpt><trkpt lat="40.01039" lon="116.390607"><ele>38.3</ele><time>2024-05-18T10:35:39.000Z</time></trkpt><trkpt lat="40.01024" lon="116.390723"><ele>38.2</ele><time>2024-05-18T10:35:46.000Z</time></trkpt><trkpt lat="40.010138" lon="116.390723"><ele>38.2</ele><time>2024-05-18T10:35:50.000Z</time></trkpt><trkpt lat="40.009962" lon="116.390633"><ele>38.1</ele><time>2024-05-18T10:35:57.000Z</time></trkpt><trkpt lat="40.009706" lon="116.390304"><ele>38.3</ele><time>2024-05-18T10:36:12.000Z</time></trkpt><trkpt lat="40.009565" lon="116.390248"><ele>38.4</ele><time>2024-05-18T10:36:18.000Z</time></trkpt><trkpt lat="40.009379" lon="116.390321"><ele>38.4</ele><time>2024-05-18T10:36:26.000Z</time></trkpt><trkpt lat="40.009109" lon="116.390498"><ele>38.3</ele><time>2024-05-18T10:36:37.000Z</time></trkpt><trkpt lat="40.009029" lon="116.390604"><ele>38.2</ele><time>2024-05-18T10:36:41.000Z</time></trkpt><trkpt lat="40.009011" lon="116.390722"><ele>38.2</ele><time>2024-05-18T10:36:45.000Z</time></trkpt><trkpt lat="40.009481" lon="116.392054"><ele>37.9</ele><time>2024-05-18T10:37:28.000Z</time></trkpt><trkpt lat="40.009495" lon="116.392173"><ele>37.6</ele><time>2024-05-18T10:37:32.000Z</time></trkpt><trkpt lat="40.009467" lon="116.392387"><ele>37.4</ele><time>2024-05-18T10:37:39.000Z</time></trkpt><trkpt lat="40.009514" lon="116.392515"><ele>37.4</ele><time>2024-05-18T10:37:43.000Z</time></trkpt><trkpt lat="40.010232" lon="116.393125"><ele>37.3</ele><time>2024-05-18T10:38:17.000Z</time></trkpt><trkpt lat="40.010739" lon="116.393386"><ele>36.8</ele><time>2024-05-18T10:38:38.000Z</time></trkpt><trkpt lat="40.011079" lon="116.393495"><ele>36.6</ele><time>2024-05-18T10:38:50.000Z</time></trkpt><trkpt lat="40.011266" lon="116.393512"><ele>36.3</ele><time>2024-05-18T10:38:57.000Z</time></trkpt><trkpt lat="40.012061" lon="116.393457"><ele>35.1</ele><time>2024-05-18T10:39:27.000Z</time></trkpt><trkpt lat="40.012622" lon="116.393517"><ele>34.4</ele><time>2024-05-18T10:39:49.000Z</time></trkpt><trkpt lat="40.012981" lon="116.393504"><ele>34.1</ele><time>2024-05-18T10:40:02.000Z</time></trkpt><trkpt lat="40.013669" lon="116.393552"><ele>33.7</ele><time>2024-05-18T10:40:29.000Z</time></trkpt><trkpt lat="40.014484" lon="116.393537"><ele>33.4</ele><time>2024-05-18T10:41:00.000Z</time></trkpt><trkpt lat="40.014633" lon="116.393487"><ele>33.0</ele><time>2024-05-18T10:41:06.000Z</time></trkpt><trkpt lat="40.014806" lon="116.393368"><ele>32.8</ele><time>2024-05-18T10:41:14.000Z</time></trkpt><trkpt lat="40.015001" lon="116.393181"><ele>32.4</ele><time>2024-05-18T10:41:23.000Z</time></trkpt><trkpt lat="40.015246" lon="116.392856"><ele>32.4</ele><time>2024-05-18T10:41:36.000Z</time></trkpt><trkpt lat="40.015458" lon="116.392661"><ele>32.7</ele><time>2024-05-18T10:41:46.000Z</time></trkpt><trkpt lat="40.015775" lon="116.392515"><ele>33.0</ele><time>2024-05-18T10:41:59.000Z</time></trkpt><trkpt lat="40.015943" lon="116.392505"><ele>33.4</ele><time>2024-05-18T10:42:05.000Z</time></trkpt><trkpt lat="40.016227" lon="116.392603"><ele>33.5</ele><time>2024-05-18T10:42:15.000Z</time></trkpt><trkpt lat="40.016455" lon="116.392785"><ele>32.7</ele><time>2024-05-18T10:42:24.000Z</time></trkpt><trkpt lat="40.017003" lon="116.393698"><ele>32.0</ele><time>2024-05-18T10:43:02.000Z</time></trkpt><trkpt lat="40.017157" lon="116.393874"><ele>32.0</ele><time>2024-05-18T10:43:10.000Z</time></trkpt><trkpt lat="40.017292" lon="116.393954"><ele>32.0</ele><time>2024-05-18T10:43:16.000Z</time></trkpt><trkpt lat="40.017539" lon="116.393999"><ele>32.0</ele><time>2024-05-18T10:43:25.000Z</time></trkpt><trkpt lat="40.017833" lon="116.393956"><ele>32.1</ele><time>2024-05-18T10:43:36.000Z</time></trkpt><trkpt lat="40.018181" lon="116.393771"><ele>32.0</ele><time>2024-05-18T10:43:50.000Z</time></trkpt><trkpt lat="40.018416" lon="116.393603"><ele>31.9</ele><time>2024-05-18T10:44:00.000Z</time></trkpt><trkpt lat="40.018743" lon="116.393273"><ele>33.1</ele><time>2024-05-18T10:44:16.000Z</time></trkpt><trkpt lat="40.019118" lon="116.393227"><ele>34.1</ele><time>2024-05-18T10:44:30.000Z</time></trkpt><trkpt lat="40.019246" lon="116.393175"><ele>34.4</ele><time>2024-05-18T10:44:35.000Z</time></trkpt><trkpt lat="40.019304" lon="116.393091"><ele>34.5</ele><time>2024-05-18T10:44:38.000Z</time></trkpt><trkpt lat="40.019477" lon="116.392623"><ele>33.9</ele><time>2024-05-18T10:44:52.000Z</time></trkpt><trkpt lat="40.020022" lon="116.390903"><ele>31.8</ele><time>2024-05-18T10:45:47.000Z</time></trkpt><trkpt lat="40.020302" lon="116.390161"><ele>32.2</ele><time>2024-05-18T10:46:12.000Z</time></trkpt><trkpt lat="40.020379" lon="116.389844"><ele>32.6</ele><time>2024-05-18T10:46:22.000Z</time></trkpt><trkpt lat="40.020326" lon="116.389086"><ele>33.4</ele><time>2024-05-18T10:46:44.000Z</time></trkpt><trkpt lat="40.020363" lon="116.388534"><ele>32.1</ele><time>2024-05-18T10:46:59.000Z</time></trkpt><trkpt lat="40.020331" lon="116.387874"><ele>31.5</ele><time>2024-05-18T10:47:19.000Z</time></trkpt><trkpt lat="40.0203" lon="116.387621"><ele>31.8</ele><time>2024-05-18T10:47:27.000Z</time></trkpt><trkpt lat="40.020184" lon="116.387173"><ele>32.2</ele><time>2024-05-18T10:47:41.000Z</time></trkpt><trkpt lat="40.020097" lon="116.386416"><ele>32.8</ele><time>2024-05-18T10:48:04.000Z</time></trkpt><trkpt lat="40.020142" lon="116.386343"><ele>32.9</ele><time>2024-05-18T10:48:07.000Z</time></trkpt><trkpt lat="40.020337" lon="116.386192"><ele>33.3</ele><time>2024-05-18T10:48:16.000Z</time></trkpt><trkpt lat="40.020722" lon="116.385754"><ele>36.5</ele><time>2024-05-18T10:48:37.000Z</time></trkpt><trkpt lat="40.020881" lon="116.385697"><ele>37.5</ele><time>2024-05-18T10:48:44.000Z</time></trkpt><trkpt lat="40.021338" lon="116.385656"><ele>40.4</ele><time>2024-05-18T10:49:02.000Z</time></trkpt><trkpt lat="40.021849" lon="116.38584"><ele>40.8</ele><time>2024-05-18T10:49:22.000Z</time></trkpt><trkpt lat="40.022394" lon="116.385825"><ele>36.9</ele><time>2024-05-18T10:49:42.000Z</time></trkpt><trkpt lat="40.022467" lon="116.385873"><ele>36.9</ele><time>2024-05-18T10:49:45.000Z</time></trkpt><trkpt lat="40.022621" lon="116.386097"><ele>34.3</ele><time>2024-05-18T10:49:53.000Z</time></trkpt><trkpt lat="40.022703" lon="116.386137"><ele>33.3</ele><time>2024-05-18T10:49:56.000Z</time></trkpt><trkpt lat="40.024025" lon="116.386009"><ele>32.1</ele><time>2024-05-18T10:50:44.000Z</time></trkpt><trkpt lat="40.02419" lon="116.386031"><ele>32.0</ele><time>2024-05-18T10:50:50.000Z</time></trkpt><trkpt lat="40.024287" lon="116.386112"><ele>31.9</ele><time>2024-05-18T10:50:54.000Z</time></trkpt><trkpt lat="40.024342" lon="116.386241"><ele>31.8</ele><time>2024-05-18T10:50:58.000Z</time></trkpt><trkpt lat="40.024468" lon="116.387927"><ele>30.6</ele><time>2024-05-18T10:51:48.000Z</time></trkpt><trkpt lat="40.024854" lon="116.390831"><ele>30.2</ele><time>2024-05-18T10:53:14.000Z</time></trkpt><trkpt lat="40.025165" lon="116.393543"><ele>29.7</ele><time>2024-05-18T10:54:33.000Z</time></trkpt><trkpt lat="40.025307" lon="116.39453"><ele>29.6</ele><time>2024-05-18T10:55:02.000Z</time></trkpt><trkpt lat="40.025372" lon="116.394771"><ele>29.6</ele><time>2024-05-18T10:55:10.000Z</time></trkpt><trkpt lat="40.025466" lon="116.394885"><ele>29.6</ele><time>2024-05-18T10:55:15.000Z</time></trkpt><trkpt lat="40.025625" lon="116.394915"><ele>29.5</ele><time>2024-05-18T10:55:21.000Z</time></trkpt><trkpt lat="40.02628" lon="116.394705"><ele>29.4</ele><time>2024-05-18T10:55:45.000Z</time></trkpt><trkpt lat="40.026379" lon="116.394692"><ele>29.4</ele><time>2024-05-18T10:55:49.000Z</time></trkpt><trkpt lat="40.026444" lon="116.394728"><ele>29.4</ele><time>2024-05-18T10:55:58.000Z</time></trkpt><trkpt lat="40.027058" lon="116.394329"><ele>29.4</ele><time>2024-05-18T10:56:24.000Z</time></trkpt><trkpt lat="40.027379" lon="116.394033"><ele>29.5</ele><time>2024-05-18T10:56:36.000Z</time></trkpt><trkpt lat="40.027603" lon="116.393786"><ele>29.4</ele><time>2024-05-18T10:56:45.000Z</time></trkpt><trkpt lat="40.027726" lon="116.393599"><ele>29.4</ele><time>2024-05-18T10:56:51.000Z</time></trkpt><trkpt lat="40.027794" lon="116.393401"><ele>29.5</ele><time>2024-05-18T10:56:56.000Z</time></trkpt><trkpt lat="40.027822" lon="116.393109"><ele>29.5</ele><time>2024-05-18T10:57:03.000Z</time></trkpt><trkpt lat="40.027568" lon="116.39177"><ele>29.5</ele><time>2024-05-18T10:57:40.000Z</time></trkpt><trkpt lat="40.027423" lon="116.391401"><ele>29.6</ele><time>2024-05-18T10:57:52.000Z</time></trkpt><trkpt lat="40.027307" lon="116.390994"><ele>29.6</ele><time>2024-05-18T10:58:05.000Z</time></trkpt><trkpt lat="40.027309" lon="116.390866"><ele>29.5</ele><time>2024-05-18T10:58:09.000Z</time></trkpt><trkpt lat="40.027432" lon="116.390217"><ele>29.9</ele><time>2024-05-18T10:58:30.000Z</time></trkpt><trkpt lat="40.027713" lon="116.38918"><ele>30.6</ele><time>2024-05-18T10:59:03.000Z</time></trkpt><trkpt lat="40.027899" lon="116.388742"><ele>30.6</ele><time>2024-05-18T10:59:17.000Z</time></trkpt><trkpt lat="40.028263" lon="116.388128"><ele>30.4</ele><time>2024-05-18T10:59:39.000Z</time></trkpt><trkpt lat="40.028528" lon="116.387745"><ele>30.2</ele><time>2024-05-18T10:59:54.000Z</time></trkpt><trkpt lat="40.028781" lon="116.387209"><ele>30.4</ele><time>2024-05-18T11:00:12.000Z</time></trkpt><trkpt lat="40.029054" lon="116.386945"><ele>30.7</ele><time>2024-05-18T11:00:25.000Z</time></trkpt><trkpt lat="40.029193" lon="116.386688"><ele>30.8</ele><time>2024-05-18T11:00:34.000Z</time></trkpt><trkpt lat="40.029516" lon="116.385525"><ele>31.6</ele><time>2024-05-18T11:01:09.000Z</time></trkpt><trkpt lat="40.029565" lon="116.384708"><ele>30.8</ele><time>2024-05-18T11:01:33.000Z</time></trkpt><trkpt lat="40.029489" lon="116.383994"><ele>30.6</ele><time>2024-05-18T11:01:54.000Z</time></trkpt><trkpt lat="40.029446" lon="116.383068"><ele>30.9</ele><time>2024-05-18T11:02:23.000Z</time></trkpt><trkpt lat="40.029341" lon="116.381873"><ele>30.8</ele><time>2024-05-18T11:02:59.000Z</time></trkpt><trkpt lat="40.029367" lon="116.380621"><ele>30.9</ele><time>2024-05-18T11:03:36.000Z</time></trkpt><trkpt lat="40.029306" lon="116.379897"><ele>31.1</ele><time>2024-05-18T11:03:58.000Z</time></trkpt><trkpt lat="40.029281" lon="116.378011"><ele>31.6</ele><time>2024-05-18T11:04:54.000Z</time></trkpt><trkpt lat="40.029258" lon="116.377828"><ele>31.6</ele><time>2024-05-18T11:05:00.000Z</time></trkpt><trkpt lat="40.029072" lon="116.377176"><ele>31.8</ele><time>2024-05-18T11:05:20.000Z</time></trkpt><trkpt lat="40.028967" lon="116.376578"><ele>32.5</ele><time>2024-05-18T11:05:37.000Z</time></trkpt><trkpt lat="40.028947" lon="116.376225"><ele>32.3</ele><time>2024-05-18T11:05:47.000Z</time></trkpt><trkpt lat="40.028981" lon="116.375263"><ele>31.7</ele><time>2024-05-18T11:06:15.000Z</time></trkpt><trkpt lat="40.028962" lon="116.37438"><ele>31.6</ele><time>2024-05-18T11:06:41.000Z</time></trkpt><trkpt lat="40.028884" lon="116.373653"><ele>31.8</ele><time>2024-05-18T11:07:04.000Z</time></trkpt><trkpt lat="40.028678" lon="116.372581"><ele>33.1</ele><time>2024-05-18T11:07:38.000Z</time></trkpt><trkpt lat="40.028596" lon="116.37235"><ele>33.3</ele><time>2024-05-18T11:07:45.000Z</time></trkpt><trkpt lat="40.028385" lon="116.371985"><ele>34.0</ele><time>2024-05-18T11:07:58.000Z</time></trkpt><trkpt lat="40.028026" lon="116.371468"><ele>34.9</ele><time>2024-05-18T11:08:17.000Z</time></trkpt><trkpt lat="40.02782" lon="116.371269"><ele>34.8</ele><time>2024-05-18T11:08:26.000Z</time></trkpt><trkpt lat="40.027455" lon="116.37098"><ele>33.6</ele><time>2024-05-18T11:08:43.000Z</time></trkpt><trkpt lat="40.027208" lon="116.370854"><ele>33.1</ele><time>2024-05-18T11:08:53.000Z</time></trkpt><trkpt lat="40.026502" lon="116.370705"><ele>32.6</ele><time>2024-05-18T11:09:21.000Z</time></trkpt><trkpt lat="40.02641" lon="116.370741"><ele>32.6</ele><time>2024-05-18T11:09:25.000Z</time></trkpt><trkpt lat="40.026091" lon="116.37106"><ele>32.2</ele><time>2024-05-18T11:09:40.000Z</time></trkpt><trkpt lat="40.025826" lon="116.371224"><ele>31.7</ele><time>2024-05-18T11:09:51.000Z</time></trkpt><trkpt lat="40.025463" lon="116.371415"><ele>31.5</ele><time>2024-05-18T11:10:06.000Z</time></trkpt><trkpt lat="40.024953" lon="116.371568"><ele>31.9</ele><time>2024-05-18T11:10:27.000Z</time></trkpt><trkpt lat="40.024846" lon="116.371705"><ele>32.1</ele><time>2024-05-18T11:10:33.000Z</time></trkpt><trkpt lat="40.024854" lon="116.372385"><ele>32.6</ele><time>2024-05-18T11:10:52.000Z</time></trkpt><trkpt lat="40.024954" lon="116.373402"><ele>31.2</ele><time>2024-05-18T11:11:21.000Z</time></trkpt><trkpt lat="40.025085" lon="116.375287"><ele>30.6</ele><time>2024-05-18T11:12:16.000Z</time></trkpt><trkpt lat="40.025081" lon="116.376298"><ele>30.7</ele><time>2024-05-18T11:12:46.000Z</time></trkpt><trkpt lat="40.025122" lon="116.376738"><ele>31.0</ele><time>2024-05-18T11:12:59.000Z</time></trkpt><trkpt lat="40.025145" lon="116.377845"><ele>31.5</ele><time>2024-05-18T11:13:33.000Z</time></trkpt><trkpt lat="40.025093" lon="116.378961"><ele>29.6</ele><time>2024-05-18T11:14:06.000Z</time></trkpt><trkpt lat="40.025038" lon="116.379188"><ele>29.5</ele><time>2024-05-18T11:14:12.000Z</time></trkpt><trkpt lat="40.024739" lon="116.379931"><ele>29.4</ele><time>2024-05-18T11:14:38.000Z</time></trkpt><trkpt lat="40.024597" lon="116.380404"><ele>29.5</ele><time>2024-05-18T11:14:53.000Z</time></trkpt><trkpt lat="40.024458" lon="116.380497"><ele>29.6</ele><time>2024-05-18T11:14:59.000Z</time></trkpt><trkpt lat="40.024306" lon="116.38053"><ele>29.8</ele><time>2024-05-18T11:15:05.000Z</time></trkpt><trkpt lat="40.023829" lon="116.380409"><ele>29.8</ele><time>2024-05-18T11:15:24.000Z</time></trkpt><trkpt lat="40.023543" lon="116.380414"><ele>29.9</ele><time>2024-05-18T11:15:35.000Z</time></trkpt><trkpt lat="40.023395" lon="116.380459"><ele>30.1</ele><time>2024-05-18T11:15:41.000Z</time></trkpt><trkpt lat="40.02326" lon="116.380549"><ele>30.2</ele><time>2024-05-18T11:15:47.000Z</time></trkpt><trkpt lat="40.023155" lon="116.380688"><ele>30.3</ele><time>2024-05-18T11:15:53.000Z</time></trkpt><trkpt lat="40.023068" lon="116.380877"><ele>30.4</ele><time>2024-05-18T11:15:59.000Z</time></trkpt><trkpt lat="40.022848" lon="116.381788"><ele>31.0</ele><time>2024-05-18T11:16:26.000Z</time></trkpt><trkpt lat="40.022724" lon="116.381963"><ele>31.1</ele><time>2024-05-18T11:16:33.000Z</time></trkpt><trkpt lat="40.02239" lon="116.382279"><ele>31.3</ele><time>2024-05-18T11:16:49.000Z</time></trkpt><trkpt lat="40.022175" lon="116.38266"><ele>31.1</ele><time>2024-05-18T11:17:02.000Z</time></trkpt><trkpt lat="40.02209" lon="116.38309"><ele>31.0</ele><time>2024-05-18T11:17:15.000Z</time></trkpt><trkpt lat="40.022104" lon="116.383614"><ele>31.0</ele><time>2024-05-18T11:17:30.000Z</time></trkpt><trkpt lat="40.022297" lon="116.384091"><ele>31.0</ele><time>2024-05-18T11:17:47.000Z</time></trkpt><trkpt lat="40.022405" lon="116.384535"><ele>31.1</ele><time>2024-05-18T11:18:01.000Z</time></trkpt><trkpt lat="40.022328" lon="116.385213"><ele>31.5</ele><time>2024-05-18T11:18:21.000Z</time></trkpt><trkpt lat="40.02238" lon="116.385656"><ele>32.2</ele><time>2024-05-18T11:18:33.000Z</time></trkpt><trkpt lat="40.022344" lon="116.385762"><ele>32.4</ele><time>2024-05-18T11:18:37.000Z</time></trkpt><trkpt lat="40.022194" lon="116.385811"><ele>32.4</ele><time>2024-05-18T11:18:44.000Z</time></trkpt><trkpt lat="40.021956" lon="116.385818"><ele>33.0</ele><time>2024-05-18T11:18:55.000Z</time></trkpt><trkpt lat="40.021783" lon="116.38579"><ele>34.8</ele><time>2024-05-18T11:19:03.000Z</time></trkpt><trkpt lat="40.02133" lon="116.385619"><ele>38.3</ele><time>2024-05-18T11:19:24.000Z</time></trkpt><trkpt lat="40.020612" lon="116.385713"><ele>38.7</ele><time>2024-05-18T11:19:52.000Z</time></trkpt><trkpt lat="40.020284" lon="116.385506"><ele>36.7</ele><time>2024-05-18T11:20:06.000Z</time></trkpt><trkpt lat="40.019993" lon="116.385173"><ele>35.1</ele><time>2024-05-18T11:20:20.000Z</time></trkpt><trkpt lat="40.01996" lon="116.384912"><ele>32.8</ele><time>2024-05-18T11:20:28.000Z</time></trkpt><trkpt lat="40.020059" lon="116.384048"><ele>30.5</ele><time>2024-05-18T11:20:55.000Z</time></trkpt><trkpt lat="40.020205" lon="116.38346"><ele>30.2</ele><time>2024-05-18T11:21:13.000Z</time></trkpt><trkpt lat="40.02028" lon="116.383014"><ele>30.0</ele><time>2024-05-18T11:21:25.000Z</time></trkpt><trkpt lat="40.020316" lon="116.382415"><ele>29.7</ele><time>2024-05-18T11:21:42.000Z</time></trkpt><trkpt lat="40.020294" lon="116.382125"><ele>29.8</ele><time>2024-05-18T11:21:51.000Z</time></trkpt><trkpt lat="40.02007" lon="116.381228"><ele>30.9</ele><time>2024-05-18T11:22:18.000Z</time></trkpt><trkpt lat="40.019627" lon="116.38063"><ele>32.3</ele><time>2024-05-18T11:22:45.000Z</time></trkpt><trkpt lat="40.019137" lon="116.380085"><ele>36.3</ele><time>2024-05-18T11:23:11.000Z</time></trkpt><trkpt lat="40.018767" lon="116.379516"><ele>37.1</ele><time>2024-05-18T11:23:39.000Z</time></trkpt><trkpt lat="40.018646" lon="116.37927"><ele>36.6</ele><time>2024-05-18T11:23:48.000Z</time></trkpt><trkpt lat="40.018442" lon="116.378645"><ele>35.3</ele><time>2024-05-18T11:24:13.000Z</time></trkpt><trkpt lat="40.018306" lon="116.377567"><ele>35.6</ele><time>2024-05-18T11:24:52.000Z</time></trkpt><trkpt lat="40.018141" lon="116.376971"><ele>35.4</ele><time>2024-05-18T11:25:14.000Z</time></trkpt><trkpt lat="40.01784" lon="116.376358"><ele>35.2</ele><time>2024-05-18T11:25:38.000Z</time></trkpt><trkpt lat="40.017326" lon="116.375667"><ele>36.5</ele><time>2024-05-18T11:26:13.000Z</time></trkpt><trkpt lat="40.017029" lon="116.375077"><ele>37.5</ele><time>2024-05-18T11:26:39.000Z</time></trkpt><trkpt lat="40.016863" lon="116.374889"><ele>37.9</ele><time>2024-05-18T11:26:50.000Z</time></trkpt><trkpt lat="40.0165" lon="116.374683"><ele>38.8</ele><time>2024-05-18T11:27:08.000Z</time></trkpt><trkpt lat="40.015833" lon="116.374573"><ele>39.4</ele><time>2024-05-18T11:27:39.000Z</time></trkpt><trkpt lat="40.015532" lon="116.374652"><ele>39.1</ele><time>2024-05-18T11:27:52.000Z</time></trkpt><trkpt lat="40.01516" lon="116.374824"><ele>38.3</ele><time>2024-05-18T11:28:08.000Z</time></trkpt><trkpt lat="40.014849" lon="116.375114"><ele>37.6</ele><time>2024-05-18T11:28:24.000Z</time></trkpt><trkpt lat="40.014545" lon="116.375525"><ele>38.2</ele><time>2024-05-18T11:28:44.000Z</time></trkpt><trkpt lat="40.014401" lon="116.375787"><ele>38.7</ele><time>2024-05-18T11:28:54.000Z</time></trkpt><trkpt lat="40.01395" lon="116.376848"><ele>40.9</ele><time>2024-05-18T11:29:37.000Z</time></trkpt><trkpt lat="40.013799" lon="116.377086"><ele>41.3</ele><time>2024-05-18T11:29:49.000Z</time></trkpt><trkpt lat="40.013515" lon="116.377422"><ele>41.2</ele><time>2024-05-18T11:30:07.000Z</time></trkpt><trkpt lat="40.01336" lon="116.377684"><ele>41.0</ele><time>2024-05-18T11:30:18.000Z</time></trkpt><trkpt lat="40.013251" lon="116.378022"><ele>40.8</ele><time>2024-05-18T11:30:31.000Z</time></trkpt><trkpt lat="40.013206" lon="116.378401"><ele>40.2</ele><time>2024-05-18T11:30:42.000Z</time></trkpt><trkpt lat="40.013148" lon="116.378636"><ele>39.7</ele><time>2024-05-18T11:30:49.000Z</time></trkpt><trkpt lat="40.012928" lon="116.379283"><ele>37.4</ele><time>2024-05-18T11:31:10.000Z</time></trkpt><trkpt lat="40.012723" lon="116.379694"><ele>35.9</ele><time>2024-05-18T11:31:28.000Z</time></trkpt><trkpt lat="40.012407" lon="116.379978"><ele>34.7</ele><time>2024-05-18T11:31:43.000Z</time></trkpt><trkpt lat="40.012036" lon="116.380245"><ele>33.4</ele><time>2024-05-18T11:31:59.000Z</time></trkpt><trkpt lat="40.011358" lon="116.38057"><ele>32.8</ele><time>2024-05-18T11:32:31.000Z</time></trkpt><trkpt lat="40.011215" lon="116.380732"><ele>33.7</ele><time>2024-05-18T11:32:41.000Z</time></trkpt><trkpt lat="40.011109" lon="116.380919"><ele>34.5</ele><time>2024-05-18T11:32:51.000Z</time></trkpt><trkpt lat="40.010643" lon="116.381446"><ele>35.5</ele><time>2024-05-18T11:33:22.000Z</time></trkpt><trkpt lat="40.010579" lon="116.381879"><ele>35.5</ele><time>2024-05-18T11:33:39.000Z</time></trkpt><trkpt lat="40.01059" lon="116.382435"><ele>34.5</ele><time>2024-05-18T11:33:58.000Z</time></trkpt><trkpt lat="40.010613" lon="116.382777"><ele>34.0</ele><time>2024-05-18T11:34:10.000Z</time></trkpt><trkpt lat="40.010755" lon="116.383623"><ele>33.5</ele><time>2024-05-18T11:34:40.000Z</time></trkpt><trkpt lat="40.010645" lon="116.384502"><ele>34.1</ele><time>2024-05-18T11:35:14.000Z</time></trkpt><trkpt lat="40.01044" lon="116.385055"><ele>35.6</ele><time>2024-05-18T11:35:38.000Z</time></trkpt><trkpt lat="40.010325" lon="116.385278"><ele>35.8</ele><time>2024-05-18T11:35:48.000Z</time></trkpt><trkpt lat="40.010247" lon="116.38566"><ele>35.9</ele><time>2024-05-18T11:36:02.000Z</time></trkpt><trkpt lat="40.010232" lon="116.385859"><ele>35.9</ele><time>2024-05-18T11:36:09.000Z</time></trkpt><trkpt lat="40.01029" lon="116.386185"><ele>35.9</ele><time>2024-05-18T11:36:20.000Z</time></trkpt><trkpt lat="40.010298" lon="116.386477"><ele>35.8</ele><time>2024-05-18T11:36:31.000Z</time></trkpt></trkseg></trk></gpx>