<?xml version="1.0" encoding="UTF-8"?><gpx creator="Health" xsi:schemaLocation="http://www.topografix.com/GPX/1/0 http://www.topografix.com/GPX/1/0/gpx.xsd" version="1.0" xmlns="http://www.topografix.com/GPX/1/0" xmlns:xsi="http://www.w3.org/2001/XMLSchema-instance"><metadata><time>2024-05-11T23:33:07.000Z</time></metadata><trk><type>户外跑步</type><extensions><totalTime>19643.0</totalTime><cumulativeDecrease>128.8000030517578</cumulativeDecrease><cumulativeClimb>144.89999389648438</cumulativeClimb><totalDistance>42600.0</totalDistance></extensions><trkseg><trkpt lat="39.905792" lon="119.548768"><ele>8.0</ele><time>2024-05-11T23:33:07.000Z</time></trkpt><trkpt lat="39.906698" lon="119.550141"><ele>8.1</ele><time>2024-05-11T23:34:01.000Z</time></trkpt><trkpt lat="39.907329" lon="119.551179"><ele>7.9</ele><time>2024-05-11T23:34:36.000Z</time></trkpt><trkpt lat="39.907674" lon="119.551654"><ele>7.8</ele><time>2024-05-11T23:34:53.000Z</time></trkpt><trkpt lat="39.907863" lon="119.552002"><ele>7.6</ele><time>2024-05-11T23:35:02.000Z</time></trkpt><trkpt lat="39.908524" lon="119.552883"><ele>7.4</ele><time>2024-05-11T23:35:30.000Z</time></trkpt><trkpt lat="39.909207" lon="119.553618"><ele>7.3</ele><time>2024-05-11T23:35:58.000Z</time></trkpt><trkpt lat="39.909844" lon="119.554433"><ele>7.8</ele><time>2024-05-11T23:36:27.000Z</time></trkpt><trkpt lat="39.912513" lon="119.557382"><ele>7.6</ele><time>2024-05-11T23:38:26.000Z</time></trkpt><trkpt lat="39.913553" lon="119.558607"><ele>7.1</ele><time>2024-05-11T23:39:15.000Z</time></trkpt><trkpt lat="39.914153" lon="119.559246"><ele>7.1</ele><time>2024-05-11T23:39:43.000Z</time></trkpt><trkpt lat="39.915048" lon="119.560048"><ele>7.3</ele><time>2024-05-11T23:40:25.000Z</time></trkpt><trkpt lat="39.915162" lon="119.560088"><ele>7.2</ele><time>2024-05-11T23:40:30.000Z</time></trkpt><trkpt lat="39.915279" lon="119.560033"><ele>7.2</ele><time>2024-05-11T23:40:35.000Z</time></trkpt><trkpt lat="39.915562" lon="119.559702"><ele>7.1</ele><time>2024-05-11T23:40:49.000Z</time></trkpt><trkpt lat="39.91585" lon="119.559435"><ele>6.7</ele><time>2024-05-11T23:41:02.000Z</time></trkpt><trkpt lat="39.916025" lon="119.559196"><ele>6.7</ele><time>2024-05-11T23:41:12.000Z</time></trkpt><trkpt lat="39.916245" lon="119.55902"><ele>6.9</ele><time>2024-05-11T23:41:22.000Z</time></trkpt><trkpt lat="39.916521" lon="119.558659"><ele>7.7</ele><time>2024-05-11T23:41:37.000Z</time></trkpt><trkpt lat="39.916588" lon="119.558434"><ele>8.0</ele><time>2024-05-11T23:41:43.000Z</time></trkpt><trkpt lat="39.91659" lon="119.558256"><ele>8.3</ele><time>2024-05-11T23:41:48.000Z</time></trkpt><trkpt lat="39.915898" lon="119.5571"><ele>10.3</ele><time>2024-05-11T23:42:26.000Z</time></trkpt><trkpt lat="39.915439" lon="119.556416"><ele>11.7</ele><time>2024-05-11T23:42:53.000Z</time></trkpt><trkpt lat="39.915129" lon="119.555885"><ele>12.8</ele><time>2024-05-11T23:43:13.000Z</time></trkpt><trkpt lat="39.915039" lon="119.555671"><ele>13.4</ele><time>2024-05-11T23:43:20.000Z</time></trkpt><trkpt lat="39.914733" lon="119.555172"><ele>14.1</ele><time>2024-05-11T23:43:38.000Z</time></trkpt><trkpt lat="39.914351" lon="119.554651"><ele>15.2</ele><time>2024-05-11T23:43:58.000Z</time></trkpt><trkpt lat="39.913482" lon="119.553099"><ele>17.7</ele><time>2024-05-11T23:44:55.000Z</time></trkpt><trkpt lat="39.912766" lon="119.551916"><ele>18.9</ele><time>2024-05-11T23:45:40.000Z</time></trkpt><trkpt lat="39.912138" lon="119.550799"><ele>19.9</ele><time>2024-05-11T23:46:19.000Z</time></trkpt><trkpt lat="39.911877" lon="119.550261"><ele>20.5</ele><time>2024-05-11T23:46:35.000Z</time></trkpt><trkpt lat="39.909732" lon="119.546819"><ele>18.2</ele><time>2024-05-11T23:48:34.000Z</time></trkpt><trkpt lat="39.907891" lon="119.543692"><ele>14.0</ele><time>2024-05-11T23:50:16.000Z</time></trkpt><trkpt lat="39.906588" lon="119.541671"><ele>12.0</ele><time>2024-05-11T23:51:31.000Z</time></trkpt><trkpt lat="39.905916" lon="119.540825"><ele>11.4</ele><time>2024-05-11T23:52:04.000Z</time></trkpt><trkpt lat="39.905415" lon="119.54013"><ele>11.0</ele><time>2024-05-11T23:52:31.000Z</time></trkpt><trkpt lat="39.902905" lon="119.537142"><ele>9.9</ele><time>2024-05-11T23:54:38.000Z</time></trkpt><trkpt lat="39.902507" lon="119.536629"><ele>10.1</ele><time>2024-05-11T23:55:00.000Z</time></trkpt><trkpt lat="39.90142" lon="119.535082"><ele>11.7</ele><time>2024-05-11T23:56:02.000Z</time></trkpt><trkpt lat="39.900778" lon="119.534007"><ele>13.1</ele><time>2024-05-11T23:56:43.000Z</time></trkpt><trkpt lat="39.899762" lon="119.532524"><ele>16.0</ele><time>2024-05-11T23:57:45.000Z</time></trkpt><trkpt lat="39.89888" lon="119.531012"><ele>19.1</ele><time>2024-05-11T23:58:47.000Z</time></trkpt><trkpt lat="39.898722" lon="119.530871"><ele>19.5</ele><time>2024-05-11T23:58:55.000Z</time></trkpt><trkpt lat="39.898543" lon="119.530841"><ele>19.6</ele><time>2024-05-11T23:59:03.000Z</time></trkpt><trkpt lat="39.898303" lon="119.530982"><ele>19.8</ele><time>2024-05-11T23:59:14.000Z</time></trkpt><trkpt lat="39.897334" lon="119.532056"><ele>19.7</ele><time>2024-05-12T00:00:15.000Z</time></trkpt><trkpt lat="39.895888" lon="119.533527"><ele>19.7</ele><time>2024-05-12T00:01:26.000Z</time></trkpt><trkpt lat="39.895228" lon="119.534266"><ele>19.6</ele><time>2024-05-12T00:02:01.000Z</time></trkpt><trkpt lat="39.894572" lon="119.534878"><ele>19.3</ele><time>2024-05-12T00:02:32.000Z</time></trkpt><trkpt lat="39.894118" lon="119.535172"><ele>18.5</ele><time>2024-05-12T00:02:50.000Z</time></trkpt><trkpt lat="39.893797" lon="119.535263"><ele>18.0</ele><time>2024-05-12T00:03:02.000Z</time></trkpt><trkpt lat="39.893351" lon="119.535297"><ele>16.9</ele><time>2024-05-12T00:03:19.000Z</time></trkpt><trkpt lat="39.892869" lon="119.535212"><ele>15.5</ele><time>2024-05-12T00:03:37.000Z</time></trkpt><trkpt lat="39.892306" lon="119.534943"><ele>13.7</ele><time>2024-05-12T00:04:00.000Z</time></trkpt><trkpt lat="39.891855" lon="119.534618"><ele>12.7</ele><time>2024-05-12T00:04:20.000Z</time></trkpt><trkpt lat="39.890954" lon="119.533765"><ele>11.7</ele><time>2024-05-12T00:05:06.000Z</time></trkpt><trkpt lat="39.888374" lon="119.531192"><ele>11.0</ele><time>2024-05-12T00:07:22.000Z</time></trkpt><trkpt lat="39.887668" lon="119.530714"><ele>11.2</ele><time>2024-05-12T00:07:57.000Z</time></trkpt><trkpt lat="39.885252" lon="119.529548"><ele>11.7</ele><time>2024-05-12T00:09:51.000Z</time></trkpt><trkpt lat="39.88517" lon="119.529523"><ele>11.7</ele><time>2024-05-12T00:09:55.000Z</time></trkpt><trkpt lat="39.885046" lon="119.529577"><ele>11.8</ele><time>2024-05-12T00:10:01.000Z</time></trkpt><trkpt lat="39.884945" lon="119.529575"><ele>11.8</ele><time>2024-05-12T00:10:06.000Z</time></trkpt><trkpt lat="39.884458" lon="119.529399"><ele>11.9</ele><time>2024-05-12T00:10:30.000Z</time></trkpt><trkpt lat="39.883832" lon="119.529074"><ele>11.9</ele><time>2024-05-12T00:11:02.000Z</time></trkpt><trkpt lat="39.88264" lon="119.528575"><ele>12.3</ele><time>2024-05-12T00:12:00.000Z</time></trkpt><trkpt lat="39.881543" lon="119.528055"><ele>12.4</ele><time>2024-05-12T00:12:52.000Z</time></trkpt><trkpt lat="39.879525" lon="119.527169"><ele>12.7</ele><time>2024-05-12T00:14:29.000Z</time></trkpt><trkpt lat="39.878541" lon="119.526868"><ele>12.8</ele><time>2024-05-12T00:15:17.000Z</time></trkpt><trkpt lat="39.878266" lon="119.526733"><ele>12.8</ele><time>2024-05-12T00:15:31.000Z</time></trkpt><trkpt lat="39.876874" lon="119.526223"><ele>12.8</ele><time>2024-05-12T00:16:39.000Z</time></trkpt><trkpt lat="39.876529" lon="119.526003"><ele>12.8</ele><time>2024-05-12T00:16:56.000Z</time></trkpt><trkpt lat="39.87613" lon="119.525829"><ele>12.8</ele><time>2024-05-12T00:17:20.000Z</time></trkpt><trkpt lat="39.874827" lon="119.525469"><ele>12.5</ele><time>2024-05-12T00:18:26.000Z</time></trkpt><trkpt lat="39.872819" lon="119.524723"><ele>12.3</ele><time>2024-05-12T00:20:04.000Z</time></trkpt><trkpt lat="39.872566" lon="119.524581"><ele>12.3</ele><time>2024-05-12T00:20:16.000Z</time></trkpt><trkpt lat="39.871598" lon="119.52421"><ele>12.3</ele><time>2024-05-12T00:20:57.000Z</time></trkpt><trkpt lat="39.86984" lon="119.523646"><ele>12.2</ele><time>2024-05-12T00:22:12.000Z</time></trkpt><trkpt lat="39.867444" lon="119.523001"><ele>12.0</ele><time>2024-05-12T00:23:54.000Z</time></trkpt><trkpt lat="39.86674" lon="119.522777"><ele>12.0</ele><time>2024-05-12T00:24:23.000Z</time></trkpt><trkpt lat="39.862938" lon="119.521808"><ele>12.3</ele><time>2024-05-12T00:27:04.000Z</time></trkpt><trkpt lat="39.861662" lon="119.521433"><ele>12.3</ele><time>2024-05-12T00:27:59.000Z</time></trkpt><trkpt lat="39.860728" lon="119.521216"><ele>12.4</ele><time>2024-05-12T00:28:37.000Z</time></trkpt><trkpt lat="39.856857" lon="119.52018"><ele>11.9</ele><time>2024-05-12T00:31:23.000Z</time></trkpt><trkpt lat="39.855937" lon="119.519873"><ele>12.0</ele><time>2024-05-12T00:32:03.000Z</time></trkpt><trkpt lat="39.851059" lon="119.517967"><ele>11.8</ele><time>2024-05-12T00:35:31.000Z</time></trkpt><trkpt lat="39.849386" lon="119.517234"><ele>11.8</ele><time>2024-05-12T00:36:45.000Z</time></trkpt><trkpt lat="39.846434" lon="119.516064"><ele>11.9</ele><time>2024-05-12T00:38:51.000Z</time></trkpt><trkpt lat="39.845661" lon="119.515711"><ele>11.9</ele><time>2024-05-12T00:39:25.000Z</time></trkpt><trkpt lat="39.845146" lon="119.515538"><ele>11.8</ele><time>2024-05-12T00:39:47.000Z</time></trkpt><trkpt lat="39.842905" lon="119.514634"><ele>12.7</ele><time>2024-05-12T00:41:27.000Z</time></trkpt><trkpt lat="39.840933" lon="119.513751"><ele>13.3</ele><time>2024-05-12T00:42:54.000Z</time></trkpt><trkpt lat="39.838923" lon="119.512943"><ele>13.5</ele><time>2024-05-12T00:44:19.000Z</time></trkpt><trkpt lat="39.836822" lon="119.512214"><ele>11.7</ele><time>2024-05-12T00:45:49.000Z</time></trkpt><trkpt lat="39.835839" lon="119.51176"><ele>11.7</ele><time>2024-05-12T00:46:32.000Z</time></trkpt><trkpt lat="39.835464" lon="119.511543"><ele>11.7</ele><time>2024-05-12T00:46:50.000Z</time></trkpt><trkpt lat="39.834905" lon="119.511405"><ele>11.7</ele><time>2024-05-12T00:47:14.000Z</time></trkpt><trkpt lat="39.834514" lon="119.511254"><ele>11.7</ele><time>2024-05-12T00:47:32.000Z</time></trkpt><trkpt lat="39.834404" lon="119.51126"><ele>11.8</ele><time>2024-05-12T00:47:37.000Z</time></trkpt><trkpt lat="39.834289" lon="119.511339"><ele>11.7</ele><time>2024-05-12T00:47:43.000Z</time></trkpt><trkpt lat="39.834231" lon="119.51144"><ele>11.7</ele><time>2024-05-12T00:47:47.000Z</time></trkpt><trkpt lat="39.834204" lon="119.511623"><ele>11.6</ele><time>2024-05-12T00:47:53.000Z</time></trkpt><trkpt lat="39.834223" lon="119.51493"><ele>11.6</ele><time>2024-05-12T00:49:42.000Z</time></trkpt><trkpt lat="39.834195" lon="119.515894"><ele>11.7</ele><time>2024-05-12T00:50:13.000Z</time></trkpt><trkpt lat="39.83422" lon="119.517519"><ele>12.1</ele><time>2024-05-12T00:51:05.000Z</time></trkpt><trkpt lat="39.834204" lon="119.520028"><ele>12.5</ele><time>2024-05-12T00:52:29.000Z</time></trkpt><trkpt lat="39.834237" lon="119.522476"><ele>20.5</ele><time>2024-05-12T00:53:50.000Z</time></trkpt><trkpt lat="39.834202" lon="119.522922"><ele>22.0</ele><time>2024-05-12T00:54:05.000Z</time></trkpt><trkpt lat="39.834132" lon="119.523039"><ele>22.3</ele><time>2024-05-12T00:54:10.000Z</time></trkpt><trkpt lat="39.833949" lon="119.523172"><ele>22.5</ele><time>2024-05-12T00:54:18.000Z</time></trkpt><trkpt lat="39.833047" lon="119.523558"><ele>19.4</ele><time>2024-05-12T00:54:52.000Z</time></trkpt><trkpt lat="39.832097" lon="119.524055"><ele>15.3</ele><time>2024-05-12T00:55:31.000Z</time></trkpt><trkpt lat="39.830923" lon="119.524795"><ele>15.0</ele><time>2024-05-12T00:56:25.000Z</time></trkpt><trkpt lat="39.83059" lon="119.525102"><ele>15.2</ele><time>2024-05-12T00:56:42.000Z</time></trkpt><trkpt lat="39.830442" lon="119.525313"><ele>15.2</ele><time>2024-05-12T00:56:51.000Z</time></trkpt><trkpt lat="39.830154" lon="119.525895"><ele>14.9</ele><time>2024-05-12T00:57:13.000Z</time></trkpt><trkpt lat="39.830099" lon="119.526214"><ele>14.9</ele><time>2024-05-12T00:57:24.000Z</time></trkpt><trkpt lat="39.830076" lon="119.526909"><ele>15.8</ele><time>2024-05-12T00:57:48.000Z</time></trkpt><trkpt lat="39.830098" lon="119.527251"><ele>17.2</ele><time>2024-05-12T00:58:00.000Z</time></trkpt><trkpt lat="39.830072" lon="119.527475"><ele>17.8</ele><time>2024-05-12T00:58:07.000Z</time></trkpt><trkpt lat="39.829982" lon="119.527786"><ele>19.1</ele><time>2024-05-12T00:58:19.000Z</time></trkpt><trkpt lat="39.829803" lon="119.528014"><ele>20.5</ele><time>2024-05-12T00:58:29.000Z</time></trkpt><trkpt lat="39.829615" lon="119.528123"><ele>22.1</ele><time>2024-05-12T00:58:37.000Z</time></trkpt><trkpt lat="39.829253" lon="119.528169"><ele>24.6</ele><time>2024-05-12T00:58:52.000Z</time></trkpt><trkpt lat="39.828619" lon="119.52811"><ele>28.6</ele><time>2024-05-12T00:59:23.000Z</time></trkpt><trkpt lat="39.827383" lon="119.528104"><ele>32.4</ele><time>2024-05-12T01:00:26.000Z</time></trkpt><trkpt lat="39.826455" lon="119.528488"><ele>29.4</ele><time>2024-05-12T01:01:04.000Z</time></trkpt><trkpt lat="39.826227" lon="119.528527"><ele>26.9</ele><time>2024-05-12T01:01:10.000Z</time></trkpt><trkpt lat="39.825871" lon="119.528433"><ele>23.9</ele><time>2024-05-12T01:01:20.000Z</time></trkpt><trkpt lat="39.824802" lon="119.527947"><ele>16.6</ele><time>2024-05-12T01:02:01.000Z</time></trkpt><trkpt lat="39.823737" lon="119.527536"><ele>16.1</ele><time>2024-05-12T01:02:43.000Z</time></trkpt><trkpt lat="39.823362" lon="119.527477"><ele>15.8</ele><time>2024-05-12T01:02:59.000Z</time></trkpt><trkpt lat="39.823006" lon="119.527478"><ele>15.2</ele><time>2024-05-12T01:03:13.000Z</time></trkpt><trkpt lat="39.822327" lon="119.527573"><ele>14.0</ele><time>2024-05-12T01:03:40.000Z</time></trkpt><trkpt lat="39.821378" lon="119.527848"><ele>13.6</ele><time>2024-05-12T01:04:17.000Z</time></trkpt><trkpt lat="39.821132" lon="119.527958"><ele>13.5</ele><time>2024-05-12T01:04:30.000Z</time></trkpt><trkpt lat="39.820893" lon="119.528007"><ele>13.5</ele><time>2024-05-12T01:04:45.000Z</time></trkpt><trkpt lat="39.82048" lon="119.528158"><ele>13.4</ele><time>2024-05-12T01:05:09.000Z</time></trkpt><trkpt lat="39.81899" lon="119.528295"><ele>16.8</ele><time>2024-05-12T01:06:09.000Z</time></trkpt><trkpt lat="39.818729" lon="119.528226"><ele>17.6</ele><time>2024-05-12T01:06:19.000Z</time></trkpt><trkpt lat="39.81792" lon="119.527824"><ele>20.5</ele><time>2024-05-12T01:06:54.000Z</time></trkpt><trkpt lat="39.817606" lon="119.527709"><ele>21.5</ele><time>2024-05-12T01:07:08.000Z</time></trkpt><trkpt lat="39.816455" lon="119.527509"><ele>20.4</ele><time>2024-05-12T01:07:56.000Z</time></trkpt><trkpt lat="39.815565" lon="119.527246"><ele>19.2</ele><time>2024-05-12T01:08:32.000Z</time></trkpt><trkpt lat="39.815497" lon="119.52717"><ele>19.2</ele><time>2024-05-12T01:08:36.000Z</time></trkpt><trkpt lat="39.81546" lon="119.526977"><ele>19.3</ele><time>2024-05-12T01:08:43.000Z</time></trkpt><trkpt lat="39.815227" lon="119.52416"><ele>23.6</ele><time>2024-05-12T01:10:16.000Z</time></trkpt><trkpt lat="39.815143" lon="119.523772"><ele>24.1</ele><time>2024-05-12T01:10:29.000Z</time></trkpt><trkpt lat="39.815033" lon="119.523502"><ele>24.4</ele><time>2024-05-12T01:10:38.000Z</time></trkpt><trkpt lat="39.814461" lon="119.522896"><ele>21.5</ele><time>2024-05-12T01:11:06.000Z</time></trkpt><trkpt lat="39.814388" lon="119.522745"><ele>20.7</ele><time>2024-05-12T01:11:11.000Z</time></trkpt><trkpt lat="39.814353" lon="119.522558"><ele>20.0</ele><time>2024-05-12T01:11:16.000Z</time></trkpt><trkpt lat="39.814379" lon="119.522285"><ele>19.3</ele><time>2024-05-12T01:11:24.000Z</time></trkpt><trkpt lat="39.814509" lon="119.52177"><ele>17.0</ele><time>2024-05-12T01:11:40.000Z</time></trkpt><trkpt lat="39.815033" lon="119.519053"><ele>15.5</ele><time>2024-05-12T01:13:08.000Z</time></trkpt><trkpt lat="39.815083" lon="119.518703"><ele>15.4</ele><time>2024-05-12T01:13:19.000Z</time></trkpt><trkpt lat="39.815073" lon="119.518373"><ele>15.4</ele><time>2024-05-12T01:13:30.000Z</time></trkpt><trkpt lat="39.815189" lon="119.517869"><ele>15.4</ele><time>2024-05-12T01:13:47.000Z</time></trkpt><trkpt lat="39.81524" lon="119.516006"><ele>14.8</ele><time>2024-05-12T01:14:46.000Z</time></trkpt><trkpt lat="39.815307" lon="119.514813"><ele>15.0</ele><time>2024-05-12T01:15:22.000Z</time></trkpt><trkpt lat="39.815313" lon="119.513832"><ele>15.1</ele><time>2024-05-12T01:15:54.000Z</time></trkpt><trkpt lat="39.815175" lon="119.5124"><ele>16.1</ele><time>2024-05-12T01:16:40.000Z</time></trkpt><trkpt lat="39.815307" lon="119.51172"><ele>16.6</ele><time>2024-05-12T01:17:02.000Z</time></trkpt><trkpt lat="39.815313" lon="119.511303"><ele>16.3</ele><time>2024-05-12T01:17:14.000Z</time></trkpt><trkpt lat="39.815088" lon="119.509688"><ele>14.9</ele><time>2024-05-12T01:18:17.000Z</time></trkpt><trkpt lat="39.814986" lon="119.509198"><ele>15.0</ele><time>2024-05-12T01:18:38.000Z</time></trkpt><trkpt lat="39.814915" lon="119.508393"><ele>14.9</ele><time>2024-05-12T01:19:03.000Z</time></trkpt><trkpt lat="39.815015" lon="119.508083"><ele>15.1</ele><time>2024-05-12T01:19:13.000Z</time></trkpt><trkpt lat="39.81564" lon="119.507322"><ele>15.1</ele><time>2024-05-12T01:19:47.000Z</time></trkpt><trkpt lat="39.815788" lon="119.507026"><ele>15.0</ele><time>2024-05-12T01:19:58.000Z</time></trkpt><trkpt lat="39.815878" lon="119.506558"><ele>15.2</ele><time>2024-05-12T01:20:13.000Z</time></trkpt><trkpt lat="39.815912" lon="119.506185"><ele>15.3</ele><time>2024-05-12T01:20:24.000Z</time></trkpt><trkpt lat="39.815976" lon="119.50595"><ele>15.4</ele><time>2024-05-12T01:20:32.000Z</time></trkpt><trkpt lat="39.81653" lon="119.504642"><ele>15.7</ele><time>2024-05-12T01:21:20.000Z</time></trkpt><trkpt lat="39.816721" lon="119.503524"><ele>15.5</ele><time>2024-05-12T01:21:57.000Z</time></trkpt><trkpt lat="39.816381" lon="119.500152"><ele>15.3</ele><time>2024-05-12T01:23:46.000Z</time></trkpt><trkpt lat="39.816272" lon="119.499271"><ele>15.2</ele><time>2024-05-12T01:24:14.000Z</time></trkpt><trkpt lat="39.816141" lon="119.49862"><ele>15.0</ele><time>2024-05-12T01:24:35.000Z</time></trkpt><trkpt lat="39.815211" lon="119.495867"><ele>14.6</ele><time>2024-05-12T01:26:12.000Z</time></trkpt><trkpt lat="39.814245" lon="119.492195"><ele>15.3</ele><time>2024-05-12T01:28:14.000Z</time></trkpt><trkpt lat="39.81354" lon="119.490672"><ele>15.4</ele><time>2024-05-12T01:29:11.000Z</time></trkpt><trkpt lat="39.813144" lon="119.489359"><ele>15.4</ele><time>2024-05-12T01:29:57.000Z</time></trkpt><trkpt lat="39.812547" lon="119.48813"><ele>15.5</ele><time>2024-05-12T01:30:44.000Z</time></trkpt><trkpt lat="39.812431" lon="119.48775"><ele>15.6</ele><time>2024-05-12T01:30:58.000Z</time></trkpt><trkpt lat="39.812416" lon="119.487251"><ele>16.0</ele><time>2024-05-12T01:31:16.000Z</time></trkpt><trkpt lat="39.812566" lon="119.486828"><ele>16.0</ele><time>2024-05-12T01:31:31.000Z</time></trkpt><trkpt lat="39.812896" lon="119.486231"><ele>15.6</ele><time>2024-05-12T01:31:54.000Z</time></trkpt><trkpt lat="39.812962" lon="119.485988"><ele>15.3</ele><time>2024-05-12T01:32:01.000Z</time></trkpt><trkpt lat="39.812994" lon="119.485681"><ele>15.1</ele><time>2024-05-12T01:32:10.000Z</time></trkpt><trkpt lat="39.812915" lon="119.485269"><ele>15.1</ele><time>2024-05-12T01:32:24.000Z</time></trkpt><trkpt lat="39.812584" lon="119.484221"><ele>15.3</ele><time>2024-05-12T01:32:59.000Z</time></trkpt><trkpt lat="39.812546" lon="119.483998"><ele>15.4</ele><time>2024-05-12T01:33:06.000Z</time></trkpt><trkpt lat="39.812615" lon="119.483583"><ele>15.6</ele><time>2024-05-12T01:33:20.000Z</time></trkpt><trkpt lat="39.812905" lon="119.482428"><ele>15.0</ele><time>2024-05-12T01:33:57.000Z</time></trkpt><trkpt lat="39.812993" lon="119.481854"><ele>14.8</ele><time>2024-05-12T01:34:16.000Z</time></trkpt><trkpt lat="39.812785" lon="119.480431"><ele>15.5</ele><time>2024-05-12T01:35:10.000Z</time></trkpt><trkpt lat="39.812793" lon="119.480116"><ele>16.2</ele><time>2024-05-12T01:35:25.000Z</time></trkpt><trkpt lat="39.812973" lon="119.479806"><ele>17.0</ele><time>2024-05-12T01:35:42.000Z</time></trkpt><trkpt lat="39.813193" lon="119.479587"><ele>17.5</ele><time>2024-05-12T01:35:55.000Z</time></trkpt><trkpt lat="39.813618" lon="119.47871"><ele>18.1</ele><time>2024-05-12T01:36:44.000Z</time></trkpt><trkpt lat="39.813741" lon="119.47858"><ele>18.2</ele><time>2024-05-12T01:36:51.000Z</time></trkpt><trkpt lat="39.815413" lon="119.477392"><ele>14.0</ele><time>2024-05-12T01:38:20.000Z</time></trkpt><trkpt lat="39.815656" lon="119.477259"><ele>14.1</ele><time>2024-05-12T01:38:32.000Z</time></trkpt><trkpt lat="39.81597" lon="119.477207"><ele>14.3</ele><time>2024-05-12T01:38:47.000Z</time></trkpt><trkpt lat="39.816164" lon="119.477319"><ele>14.4</ele><time>2024-05-12T01:38:57.000Z</time></trkpt><trkpt lat="39.816259" lon="119.477475"><ele>14.6</ele><time>2024-05-12T01:39:04.000Z</time></trkpt><trkpt lat="39.816424" lon="119.478127"><ele>15.2</ele><time>2024-05-12T01:39:31.000Z</time></trkpt><trkpt lat="39.816475" lon="119.478498"><ele>15.5</ele><time>2024-05-12T01:39:45.000Z</time></trkpt><trkpt lat="39.816539" lon="119.479683"><ele>17.6</ele><time>2024-05-12T01:40:31.000Z</time></trkpt><trkpt lat="39.816504" lon="119.480323"><ele>19.0</ele><time>2024-05-12T01:40:56.000Z</time></trkpt><trkpt lat="39.816578" lon="119.482187"><ele>24.1</ele><time>2024-05-12T01:42:08.000Z</time></trkpt><trkpt lat="39.816536" lon="119.482681"><ele>25.6</ele><time>2024-05-12T01:42:28.000Z</time></trkpt><trkpt lat="39.816453" lon="119.483202"><ele>27.6</ele><time>2024-05-12T01:42:51.000Z</time></trkpt><trkpt lat="39.816365" lon="119.484231"><ele>30.7</ele><time>2024-05-12T01:43:33.000Z</time></trkpt><trkpt lat="39.816266" lon="119.484661"><ele>32.2</ele><time>2024-05-12T01:43:53.000Z</time></trkpt><trkpt lat="39.816153" lon="119.484999"><ele>33.6</ele><time>2024-05-12T01:44:10.000Z</time></trkpt><trkpt lat="39.816041" lon="119.485638"><ele>35.5</ele><time>2024-05-12T01:44:40.000Z</time></trkpt><trkpt lat="39.816092" lon="119.486514"><ele>38.3</ele><time>2024-05-12T01:45:20.000Z</time></trkpt><trkpt lat="39.816225" lon="119.487513"><ele>39.8</ele><time>2024-05-12T01:46:04.000Z</time></trkpt><trkpt lat="39.816325" lon="119.48789"><ele>39.5</ele><time>2024-05-12T01:46:22.000Z</time></trkpt><trkpt lat="39.81672" lon="119.489911"><ele>36.0</ele><time>2024-05-12T01:47:40.000Z</time></trkpt><trkpt lat="39.816971" lon="119.491034"><ele>34.1</ele><time>2024-05-12T01:48:23.000Z</time></trkpt><trkpt lat="39.81724" lon="119.492751"><ele>29.2</ele><time>2024-05-12T01:49:21.000Z</time></trkpt><trkpt lat="39.81728" lon="119.493407"><ele>27.1</ele><time>2024-05-12T01:49:42.000Z</time></trkpt><trkpt lat="39.817428" lon="119.494385"><ele>24.3</ele><time>2024-05-12T01:50:11.000Z</time></trkpt><trkpt lat="39.817567" lon="119.496496"><ele>18.2</ele><time>2024-05-12T01:51:24.000Z</time></trkpt><trkpt lat="39.817688" lon="119.497632"><ele>16.5</ele><time>2024-05-12T01:52:05.000Z</time></trkpt><trkpt lat="39.817817" lon="119.498415"><ele>16.1</ele><time>2024-05-12T01:52:36.000Z</time></trkpt><trkpt lat="39.817885" lon="119.49865"><ele>16.1</ele><time>2024-05-12T01:52:46.000Z</time></trkpt><trkpt lat="39.81789" lon="119.498881"><ele>16.0</ele><time>2024-05-12T01:52:54.000Z</time></trkpt><trkpt lat="39.817986" lon="119.499521"><ele>16.6</ele><time>2024-05-12T01:53:18.000Z</time></trkpt><trkpt lat="39.818109" lon="119.499948"><ele>17.4</ele><time>2024-05-12T01:53:35.000Z</time></trkpt><trkpt lat="39.818265" lon="119.500257"><ele>18.0</ele><time>2024-05-12T01:53:50.000Z</time></trkpt><trkpt lat="39.818663" lon="119.500607"><ele>18.6</ele><time>2024-05-12T01:54:18.000Z</time></trkpt><trkpt lat="39.819886" lon="119.50147"><ele>19.1</ele><time>2024-05-12T01:55:49.000Z</time></trkpt><trkpt lat="39.82043" lon="119.501937"><ele>19.4</ele><time>2024-05-12T01:56:21.000Z</time></trkpt><trkpt lat="39.823855" lon="119.504486"><ele>17.5</ele><time>2024-05-12T01:59:27.000Z</time></trkpt><trkpt lat="39.824258" lon="119.505053"><ele>17.0</ele><time>2024-05-12T01:59:57.000Z</time></trkpt><trkpt lat="39.824694" lon="119.505255"><ele>16.7</ele><time>2024-05-12T02:00:20.000Z</time></trkpt><trkpt lat="39.828538" lon="119.508242"><ele>16.7</ele><time>2024-05-12T02:04:17.000Z</time></trkpt><trkpt lat="39.830214" lon="119.509456"><ele>17.2</ele><time>2024-05-12T02:05:57.000Z</time></trkpt><trkpt lat="39.830544" lon="119.509654"><ele>17.3</ele><time>2024-05-12T02:06:14.000Z</time></trkpt><trkpt lat="39.832163" lon="119.510348"><ele>16.8</ele><time>2024-05-12T02:07:44.000Z</time></trkpt><trkpt lat="39.832996" lon="119.510644"><ele>16.9</ele><time>2024-05-12T02:08:30.000Z</time></trkpt><trkpt lat="39.833869" lon="119.511011"><ele>16.9</ele><time>2024-05-12T02:09:19.000Z</time></trkpt><trkpt lat="39.83431" lon="119.511006"><ele>17.1</ele><time>2024-05-12T02:09:42.000Z</time></trkpt><trkpt lat="39.835091" lon="119.511308"><ele>17.3</ele><time>2024-05-12T02:10:24.000Z</time></trkpt><trkpt lat="39.835426" lon="119.511403"><ele>17.3</ele><time>2024-05-12T02:10:40.000Z</time></trkpt><trkpt lat="39.835992" lon="119.511668"><ele>17.2</ele><time>2024-05-12T02:11:12.000Z</time></trkpt><trkpt lat="39.837917" lon="119.512413"><ele>18.2</ele><time>2024-05-12T02:13:02.000Z</time></trkpt><trkpt lat="39.84042" lon="119.513466"><ele>19.6</ele><time>2024-05-12T02:15:29.000Z</time></trkpt><trkpt lat="39.841071" lon="119.513654"><ele>19.2</ele><time>2024-05-12T02:16:17.000Z</time></trkpt><trkpt lat="39.841779" lon="119.513985"><ele>18.5</ele><time>2024-05-12T02:17:02.000Z</time></trkpt><trkpt lat="39.844552" lon="119.515111"><ele>16.3</ele><time>2024-05-12T02:19:38.000Z</time></trkpt><trkpt lat="39.845049" lon="119.515346"><ele>16.2</ele><time>2024-05-12T02:20:07.000Z</time></trkpt><trkpt lat="39.846534" lon="119.515867"><ele>16.3</ele><time>2024-05-12T02:21:16.000Z</time></trkpt><trkpt lat="39.847847" lon="119.516409"><ele>16.6</ele><time>2024-05-12T02:22:14.000Z</time></trkpt><trkpt lat="39.848844" lon="119.516701"><ele>16.7</ele><time>2024-05-12T02:22:57.000Z</time></trkpt><trkpt lat="39.850589" lon="119.517426"><ele>17.4</ele><time>2024-05-12T02:24:17.000Z</time></trkpt><trkpt lat="39.851316" lon="119.517691"><ele>17.5</ele><time>2024-05-12T02:24:51.000Z</time></trkpt><trkpt lat="39.851625" lon="119.517881"><ele>17.6</ele><time>2024-05-12T02:25:06.000Z</time></trkpt><trkpt lat="39.851949" lon="119.517971"><ele>17.7</ele><time>2024-05-12T02:25:20.000Z</time></trkpt><trkpt lat="39.853239" lon="119.518469"><ele>17.9</ele><time>2024-05-12T02:26:20.000Z</time></trkpt><trkpt lat="39.853631" lon="119.518662"><ele>17.9</ele><time>2024-05-12T02:26:39.000Z</time></trkpt><trkpt lat="39.855539" lon="119.519408"><ele>18.3</ele><time>2024-05-12T02:28:11.000Z</time></trkpt><trkpt lat="39.856674" lon="119.519789"><ele>18.2</ele><time>2024-05-12T02:29:16.000Z</time></trkpt><trkpt lat="39.857883" lon="119.520142"><ele>18.3</ele><time>2024-05-12T02:30:29.000Z</time></trkpt><trkpt lat="39.858771" lon="119.520342"><ele>18.3</ele><time>2024-05-12T02:31:19.000Z</time></trkpt><trkpt lat="39.859209" lon="119.520562"><ele>18.4</ele><time>2024-05-12T02:31:45.000Z</time></trkpt><trkpt lat="39.859634" lon="119.5207"><ele>18.4</ele><time>2024-05-12T02:32:09.000Z</time></trkpt><trkpt lat="39.859775" lon="119.520713"><ele>18.3</ele><time>2024-05-12T02:32:17.000Z</time></trkpt><trkpt lat="39.860515" lon="119.520979"><ele>18.4</ele><time>2024-05-12T02:33:03.000Z</time></trkpt><trkpt lat="39.861417" lon="119.521146"><ele>18.1</ele><time>2024-05-12T02:34:18.000Z</time></trkpt><trkpt lat="39.862161" lon="119.521358"><ele>18.4</ele><time>2024-05-12T02:35:10.000Z</time></trkpt><trkpt lat="39.862448" lon="119.521377"><ele>18.4</ele><time>2024-05-12T02:35:25.000Z</time></trkpt><trkpt lat="39.863391" lon="119.52169"><ele>18.3</ele><time>2024-05-12T02:36:19.000Z</time></trkpt><trkpt lat="39.863967" lon="119.521772"><ele>18.4</ele><time>2024-05-12T02:36:51.000Z</time></trkpt><trkpt lat="39.864179" lon="119.521867"><ele>18.3</ele><time>2024-05-12T02:37:04.000Z</time></trkpt><trkpt lat="39.864986" lon="119.522078"><ele>18.3</ele><time>2024-05-12T02:37:50.000Z</time></trkpt><trkpt lat="39.865194" lon="119.522169"><ele>18.2</ele><time>2024-05-12T02:38:02.000Z</time></trkpt><trkpt lat="39.866278" lon="119.52244"><ele>18.1</ele><time>2024-05-12T02:39:05.000Z</time></trkpt><trkpt lat="39.866542" lon="119.522411"><ele>18.1</ele><time>2024-05-12T02:39:20.000Z</time></trkpt><trkpt lat="39.866906" lon="119.522481"><ele>18.1</ele><time>2024-05-12T02:39:43.000Z</time></trkpt><trkpt lat="39.869668" lon="119.523215"><ele>18.2</ele><time>2024-05-12T02:42:24.000Z</time></trkpt><trkpt lat="39.869968" lon="119.523337"><ele>18.2</ele><time>2024-05-12T02:42:41.000Z</time></trkpt><trkpt lat="39.870269" lon="119.523401"><ele>18.3</ele><time>2024-05-12T02:42:59.000Z</time></trkpt><trkpt lat="39.871531" lon="119.523824"><ele>18.3</ele><time>2024-05-12T02:44:14.000Z</time></trkpt><trkpt lat="39.873969" lon="119.524706"><ele>18.5</ele><time>2024-05-12T02:46:45.000Z</time></trkpt><trkpt lat="39.874652" lon="119.52499"><ele>18.5</ele><time>2024-05-12T02:47:27.000Z</time></trkpt><trkpt lat="39.874906" lon="119.525047"><ele>18.4</ele><time>2024-05-12T02:47:42.000Z</time></trkpt><trkpt lat="39.876251" lon="119.525516"><ele>18.2</ele><time>2024-05-12T02:49:03.000Z</time></trkpt><trkpt lat="39.877892" lon="119.526155"><ele>18.2</ele><time>2024-05-12T02:50:41.000Z</time></trkpt><trkpt lat="39.879248" lon="119.526609"><ele>18.0</ele><time>2024-05-12T02:52:06.000Z</time></trkpt><trkpt lat="39.880951" lon="119.527343"><ele>17.9</ele><time>2024-05-12T02:53:58.000Z</time></trkpt><trkpt lat="39.881478" lon="119.527697"><ele>18.0</ele><time>2024-05-12T02:54:33.000Z</time></trkpt><trkpt lat="39.882147" lon="119.528059"><ele>18.0</ele><time>2024-05-12T02:55:16.000Z</time></trkpt><trkpt lat="39.882528" lon="119.528239"><ele>18.0</ele><time>2024-05-12T02:55:40.000Z</time></trkpt><trkpt lat="39.883008" lon="119.528409"><ele>17.9</ele><time>2024-05-12T02:56:14.000Z</time></trkpt><trkpt lat="39.883546" lon="119.528709"><ele>17.6</ele><time>2024-05-12T02:57:20.000Z</time></trkpt><trkpt lat="39.883569" lon="119.528774"><ele>17.5</ele><time>2024-05-12T02:57:34.000Z</time></trkpt><trkpt lat="39.88384" lon="119.528835"><ele>17.8</ele><time>2024-05-12T02:58:04.000Z</time></trkpt><trkpt lat="39.884283" lon="119.529067"><ele>17.9</ele><time>2024-05-12T02:58:33.000Z</time></trkpt><trkpt lat="39.884454" lon="119.529183"><ele>17.8</ele><time>2024-05-12T02:58:45.000Z</time></trkpt><trkpt lat="39.884652" lon="119.529409"><ele>17.7</ele><time>2024-05-12T02:59:00.000Z</time></trkpt><trkpt lat="39.884892" lon="119.529559"><ele>17.7</ele><time>2024-05-12T02:59:12.000Z</time></trkpt><trkpt lat="39.886484" lon="119.530336"><ele>17.7</ele><time>2024-05-12T03:00:49.000Z</time></trkpt><trkpt lat="39.886945" lon="119.530508"><ele>17.9</ele><time>2024-05-12T03:01:10.000Z</time></trkpt><trkpt lat="39.887392" lon="119.530768"><ele>18.1</ele><time>2024-05-12T03:01:35.000Z</time></trkpt><trkpt lat="39.887765" lon="119.530937"><ele>18.1</ele><time>2024-05-12T03:01:57.000Z</time></trkpt><trkpt lat="39.8883" lon="119.53132"><ele>18.2</ele><time>2024-05-12T03:02:32.000Z</time></trkpt><trkpt lat="39.888936" lon="119.531973"><ele>18.4</ele><time>2024-05-12T03:03:23.000Z</time></trkpt><trkpt lat="39.889295" lon="119.532423"><ele>18.6</ele><time>2024-05-12T03:03:52.000Z</time></trkpt><trkpt lat="39.889975" lon="119.533468"><ele>18.8</ele><time>2024-05-12T03:04:57.000Z</time></trkpt><trkpt lat="39.89083" lon="119.534469"><ele>19.0</ele><time>2024-05-12T03:06:03.000Z</time></trkpt><trkpt lat="39.891077" lon="119.534712"><ele>18.9</ele><time>2024-05-12T03:06:22.000Z</time></trkpt><trkpt lat="39.892104" lon="119.535431"><ele>18.5</ele><time>2024-05-12T03:07:29.000Z</time></trkpt><trkpt lat="39.892347" lon="119.535667"><ele>18.3</ele><time>2024-05-12T03:07:49.000Z</time></trkpt><trkpt lat="39.892911" lon="119.536496"><ele>18.2</ele><time>2024-05-12T03:08:40.000Z</time></trkpt><trkpt lat="39.893479" lon="119.537507"><ele>17.7</ele><time>2024-05-12T03:09:40.000Z</time></trkpt><trkpt lat="39.893712" lon="119.537811"><ele>17.2</ele><time>2024-05-12T03:10:15.000Z</time></trkpt><trkpt lat="39.893843" lon="119.538051"><ele>16.8</ele><time>2024-05-12T03:11:03.000Z</time></trkpt><trkpt lat="39.894024" lon="119.538243"><ele>17.2</ele><time>2024-05-12T03:11:14.000Z</time></trkpt><trkpt lat="39.894155" lon="119.53845"><ele>17.4</ele><time>2024-05-12T03:11:25.000Z</time></trkpt><trkpt lat="39.894583" lon="119.539611"><ele>19.6</ele><time>2024-05-12T03:12:21.000Z</time></trkpt><trkpt lat="39.894802" lon="119.540011"><ele>20.0</ele><time>2024-05-12T03:12:44.000Z</time></trkpt><trkpt lat="39.895091" lon="119.540391"><ele>18.9</ele><time>2024-05-12T03:13:07.000Z</time></trkpt><trkpt lat="39.895309" lon="119.540572"><ele>18.5</ele><time>2024-05-12T03:13:22.000Z</time></trkpt><trkpt lat="39.895481" lon="119.54077"><ele>18.5</ele><time>2024-05-12T03:13:35.000Z</time></trkpt><trkpt lat="39.895878" lon="119.541071"><ele>18.5</ele><time>2024-05-12T03:14:02.000Z</time></trkpt><trkpt lat="39.896238" lon="119.5414"><ele>18.4</ele><time>2024-05-12T03:14:28.000Z</time></trkpt><trkpt lat="39.896791" lon="119.541978"><ele>20.1</ele><time>2024-05-12T03:15:11.000Z</time></trkpt><trkpt lat="39.897085" lon="119.542584"><ele>20.0</ele><time>2024-05-12T03:15:45.000Z</time></trkpt><trkpt lat="39.897217" lon="119.543153"><ele>19.1</ele><time>2024-05-12T03:16:12.000Z</time></trkpt><trkpt lat="39.897447" lon="119.543681"><ele>18.8</ele><time>2024-05-12T03:16:41.000Z</time></trkpt><trkpt lat="39.897825" lon="119.544203"><ele>19.0</ele><time>2024-05-12T03:17:14.000Z</time></trkpt><trkpt lat="39.898161" lon="119.544582"><ele>18.8</ele><time>2024-05-12T03:17:41.000Z</time></trkpt><trkpt lat="39.898379" lon="119.544938"><ele>18.3</ele><time>2024-05-12T03:18:14.000Z</time></trkpt><trkpt lat="39.898478" lon="119.545194"><ele>18.3</ele><time>2024-05-12T03:18:33.000Z</time></trkpt><trkpt lat="39.898567" lon="119.545554"><ele>18.6</ele><time>2024-05-12T03:18:57.000Z</time></trkpt><trkpt lat="39.898718" lon="119.54645"><ele>19.2</ele><time>2024-05-12T03:19:48.000Z</time></trkpt><trkpt lat="39.898894" lon="119.547128"><ele>19.6</ele><time>2024-05-12T03:20:19.000Z</time></trkpt><trkpt lat="39.899036" lon="119.547531"><ele>20.6</ele><time>2024-05-12T03:20:50.000Z</time></trkpt><trkpt lat="39.899359" lon="119.548035"><ele>20.9</ele><time>2024-05-12T03:21:32.000Z</time></trkpt><trkpt lat="39.899731" lon="119.548326"><ele>19.9</ele><time>2024-05-12T03:22:05.000Z</time></trkpt><trkpt lat="39.900025" lon="119.548471"><ele>19.4</ele><time>2024-05-12T03:22:30.000Z</time></trkpt><trkpt lat="39.901157" lon="119.548863"><ele>19.3</ele><time>2024-05-12T03:23:30.000Z</time></trkpt><trkpt lat="39.901508" lon="119.549052"><ele>19.5</ele><time>2024-05-12T03:23:51.000Z</time></trkpt><trkpt lat="39.902033" lon="119.549175"><ele>19.9</ele><time>2024-05-12T03:24:20.000Z</time></trkpt><trkpt lat="39.90249" lon="119.549373"><ele>19.8</ele><time>2024-05-12T03:24:46.000Z</time></trkpt><trkpt lat="39.90286" lon="119.54966"><ele>19.7</ele><time>2024-05-12T03:25:10.000Z</time></trkpt><trkpt lat="39.903223" lon="119.550086"><ele>19.7</ele><time>2024-05-12T03:25:36.000Z</time></trkpt><trkpt lat="39.903354" lon="119.550332"><ele>19.8</ele><time>2024-05-12T03:25:49.000Z</time></trkpt><trkpt lat="39.903851" lon="119.551723"><ele>19.8</ele><time>2024-05-12T03:27:24.000Z</time></trkpt><trkpt lat="39.904256" lon="119.553108"><ele>20.0</ele><time>2024-05-12T03:28:27.000Z</time></trkpt><trkpt lat="39.904409" lon="119.553484"><ele>20.0</ele><time>2024-05-12T03:28:44.000Z</time></trkpt><trkpt lat="39.904597" lon="119.554148"><ele>20.1</ele><time>2024-05-12T03:29:14.000Z</time></trkpt><trkpt lat="39.904759" lon="119.554538"><ele>20.0</ele><time>2024-05-12T03:29:32.000Z</time></trkpt><trkpt lat="39.904976" lon="119.555352"><ele>20.2</ele><time>2024-05-12T03:30:12.000Z</time></trkpt><trkpt lat="39.905129" lon="119.555683"><ele>19.8</ele><time>2024-05-12T03:30:29.000Z</time></trkpt><trkpt lat="39.905573" lon="119.55696"><ele>18.5</ele><time>2024-05-12T03:31:36.000Z</time></trkpt><trkpt lat="39.905686" lon="119.5574"><ele>18.7</ele><time>2024-05-12T03:31:59.000Z</time></trkpt><trkpt lat="39.905951" lon="119.558057"><ele>18.3</ele><time>2024-05-12T03:32:31.000Z</time></trkpt><trkpt lat="39.906069" lon="119.558629"><ele>18.2</ele><time>2024-05-12T03:33:01.000Z</time></trkpt><trkpt lat="39.906274" lon="119.559356"><ele>18.0</ele><time>2024-05-12T03:33:36.000Z</time></trkpt><trkpt lat="39.906743" lon="119.560717"><ele>17.8</ele><time>2024-05-12T03:34:48.000Z</time></trkpt><trkpt lat="39.906946" lon="119.56109"><ele>17.8</ele><time>2024-05-12T03:35:11.000Z</time></trkpt><trkpt lat="39.907103" lon="119.561577"><ele>17.8</ele><time>2024-05-12T03:35:37.000Z</time></trkpt><trkpt lat="39.907176" lon="119.561642"><ele>17.8</ele><time>2024-05-12T03:35:44.000Z</time></trkpt><trkpt lat="39.907882" lon="119.561151"><ele>17.8</ele><time>2024-05-12T03:36:36.000Z</time></trkpt><trkpt lat="39.90848" lon="119.560667"><ele>18.4</ele><time>2024-05-12T03:37:20.000Z</time></trkpt><trkpt lat="39.908784" lon="119.560502"><ele>18.7</ele><time>2024-05-12T03:37:43.000Z</time></trkpt><trkpt lat="39.909027" lon="119.560301"><ele>18.9</ele><time>2024-05-12T03:38:03.000Z</time></trkpt><trkpt lat="39.909995" lon="119.559636"><ele>19.6</ele><time>2024-05-12T03:39:14.000Z</time></trkpt><trkpt lat="39.910435" lon="119.55928"><ele>19.3</ele><time>2024-05-12T03:39:49.000Z</time></trkpt><trkpt lat="39.91083" lon="119.559039"><ele>19.0</ele><time>2024-05-12T03:40:24.000Z</time></trkpt><trkpt lat="39.911671" lon="119.558432"><ele>18.8</ele><time>2024-05-12T03:41:34.000Z</time></trkpt><trkpt lat="39.911707" lon="119.558312"><ele>19.0</ele><time>2024-05-12T03:41:41.000Z</time></trkpt><trkpt lat="39.911674" lon="119.558191"><ele>19.2</ele><time>2024-05-12T03:41:48.000Z</time></trkpt><trkpt lat="39.911453" lon="119.557849"><ele>19.8</ele><time>2024-05-12T03:42:11.000Z</time></trkpt><trkpt lat="39.911192" lon="119.557357"><ele>20.2</ele><time>2024-05-12T03:42:43.000Z</time></trkpt><trkpt lat="39.910661" lon="119.556791"><ele>20.3</ele><time>2024-05-12T03:43:42.000Z</time></trkpt><trkpt lat="39.910431" lon="119.556485"><ele>20.3</ele><time>2024-05-12T03:44:08.000Z</time></trkpt><trkpt lat="39.910178" lon="119.555956"><ele>20.8</ele><time>2024-05-12T03:44:45.000Z</time></trkpt><trkpt lat="39.910066" lon="119.555863"><ele>21.0</ele><time>2024-05-12T03:44:55.000Z</time></trkpt><trkpt lat="39.909932" lon="119.555669"><ele>21.0</ele><time>2024-05-12T03:45:13.000Z</time></trkpt><trkpt lat="39.909614" lon="119.555324"><ele>21.0</ele><time>2024-05-12T03:45:42.000Z</time></trkpt><trkpt lat="39.909395" lon="119.555171"><ele>20.9</ele><time>2024-05-12T03:45:58.000Z</time></trkpt><trkpt lat="39.908613" lon="119.554353"><ele>20.9</ele><time>2024-05-12T03:46:49.000Z</time></trkpt><trkpt lat="39.908256" lon="119.553855"><ele>21.1</ele><time>2024-05-12T03:47:15.000Z</time></trkpt><trkpt lat="39.907687" lon="119.553204"><ele>21.1</ele><time>2024-05-12T03:47:55.000Z</time></trkpt><trkpt lat="39.907129" lon="119.552347"><ele>20.4</ele><time>2024-05-12T03:49:00.000Z</time></trkpt><trkpt lat="39.906918" lon="119.552167"><ele>20.4</ele><time>2024-05-12T03:49:17.000Z</time></trkpt><trkpt lat="39.906733" lon="119.551929"><ele>20.7</ele><time>2024-05-12T03:49:38.000Z</time></trkpt><trkpt lat="39.906571" lon="119.551641"><ele>20.3</ele><time>2024-05-12T03:50:01.000Z</time></trkpt><trkpt lat="39.90618" lon="119.551097"><ele>20.3</ele><time>2024-05-12T03:50:47.000Z</time></trkpt><trkpt lat="39.905683" lon="119.550317"><ele>20.1</ele><time>2024-05-12T03:51:47.000Z</time></trkpt><trkpt lat="39.905524" lon="119.550149"><ele>19.9</ele><time>2024-05-12T03:52:00.000Z</time></trkpt><trkpt lat="39.904445" lon="119.548567"><ele>20.6</ele><time>2024-05-12T03:53:28.000Z</time></trkpt><trkpt lat="39.904335" lon="119.548355"><ele>20.5</ele><time>2024-05-12T03:53:42.000Z</time></trkpt><trkpt lat="39.903869" lon="119.547684"><ele>20.3</ele><time>2024-05-12T03:54:35.000Z</time></trkpt><trkpt lat="39.903681" lon="119.547312"><ele>20.2</ele><time>2024-05-12T03:55:01.000Z</time></trkpt><trkpt lat="39.90321" lon="119.546686"><ele>19.9</ele><time>2024-05-12T03:55:50.000Z</time></trkpt><trkpt lat="39.903031" lon="119.546365"><ele>20.1</ele><time>2024-05-12T03:56:12.000Z</time></trkpt><trkpt lat="39.902759" lon="119.546009"><ele>19.9</ele><time>2024-05-12T03:56:42.000Z</time></trkpt><trkpt lat="39.902559" lon="119.545655"><ele>20.2</ele><time>2024-05-12T03:57:07.000Z</time></trkpt><trkpt lat="39.902212" lon="119.54522"><ele>20.2</ele><time>2024-05-12T03:57:43.000Z</time></trkpt><trkpt lat="39.901934" lon="119.544747"><ele>20.3</ele><time>2024-05-12T03:58:18.000Z</time></trkpt><trkpt lat="39.90161" lon="119.544349"><ele>20.5</ele><time>2024-05-12T03:58:50.000Z</time></trkpt><trkpt lat="39.901073" lon="119.543515"><ele>20.5</ele><time>2024-05-12T03:59:51.000Z</time></trkpt><trkpt lat="39.900848" lon="119.543219"><ele>20.6</ele><time>2024-05-12T04:00:14.000Z</time></trkpt><trkpt lat="39.900576" lon="119.542739"><ele>20.4</ele><time>2024-05-12T04:00:48.000Z</time></trkpt><trkpt lat="39.90021" lon="119.54232"><ele>20.6</ele><time>2024-05-12T04:01:24.000Z</time></trkpt><trkpt lat="39.90006" lon="119.542019"><ele>20.3</ele><time>2024-05-12T04:01:44.000Z</time></trkpt><trkpt lat="39.899533" lon="119.541354"><ele>20.6</ele><time>2024-05-12T04:02:37.000Z</time></trkpt><trkpt lat="39.89929" lon="119.540864"><ele>20.8</ele><time>2024-05-12T04:03:10.000Z</time></trkpt><trkpt lat="39.898974" lon="119.540503"><ele>20.5</ele><time>2024-05-12T04:03:40.000Z</time></trkpt><trkpt lat="39.898862" lon="119.540255"><ele>20.9</ele><time>2024-05-12T04:03:57.000Z</time></trkpt><trkpt lat="39.898164" lon="119.539296"><ele>21.1</ele><time>2024-05-12T04:05:15.000Z</time></trkpt><trkpt lat="39.898025" lon="119.539007"><ele>21.0</ele><time>2024-05-12T04:05:34.000Z</time></trkpt><trkpt lat="39.897595" lon="119.538357"><ele>21.4</ele><time>2024-05-12T04:06:24.000Z</time></trkpt><trkpt lat="39.89719" lon="119.537902"><ele>21.3</ele><time>2024-05-12T04:07:03.000Z</time></trkpt><trkpt lat="39.896968" lon="119.537517"><ele>21.6</ele><time>2024-05-12T04:07:31.000Z</time></trkpt><trkpt lat="39.896487" lon="119.536991"><ele>21.8</ele><time>2024-05-12T04:08:18.000Z</time></trkpt><trkpt lat="39.895792" lon="119.535914"><ele>21.8</ele><time>2024-05-12T04:09:39.000Z</time></trkpt><trkpt lat="39.895556" lon="119.535642"><ele>21.6</ele><time>2024-05-12T04:10:03.000Z</time></trkpt><trkpt lat="39.895172" lon="119.535077"><ele>21.5</ele><time>2024-05-12T04:10:48.000Z</time></trkpt><trkpt lat="39.895087" lon="119.534875"><ele>21.5</ele><time>2024-05-12T04:11:03.000Z</time></trkpt><trkpt lat="39.894637" lon="119.534218"><ele>21.1</ele><time>2024-05-12T04:11:54.000Z</time></trkpt><trkpt lat="39.89406" lon="119.533751"><ele>20.8</ele><time>2024-05-12T04:12:44.000Z</time></trkpt><trkpt lat="39.893693" lon="119.533625"><ele>20.9</ele><time>2024-05-12T04:13:09.000Z</time></trkpt><trkpt lat="39.89324" lon="119.533562"><ele>20.4</ele><time>2024-05-12T04:13:42.000Z</time></trkpt><trkpt lat="39.892404" lon="119.533699"><ele>20.6</ele><time>2024-05-12T04:14:45.000Z</time></trkpt><trkpt lat="39.891683" lon="119.533584"><ele>20.9</ele><time>2024-05-12T04:15:40.000Z</time></trkpt><trkpt lat="39.891264" lon="119.533436"><ele>20.8</ele><time>2024-05-12T04:16:13.000Z</time></trkpt><trkpt lat="39.891081" lon="119.533236"><ele>20.6</ele><time>2024-05-12T04:16:31.000Z</time></trkpt><trkpt lat="39.890715" lon="119.532959"><ele>20.5</ele><time>2024-05-12T04:17:03.000Z</time></trkpt><trkpt lat="39.890515" lon="119.53286"><ele>20.3</ele><time>2024-05-12T04:17:23.000Z</time></trkpt><trkpt lat="39.890232" lon="119.532607"><ele>20.2</ele><time>2024-05-12T04:17:59.000Z</time></trkpt><trkpt lat="39.890055" lon="119.532502"><ele>20.3</ele><time>2024-05-12T04:18:15.000Z</time></trkpt><trkpt lat="39.889726" lon="119.532185"><ele>20.0</ele><time>2024-05-12T04:18:51.000Z</time></trkpt><trkpt lat="39.88926" lon="119.531868"><ele>20.1</ele><time>2024-05-12T04:19:31.000Z</time></trkpt><trkpt lat="39.888804" lon="119.531616"><ele>20.3</ele><time>2024-05-12T04:20:09.000Z</time></trkpt><trkpt lat="39.888569" lon="119.531386"><ele>20.5</ele><time>2024-05-12T04:20:31.000Z</time></trkpt><trkpt lat="39.887818" lon="119.530794"><ele>21.1</ele><time>2024-05-12T04:21:37.000Z</time></trkpt><trkpt lat="39.886573" lon="119.530146"><ele>20.9</ele><time>2024-05-12T04:23:19.000Z</time></trkpt><trkpt lat="39.886493" lon="119.530137"><ele>21.0</ele><time>2024-05-12T04:23:25.000Z</time></trkpt><trkpt lat="39.886485" lon="119.530196"><ele>21.1</ele><time>2024-05-12T04:23:30.000Z</time></trkpt><trkpt lat="39.88682" lon="119.5304"><ele>21.3</ele><time>2024-05-12T04:23:59.000Z</time></trkpt><trkpt lat="39.887764" lon="119.53086"><ele>21.1</ele><time>2024-05-12T04:25:15.000Z</time></trkpt><trkpt lat="39.888141" lon="119.531138"><ele>21.1</ele><time>2024-05-12T04:25:46.000Z</time></trkpt><trkpt lat="39.889941" lon="119.532869"><ele>21.1</ele><time>2024-05-12T04:28:37.000Z</time></trkpt><trkpt lat="39.890431" lon="119.533458"><ele>21.3</ele><time>2024-05-12T04:29:29.000Z</time></trkpt><trkpt lat="39.891028" lon="119.533984"><ele>21.6</ele><time>2024-05-12T04:30:23.000Z</time></trkpt><trkpt lat="39.891305" lon="119.534309"><ele>21.9</ele><time>2024-05-12T04:30:52.000Z</time></trkpt><trkpt lat="39.891735" lon="119.534668"><ele>22.5</ele><time>2024-05-12T04:31:31.000Z</time></trkpt><trkpt lat="39.892058" lon="119.535003"><ele>23.0</ele><time>2024-05-12T04:32:04.000Z</time></trkpt><trkpt lat="39.892607" lon="119.535329"><ele>24.3</ele><time>2024-05-12T04:32:50.000Z</time></trkpt><trkpt lat="39.892882" lon="119.535403"><ele>25.1</ele><time>2024-05-12T04:33:11.000Z</time></trkpt><trkpt lat="39.89331" lon="119.535445"><ele>25.6</ele><time>2024-05-12T04:33:43.000Z</time></trkpt><trkpt lat="39.893664" lon="119.535444"><ele>26.8</ele><time>2024-05-12T04:34:12.000Z</time></trkpt><trkpt lat="39.89399" lon="119.535335"><ele>28.2</ele><time>2024-05-12T04:34:37.000Z</time></trkpt><trkpt lat="39.894386" lon="119.535133"><ele>28.6</ele><time>2024-05-12T04:35:09.000Z</time></trkpt><trkpt lat="39.894732" lon="119.534878"><ele>29.1</ele><time>2024-05-12T04:35:40.000Z</time></trkpt><trkpt lat="39.895647" lon="119.533898"><ele>29.2</ele><time>2024-05-12T04:37:17.000Z</time></trkpt><trkpt lat="39.89635" lon="119.533226"><ele>28.7</ele><time>2024-05-12T04:38:23.000Z</time></trkpt><trkpt lat="39.896819" lon="119.532697"><ele>28.8</ele><time>2024-05-12T04:39:11.000Z</time></trkpt><trkpt lat="39.897365" lon="119.532152"><ele>29.0</ele><time>2024-05-12T04:40:02.000Z</time></trkpt><trkpt lat="39.898328" lon="119.531234"><ele>29.1</ele><time>2024-05-12T04:41:34.000Z</time></trkpt><trkpt lat="39.898612" lon="119.530988"><ele>29.2</ele><time>2024-05-12T04:42:00.000Z</time></trkpt><trkpt lat="39.898661" lon="119.530989"><ele>29.2</ele><time>2024-05-12T04:42:05.000Z</time></trkpt><trkpt lat="39.899233" lon="119.531876"><ele>27.9</ele><time>2024-05-12T04:43:10.000Z</time></trkpt><trkpt lat="39.899615" lon="119.53269"><ele>26.4</ele><time>2024-05-12T04:44:03.000Z</time></trkpt><trkpt lat="39.899783" lon="119.532909"><ele>25.7</ele><time>2024-05-12T04:44:20.000Z</time></trkpt><trkpt lat="39.899937" lon="119.533265"><ele>25.0</ele><time>2024-05-12T04:44:45.000Z</time></trkpt><trkpt lat="39.900129" lon="119.533552"><ele>24.7</ele><time>2024-05-12T04:45:09.000Z</time></trkpt><trkpt lat="39.900385" lon="119.534085"><ele>24.2</ele><time>2024-05-12T04:45:47.000Z</time></trkpt><trkpt lat="39.900734" lon="119.534689"><ele>23.7</ele><time>2024-05-12T04:46:30.000Z</time></trkpt><trkpt lat="39.901435" lon="119.535644"><ele>22.6</ele><time>2024-05-12T04:47:42.000Z</time></trkpt><trkpt lat="39.901597" lon="119.535823"><ele>22.4</ele><time>2024-05-12T04:47:59.000Z</time></trkpt><trkpt lat="39.901767" lon="119.536152"><ele>22.6</ele><time>2024-05-12T04:48:21.000Z</time></trkpt><trkpt lat="39.902078" lon="119.536597"><ele>22.2</ele><time>2024-05-12T04:48:55.000Z</time></trkpt><trkpt lat="39.902345" lon="119.536925"><ele>22.1</ele><time>2024-05-12T04:49:24.000Z</time></trkpt><trkpt lat="39.902456" lon="119.537015"><ele>22.1</ele><time>2024-05-12T04:49:35.000Z</time></trkpt><trkpt lat="39.902554" lon="119.537193"><ele>22.1</ele><time>2024-05-12T04:49:50.000Z</time></trkpt><trkpt lat="39.902759" lon="119.537352"><ele>22.2</ele><time>2024-05-12T04:50:03.000Z</time></trkpt><trkpt lat="39.903878" lon="119.538626"><ele>23.1</ele><time>2024-05-12T04:51:22.000Z</time></trkpt><trkpt lat="39.904508" lon="119.539443"><ele>24.0</ele><time>2024-05-12T04:52:11.000Z</time></trkpt><trkpt lat="39.905419" lon="119.540541"><ele>25.5</ele><time>2024-05-12T04:53:17.000Z</time></trkpt><trkpt lat="39.906298" lon="119.541717"><ele>26.7</ele><time>2024-05-12T04:54:19.000Z</time></trkpt><trkpt lat="39.906506" lon="119.542053"><ele>27.3</ele><time>2024-05-12T04:54:37.000Z</time></trkpt><trkpt lat="39.906543" lon="119.542216"><ele>27.1</ele><time>2024-05-12T04:54:44.000Z</time></trkpt><trkpt lat="39.906474" lon="119.542367"><ele>26.5</ele><time>2024-05-12T04:54:51.000Z</time></trkpt><trkpt lat="39.905799" lon="119.543058"><ele>25.3</ele><time>2024-05-12T04:55:30.000Z</time></trkpt><trkpt lat="39.905427" lon="119.543539"><ele>24.9</ele><time>2024-05-12T04:55:53.000Z</time></trkpt><trkpt lat="39.903836" lon="119.545182"><ele>22.7</ele><time>2024-05-12T04:57:23.000Z</time></trkpt><trkpt lat="39.903729" lon="119.545406"><ele>22.8</ele><time>2024-05-12T04:57:32.000Z</time></trkpt><trkpt lat="39.903685" lon="119.545635"><ele>23.0</ele><time>2024-05-12T04:57:41.000Z</time></trkpt><trkpt lat="39.903802" lon="119.545949"><ele>23.1</ele><time>2024-05-12T04:57:56.000Z</time></trkpt><trkpt lat="39.904477" lon="119.54682"><ele>22.9</ele><time>2024-05-12T04:58:43.000Z</time></trkpt><trkpt lat="39.905787" lon="119.548775"><ele>24.1</ele><time>2024-05-12T05:00:28.000Z</time></trkpt></trkseg></trk></gpx>