<?xml version="1.0" encoding="UTF-8"?><gpx creator="Health" xsi:schemaLocation="http://www.topografix.com/GPX/1/0 http://www.topografix.com/GPX/1/0/gpx.xsd" version="1.0" xmlns="http://www.topografix.com/GPX/1/0" xmlns:xsi="http://www.w3.org/2001/XMLSchema-instance"><metadata><time>2024-05-04T03:00:42.000Z</time></metadata><trk><type>户外跑步</type><extensions><totalTime>11263.0</totalTime><cumulativeDecrease>110.30000305175781</cumulativeDecrease><cumulativeClimb>114.0999984741211</cumulativeClimb><totalDistance>28020.0</totalDistance></extensions><trkseg><trkpt lat="40.010331" lon="116.385195"><ele>40.7</ele><time>2024-05-04T03:00:42.000Z</time></trkpt><trkpt lat="40.010263" lon="116.385372"><ele>40.7</ele><time>2024-05-04T03:00:48.000Z</time></trkpt><trkpt lat="40.010286" lon="116.385509"><ele>40.7</ele><time>2024-05-04T03:00:51.000Z</time></trkpt><trkpt lat="40.010191" lon="116.386004"><ele>40.9</ele><time>2024-05-04T03:01:06.000Z</time></trkpt><trkpt lat="40.010227" lon="116.386523"><ele>41.1</ele><time>2024-05-04T03:01:22.000Z</time></trkpt><trkpt lat="40.0103" lon="116.387055"><ele>40.9</ele><time>2024-05-04T03:01:39.000Z</time></trkpt><trkpt lat="40.010406" lon="116.387416"><ele>40.9</ele><time>2024-05-04T03:01:51.000Z</time></trkpt><trkpt lat="40.010583" lon="116.387713"><ele>40.9</ele><time>2024-05-04T03:02:01.000Z</time></trkpt><trkpt lat="40.010637" lon="116.387873"><ele>40.9</ele><time>2024-05-04T03:02:06.000Z</time></trkpt><trkpt lat="40.01068" lon="116.388372"><ele>40.7</ele><time>2024-05-04T03:02:21.000Z</time></trkpt><trkpt lat="40.010617" lon="116.388877"><ele>39.8</ele><time>2024-05-04T03:02:38.000Z</time></trkpt><trkpt lat="40.010603" lon="116.389744"><ele>39.2</ele><time>2024-05-04T03:03:01.000Z</time></trkpt><trkpt lat="40.010498" lon="116.390223"><ele>39.0</ele><time>2024-05-04T03:03:14.000Z</time></trkpt><trkpt lat="40.010387" lon="116.39058"><ele>39.0</ele><time>2024-05-04T03:03:24.000Z</time></trkpt><trkpt lat="40.010154" lon="116.390742"><ele>38.9</ele><time>2024-05-04T03:03:34.000Z</time></trkpt><trkpt lat="40.010051" lon="116.39075"><ele>38.9</ele><time>2024-05-04T03:03:38.000Z</time></trkpt><trkpt lat="40.009951" lon="116.390702"><ele>38.9</ele><time>2024-05-04T03:03:42.000Z</time></trkpt><trkpt lat="40.009715" lon="116.390393"><ele>39.0</ele><time>2024-05-04T03:03:54.000Z</time></trkpt><trkpt lat="40.009605" lon="116.390323"><ele>39.1</ele><time>2024-05-04T03:03:58.000Z</time></trkpt><trkpt lat="40.00947" lon="116.390329"><ele>39.2</ele><time>2024-05-04T03:04:03.000Z</time></trkpt><trkpt lat="40.00936" lon="116.390406"><ele>39.3</ele><time>2024-05-04T03:04:10.000Z</time></trkpt><trkpt lat="40.009088" lon="116.390424"><ele>39.3</ele><time>2024-05-04T03:04:22.000Z</time></trkpt><trkpt lat="40.009035" lon="116.390506"><ele>39.3</ele><time>2024-05-04T03:04:25.000Z</time></trkpt><trkpt lat="40.009032" lon="116.39073"><ele>38.9</ele><time>2024-05-04T03:04:34.000Z</time></trkpt><trkpt lat="40.009413" lon="116.391953"><ele>39.4</ele><time>2024-05-04T03:05:06.000Z</time></trkpt><trkpt lat="40.00945" lon="116.392188"><ele>39.3</ele><time>2024-05-04T03:05:13.000Z</time></trkpt><trkpt lat="40.00944" lon="116.392419"><ele>39.0</ele><time>2024-05-04T03:05:21.000Z</time></trkpt><trkpt lat="40.009493" lon="116.392563"><ele>38.8</ele><time>2024-05-04T03:05:26.000Z</time></trkpt><trkpt lat="40.009708" lon="116.39282"><ele>39.5</ele><time>2024-05-04T03:05:38.000Z</time></trkpt><trkpt lat="40.010655" lon="116.393447"><ele>38.5</ele><time>2024-05-04T03:06:17.000Z</time></trkpt><trkpt lat="40.011319" lon="116.393572"><ele>38.0</ele><time>2024-05-04T03:06:40.000Z</time></trkpt><trkpt lat="40.011742" lon="116.393547"><ele>37.3</ele><time>2024-05-04T03:06:57.000Z</time></trkpt><trkpt lat="40.012665" lon="116.393605"><ele>35.9</ele><time>2024-05-04T03:07:33.000Z</time></trkpt><trkpt lat="40.013337" lon="116.393574"><ele>35.7</ele><time>2024-05-04T03:08:00.000Z</time></trkpt><trkpt lat="40.013874" lon="116.393603"><ele>35.5</ele><time>2024-05-04T03:08:21.000Z</time></trkpt><trkpt lat="40.014327" lon="116.393673"><ele>35.4</ele><time>2024-05-04T03:08:37.000Z</time></trkpt><trkpt lat="40.014559" lon="116.393651"><ele>35.3</ele><time>2024-05-04T03:08:46.000Z</time></trkpt><trkpt lat="40.01474" lon="116.393508"><ele>34.9</ele><time>2024-05-04T03:08:54.000Z</time></trkpt><trkpt lat="40.015148" lon="116.393038"><ele>34.3</ele><time>2024-05-04T03:09:18.000Z</time></trkpt><trkpt lat="40.015458" lon="116.392738"><ele>34.7</ele><time>2024-05-04T03:09:36.000Z</time></trkpt><trkpt lat="40.015673" lon="116.392586"><ele>35.2</ele><time>2024-05-04T03:09:48.000Z</time></trkpt><trkpt lat="40.015905" lon="116.392549"><ele>35.8</ele><time>2024-05-04T03:09:57.000Z</time></trkpt><trkpt lat="40.016177" lon="116.392624"><ele>35.5</ele><time>2024-05-04T03:10:07.000Z</time></trkpt><trkpt lat="40.016478" lon="116.392858"><ele>34.7</ele><time>2024-05-04T03:10:20.000Z</time></trkpt><trkpt lat="40.016617" lon="116.39304"><ele>34.3</ele><time>2024-05-04T03:10:27.000Z</time></trkpt><trkpt lat="40.016845" lon="116.393538"><ele>34.3</ele><time>2024-05-04T03:10:44.000Z</time></trkpt><trkpt lat="40.017137" lon="116.3939"><ele>34.4</ele><time>2024-05-04T03:11:00.000Z</time></trkpt><trkpt lat="40.017354" lon="116.394023"><ele>34.5</ele><time>2024-05-04T03:11:10.000Z</time></trkpt><trkpt lat="40.017653" lon="116.394073"><ele>34.7</ele><time>2024-05-04T03:11:23.000Z</time></trkpt><trkpt lat="40.017841" lon="116.394025"><ele>34.7</ele><time>2024-05-04T03:11:31.000Z</time></trkpt><trkpt lat="40.018296" lon="116.393753"><ele>34.8</ele><time>2024-05-04T03:11:50.000Z</time></trkpt><trkpt lat="40.018717" lon="116.39334"><ele>35.6</ele><time>2024-05-04T03:12:13.000Z</time></trkpt><trkpt lat="40.019229" lon="116.393248"><ele>37.3</ele><time>2024-05-04T03:12:36.000Z</time></trkpt><trkpt lat="40.019275" lon="116.393177"><ele>37.5</ele><time>2024-05-04T03:12:40.000Z</time></trkpt><trkpt lat="40.019468" lon="116.392467"><ele>36.1</ele><time>2024-05-04T03:13:04.000Z</time></trkpt><trkpt lat="40.019961" lon="116.391078"><ele>34.8</ele><time>2024-05-04T03:13:53.000Z</time></trkpt><trkpt lat="40.020054" lon="116.390738"><ele>35.0</ele><time>2024-05-04T03:14:05.000Z</time></trkpt><trkpt lat="40.020151" lon="116.390523"><ele>35.1</ele><time>2024-05-04T03:14:14.000Z</time></trkpt><trkpt lat="40.020366" lon="116.389802"><ele>36.0</ele><time>2024-05-04T03:14:41.000Z</time></trkpt><trkpt lat="40.020359" lon="116.389517"><ele>36.4</ele><time>2024-05-04T03:14:51.000Z</time></trkpt><trkpt lat="40.020285" lon="116.389188"><ele>36.7</ele><time>2024-05-04T03:15:01.000Z</time></trkpt><trkpt lat="40.020312" lon="116.388439"><ele>34.9</ele><time>2024-05-04T03:15:24.000Z</time></trkpt><trkpt lat="40.020255" lon="116.387762"><ele>34.7</ele><time>2024-05-04T03:15:46.000Z</time></trkpt><trkpt lat="40.020013" lon="116.386484"><ele>36.0</ele><time>2024-05-04T03:16:29.000Z</time></trkpt><trkpt lat="40.020063" lon="116.386387"><ele>36.1</ele><time>2024-05-04T03:16:33.000Z</time></trkpt><trkpt lat="40.020241" lon="116.386271"><ele>36.3</ele><time>2024-05-04T03:16:42.000Z</time></trkpt><trkpt lat="40.020695" lon="116.385789"><ele>40.3</ele><time>2024-05-04T03:17:12.000Z</time></trkpt><trkpt lat="40.02081" lon="116.385742"><ele>41.0</ele><time>2024-05-04T03:17:18.000Z</time></trkpt><trkpt lat="40.021047" lon="116.385764"><ele>42.4</ele><time>2024-05-04T03:17:30.000Z</time></trkpt><trkpt lat="40.021385" lon="116.385717"><ele>43.9</ele><time>2024-05-04T03:17:46.000Z</time></trkpt><trkpt lat="40.021488" lon="116.385731"><ele>44.3</ele><time>2024-05-04T03:17:51.000Z</time></trkpt><trkpt lat="40.02181" lon="116.385879"><ele>43.9</ele><time>2024-05-04T03:18:07.000Z</time></trkpt><trkpt lat="40.022386" lon="116.385896"><ele>40.4</ele><time>2024-05-04T03:18:28.000Z</time></trkpt><trkpt lat="40.022606" lon="116.386167"><ele>37.7</ele><time>2024-05-04T03:18:40.000Z</time></trkpt><trkpt lat="40.022704" lon="116.38622"><ele>36.6</ele><time>2024-05-04T03:18:45.000Z</time></trkpt><trkpt lat="40.023648" lon="116.386195"><ele>35.4</ele><time>2024-05-04T03:19:26.000Z</time></trkpt><trkpt lat="40.024143" lon="116.386143"><ele>35.3</ele><time>2024-05-04T03:19:46.000Z</time></trkpt><trkpt lat="40.024231" lon="116.386182"><ele>35.3</ele><time>2024-05-04T03:19:50.000Z</time></trkpt><trkpt lat="40.02441" lon="116.386345"><ele>35.1</ele><time>2024-05-04T03:19:59.000Z</time></trkpt><trkpt lat="40.024441" lon="116.386662"><ele>34.3</ele><time>2024-05-04T03:20:12.000Z</time></trkpt><trkpt lat="40.024433" lon="116.387111"><ele>33.5</ele><time>2024-05-04T03:31:33.000Z</time></trkpt><trkpt lat="40.024509" lon="116.387855"><ele>34.1</ele><time>2024-05-04T03:31:58.000Z</time></trkpt><trkpt lat="40.024573" lon="116.388132"><ele>34.1</ele><time>2024-05-04T03:32:08.000Z</time></trkpt><trkpt lat="40.024632" lon="116.389161"><ele>34.1</ele><time>2024-05-04T03:32:38.000Z</time></trkpt><trkpt lat="40.024789" lon="116.390106"><ele>34.1</ele><time>2024-05-04T03:33:06.000Z</time></trkpt><trkpt lat="40.024826" lon="116.390506"><ele>34.1</ele><time>2024-05-04T03:33:19.000Z</time></trkpt><trkpt lat="40.024896" lon="116.390815"><ele>34.1</ele><time>2024-05-04T03:33:28.000Z</time></trkpt><trkpt lat="40.024997" lon="116.391857"><ele>34.1</ele><time>2024-05-04T03:34:01.000Z</time></trkpt><trkpt lat="40.025221" lon="116.393319"><ele>33.9</ele><time>2024-05-04T03:34:49.000Z</time></trkpt><trkpt lat="40.02534" lon="116.394391"><ele>33.7</ele><time>2024-05-04T03:35:23.000Z</time></trkpt><trkpt lat="40.025409" lon="116.394686"><ele>33.7</ele><time>2024-05-04T03:35:33.000Z</time></trkpt><trkpt lat="40.025525" lon="116.394861"><ele>33.7</ele><time>2024-05-04T03:35:42.000Z</time></trkpt><trkpt lat="40.02575" lon="116.394856"><ele>33.7</ele><time>2024-05-04T03:35:51.000Z</time></trkpt><trkpt lat="40.026352" lon="116.394685"><ele>33.6</ele><time>2024-05-04T03:36:15.000Z</time></trkpt><trkpt lat="40.02673" lon="116.39452"><ele>33.6</ele><time>2024-05-04T03:36:31.000Z</time></trkpt><trkpt lat="40.026884" lon="116.394443"><ele>33.6</ele><time>2024-05-04T03:36:37.000Z</time></trkpt><trkpt lat="40.02717" lon="116.394215"><ele>33.5</ele><time>2024-05-04T03:36:50.000Z</time></trkpt><trkpt lat="40.027588" lon="116.393781"><ele>33.5</ele><time>2024-05-04T03:37:13.000Z</time></trkpt><trkpt lat="40.027688" lon="116.393558"><ele>33.5</ele><time>2024-05-04T03:37:21.000Z</time></trkpt><trkpt lat="40.027725" lon="116.393346"><ele>33.5</ele><time>2024-05-04T03:37:28.000Z</time></trkpt><trkpt lat="40.027741" lon="116.392985"><ele>33.6</ele><time>2024-05-04T03:37:40.000Z</time></trkpt><trkpt lat="40.027643" lon="116.392573"><ele>33.6</ele><time>2024-05-04T03:37:54.000Z</time></trkpt><trkpt lat="40.027546" lon="116.391771"><ele>33.7</ele><time>2024-05-04T03:38:19.000Z</time></trkpt><trkpt lat="40.027346" lon="116.391301"><ele>34.0</ele><time>2024-05-04T03:38:35.000Z</time></trkpt><trkpt lat="40.027261" lon="116.391017"><ele>33.9</ele><time>2024-05-04T03:38:45.000Z</time></trkpt><trkpt lat="40.027371" lon="116.390357"><ele>34.3</ele><time>2024-05-04T03:39:07.000Z</time></trkpt><trkpt lat="40.027579" lon="116.389504"><ele>34.9</ele><time>2024-05-04T03:39:36.000Z</time></trkpt><trkpt lat="40.027692" lon="116.38913"><ele>35.0</ele><time>2024-05-04T03:39:49.000Z</time></trkpt><trkpt lat="40.027987" lon="116.388523"><ele>35.1</ele><time>2024-05-04T03:40:13.000Z</time></trkpt><trkpt lat="40.028357" lon="116.387954"><ele>34.9</ele><time>2024-05-04T03:40:38.000Z</time></trkpt><trkpt lat="40.02868" lon="116.387311"><ele>34.9</ele><time>2024-05-04T03:41:06.000Z</time></trkpt><trkpt lat="40.028965" lon="116.387041"><ele>35.5</ele><time>2024-05-04T03:41:22.000Z</time></trkpt><trkpt lat="40.029132" lon="116.386742"><ele>35.6</ele><time>2024-05-04T03:41:35.000Z</time></trkpt><trkpt lat="40.029258" lon="116.386412"><ele>36.1</ele><time>2024-05-04T03:41:48.000Z</time></trkpt><trkpt lat="40.029308" lon="116.386003"><ele>36.4</ele><time>2024-05-04T03:42:02.000Z</time></trkpt><trkpt lat="40.029504" lon="116.385429"><ele>36.3</ele><time>2024-05-04T03:42:23.000Z</time></trkpt><trkpt lat="40.029552" lon="116.385077"><ele>35.9</ele><time>2024-05-04T03:42:36.000Z</time></trkpt><trkpt lat="40.029535" lon="116.38452"><ele>35.6</ele><time>2024-05-04T03:42:54.000Z</time></trkpt><trkpt lat="40.029444" lon="116.383961"><ele>35.6</ele><time>2024-05-04T03:43:14.000Z</time></trkpt><trkpt lat="40.029451" lon="116.383652"><ele>35.7</ele><time>2024-05-04T03:43:26.000Z</time></trkpt><trkpt lat="40.029384" lon="116.383075"><ele>35.9</ele><time>2024-05-04T03:43:45.000Z</time></trkpt><trkpt lat="40.029386" lon="116.382607"><ele>36.1</ele><time>2024-05-04T03:44:03.000Z</time></trkpt><trkpt lat="40.0293" lon="116.381919"><ele>36.0</ele><time>2024-05-04T03:44:26.000Z</time></trkpt><trkpt lat="40.029318" lon="116.380707"><ele>36.4</ele><time>2024-05-04T03:45:10.000Z</time></trkpt><trkpt lat="40.029219" lon="116.379842"><ele>36.4</ele><time>2024-05-04T03:45:38.000Z</time></trkpt><trkpt lat="40.029219" lon="116.37867"><ele>37.0</ele><time>2024-05-04T03:46:20.000Z</time></trkpt><trkpt lat="40.029197" lon="116.378453"><ele>37.1</ele><time>2024-05-04T03:46:27.000Z</time></trkpt><trkpt lat="40.029216" lon="116.378087"><ele>37.2</ele><time>2024-05-04T03:46:39.000Z</time></trkpt><trkpt lat="40.028959" lon="116.376929"><ele>38.1</ele><time>2024-05-04T03:47:20.000Z</time></trkpt><trkpt lat="40.02889" lon="116.376313"><ele>38.3</ele><time>2024-05-04T03:47:40.000Z</time></trkpt><trkpt lat="40.028893" lon="116.375785"><ele>38.1</ele><time>2024-05-04T03:47:57.000Z</time></trkpt><trkpt lat="40.02894" lon="116.375323"><ele>37.7</ele><time>2024-05-04T03:48:13.000Z</time></trkpt><trkpt lat="40.028949" lon="116.374822"><ele>37.4</ele><time>2024-05-04T03:48:29.000Z</time></trkpt><trkpt lat="40.028853" lon="116.37379"><ele>37.8</ele><time>2024-05-04T03:49:04.000Z</time></trkpt><trkpt lat="40.028607" lon="116.372543"><ele>39.1</ele><time>2024-05-04T03:49:48.000Z</time></trkpt><trkpt lat="40.028493" lon="116.372249"><ele>39.5</ele><time>2024-05-04T03:49:59.000Z</time></trkpt><trkpt lat="40.028214" lon="116.371798"><ele>40.3</ele><time>2024-05-04T03:50:20.000Z</time></trkpt><trkpt lat="40.02794" lon="116.371427"><ele>40.7</ele><time>2024-05-04T03:50:35.000Z</time></trkpt><trkpt lat="40.027653" lon="116.371147"><ele>40.1</ele><time>2024-05-04T03:50:50.000Z</time></trkpt><trkpt lat="40.027381" lon="116.370969"><ele>38.9</ele><time>2024-05-04T03:51:03.000Z</time></trkpt><trkpt lat="40.027001" lon="116.370847"><ele>38.2</ele><time>2024-05-04T03:51:22.000Z</time></trkpt><trkpt lat="40.02642" lon="116.370764"><ele>38.1</ele><time>2024-05-04T03:51:49.000Z</time></trkpt><trkpt lat="40.026322" lon="116.370837"><ele>38.0</ele><time>2024-05-04T03:51:55.000Z</time></trkpt><trkpt lat="40.026119" lon="116.371096"><ele>37.6</ele><time>2024-05-04T03:52:07.000Z</time></trkpt><trkpt lat="40.025656" lon="116.3714"><ele>37.3</ele><time>2024-05-04T03:52:30.000Z</time></trkpt><trkpt lat="40.025483" lon="116.37148"><ele>37.1</ele><time>2024-05-04T03:52:39.000Z</time></trkpt><trkpt lat="40.024985" lon="116.371614"><ele>37.4</ele><time>2024-05-04T03:53:02.000Z</time></trkpt><trkpt lat="40.024843" lon="116.371739"><ele>37.6</ele><time>2024-05-04T03:53:10.000Z</time></trkpt><trkpt lat="40.02487" lon="116.372342"><ele>38.1</ele><time>2024-05-04T03:53:28.000Z</time></trkpt><trkpt lat="40.024844" lon="116.372652"><ele>38.2</ele><time>2024-05-04T03:53:38.000Z</time></trkpt><trkpt lat="40.024887" lon="116.373392"><ele>37.0</ele><time>2024-05-04T03:54:05.000Z</time></trkpt><trkpt lat="40.02502" lon="116.374366"><ele>36.6</ele><time>2024-05-04T03:54:41.000Z</time></trkpt><trkpt lat="40.025082" lon="116.375467"><ele>38.2</ele><time>2024-05-04T04:03:32.000Z</time></trkpt><trkpt lat="40.025067" lon="116.376462"><ele>37.4</ele><time>2024-05-04T04:04:02.000Z</time></trkpt><trkpt lat="40.025103" lon="116.376893"><ele>38.5</ele><time>2024-05-04T04:04:15.000Z</time></trkpt><trkpt lat="40.025046" lon="116.377199"><ele>39.0</ele><time>2024-05-04T04:04:23.000Z</time></trkpt><trkpt lat="40.025146" lon="116.37814"><ele>40.6</ele><time>2024-05-04T04:04:50.000Z</time></trkpt><trkpt lat="40.025103" lon="116.378921"><ele>40.6</ele><time>2024-05-04T04:05:10.000Z</time></trkpt><trkpt lat="40.024813" lon="116.379621"><ele>40.6</ele><time>2024-05-04T04:05:34.000Z</time></trkpt><trkpt lat="40.02462" lon="116.380243"><ele>40.6</ele><time>2024-05-04T04:05:57.000Z</time></trkpt><trkpt lat="40.024511" lon="116.380495"><ele>40.6</ele><time>2024-05-04T04:06:06.000Z</time></trkpt><trkpt lat="40.02444" lon="116.380538"><ele>40.6</ele><time>2024-05-04T04:06:09.000Z</time></trkpt><trkpt lat="40.024245" lon="116.380561"><ele>40.6</ele><time>2024-05-04T04:06:17.000Z</time></trkpt><trkpt lat="40.023831" lon="116.380433"><ele>40.6</ele><time>2024-05-04T04:06:36.000Z</time></trkpt><trkpt lat="40.023646" lon="116.380445"><ele>40.6</ele><time>2024-05-04T04:06:44.000Z</time></trkpt><trkpt lat="40.023341" lon="116.380558"><ele>40.6</ele><time>2024-05-04T04:06:58.000Z</time></trkpt><trkpt lat="40.023146" lon="116.380736"><ele>40.6</ele><time>2024-05-04T04:07:09.000Z</time></trkpt><trkpt lat="40.023025" lon="116.381017"><ele>40.6</ele><time>2024-05-04T04:07:20.000Z</time></trkpt><trkpt lat="40.022944" lon="116.381546"><ele>40.6</ele><time>2024-05-04T04:07:39.000Z</time></trkpt><trkpt lat="40.022856" lon="116.3818"><ele>40.6</ele><time>2024-05-04T04:08:12.000Z</time></trkpt><trkpt lat="40.022393" lon="116.382297"><ele>40.6</ele><time>2024-05-04T04:08:38.000Z</time></trkpt><trkpt lat="40.022194" lon="116.382618"><ele>40.6</ele><time>2024-05-04T04:08:53.000Z</time></trkpt><trkpt lat="40.022132" lon="116.382863"><ele>40.6</ele><time>2024-05-04T04:09:03.000Z</time></trkpt><trkpt lat="40.022088" lon="116.383343"><ele>40.6</ele><time>2024-05-04T04:09:18.000Z</time></trkpt><trkpt lat="40.02213" lon="116.383692"><ele>40.6</ele><time>2024-05-04T04:09:51.000Z</time></trkpt><trkpt lat="40.022295" lon="116.383929"><ele>40.6</ele><time>2024-05-04T04:10:03.000Z</time></trkpt><trkpt lat="40.022356" lon="116.384123"><ele>40.6</ele><time>2024-05-04T04:10:11.000Z</time></trkpt><trkpt lat="40.022436" lon="116.384681"><ele>40.6</ele><time>2024-05-04T04:10:30.000Z</time></trkpt><trkpt lat="40.022366" lon="116.385192"><ele>40.6</ele><time>2024-05-04T04:10:49.000Z</time></trkpt><trkpt lat="40.022363" lon="116.38548"><ele>40.6</ele><time>2024-05-04T04:10:59.000Z</time></trkpt><trkpt lat="40.022427" lon="116.385827"><ele>40.6</ele><time>2024-05-04T04:11:10.000Z</time></trkpt><trkpt lat="40.022606" lon="116.386158"><ele>40.5</ele><time>2024-05-04T04:11:21.000Z</time></trkpt><trkpt lat="40.022714" lon="116.38621"><ele>40.2</ele><time>2024-05-04T04:11:26.000Z</time></trkpt><trkpt lat="40.023023" lon="116.3862"><ele>39.3</ele><time>2024-05-04T04:11:40.000Z</time></trkpt><trkpt lat="40.023501" lon="116.386175"><ele>39.4</ele><time>2024-05-04T04:12:00.000Z</time></trkpt><trkpt lat="40.024064" lon="116.386087"><ele>39.5</ele><time>2024-05-04T04:12:25.000Z</time></trkpt><trkpt lat="40.024191" lon="116.386142"><ele>39.5</ele><time>2024-05-04T04:12:30.000Z</time></trkpt><trkpt lat="40.024388" lon="116.386348"><ele>39.3</ele><time>2024-05-04T04:12:38.000Z</time></trkpt><trkpt lat="40.024467" lon="116.387424"><ele>38.3</ele><time>2024-05-04T04:13:16.000Z</time></trkpt><trkpt lat="40.024607" lon="116.388462"><ele>38.3</ele><time>2024-05-04T04:13:53.000Z</time></trkpt><trkpt lat="40.024632" lon="116.388787"><ele>38.3</ele><time>2024-05-04T04:14:03.000Z</time></trkpt><trkpt lat="40.024619" lon="116.389147"><ele>38.2</ele><time>2024-05-04T04:14:13.000Z</time></trkpt><trkpt lat="40.024654" lon="116.389412"><ele>38.1</ele><time>2024-05-04T04:14:22.000Z</time></trkpt><trkpt lat="40.024736" lon="116.389689"><ele>38.1</ele><time>2024-05-04T04:14:31.000Z</time></trkpt><trkpt lat="40.024824" lon="116.390543"><ele>38.2</ele><time>2024-05-04T04:15:00.000Z</time></trkpt><trkpt lat="40.024955" lon="116.391227"><ele>38.1</ele><time>2024-05-04T04:15:23.000Z</time></trkpt><trkpt lat="40.025033" lon="116.392024"><ele>38.1</ele><time>2024-05-04T04:15:47.000Z</time></trkpt><trkpt lat="40.025236" lon="116.393323"><ele>37.9</ele><time>2024-05-04T04:16:36.000Z</time></trkpt><trkpt lat="40.025235" lon="116.393586"><ele>37.9</ele><time>2024-05-04T04:16:45.000Z</time></trkpt><trkpt lat="40.02532" lon="116.394029"><ele>38.0</ele><time>2024-05-04T04:17:01.000Z</time></trkpt><trkpt lat="40.025362" lon="116.394548"><ele>37.7</ele><time>2024-05-04T04:17:18.000Z</time></trkpt><trkpt lat="40.025409" lon="116.394759"><ele>37.7</ele><time>2024-05-04T04:17:25.000Z</time></trkpt><trkpt lat="40.025485" lon="116.394854"><ele>37.7</ele><time>2024-05-04T04:17:29.000Z</time></trkpt><trkpt lat="40.025587" lon="116.394888"><ele>37.7</ele><time>2024-05-04T04:17:34.000Z</time></trkpt><trkpt lat="40.02605" lon="116.39473"><ele>37.6</ele><time>2024-05-04T04:17:56.000Z</time></trkpt><trkpt lat="40.026405" lon="116.394671"><ele>37.6</ele><time>2024-05-04T04:18:13.000Z</time></trkpt><trkpt lat="40.026685" lon="116.394576"><ele>37.6</ele><time>2024-05-04T04:18:26.000Z</time></trkpt><trkpt lat="40.027142" lon="116.394255"><ele>37.6</ele><time>2024-05-04T04:18:47.000Z</time></trkpt><trkpt lat="40.027563" lon="116.393796"><ele>37.6</ele><time>2024-05-04T04:19:09.000Z</time></trkpt><trkpt lat="40.027668" lon="116.393631"><ele>37.6</ele><time>2024-05-04T04:19:17.000Z</time></trkpt><trkpt lat="40.027717" lon="116.393475"><ele>37.6</ele><time>2024-05-04T04:19:23.000Z</time></trkpt><trkpt lat="40.027746" lon="116.393091"><ele>37.6</ele><time>2024-05-04T04:19:37.000Z</time></trkpt><trkpt lat="40.027541" lon="116.391941"><ele>37.8</ele><time>2024-05-04T04:20:15.000Z</time></trkpt><trkpt lat="40.027447" lon="116.391604"><ele>37.8</ele><time>2024-05-04T04:20:27.000Z</time></trkpt><trkpt lat="40.02724" lon="116.391046"><ele>37.9</ele><time>2024-05-04T04:20:49.000Z</time></trkpt><trkpt lat="40.027359" lon="116.39021"><ele>38.4</ele><time>2024-05-04T04:21:18.000Z</time></trkpt><trkpt lat="40.027556" lon="116.38953"><ele>38.5</ele><time>2024-05-04T04:21:43.000Z</time></trkpt><trkpt lat="40.027819" lon="116.388848"><ele>38.6</ele><time>2024-05-04T04:22:07.000Z</time></trkpt><trkpt lat="40.028205" lon="116.388187"><ele>38.5</ele><time>2024-05-04T04:22:36.000Z</time></trkpt><trkpt lat="40.028335" lon="116.388036"><ele>38.3</ele><time>2024-05-04T04:22:44.000Z</time></trkpt><trkpt lat="40.028471" lon="116.387802"><ele>38.3</ele><time>2024-05-04T04:22:54.000Z</time></trkpt><trkpt lat="40.028655" lon="116.387335"><ele>38.4</ele><time>2024-05-04T04:23:14.000Z</time></trkpt><trkpt lat="40.028955" lon="116.387019"><ele>38.7</ele><time>2024-05-04T04:23:34.000Z</time></trkpt><trkpt lat="40.02913" lon="116.386725"><ele>39.0</ele><time>2024-05-04T04:23:48.000Z</time></trkpt><trkpt lat="40.029473" lon="116.385442"><ele>39.5</ele><time>2024-05-04T04:24:35.000Z</time></trkpt><trkpt lat="40.02952" lon="116.384977"><ele>39.0</ele><time>2024-05-04T04:24:51.000Z</time></trkpt><trkpt lat="40.029501" lon="116.384473"><ele>38.6</ele><time>2024-05-04T04:25:08.000Z</time></trkpt><trkpt lat="40.029434" lon="116.384001"><ele>38.4</ele><time>2024-05-04T04:25:24.000Z</time></trkpt><trkpt lat="40.029375" lon="116.383274"><ele>38.7</ele><time>2024-05-04T04:25:50.000Z</time></trkpt><trkpt lat="40.029376" lon="116.382873"><ele>38.7</ele><time>2024-05-04T04:26:04.000Z</time></trkpt><trkpt lat="40.029283" lon="116.381939"><ele>38.6</ele><time>2024-05-04T04:26:37.000Z</time></trkpt><trkpt lat="40.029277" lon="116.381303"><ele>38.6</ele><time>2024-05-04T04:27:02.000Z</time></trkpt><trkpt lat="40.029302" lon="116.380982"><ele>38.5</ele><time>2024-05-04T04:27:16.000Z</time></trkpt><trkpt lat="40.029263" lon="116.380238"><ele>38.7</ele><time>2024-05-04T04:27:43.000Z</time></trkpt><trkpt lat="40.02921" lon="116.379878"><ele>38.7</ele><time>2024-05-04T04:27:56.000Z</time></trkpt><trkpt lat="40.029237" lon="116.379549"><ele>38.7</ele><time>2024-05-04T04:28:09.000Z</time></trkpt><trkpt lat="40.029163" lon="116.378382"><ele>39.3</ele><time>2024-05-04T04:28:50.000Z</time></trkpt><trkpt lat="40.029156" lon="116.377805"><ele>39.4</ele><time>2024-05-04T04:29:12.000Z</time></trkpt><trkpt lat="40.028971" lon="116.377024"><ele>39.8</ele><time>2024-05-04T04:29:41.000Z</time></trkpt><trkpt lat="40.028867" lon="116.376326"><ele>40.2</ele><time>2024-05-04T04:30:04.000Z</time></trkpt><trkpt lat="40.02894" lon="116.374925"><ele>39.5</ele><time>2024-05-04T04:30:47.000Z</time></trkpt><trkpt lat="40.028867" lon="116.3741"><ele>39.8</ele><time>2024-05-04T04:31:17.000Z</time></trkpt><trkpt lat="40.028708" lon="116.373059"><ele>40.6</ele><time>2024-05-04T04:32:02.000Z</time></trkpt><trkpt lat="40.0286" lon="116.372577"><ele>41.3</ele><time>2024-05-04T04:32:23.000Z</time></trkpt><trkpt lat="40.028517" lon="116.372337"><ele>41.6</ele><time>2024-05-04T04:32:34.000Z</time></trkpt><trkpt lat="40.028055" lon="116.371562"><ele>43.1</ele><time>2024-05-04T04:33:12.000Z</time></trkpt><trkpt lat="40.02776" lon="116.371252"><ele>42.7</ele><time>2024-05-04T04:33:27.000Z</time></trkpt><trkpt lat="40.027611" lon="116.371046"><ele>42.3</ele><time>2024-05-04T04:33:36.000Z</time></trkpt><trkpt lat="40.027403" lon="116.370891"><ele>41.8</ele><time>2024-05-04T04:33:45.000Z</time></trkpt><trkpt lat="40.027334" lon="116.370856"><ele>41.5</ele><time>2024-05-04T04:33:48.000Z</time></trkpt><trkpt lat="40.027141" lon="116.370879"><ele>41.0</ele><time>2024-05-04T05:02:36.000Z</time></trkpt><trkpt lat="40.026533" lon="116.370764"><ele>39.7</ele><time>2024-05-04T05:03:04.000Z</time></trkpt><trkpt lat="40.026423" lon="116.370775"><ele>39.3</ele><time>2024-05-04T05:03:09.000Z</time></trkpt><trkpt lat="40.026081" lon="116.371107"><ele>39.5</ele><time>2024-05-04T05:03:27.000Z</time></trkpt><trkpt lat="40.02582" lon="116.371295"><ele>37.9</ele><time>2024-05-04T05:03:38.000Z</time></trkpt><trkpt lat="40.024923" lon="116.371625"><ele>38.1</ele><time>2024-05-04T05:04:17.000Z</time></trkpt><trkpt lat="40.024855" lon="116.371727"><ele>38.1</ele><time>2024-05-04T05:04:22.000Z</time></trkpt><trkpt lat="40.024848" lon="116.372089"><ele>38.1</ele><time>2024-05-04T05:04:35.000Z</time></trkpt><trkpt lat="40.024888" lon="116.372477"><ele>38.1</ele><time>2024-05-04T05:04:45.000Z</time></trkpt><trkpt lat="40.024849" lon="116.372662"><ele>38.1</ele><time>2024-05-04T05:04:51.000Z</time></trkpt><trkpt lat="40.024873" lon="116.37318"><ele>38.1</ele><time>2024-05-04T05:05:08.000Z</time></trkpt><trkpt lat="40.024944" lon="116.373597"><ele>38.1</ele><time>2024-05-04T05:05:21.000Z</time></trkpt><trkpt lat="40.024946" lon="116.373872"><ele>38.1</ele><time>2024-05-04T05:05:29.000Z</time></trkpt><trkpt lat="40.025013" lon="116.374319"><ele>38.1</ele><time>2024-05-04T05:05:43.000Z</time></trkpt><trkpt lat="40.025042" lon="116.374891"><ele>38.1</ele><time>2024-05-04T05:06:00.000Z</time></trkpt><trkpt lat="40.025087" lon="116.375145"><ele>38.1</ele><time>2024-05-04T05:06:07.000Z</time></trkpt><trkpt lat="40.025081" lon="116.37609"><ele>38.1</ele><time>2024-05-04T05:06:29.000Z</time></trkpt><trkpt lat="40.025127" lon="116.376569"><ele>38.1</ele><time>2024-05-04T05:06:44.000Z</time></trkpt><trkpt lat="40.025118" lon="116.377008"><ele>38.1</ele><time>2024-05-04T05:07:00.000Z</time></trkpt><trkpt lat="40.025075" lon="116.377242"><ele>38.1</ele><time>2024-05-04T05:07:08.000Z</time></trkpt><trkpt lat="40.025129" lon="116.377659"><ele>38.1</ele><time>2024-05-04T05:07:22.000Z</time></trkpt><trkpt lat="40.025145" lon="116.378442"><ele>38.1</ele><time>2024-05-04T05:07:46.000Z</time></trkpt><trkpt lat="40.025053" lon="116.379058"><ele>38.1</ele><time>2024-05-04T05:08:04.000Z</time></trkpt><trkpt lat="40.025001" lon="116.379251"><ele>38.1</ele><time>2024-05-04T05:08:11.000Z</time></trkpt><trkpt lat="40.024808" lon="116.379654"><ele>38.1</ele><time>2024-05-04T05:08:29.000Z</time></trkpt><trkpt lat="40.024571" lon="116.380426"><ele>38.2</ele><time>2024-05-04T05:08:56.000Z</time></trkpt><trkpt lat="40.02451" lon="116.380505"><ele>38.3</ele><time>2024-05-04T05:09:00.000Z</time></trkpt><trkpt lat="40.024418" lon="116.380551"><ele>38.3</ele><time>2024-05-04T05:09:05.000Z</time></trkpt><trkpt lat="40.024256" lon="116.380566"><ele>38.3</ele><time>2024-05-04T05:09:13.000Z</time></trkpt><trkpt lat="40.02385" lon="116.380443"><ele>38.5</ele><time>2024-05-04T05:09:32.000Z</time></trkpt><trkpt lat="40.023491" lon="116.380476"><ele>38.7</ele><time>2024-05-04T05:09:47.000Z</time></trkpt><trkpt lat="40.02326" lon="116.380605"><ele>38.8</ele><time>2024-05-04T05:09:57.000Z</time></trkpt><trkpt lat="40.02309" lon="116.380816"><ele>39.1</ele><time>2024-05-04T05:10:07.000Z</time></trkpt><trkpt lat="40.023023" lon="116.380975"><ele>39.3</ele><time>2024-05-04T05:10:14.000Z</time></trkpt><trkpt lat="40.022906" lon="116.381661"><ele>39.7</ele><time>2024-05-04T05:10:39.000Z</time></trkpt><trkpt lat="40.022851" lon="116.381818"><ele>39.8</ele><time>2024-05-04T05:10:45.000Z</time></trkpt><trkpt lat="40.022713" lon="116.382001"><ele>39.9</ele><time>2024-05-04T05:10:53.000Z</time></trkpt><trkpt lat="40.022442" lon="116.382226"><ele>40.3</ele><time>2024-05-04T05:11:08.000Z</time></trkpt><trkpt lat="40.022184" lon="116.382647"><ele>40.2</ele><time>2024-05-04T05:11:26.000Z</time></trkpt><trkpt lat="40.022136" lon="116.382871"><ele>40.2</ele><time>2024-05-04T05:11:34.000Z</time></trkpt><trkpt lat="40.022106" lon="116.383475"><ele>40.0</ele><time>2024-05-04T05:11:54.000Z</time></trkpt><trkpt lat="40.022145" lon="116.383753"><ele>40.0</ele><time>2024-05-04T05:12:04.000Z</time></trkpt><trkpt lat="40.022364" lon="116.384149"><ele>40.1</ele><time>2024-05-04T05:12:21.000Z</time></trkpt><trkpt lat="40.022463" lon="116.384618"><ele>40.2</ele><time>2024-05-04T05:12:37.000Z</time></trkpt><trkpt lat="40.022405" lon="116.385031"><ele>40.6</ele><time>2024-05-04T05:12:51.000Z</time></trkpt><trkpt lat="40.022398" lon="116.385562"><ele>41.4</ele><time>2024-05-04T05:13:11.000Z</time></trkpt><trkpt lat="40.022463" lon="116.385949"><ele>41.4</ele><time>2024-05-04T05:13:25.000Z</time></trkpt><trkpt lat="40.022566" lon="116.386165"><ele>41.2</ele><time>2024-05-04T05:13:33.000Z</time></trkpt><trkpt lat="40.022724" lon="116.38624"><ele>40.6</ele><time>2024-05-04T05:13:41.000Z</time></trkpt><trkpt lat="40.024124" lon="116.386106"><ele>40.2</ele><time>2024-05-04T05:14:44.000Z</time></trkpt><trkpt lat="40.024228" lon="116.386151"><ele>40.1</ele><time>2024-05-04T05:14:48.000Z</time></trkpt><trkpt lat="40.024425" lon="116.38639"><ele>39.8</ele><time>2024-05-04T05:14:59.000Z</time></trkpt><trkpt lat="40.024453" lon="116.387139"><ele>38.6</ele><time>2024-05-04T05:15:22.000Z</time></trkpt><trkpt lat="40.024546" lon="116.387911"><ele>38.6</ele><time>2024-05-04T05:15:44.000Z</time></trkpt><trkpt lat="40.024558" lon="116.388402"><ele>38.6</ele><time>2024-05-04T05:16:02.000Z</time></trkpt><trkpt lat="40.024632" lon="116.388702"><ele>38.5</ele><time>2024-05-04T05:16:13.000Z</time></trkpt><trkpt lat="40.024655" lon="116.389052"><ele>38.5</ele><time>2024-05-04T05:16:25.000Z</time></trkpt><trkpt lat="40.024717" lon="116.389309"><ele>38.4</ele><time>2024-05-04T05:16:33.000Z</time></trkpt><trkpt lat="40.024766" lon="116.389937"><ele>38.3</ele><time>2024-05-04T05:16:57.000Z</time></trkpt><trkpt lat="40.024861" lon="116.390468"><ele>38.3</ele><time>2024-05-04T05:17:13.000Z</time></trkpt><trkpt lat="40.024935" lon="116.391232"><ele>38.3</ele><time>2024-05-04T05:17:42.000Z</time></trkpt><trkpt lat="40.025049" lon="116.39188"><ele>38.2</ele><time>2024-05-04T05:18:06.000Z</time></trkpt><trkpt lat="40.025061" lon="116.39216"><ele>38.1</ele><time>2024-05-04T05:18:16.000Z</time></trkpt><trkpt lat="40.02514" lon="116.392811"><ele>38.1</ele><time>2024-05-04T05:18:39.000Z</time></trkpt><trkpt lat="40.025235" lon="116.393307"><ele>38.0</ele><time>2024-05-04T05:18:58.000Z</time></trkpt><trkpt lat="40.025238" lon="116.393591"><ele>37.9</ele><time>2024-05-04T05:19:08.000Z</time></trkpt><trkpt lat="40.025322" lon="116.394214"><ele>38.0</ele><time>2024-05-04T05:19:31.000Z</time></trkpt><trkpt lat="40.02545" lon="116.394813"><ele>37.8</ele><time>2024-05-04T05:19:51.000Z</time></trkpt><trkpt lat="40.025547" lon="116.394929"><ele>37.8</ele><time>2024-05-04T05:19:57.000Z</time></trkpt><trkpt lat="40.025599" lon="116.394938"><ele>37.8</ele><time>2024-05-04T05:20:00.000Z</time></trkpt><trkpt lat="40.025805" lon="116.394886"><ele>37.7</ele><time>2024-05-04T05:20:09.000Z</time></trkpt><trkpt lat="40.026012" lon="116.394746"><ele>37.7</ele><time>2024-05-04T05:20:18.000Z</time></trkpt><trkpt lat="40.026542" lon="116.394626"><ele>37.8</ele><time>2024-05-04T05:20:41.000Z</time></trkpt><trkpt lat="40.026965" lon="116.394384"><ele>37.7</ele><time>2024-05-04T05:21:01.000Z</time></trkpt><trkpt lat="40.027317" lon="116.394068"><ele>37.7</ele><time>2024-05-04T05:21:21.000Z</time></trkpt><trkpt lat="40.027577" lon="116.393776"><ele>37.7</ele><time>2024-05-04T05:21:37.000Z</time></trkpt><trkpt lat="40.027673" lon="116.393621"><ele>37.7</ele><time>2024-05-04T05:21:43.000Z</time></trkpt><trkpt lat="40.027723" lon="116.393453"><ele>37.8</ele><time>2024-05-04T05:21:49.000Z</time></trkpt><trkpt lat="40.027751" lon="116.393113"><ele>37.8</ele><time>2024-05-04T05:21:59.000Z</time></trkpt><trkpt lat="40.027661" lon="116.392641"><ele>37.9</ele><time>2024-05-04T05:22:12.000Z</time></trkpt><trkpt lat="40.027589" lon="116.392032"><ele>38.0</ele><time>2024-05-04T05:22:35.000Z</time></trkpt><trkpt lat="40.027501" lon="116.391671"><ele>38.1</ele><time>2024-05-04T05:22:47.000Z</time></trkpt><trkpt lat="40.027271" lon="116.391005"><ele>38.2</ele><time>2024-05-04T05:23:13.000Z</time></trkpt><trkpt lat="40.027293" lon="116.390735"><ele>38.3</ele><time>2024-05-04T05:23:23.000Z</time></trkpt><trkpt lat="40.027439" lon="116.389967"><ele>38.9</ele><time>2024-05-04T05:23:51.000Z</time></trkpt><trkpt lat="40.027547" lon="116.389673"><ele>39.0</ele><time>2024-05-04T05:24:03.000Z</time></trkpt><trkpt lat="40.027656" lon="116.389241"><ele>39.2</ele><time>2024-05-04T05:24:21.000Z</time></trkpt><trkpt lat="40.028242" lon="116.388154"><ele>38.9</ele><time>2024-05-04T05:25:08.000Z</time></trkpt><trkpt lat="40.028483" lon="116.387769"><ele>38.6</ele><time>2024-05-04T05:25:26.000Z</time></trkpt><trkpt lat="40.028687" lon="116.38726"><ele>38.7</ele><time>2024-05-04T05:25:44.000Z</time></trkpt><trkpt lat="40.028977" lon="116.387017"><ele>39.1</ele><time>2024-05-04T05:26:01.000Z</time></trkpt><trkpt lat="40.029148" lon="116.386777"><ele>39.3</ele><time>2024-05-04T05:26:13.000Z</time></trkpt><trkpt lat="40.029341" lon="116.386067"><ele>39.8</ele><time>2024-05-04T05:26:38.000Z</time></trkpt><trkpt lat="40.029404" lon="116.385701"><ele>39.9</ele><time>2024-05-04T05:26:49.000Z</time></trkpt><trkpt lat="40.029511" lon="116.385405"><ele>39.5</ele><time>2024-05-04T05:27:01.000Z</time></trkpt><trkpt lat="40.029556" lon="116.384767"><ele>38.9</ele><time>2024-05-04T05:27:21.000Z</time></trkpt><trkpt lat="40.029425" lon="116.383522"><ele>38.9</ele><time>2024-05-04T05:28:05.000Z</time></trkpt><trkpt lat="40.029317" lon="116.381942"><ele>38.9</ele><time>2024-05-04T05:28:55.000Z</time></trkpt><trkpt lat="40.029322" lon="116.38058"><ele>39.1</ele><time>2024-05-04T05:29:44.000Z</time></trkpt><trkpt lat="40.029308" lon="116.380238"><ele>39.1</ele><time>2024-05-04T05:29:56.000Z</time></trkpt><trkpt lat="40.029244" lon="116.379946"><ele>39.1</ele><time>2024-05-04T05:30:06.000Z</time></trkpt><trkpt lat="40.029257" lon="116.37948"><ele>39.2</ele><time>2024-05-04T05:30:20.000Z</time></trkpt><trkpt lat="40.029244" lon="116.378713"><ele>39.5</ele><time>2024-05-04T05:30:44.000Z</time></trkpt><trkpt lat="40.0292" lon="116.378187"><ele>39.7</ele><time>2024-05-04T05:31:03.000Z</time></trkpt><trkpt lat="40.029214" lon="116.377913"><ele>39.8</ele><time>2024-05-04T05:31:14.000Z</time></trkpt><trkpt lat="40.029194" lon="116.377758"><ele>39.8</ele><time>2024-05-04T05:31:20.000Z</time></trkpt><trkpt lat="40.029021" lon="116.377162"><ele>40.3</ele><time>2024-05-04T05:31:45.000Z</time></trkpt><trkpt lat="40.028911" lon="116.376458"><ele>40.6</ele><time>2024-05-04T05:32:12.000Z</time></trkpt><trkpt lat="40.028955" lon="116.374994"><ele>39.8</ele><time>2024-05-04T05:33:01.000Z</time></trkpt><trkpt lat="40.028895" lon="116.373867"><ele>40.2</ele><time>2024-05-04T05:33:40.000Z</time></trkpt><trkpt lat="40.028592" lon="116.372439"><ele>42.0</ele><time>2024-05-04T05:34:35.000Z</time></trkpt><trkpt lat="40.028273" lon="116.371865"><ele>43.0</ele><time>2024-05-04T05:34:59.000Z</time></trkpt><trkpt lat="40.027912" lon="116.371392"><ele>43.5</ele><time>2024-05-04T05:35:21.000Z</time></trkpt><trkpt lat="40.027504" lon="116.371041"><ele>42.1</ele><time>2024-05-04T05:35:41.000Z</time></trkpt><trkpt lat="40.027104" lon="116.370819"><ele>41.2</ele><time>2024-05-04T05:36:03.000Z</time></trkpt><trkpt lat="40.02657" lon="116.370727"><ele>41.4</ele><time>2024-05-04T05:36:30.000Z</time></trkpt><trkpt lat="40.026432" lon="116.370752"><ele>41.3</ele><time>2024-05-04T05:36:36.000Z</time></trkpt><trkpt lat="40.026158" lon="116.371042"><ele>40.8</ele><time>2024-05-04T05:36:52.000Z</time></trkpt><trkpt lat="40.02588" lon="116.37125"><ele>40.7</ele><time>2024-05-04T05:37:05.000Z</time></trkpt><trkpt lat="40.02545" lon="116.37147"><ele>40.5</ele><time>2024-05-04T05:37:29.000Z</time></trkpt><trkpt lat="40.025332" lon="116.371483"><ele>40.6</ele><time>2024-05-04T05:37:35.000Z</time></trkpt><trkpt lat="40.024932" lon="116.371638"><ele>40.7</ele><time>2024-05-04T05:37:55.000Z</time></trkpt><trkpt lat="40.024862" lon="116.371713"><ele>40.8</ele><time>2024-05-04T05:38:00.000Z</time></trkpt><trkpt lat="40.024847" lon="116.371804"><ele>40.8</ele><time>2024-05-04T05:38:04.000Z</time></trkpt><trkpt lat="40.024904" lon="116.372734"><ele>41.4</ele><time>2024-05-04T05:38:38.000Z</time></trkpt><trkpt lat="40.024945" lon="116.372971"><ele>40.8</ele><time>2024-05-04T05:38:46.000Z</time></trkpt><trkpt lat="40.024926" lon="116.373101"><ele>40.7</ele><time>2024-05-04T05:38:51.000Z</time></trkpt><trkpt lat="40.024953" lon="116.373438"><ele>40.3</ele><time>2024-05-04T05:39:05.000Z</time></trkpt><trkpt lat="40.025065" lon="116.374288"><ele>40.0</ele><time>2024-05-04T05:39:33.000Z</time></trkpt><trkpt lat="40.025077" lon="116.374869"><ele>39.8</ele><time>2024-05-04T05:39:50.000Z</time></trkpt><trkpt lat="40.025147" lon="116.375223"><ele>39.8</ele><time>2024-05-04T05:40:01.000Z</time></trkpt><trkpt lat="40.025116" lon="116.376264"><ele>40.1</ele><time>2024-05-04T05:40:36.000Z</time></trkpt><trkpt lat="40.025131" lon="116.376524"><ele>40.2</ele><time>2024-05-04T05:40:46.000Z</time></trkpt><trkpt lat="40.025065" lon="116.377173"><ele>40.6</ele><time>2024-05-04T05:41:08.000Z</time></trkpt><trkpt lat="40.025133" lon="116.378039"><ele>40.4</ele><time>2024-05-04T05:41:39.000Z</time></trkpt><trkpt lat="40.02511" lon="116.378822"><ele>39.2</ele><time>2024-05-04T05:42:06.000Z</time></trkpt><trkpt lat="40.025036" lon="116.379228"><ele>38.9</ele><time>2024-05-04T05:42:19.000Z</time></trkpt><trkpt lat="40.024715" lon="116.380109"><ele>38.7</ele><time>2024-05-04T05:42:56.000Z</time></trkpt><trkpt lat="40.024671" lon="116.380409"><ele>38.8</ele><time>2024-05-04T05:43:07.000Z</time></trkpt><trkpt lat="40.024563" lon="116.380489"><ele>38.9</ele><time>2024-05-04T05:43:12.000Z</time></trkpt><trkpt lat="40.024365" lon="116.380533"><ele>39.1</ele><time>2024-05-04T05:43:20.000Z</time></trkpt><trkpt lat="40.024206" lon="116.380523"><ele>39.1</ele><time>2024-05-04T05:43:28.000Z</time></trkpt><trkpt lat="40.023811" lon="116.380406"><ele>39.3</ele><time>2024-05-04T05:43:47.000Z</time></trkpt><trkpt lat="40.023645" lon="116.380408"><ele>39.4</ele><time>2024-05-04T05:43:54.000Z</time></trkpt><trkpt lat="40.023436" lon="116.380476"><ele>39.5</ele><time>2024-05-04T05:44:03.000Z</time></trkpt><trkpt lat="40.023281" lon="116.380586"><ele>39.6</ele><time>2024-05-04T05:44:11.000Z</time></trkpt><trkpt lat="40.023153" lon="116.380779"><ele>39.9</ele><time>2024-05-04T05:44:21.000Z</time></trkpt><trkpt lat="40.02304" lon="116.381092"><ele>40.2</ele><time>2024-05-04T05:44:33.000Z</time></trkpt><trkpt lat="40.022987" lon="116.381296"><ele>40.4</ele><time>2024-05-04T05:44:41.000Z</time></trkpt><trkpt lat="40.022952" lon="116.381636"><ele>40.7</ele><time>2024-05-04T05:44:52.000Z</time></trkpt><trkpt lat="40.022886" lon="116.381808"><ele>40.7</ele><time>2024-05-04T05:44:59.000Z</time></trkpt><trkpt lat="40.022645" lon="116.382064"><ele>40.9</ele><time>2024-05-04T05:45:11.000Z</time></trkpt><trkpt lat="40.022438" lon="116.382203"><ele>40.9</ele><time>2024-05-04T05:45:22.000Z</time></trkpt><trkpt lat="40.02223" lon="116.382542"><ele>41.0</ele><time>2024-05-04T05:45:35.000Z</time></trkpt><trkpt lat="40.022114" lon="116.382982"><ele>40.8</ele><time>2024-05-04T05:45:51.000Z</time></trkpt><trkpt lat="40.022126" lon="116.38352"><ele>40.8</ele><time>2024-05-04T05:46:08.000Z</time></trkpt><trkpt lat="40.022138" lon="116.383663"><ele>40.8</ele><time>2024-05-04T05:46:13.000Z</time></trkpt><trkpt lat="40.022196" lon="116.383823"><ele>40.8</ele><time>2024-05-04T05:46:20.000Z</time></trkpt><trkpt lat="40.022424" lon="116.384127"><ele>40.8</ele><time>2024-05-04T05:46:34.000Z</time></trkpt><trkpt lat="40.022459" lon="116.384249"><ele>40.9</ele><time>2024-05-04T05:46:38.000Z</time></trkpt><trkpt lat="40.022423" lon="116.384541"><ele>41.1</ele><time>2024-05-04T05:46:48.000Z</time></trkpt><trkpt lat="40.022473" lon="116.384823"><ele>41.3</ele><time>2024-05-04T05:46:59.000Z</time></trkpt><trkpt lat="40.022438" lon="116.385101"><ele>41.5</ele><time>2024-05-04T05:47:09.000Z</time></trkpt><trkpt lat="40.022443" lon="116.385677"><ele>42.5</ele><time>2024-05-04T05:47:29.000Z</time></trkpt><trkpt lat="40.022415" lon="116.385772"><ele>42.7</ele><time>2024-05-04T05:47:32.000Z</time></trkpt><trkpt lat="40.022353" lon="116.385823"><ele>42.7</ele><time>2024-05-04T05:47:35.000Z</time></trkpt><trkpt lat="40.022012" lon="116.385897"><ele>43.2</ele><time>2024-05-04T05:47:53.000Z</time></trkpt><trkpt lat="40.021743" lon="116.385853"><ele>46.0</ele><time>2024-05-04T05:48:08.000Z</time></trkpt><trkpt lat="40.021477" lon="116.385698"><ele>48.5</ele><time>2024-05-04T05:48:24.000Z</time></trkpt><trkpt lat="40.021348" lon="116.385662"><ele>49.7</ele><time>2024-05-04T05:48:31.000Z</time></trkpt><trkpt lat="40.021063" lon="116.385755"><ele>50.1</ele><time>2024-05-04T05:48:44.000Z</time></trkpt><trkpt lat="40.020622" lon="116.385783"><ele>49.3</ele><time>2024-05-04T05:49:01.000Z</time></trkpt><trkpt lat="40.02049" lon="116.38566"><ele>48.7</ele><time>2024-05-04T05:49:08.000Z</time></trkpt><trkpt lat="40.020287" lon="116.385541"><ele>47.2</ele><time>2024-05-04T05:49:18.000Z</time></trkpt><trkpt lat="40.020135" lon="116.38533"><ele>45.8</ele><time>2024-05-04T05:49:26.000Z</time></trkpt><trkpt lat="40.019975" lon="116.385178"><ele>45.0</ele><time>2024-05-04T05:49:31.000Z</time></trkpt><trkpt lat="40.019951" lon="116.385049"><ele>45.0</ele><time>2024-05-04T05:49:34.000Z</time></trkpt><trkpt lat="40.019984" lon="116.384913"><ele>43.9</ele><time>2024-05-04T05:49:38.000Z</time></trkpt><trkpt lat="40.019986" lon="116.384502"><ele>41.4</ele><time>2024-05-04T05:49:52.000Z</time></trkpt><trkpt lat="40.020033" lon="116.383946"><ele>41.0</ele><time>2024-05-04T05:50:09.000Z</time></trkpt><trkpt lat="40.020184" lon="116.383206"><ele>40.6</ele><time>2024-05-04T05:50:35.000Z</time></trkpt><trkpt lat="40.02023" lon="116.382703"><ele>40.4</ele><time>2024-05-04T05:50:52.000Z</time></trkpt><trkpt lat="40.020293" lon="116.382439"><ele>40.4</ele><time>2024-05-04T05:51:01.000Z</time></trkpt><trkpt lat="40.020269" lon="116.382146"><ele>40.5</ele><time>2024-05-04T05:51:13.000Z</time></trkpt><trkpt lat="40.020109" lon="116.381323"><ele>41.6</ele><time>2024-05-04T05:51:46.000Z</time></trkpt><trkpt lat="40.019828" lon="116.380886"><ele>42.4</ele><time>2024-05-04T05:52:12.000Z</time></trkpt><trkpt lat="40.019192" lon="116.380222"><ele>47.2</ele><time>2024-05-04T05:52:57.000Z</time></trkpt><trkpt lat="40.01878" lon="116.37956"><ele>48.4</ele><time>2024-05-04T05:53:29.000Z</time></trkpt><trkpt lat="40.018612" lon="116.379162"><ele>47.1</ele><time>2024-05-04T05:53:45.000Z</time></trkpt><trkpt lat="40.018582" lon="116.378964"><ele>46.8</ele><time>2024-05-04T05:53:53.000Z</time></trkpt><trkpt lat="40.018495" lon="116.37872"><ele>46.6</ele><time>2024-05-04T05:54:03.000Z</time></trkpt><trkpt lat="40.018392" lon="116.378118"><ele>46.8</ele><time>2024-05-04T05:54:25.000Z</time></trkpt><trkpt lat="40.018355" lon="116.377662"><ele>46.8</ele><time>2024-05-04T05:54:42.000Z</time></trkpt><trkpt lat="40.018263" lon="116.377293"><ele>46.8</ele><time>2024-05-04T05:54:56.000Z</time></trkpt><trkpt lat="40.017938" lon="116.37653"><ele>46.5</ele><time>2024-05-04T05:55:28.000Z</time></trkpt><trkpt lat="40.017657" lon="116.376076"><ele>46.9</ele><time>2024-05-04T05:55:50.000Z</time></trkpt><trkpt lat="40.01739" lon="116.375793"><ele>47.5</ele><time>2024-05-04T05:56:09.000Z</time></trkpt><trkpt lat="40.017059" lon="116.375144"><ele>48.5</ele><time>2024-05-04T05:56:39.000Z</time></trkpt><trkpt lat="40.01678" lon="116.374822"><ele>49.5</ele><time>2024-05-04T05:56:57.000Z</time></trkpt><trkpt lat="40.016337" lon="116.374618"><ele>50.5</ele><time>2024-05-04T05:57:20.000Z</time></trkpt><trkpt lat="40.015967" lon="116.374564"><ele>50.6</ele><time>2024-05-04T05:57:38.000Z</time></trkpt><trkpt lat="40.015665" lon="116.37467"><ele>50.4</ele><time>2024-05-04T05:57:51.000Z</time></trkpt><trkpt lat="40.015445" lon="116.374696"><ele>50.1</ele><time>2024-05-04T05:58:01.000Z</time></trkpt><trkpt lat="40.014907" lon="116.375047"><ele>48.8</ele><time>2024-05-04T05:58:30.000Z</time></trkpt><trkpt lat="40.014546" lon="116.375625"><ele>49.4</ele><time>2024-05-04T05:58:58.000Z</time></trkpt><trkpt lat="40.014417" lon="116.375775"><ele>49.8</ele><time>2024-05-04T05:59:06.000Z</time></trkpt><trkpt lat="40.01402" lon="116.376802"><ele>52.2</ele><time>2024-05-04T05:59:52.000Z</time></trkpt><trkpt lat="40.013458" lon="116.377535"><ele>52.6</ele><time>2024-05-04T06:00:33.000Z</time></trkpt><trkpt lat="40.013351" lon="116.377758"><ele>52.5</ele><time>2024-05-04T06:00:42.000Z</time></trkpt><trkpt lat="40.013191" lon="116.378639"><ele>50.8</ele><time>2024-05-04T06:01:11.000Z</time></trkpt><trkpt lat="40.013023" lon="116.379107"><ele>49.1</ele><time>2024-05-04T06:01:26.000Z</time></trkpt><trkpt lat="40.01298" lon="116.379307"><ele>48.6</ele><time>2024-05-04T06:01:31.000Z</time></trkpt><trkpt lat="40.012689" lon="116.379784"><ele>47.3</ele><time>2024-05-04T06:01:48.000Z</time></trkpt><trkpt lat="40.012448" lon="116.380026"><ele>46.3</ele><time>2024-05-04T06:01:59.000Z</time></trkpt><trkpt lat="40.012025" lon="116.380331"><ele>44.6</ele><time>2024-05-04T06:02:17.000Z</time></trkpt><trkpt lat="40.011398" lon="116.380572"><ele>43.8</ele><time>2024-05-04T06:02:49.000Z</time></trkpt><trkpt lat="40.010662" lon="116.381461"><ele>47.2</ele><time>2024-05-04T06:03:39.000Z</time></trkpt><trkpt lat="40.010586" lon="116.382298"><ele>46.2</ele><time>2024-05-04T06:04:07.000Z</time></trkpt><trkpt lat="40.010776" lon="116.383682"><ele>45.0</ele><time>2024-05-04T06:04:52.000Z</time></trkpt><trkpt lat="40.010718" lon="116.384312"><ele>45.7</ele><time>2024-05-04T06:05:16.000Z</time></trkpt><trkpt lat="40.010605" lon="116.384733"><ele>46.7</ele><time>2024-05-04T06:05:31.000Z</time></trkpt><trkpt lat="40.010451" lon="116.385032"><ele>47.6</ele><time>2024-05-04T06:05:44.000Z</time></trkpt><trkpt lat="40.010377" lon="116.385052"><ele>40.8</ele><time>2024-05-04T06:12:44.000Z</time></trkpt><trkpt lat="40.010259" lon="116.385617"><ele>41.0</ele><time>2024-05-04T06:13:06.000Z</time></trkpt><trkpt lat="40.010153" lon="116.385739"><ele>41.1</ele><time>2024-05-04T06:13:15.000Z</time></trkpt><trkpt lat="40.010235" lon="116.386134"><ele>41.2</ele><time>2024-05-04T06:13:28.000Z</time></trkpt><trkpt lat="40.010335" lon="116.387015"><ele>41.1</ele><time>2024-05-04T06:13:59.000Z</time></trkpt><trkpt lat="40.010727" lon="116.387961"><ele>40.9</ele><time>2024-05-04T06:14:34.000Z</time></trkpt><trkpt lat="40.010744" lon="116.38831"><ele>40.7</ele><time>2024-05-04T06:14:44.000Z</time></trkpt><trkpt lat="40.010651" lon="116.388944"><ele>39.8</ele><time>2024-05-04T06:15:06.000Z</time></trkpt><trkpt lat="40.010679" lon="116.389347"><ele>39.6</ele><time>2024-05-04T06:15:20.000Z</time></trkpt><trkpt lat="40.010623" lon="116.390021"><ele>39.3</ele><time>2024-05-04T06:15:40.000Z</time></trkpt><trkpt lat="40.010507" lon="116.390389"><ele>39.1</ele><time>2024-05-04T06:15:52.000Z</time></trkpt><trkpt lat="40.010394" lon="116.39063"><ele>39.0</ele><time>2024-05-04T06:16:01.000Z</time></trkpt><trkpt lat="40.010161" lon="116.39078"><ele>39.0</ele><time>2024-05-04T06:16:13.000Z</time></trkpt><trkpt lat="40.010031" lon="116.390767"><ele>38.9</ele><time>2024-05-04T06:16:19.000Z</time></trkpt><trkpt lat="40.009929" lon="116.39069"><ele>39.0</ele><time>2024-05-04T06:16:24.000Z</time></trkpt><trkpt lat="40.009864" lon="116.390592"><ele>39.0</ele><time>2024-05-04T06:16:28.000Z</time></trkpt><trkpt lat="40.009801" lon="116.390379"><ele>39.2</ele><time>2024-05-04T06:16:37.000Z</time></trkpt><trkpt lat="40.009718" lon="116.390298"><ele>39.2</ele><time>2024-05-04T06:16:42.000Z</time></trkpt><trkpt lat="40.009623" lon="116.390281"><ele>39.2</ele><time>2024-05-04T06:16:46.000Z</time></trkpt><trkpt lat="40.009121" lon="116.390498"><ele>39.2</ele><time>2024-05-04T06:17:08.000Z</time></trkpt><trkpt lat="40.009042" lon="116.390576"><ele>39.2</ele><time>2024-05-04T06:17:12.000Z</time></trkpt><trkpt lat="40.009014" lon="116.390668"><ele>39.2</ele><time>2024-05-04T06:17:15.000Z</time></trkpt><trkpt lat="40.009029" lon="116.390868"><ele>38.6</ele><time>2024-05-04T06:17:22.000Z</time></trkpt><trkpt lat="40.009181" lon="116.3912"><ele>38.0</ele><time>2024-05-04T06:17:35.000Z</time></trkpt><trkpt lat="40.009486" lon="116.392114"><ele>38.8</ele><time>2024-05-04T06:18:08.000Z</time></trkpt><trkpt lat="40.00951" lon="116.392459"><ele>38.2</ele><time>2024-05-04T06:18:21.000Z</time></trkpt><trkpt lat="40.009548" lon="116.392568"><ele>38.2</ele><time>2024-05-04T06:18:25.000Z</time></trkpt><trkpt lat="40.010117" lon="116.393115"><ele>38.4</ele><time>2024-05-04T06:18:57.000Z</time></trkpt><trkpt lat="40.010523" lon="116.393385"><ele>38.1</ele><time>2024-05-04T06:19:17.000Z</time></trkpt><trkpt lat="40.010777" lon="116.39349"><ele>37.9</ele><time>2024-05-04T06:19:28.000Z</time></trkpt><trkpt lat="40.011272" lon="116.393574"><ele>37.4</ele><time>2024-05-04T06:19:48.000Z</time></trkpt><trkpt lat="40.011734" lon="116.393519"><ele>36.8</ele><time>2024-05-04T06:20:06.000Z</time></trkpt><trkpt lat="40.012149" lon="116.393564"><ele>36.1</ele><time>2024-05-04T06:20:22.000Z</time></trkpt><trkpt lat="40.012794" lon="116.393545"><ele>35.3</ele><time>2024-05-04T06:20:49.000Z</time></trkpt><trkpt lat="40.013137" lon="116.393602"><ele>35.1</ele><time>2024-05-04T06:21:08.000Z</time></trkpt><trkpt lat="40.013655" lon="116.393589"><ele>35.0</ele><time>2024-05-04T06:21:32.000Z</time></trkpt><trkpt lat="40.014449" lon="116.39366"><ele>34.8</ele><time>2024-05-04T06:22:07.000Z</time></trkpt><trkpt lat="40.014642" lon="116.3936"><ele>34.6</ele><time>2024-05-04T06:22:15.000Z</time></trkpt><trkpt lat="40.014904" lon="116.393385"><ele>34.1</ele><time>2024-05-04T06:22:29.000Z</time></trkpt><trkpt lat="40.015052" lon="116.393225"><ele>33.9</ele><time>2024-05-04T06:22:39.000Z</time></trkpt><trkpt lat="40.015205" lon="116.392954"><ele>33.9</ele><time>2024-05-04T06:22:50.000Z</time></trkpt><trkpt lat="40.015395" lon="116.392748"><ele>34.2</ele><time>2024-05-04T06:23:02.000Z</time></trkpt><trkpt lat="40.015705" lon="116.392579"><ele>34.6</ele><time>2024-05-04T06:23:19.000Z</time></trkpt><trkpt lat="40.01592" lon="116.392549"><ele>35.2</ele><time>2024-05-04T06:23:29.000Z</time></trkpt><trkpt lat="40.016217" lon="116.392645"><ele>34.7</ele><time>2024-05-04T06:23:43.000Z</time></trkpt><trkpt lat="40.016473" lon="116.392841"><ele>34.0</ele><time>2024-05-04T06:23:56.000Z</time></trkpt><trkpt lat="40.016665" lon="116.393098"><ele>33.8</ele><time>2024-05-04T06:24:09.000Z</time></trkpt><trkpt lat="40.016952" lon="116.39362"><ele>33.9</ele><time>2024-05-04T06:24:32.000Z</time></trkpt><trkpt lat="40.017224" lon="116.393972"><ele>33.9</ele><time>2024-05-04T06:24:52.000Z</time></trkpt><trkpt lat="40.017446" lon="116.394028"><ele>34.0</ele><time>2024-05-04T06:25:02.000Z</time></trkpt><trkpt lat="40.017746" lon="116.394037"><ele>34.1</ele><time>2024-05-04T06:25:15.000Z</time></trkpt><trkpt lat="40.018233" lon="116.39377"><ele>33.9</ele><time>2024-05-04T06:25:37.000Z</time></trkpt><trkpt lat="40.018744" lon="116.393303"><ele>35.1</ele><time>2024-05-04T06:26:09.000Z</time></trkpt><trkpt lat="40.019174" lon="116.393245"><ele>36.5</ele><time>2024-05-04T06:26:28.000Z</time></trkpt><trkpt lat="40.019285" lon="116.393173"><ele>36.6</ele><time>2024-05-04T06:26:33.000Z</time></trkpt><trkpt lat="40.019344" lon="116.393068"><ele>36.5</ele><time>2024-05-04T06:26:37.000Z</time></trkpt><trkpt lat="40.019608" lon="116.392073"><ele>34.1</ele><time>2024-05-04T06:27:09.000Z</time></trkpt><trkpt lat="40.019755" lon="116.39165"><ele>33.9</ele><time>2024-05-04T06:27:26.000Z</time></trkpt><trkpt lat="40.019861" lon="116.391138"><ele>33.7</ele><time>2024-05-04T06:27:44.000Z</time></trkpt><trkpt lat="40.020141" lon="116.390549"><ele>33.9</ele><time>2024-05-04T06:28:07.000Z</time></trkpt><trkpt lat="40.020347" lon="116.389814"><ele>34.6</ele><time>2024-05-04T06:28:38.000Z</time></trkpt><trkpt lat="40.020359" lon="116.389679"><ele>34.8</ele><time>2024-05-04T06:28:43.000Z</time></trkpt><trkpt lat="40.020289" lon="116.389245"><ele>35.2</ele><time>2024-05-04T06:28:58.000Z</time></trkpt><trkpt lat="40.020285" lon="116.388956"><ele>34.7</ele><time>2024-05-04T06:29:06.000Z</time></trkpt><trkpt lat="40.020334" lon="116.388583"><ele>33.8</ele><time>2024-05-04T06:29:19.000Z</time></trkpt><trkpt lat="40.020302" lon="116.387809"><ele>33.5</ele><time>2024-05-04T06:29:48.000Z</time></trkpt><trkpt lat="40.020111" lon="116.386917"><ele>34.3</ele><time>2024-05-04T06:30:25.000Z</time></trkpt><trkpt lat="40.020044" lon="116.386469"><ele>34.6</ele><time>2024-05-04T06:30:43.000Z</time></trkpt><trkpt lat="40.020068" lon="116.386392"><ele>34.6</ele><time>2024-05-04T06:30:46.000Z</time></trkpt><trkpt lat="40.020379" lon="116.386151"><ele>35.6</ele><time>2024-05-04T06:31:07.000Z</time></trkpt><trkpt lat="40.020593" lon="116.385872"><ele>37.6</ele><time>2024-05-04T06:31:25.000Z</time></trkpt><trkpt lat="40.020735" lon="116.385742"><ele>39.0</ele><time>2024-05-04T06:31:35.000Z</time></trkpt><trkpt lat="40.021123" lon="116.385757"><ele>41.7</ele><time>2024-05-04T06:31:59.000Z</time></trkpt><trkpt lat="40.021317" lon="116.385694"><ele>42.4</ele><time>2024-05-04T06:32:10.000Z</time></trkpt><trkpt lat="40.021497" lon="116.385737"><ele>42.9</ele><time>2024-05-04T06:32:19.000Z</time></trkpt><trkpt lat="40.021742" lon="116.385869"><ele>42.8</ele><time>2024-05-04T06:32:32.000Z</time></trkpt><trkpt lat="40.022373" lon="116.385886"><ele>38.3</ele><time>2024-05-04T06:33:02.000Z</time></trkpt><trkpt lat="40.022494" lon="116.385973"><ele>37.1</ele><time>2024-05-04T06:33:07.000Z</time></trkpt><trkpt lat="40.022633" lon="116.386198"><ele>35.2</ele><time>2024-05-04T06:33:17.000Z</time></trkpt><trkpt lat="40.022761" lon="116.386245"><ele>34.6</ele><time>2024-05-04T06:33:24.000Z</time></trkpt><trkpt lat="40.023784" lon="116.386123"><ele>34.1</ele><time>2024-05-04T06:34:12.000Z</time></trkpt><trkpt lat="40.024154" lon="116.386127"><ele>34.1</ele><time>2024-05-04T06:34:30.000Z</time></trkpt><trkpt lat="40.024423" lon="116.386382"><ele>33.7</ele><time>2024-05-04T06:34:43.000Z</time></trkpt><trkpt lat="40.024478" lon="116.386734"><ele>33.0</ele><time>2024-05-04T06:34:57.000Z</time></trkpt><trkpt lat="40.024524" lon="116.387673"><ele>32.8</ele><time>2024-05-04T06:35:34.000Z</time></trkpt><trkpt lat="40.024591" lon="116.387968"><ele>32.8</ele><time>2024-05-04T06:35:46.000Z</time></trkpt><trkpt lat="40.02468" lon="116.388749"><ele>32.8</ele><time>2024-05-04T06:36:17.000Z</time></trkpt><trkpt lat="40.024657" lon="116.389076"><ele>32.8</ele><time>2024-05-04T06:36:28.000Z</time></trkpt><trkpt lat="40.024766" lon="116.389488"><ele>32.8</ele><time>2024-05-04T06:36:42.000Z</time></trkpt><trkpt lat="40.02487" lon="116.390731"><ele>32.7</ele><time>2024-05-04T06:37:29.000Z</time></trkpt><trkpt lat="40.025005" lon="116.391376"><ele>32.5</ele><time>2024-05-04T06:37:56.000Z</time></trkpt><trkpt lat="40.025185" lon="116.392769"><ele>32.5</ele><time>2024-05-04T06:38:51.000Z</time></trkpt><trkpt lat="40.02519" lon="116.393154"><ele>32.5</ele><time>2024-05-04T06:39:05.000Z</time></trkpt><trkpt lat="40.025325" lon="116.393923"><ele>32.2</ele><time>2024-05-04T06:39:33.000Z</time></trkpt><trkpt lat="40.025332" lon="116.394315"><ele>32.1</ele><time>2024-05-04T06:39:48.000Z</time></trkpt><trkpt lat="40.0253" lon="116.394491"><ele>32.0</ele><time>2024-05-04T06:39:54.000Z</time></trkpt><trkpt lat="40.025459" lon="116.394848"><ele>30.1</ele><time>2024-05-04T07:02:31.000Z</time></trkpt><trkpt lat="40.02559" lon="116.39493"><ele>30.0</ele><time>2024-05-04T07:02:39.000Z</time></trkpt><trkpt lat="40.026034" lon="116.394766"><ele>30.0</ele><time>2024-05-04T07:03:01.000Z</time></trkpt><trkpt lat="40.026619" lon="116.394653"><ele>30.0</ele><time>2024-05-04T07:03:30.000Z</time></trkpt><trkpt lat="40.026807" lon="116.39458"><ele>30.0</ele><time>2024-05-04T07:03:38.000Z</time></trkpt><trkpt lat="40.027503" lon="116.393925"><ele>29.7</ele><time>2024-05-04T07:04:20.000Z</time></trkpt><trkpt lat="40.027685" lon="116.393558"><ele>29.8</ele><time>2024-05-04T07:04:35.000Z</time></trkpt><trkpt lat="40.027786" lon="116.39317"><ele>29.8</ele><time>2024-05-04T07:04:52.000Z</time></trkpt><trkpt lat="40.027763" lon="116.392928"><ele>29.8</ele><time>2024-05-04T07:05:01.000Z</time></trkpt><trkpt lat="40.027655" lon="116.392538"><ele>29.7</ele><time>2024-05-04T07:05:16.000Z</time></trkpt><trkpt lat="40.027643" lon="116.392116"><ele>29.8</ele><time>2024-05-04T07:05:31.000Z</time></trkpt><trkpt lat="40.027537" lon="116.391709"><ele>29.9</ele><time>2024-05-04T07:05:46.000Z</time></trkpt><trkpt lat="40.027402" lon="116.391399"><ele>29.9</ele><time>2024-05-04T07:05:58.000Z</time></trkpt><trkpt lat="40.0273" lon="116.390971"><ele>30.1</ele><time>2024-05-04T07:06:16.000Z</time></trkpt><trkpt lat="40.027376" lon="116.390399"><ele>30.2</ele><time>2024-05-04T07:06:38.000Z</time></trkpt><trkpt lat="40.027669" lon="116.38925"><ele>30.8</ele><time>2024-05-04T07:07:23.000Z</time></trkpt><trkpt lat="40.027915" lon="116.388706"><ele>30.8</ele><time>2024-05-04T07:07:48.000Z</time></trkpt><trkpt lat="40.028553" lon="116.387697"><ele>30.3</ele><time>2024-05-04T07:08:39.000Z</time></trkpt><trkpt lat="40.028765" lon="116.387216"><ele>30.7</ele><time>2024-05-04T07:09:00.000Z</time></trkpt><trkpt lat="40.029067" lon="116.386941"><ele>30.9</ele><time>2024-05-04T07:09:20.000Z</time></trkpt><trkpt lat="40.029202" lon="116.386694"><ele>31.1</ele><time>2024-05-04T07:09:33.000Z</time></trkpt><trkpt lat="40.029488" lon="116.385539"><ele>31.8</ele><time>2024-05-04T07:10:23.000Z</time></trkpt><trkpt lat="40.029553" lon="116.385122"><ele>31.3</ele><time>2024-05-04T07:10:40.000Z</time></trkpt><trkpt lat="40.029561" lon="116.384769"><ele>31.1</ele><time>2024-05-04T07:10:53.000Z</time></trkpt><trkpt lat="40.029506" lon="116.384322"><ele>31.0</ele><time>2024-05-04T07:11:11.000Z</time></trkpt><trkpt lat="40.029455" lon="116.383257"><ele>31.1</ele><time>2024-05-04T07:11:53.000Z</time></trkpt><trkpt lat="40.029394" lon="116.382747"><ele>31.2</ele><time>2024-05-04T07:12:12.000Z</time></trkpt><trkpt lat="40.02939" lon="116.382318"><ele>31.3</ele><time>2024-05-04T07:12:29.000Z</time></trkpt><trkpt lat="40.029328" lon="116.3817"><ele>31.3</ele><time>2024-05-04T07:12:51.000Z</time></trkpt><trkpt lat="40.02937" lon="116.380859"><ele>31.3</ele><time>2024-05-04T07:13:27.000Z</time></trkpt><trkpt lat="40.029277" lon="116.379955"><ele>31.3</ele><time>2024-05-04T07:14:03.000Z</time></trkpt><trkpt lat="40.029266" lon="116.379022"><ele>31.7</ele><time>2024-05-04T07:14:40.000Z</time></trkpt><trkpt lat="40.02922" lon="116.378339"><ele>32.1</ele><time>2024-05-04T07:15:09.000Z</time></trkpt><trkpt lat="40.029243" lon="116.377922"><ele>32.2</ele><time>2024-05-04T07:15:27.000Z</time></trkpt><trkpt lat="40.028971" lon="116.376944"><ele>33.0</ele><time>2024-05-04T07:16:13.000Z</time></trkpt><trkpt lat="40.028899" lon="116.376264"><ele>33.3</ele><time>2024-05-04T07:16:42.000Z</time></trkpt><trkpt lat="40.028977" lon="116.375137"><ele>32.7</ele><time>2024-05-04T07:17:27.000Z</time></trkpt><trkpt lat="40.028951" lon="116.37466"><ele>32.6</ele><time>2024-05-04T07:17:48.000Z</time></trkpt><trkpt lat="40.02899" lon="116.374421"><ele>32.8</ele><time>2024-05-04T07:18:00.000Z</time></trkpt><trkpt lat="40.028988" lon="116.374111"><ele>33.0</ele><time>2024-05-04T07:18:13.000Z</time></trkpt><trkpt lat="40.028624" lon="116.372477"><ele>35.1</ele><time>2024-05-04T07:19:22.000Z</time></trkpt><trkpt lat="40.028545" lon="116.372291"><ele>35.4</ele><time>2024-05-04T07:19:31.000Z</time></trkpt><trkpt lat="40.02799" lon="116.371457"><ele>37.2</ele><time>2024-05-04T07:20:18.000Z</time></trkpt><trkpt lat="40.027361" lon="116.370921"><ele>35.5</ele><time>2024-05-04T07:20:56.000Z</time></trkpt><trkpt lat="40.027056" lon="116.370827"><ele>34.9</ele><time>2024-05-04T07:21:11.000Z</time></trkpt><trkpt lat="40.026812" lon="116.370821"><ele>34.8</ele><time>2024-05-04T07:21:23.000Z</time></trkpt><trkpt lat="40.026483" lon="116.370746"><ele>35.1</ele><time>2024-05-04T07:21:41.000Z</time></trkpt><trkpt lat="40.026404" lon="116.370792"><ele>35.1</ele><time>2024-05-04T07:21:46.000Z</time></trkpt><trkpt lat="40.026273" lon="116.371007"><ele>34.7</ele><time>2024-05-04T07:21:55.000Z</time></trkpt><trkpt lat="40.025913" lon="116.371268"><ele>34.5</ele><time>2024-05-04T07:22:13.000Z</time></trkpt><trkpt lat="40.02535" lon="116.371504"><ele>34.2</ele><time>2024-05-04T07:22:42.000Z</time></trkpt><trkpt lat="40.025" lon="116.371562"><ele>34.5</ele><time>2024-05-04T07:23:00.000Z</time></trkpt><trkpt lat="40.024933" lon="116.371604"><ele>34.5</ele><time>2024-05-04T07:23:03.000Z</time></trkpt><trkpt lat="40.024868" lon="116.371712"><ele>34.6</ele><time>2024-05-04T07:23:07.000Z</time></trkpt><trkpt lat="40.024852" lon="116.371822"><ele>34.8</ele><time>2024-05-04T07:23:11.000Z</time></trkpt><trkpt lat="40.024922" lon="116.372617"><ele>35.2</ele><time>2024-05-04T07:23:41.000Z</time></trkpt><trkpt lat="40.024967" lon="116.373669"><ele>33.9</ele><time>2024-05-04T07:24:19.000Z</time></trkpt><trkpt lat="40.025079" lon="116.374599"><ele>33.3</ele><time>2024-05-04T07:24:51.000Z</time></trkpt><trkpt lat="40.025129" lon="116.375287"><ele>33.2</ele><time>2024-05-04T07:25:09.000Z</time></trkpt><trkpt lat="40.025134" lon="116.376623"><ele>33.5</ele><time>2024-05-04T07:25:48.000Z</time></trkpt><trkpt lat="40.025171" lon="116.377461"><ele>33.9</ele><time>2024-05-04T07:26:17.000Z</time></trkpt><trkpt lat="40.025123" lon="116.377826"><ele>34.2</ele><time>2024-05-04T07:26:31.000Z</time></trkpt><trkpt lat="40.025126" lon="116.377963"><ele>33.9</ele><time>2024-05-04T07:26:37.000Z</time></trkpt><trkpt lat="40.025173" lon="116.378123"><ele>33.9</ele><time>2024-05-04T07:26:38.000Z</time></trkpt><trkpt lat="40.025155" lon="116.378169"><ele>33.6</ele><time>2024-05-04T07:26:41.000Z</time></trkpt></trkseg></trk></gpx>