<?xml version="1.0" encoding="UTF-8"?>
<gpx xmlns="http://www.topografix.com/GPX/1/1" xmlns:gpxtpx="http://www.garmin.com/xmlschemas/TrackPointExtension/v1" xmlns:xsi="http://www.w3.org/2001/XMLSchema-instance" xsi:schemaLocation="http://www.topografix.com/GPX/1/1 http://www.topografix.com/GPX/1/1/gpx.xsd" version="1.1" creator="gpx.py -- https://github.com/tkrajina/gpxpy">
  <trk>
    <name>gpx from keep</name>
    <type>Run</type>
    <trkseg>
      <trkpt lat="40.08834436803849" lon="116.52886289028278">
        <ele>12.299999999999999</ele>
        <time>2023-05-04T00:57:42Z</time>
      </trkpt>
      <trkpt lat="40.088463065895" lon="116.52874550970019">
        <ele>11.500000000000002</ele>
        <time>2023-05-04T00:57:48Z</time>
      </trkpt>
      <trkpt lat="40.08849781714913" lon="116.52864719851439">
        <ele>10.200000000000001</ele>
        <time>2023-05-04T00:57:51Z</time>
      </trkpt>
      <trkpt lat="40.0885715301218" lon="116.52853483824606">
        <ele>4.9</ele>
        <time>2023-05-04T00:57:57Z</time>
      </trkpt>
      <trkpt lat="40.0888221998504" lon="116.52841041797589">
        <ele>1.3000000000000007</ele>
        <time>2023-05-04T00:58:06Z</time>
      </trkpt>
      <trkpt lat="40.08904171989271" lon="116.52822581212686">
        <ele>0.6000000000000005</ele>
        <time>2023-05-04T00:58:18Z</time>
      </trkpt>
      <trkpt lat="40.08930827105621" lon="116.52805524341164">
        <ele>2.9000000000000004</ele>
        <time>2023-05-04T00:58:30Z</time>
      </trkpt>
      <trkpt lat="40.08956184769695" lon="116.52789470685764">
        <ele>0.0</ele>
        <time>2023-05-04T00:58:42Z</time>
      </trkpt>
      <trkpt lat="40.08974747421406" lon="116.52775223475723">
        <ele>2.9000000000000004</ele>
        <time>2023-05-04T00:58:51Z</time>
      </trkpt>
      <trkpt lat="40.090062022249" lon="116.52758266038516">
        <ele>3.700000000000001</ele>
        <time>2023-05-04T00:59:06Z</time>
      </trkpt>
      <trkpt lat="40.090319637267505" lon="116.52743817145392">
        <ele>3.700000000000001</ele>
        <time>2023-05-04T00:59:18Z</time>
      </trkpt>
      <trkpt lat="40.09058018009483" lon="116.52726559230413">
        <ele>8.6</ele>
        <time>2023-05-04T00:59:33Z</time>
      </trkpt>
      <trkpt lat="40.090860684899944" lon="116.5270789649824">
        <ele>10.9</ele>
        <time>2023-05-04T00:59:48Z</time>
      </trkpt>
      <trkpt lat="40.09112325919324" lon="116.52691942493664">
        <ele>10.700000000000001</ele>
        <time>2023-05-04T01:00:00Z</time>
      </trkpt>
      <trkpt lat="40.09137486692609" lon="116.52677292696191">
        <ele>11.500000000000002</ele>
        <time>2023-05-04T01:00:12Z</time>
      </trkpt>
      <trkpt lat="40.091647385264416" lon="116.52659231664258">
        <ele>10.1</ele>
        <time>2023-05-04T01:00:27Z</time>
      </trkpt>
      <trkpt lat="40.09188981231491" lon="116.52637559321236">
        <ele>7.5</ele>
        <time>2023-05-04T01:00:45Z</time>
      </trkpt>
      <trkpt lat="40.09213833052946" lon="116.52619498336962">
        <ele>6.0</ele>
        <time>2023-05-04T01:01:00Z</time>
      </trkpt>
      <trkpt lat="40.092454922949244" lon="116.52604546400731">
        <ele>8.4</ele>
        <time>2023-05-04T01:01:12Z</time>
      </trkpt>
      <trkpt lat="40.092717441162435" lon="116.52586585361752">
        <ele>10.500000000000002</ele>
        <time>2023-05-04T01:01:27Z</time>
      </trkpt>
      <trkpt lat="40.092840139751395" lon="116.52575247303682">
        <ele>9.5</ele>
        <time>2023-05-04T01:01:36Z</time>
      </trkpt>
      <trkpt lat="40.09310573676786" lon="116.5256039609542">
        <ele>9.0</ele>
        <time>2023-05-04T01:01:48Z</time>
      </trkpt>
      <trkpt lat="40.093303473186666" lon="116.52550762524616">
        <ele>10.1</ele>
        <time>2023-05-04T01:01:57Z</time>
      </trkpt>
      <trkpt lat="40.09358795348696" lon="116.52531496660544">
        <ele>11.000000000000002</ele>
        <time>2023-05-04T01:02:12Z</time>
      </trkpt>
      <trkpt lat="40.09385846252205" lon="116.52513334426823">
        <ele>9.6</ele>
        <time>2023-05-04T01:02:27Z</time>
      </trkpt>
      <trkpt lat="40.094114927409954" lon="116.52493466709144">
        <ele>6.9</ele>
        <time>2023-05-04T01:02:42Z</time>
      </trkpt>
      <trkpt lat="40.09438737444014" lon="116.52472996700537">
        <ele>6.800000000000001</ele>
        <time>2023-05-04T01:02:57Z</time>
      </trkpt>
      <trkpt lat="40.09467490047912" lon="116.52455636523516">
        <ele>5.700000000000001</ele>
        <time>2023-05-04T01:03:12Z</time>
      </trkpt>
      <trkpt lat="40.09492737329546" lon="116.52436169788535">
        <ele>4.6</ele>
        <time>2023-05-04T01:03:24Z</time>
      </trkpt>
      <trkpt lat="40.095187944400735" lon="116.52420515323644">
        <ele>7.6</ele>
        <time>2023-05-04T01:03:36Z</time>
      </trkpt>
      <trkpt lat="40.09548244658943" lon="116.5240235212693">
        <ele>9.1</ele>
        <time>2023-05-04T01:03:51Z</time>
      </trkpt>
      <trkpt lat="40.09578392371801" lon="116.52383285767397">
        <ele>9.0</ele>
        <time>2023-05-04T01:04:06Z</time>
      </trkpt>
      <trkpt lat="40.096078411034384" lon="116.52364620699095">
        <ele>9.6</ele>
        <time>2023-05-04T01:04:21Z</time>
      </trkpt>
      <trkpt lat="40.09632296999185" lon="116.52348564745162">
        <ele>10.200000000000001</ele>
        <time>2023-05-04T01:04:33Z</time>
      </trkpt>
      <trkpt lat="40.09661232369175" lon="116.52324882945608">
        <ele>14.1</ele>
        <time>2023-05-04T01:04:48Z</time>
      </trkpt>
      <trkpt lat="40.09666220335426" lon="116.52320467725443">
        <ele>14.700000000000001</ele>
        <time>2023-05-04T01:04:51Z</time>
      </trkpt>
      <trkpt lat="40.09668901312558" lon="116.52313343816654">
        <ele>15.200000000000001</ele>
        <time>2023-05-04T01:04:54Z</time>
      </trkpt>
      <trkpt lat="40.09669578183685" lon="116.5230461482082">
        <ele>14.700000000000001</ele>
        <time>2023-05-04T01:04:57Z</time>
      </trkpt>
      <trkpt lat="40.096655854674516" lon="116.52269498760444">
        <ele>15.1</ele>
        <time>2023-05-04T01:05:09Z</time>
      </trkpt>
      <trkpt lat="40.09661077555158" lon="116.52266388976277">
        <ele>16.6</ele>
        <time>2023-05-04T01:05:12Z</time>
      </trkpt>
      <trkpt lat="40.09649084315502" lon="116.52268597799936">
        <ele>18.1</ele>
        <time>2023-05-04T01:05:18Z</time>
      </trkpt>
      <trkpt lat="40.09622030240859" lon="116.52285156146691">
        <ele>15.500000000000002</ele>
        <time>2023-05-04T01:05:33Z</time>
      </trkpt>
      <trkpt lat="40.095925847723" lon="116.5230492534311">
        <ele>13.200000000000001</ele>
        <time>2023-05-04T01:05:48Z</time>
      </trkpt>
      <trkpt lat="40.095670256710434" lon="116.52319677340353">
        <ele>12.1</ele>
        <time>2023-05-04T01:06:03Z</time>
      </trkpt>
      <trkpt lat="40.09539373553869" lon="116.52337038145616">
        <ele>13.700000000000001</ele>
        <time>2023-05-04T01:06:18Z</time>
      </trkpt>
      <trkpt lat="40.09512323167829" lon="116.52355101096394">
        <ele>16.799999999999997</ele>
        <time>2023-05-04T01:06:33Z</time>
      </trkpt>
      <trkpt lat="40.09484271458127" lon="116.52372662415088">
        <ele>19.5</ele>
        <time>2023-05-04T01:06:48Z</time>
      </trkpt>
      <trkpt lat="40.094635162325716" lon="116.52389119105058">
        <ele>18.700000000000003</ele>
        <time>2023-05-04T01:07:00Z</time>
      </trkpt>
      <trkpt lat="40.094352588684025" lon="116.52404573342784">
        <ele>18.4</ele>
        <time>2023-05-04T01:07:15Z</time>
      </trkpt>
      <trkpt lat="40.094078132015134" lon="116.52424542192826">
        <ele>14.299999999999999</ele>
        <time>2023-05-04T01:07:30Z</time>
      </trkpt>
      <trkpt lat="40.093828575533685" lon="116.5244079846852">
        <ele>11.1</ele>
        <time>2023-05-04T01:07:42Z</time>
      </trkpt>
      <trkpt lat="40.093547091423716" lon="116.5245976389435">
        <ele>9.9</ele>
        <time>2023-05-04T01:07:57Z</time>
      </trkpt>
      <trkpt lat="40.093297567477805" lon="116.52477324230702">
        <ele>10.1</ele>
        <time>2023-05-04T01:08:09Z</time>
      </trkpt>
      <trkpt lat="40.09304498297779" lon="116.52492576997398">
        <ele>7.1</ele>
        <time>2023-05-04T01:08:21Z</time>
      </trkpt>
      <trkpt lat="40.092777430249086" lon="116.52509033781513">
        <ele>9.200000000000001</ele>
        <time>2023-05-04T01:08:33Z</time>
      </trkpt>
      <trkpt lat="40.09264760647236" lon="116.52515456230698">
        <ele>11.200000000000001</ele>
        <time>2023-05-04T01:08:39Z</time>
      </trkpt>
      <trkpt lat="40.09240504834452" lon="116.52531812254803">
        <ele>14.200000000000001</ele>
        <time>2023-05-04T01:08:51Z</time>
      </trkpt>
      <trkpt lat="40.09209763959804" lon="116.52553787156305">
        <ele>11.1</ele>
        <time>2023-05-04T01:09:06Z</time>
      </trkpt>
      <trkpt lat="40.091827131119004" lon="116.52572049464752">
        <ele>14.799999999999999</ele>
        <time>2023-05-04T01:09:18Z</time>
      </trkpt>
      <trkpt lat="40.091758231953605" lon="116.52575762289817">
        <ele>16.4</ele>
        <time>2023-05-04T01:09:21Z</time>
      </trkpt>
      <trkpt lat="40.09170337830545" lon="116.52581280757738">
        <ele>16.5</ele>
        <time>2023-05-04T01:09:24Z</time>
      </trkpt>
      <trkpt lat="40.09142683797408" lon="116.52598339096672">
        <ele>16.299999999999997</ele>
        <time>2023-05-04T01:09:39Z</time>
      </trkpt>
      <trkpt lat="40.091133359999624" lon="116.52617805276842">
        <ele>18.4</ele>
        <time>2023-05-04T01:09:54Z</time>
      </trkpt>
      <trkpt lat="40.090846872807056" lon="116.52636970275921">
        <ele>16.700000000000003</ele>
        <time>2023-05-04T01:10:09Z</time>
      </trkpt>
      <trkpt lat="40.090602350785225" lon="116.52654930779978">
        <ele>13.700000000000001</ele>
        <time>2023-05-04T01:10:21Z</time>
      </trkpt>
      <trkpt lat="40.09036480176913" lon="116.52671887883712">
        <ele>14.1</ele>
        <time>2023-05-04T01:10:33Z</time>
      </trkpt>
      <trkpt lat="40.09006829209378" lon="116.52690250089935">
        <ele>13.500000000000002</ele>
        <time>2023-05-04T01:10:48Z</time>
      </trkpt>
      <trkpt lat="40.089950466937815" lon="116.52696772311074">
        <ele>13.700000000000001</ele>
        <time>2023-05-04T01:10:54Z</time>
      </trkpt>
      <trkpt lat="40.08968301266905" lon="116.52717441327677">
        <ele>12.299999999999999</ele>
        <time>2023-05-04T01:11:09Z</time>
      </trkpt>
      <trkpt lat="40.08958215519857" lon="116.52722759455743">
        <ele>11.4</ele>
        <time>2023-05-04T01:11:15Z</time>
      </trkpt>
      <trkpt lat="40.089339623858415" lon="116.52740518759803">
        <ele>13.200000000000001</ele>
        <time>2023-05-04T01:11:27Z</time>
      </trkpt>
      <trkpt lat="40.08905603867966" lon="116.52756071479884">
        <ele>19.200000000000003</ele>
        <time>2023-05-04T01:11:42Z</time>
      </trkpt>
      <trkpt lat="40.088784611861186" lon="116.5277794390903">
        <ele>15.000000000000002</ele>
        <time>2023-05-04T01:11:57Z</time>
      </trkpt>
      <trkpt lat="40.08854205762097" lon="116.5279490033713">
        <ele>13.000000000000002</ele>
        <time>2023-05-04T01:12:12Z</time>
      </trkpt>
      <trkpt lat="40.088267573130196" lon="116.52814565566646">
        <ele>12.200000000000001</ele>
        <time>2023-05-04T01:12:27Z</time>
      </trkpt>
      <trkpt lat="40.08797793222547" lon="116.52828011340678">
        <ele>17.1</ele>
        <time>2023-05-04T01:12:39Z</time>
      </trkpt>
      <trkpt lat="40.08768031909241" lon="116.52842560603249">
        <ele>15.299999999999999</ele>
        <time>2023-05-04T01:12:54Z</time>
      </trkpt>
      <trkpt lat="40.08738173310167" lon="116.5285821325022">
        <ele>14.000000000000002</ele>
        <time>2023-05-04T01:13:09Z</time>
      </trkpt>
      <trkpt lat="40.087081073710074" lon="116.52870956754664">
        <ele>15.1</ele>
        <time>2023-05-04T01:13:24Z</time>
      </trkpt>
      <trkpt lat="40.08678034609055" lon="116.52880991757758">
        <ele>17.5</ele>
        <time>2023-05-04T01:13:39Z</time>
      </trkpt>
      <trkpt lat="40.08656257469965" lon="116.52889521014205">
        <ele>17.5</ele>
        <time>2023-05-04T01:13:51Z</time>
      </trkpt>
      <trkpt lat="40.08639284229288" lon="116.528997549564">
        <ele>16.4</ele>
        <time>2023-05-04T01:14:00Z</time>
      </trkpt>
      <trkpt lat="40.086093161261154" lon="116.52911695761036">
        <ele>15.9</ele>
        <time>2023-05-04T01:14:15Z</time>
      </trkpt>
      <trkpt lat="40.085810526069466" lon="116.52925542213892">
        <ele>15.500000000000002</ele>
        <time>2023-05-04T01:14:30Z</time>
      </trkpt>
      <trkpt lat="40.08551287890199" lon="116.52938887227792">
        <ele>17.799999999999997</ele>
        <time>2023-05-04T01:14:45Z</time>
      </trkpt>
      <trkpt lat="40.08521122650807" lon="116.52952031604505">
        <ele>15.200000000000001</ele>
        <time>2023-05-04T01:15:00Z</time>
      </trkpt>
      <trkpt lat="40.08490750907444" lon="116.52962567890935">
        <ele>16.799999999999997</ele>
        <time>2023-05-04T01:15:15Z</time>
      </trkpt>
      <trkpt lat="40.084777627562225" lon="116.52966983116474">
        <ele>18.6</ele>
        <time>2023-05-04T01:15:21Z</time>
      </trkpt>
      <trkpt lat="40.084507001690646" lon="116.529813306804">
        <ele>15.299999999999999</ele>
        <time>2023-05-04T01:15:36Z</time>
      </trkpt>
      <trkpt lat="40.084189361133916" lon="116.52994976587412">
        <ele>11.200000000000001</ele>
        <time>2023-05-04T01:15:54Z</time>
      </trkpt>
      <trkpt lat="40.08387768990245" lon="116.53007418654538">
        <ele>11.000000000000002</ele>
        <time>2023-05-04T01:16:13Z</time>
      </trkpt>
      <trkpt lat="40.083596018596026" lon="116.53019960600606">
        <ele>12.200000000000001</ele>
        <time>2023-05-04T01:16:28Z</time>
      </trkpt>
      <trkpt lat="40.08333429606796" lon="116.53030496098887">
        <ele>10.6</ele>
        <time>2023-05-04T01:16:43Z</time>
      </trkpt>
      <trkpt lat="40.08308164161082" lon="116.53043840030314">
        <ele>10.6</ele>
        <time>2023-05-04T01:16:58Z</time>
      </trkpt>
      <trkpt lat="40.08284290689038" lon="116.53053973924303">
        <ele>13.000000000000002</ele>
        <time>2023-05-04T01:17:10Z</time>
      </trkpt>
      <trkpt lat="40.08259913776752" lon="116.53062703558678">
        <ele>10.9</ele>
        <time>2023-05-04T01:17:22Z</time>
      </trkpt>
      <trkpt lat="40.0823664880213" lon="116.53076347995342">
        <ele>11.4</ele>
        <time>2023-05-04T01:17:34Z</time>
      </trkpt>
      <trkpt lat="40.08216469824695" lon="116.53084374901724">
        <ele>13.6</ele>
        <time>2023-05-04T01:17:43Z</time>
      </trkpt>
      <trkpt lat="40.08198695565193" lon="116.53094407581453">
        <ele>11.500000000000002</ele>
        <time>2023-05-04T01:17:52Z</time>
      </trkpt>
      <trkpt lat="40.08170231062262" lon="116.53108152796771">
        <ele>14.299999999999999</ele>
        <time>2023-05-04T01:18:07Z</time>
      </trkpt>
      <trkpt lat="40.08150444644418" lon="116.53113170438937">
        <ele>14.200000000000001</ele>
        <time>2023-05-04T01:18:16Z</time>
      </trkpt>
      <trkpt lat="40.08120183358599" lon="116.53128219720118">
        <ele>15.6</ele>
        <time>2023-05-04T01:18:31Z</time>
      </trkpt>
      <trkpt lat="40.08091115098437" lon="116.53140460286438">
        <ele>15.9</ele>
        <time>2023-05-04T01:18:46Z</time>
      </trkpt>
      <trkpt lat="40.080804326382236" lon="116.53147382494215">
        <ele>15.500000000000002</ele>
        <time>2023-05-04T01:18:52Z</time>
      </trkpt>
      <trkpt lat="40.08056249619045" lon="116.5315370453288">
        <ele>13.799999999999999</ele>
        <time>2023-05-04T01:19:04Z</time>
      </trkpt>
      <trkpt lat="40.08039771900718" lon="116.53162432856543">
        <ele>13.000000000000002</ele>
        <time>2023-05-04T01:19:13Z</time>
      </trkpt>
      <trkpt lat="40.08021882835215" lon="116.5316644713984">
        <ele>11.700000000000001</ele>
        <time>2023-05-04T01:19:22Z</time>
      </trkpt>
      <trkpt lat="40.08008904117697" lon="116.53174874084091">
        <ele>14.000000000000002</ele>
        <time>2023-05-04T01:19:28Z</time>
      </trkpt>
      <trkpt lat="40.08004618969771" lon="116.5318089269862">
        <ele>16.200000000000003</ele>
        <time>2023-05-04T01:19:31Z</time>
      </trkpt>
      <trkpt lat="40.08001965194908" lon="116.53199950205915">
        <ele>19.200000000000003</ele>
        <time>2023-05-04T01:19:37Z</time>
      </trkpt>
      <trkpt lat="40.0800265957488" lon="116.53239167342025">
        <ele>20.1</ele>
        <time>2023-05-04T01:19:52Z</time>
      </trkpt>
      <trkpt lat="40.08007471292598" lon="116.53244181695402">
        <ele>19.0</ele>
        <time>2023-05-04T01:19:55Z</time>
      </trkpt>
      <trkpt lat="40.08022862304636" lon="116.53240869935843">
        <ele>16.0</ele>
        <time>2023-05-04T01:20:04Z</time>
      </trkpt>
      <trkpt lat="40.08035740465565" lon="116.53232142324912">
        <ele>12.200000000000001</ele>
        <time>2023-05-04T01:20:13Z</time>
      </trkpt>
      <trkpt lat="40.08067611763191" lon="116.53221105450606">
        <ele>9.5</ele>
        <time>2023-05-04T01:20:28Z</time>
      </trkpt>
      <trkpt lat="40.08096187838179" lon="116.53211974636648">
        <ele>13.299999999999999</ele>
        <time>2023-05-04T01:20:43Z</time>
      </trkpt>
      <trkpt lat="40.08122448307786" lon="116.53196324536417">
        <ele>14.1</ele>
        <time>2023-05-04T01:20:55Z</time>
      </trkpt>
      <trkpt lat="40.08151418706589" lon="116.53184886658474">
        <ele>14.4</ele>
        <time>2023-05-04T01:21:10Z</time>
      </trkpt>
      <trkpt lat="40.08177191467898" lon="116.53174351837532">
        <ele>13.799999999999999</ele>
        <time>2023-05-04T01:21:22Z</time>
      </trkpt>
      <trkpt lat="40.08207259280654" lon="116.53161910704956">
        <ele>15.000000000000002</ele>
        <time>2023-05-04T01:21:37Z</time>
      </trkpt>
      <trkpt lat="40.0821845024479" lon="116.53158499052915">
        <ele>20.299999999999997</ele>
        <time>2023-05-04T01:21:43Z</time>
      </trkpt>
      <trkpt lat="40.08251600967025" lon="116.53139136567914">
        <ele>19.299999999999997</ele>
        <time>2023-05-04T01:22:01Z</time>
      </trkpt>
      <trkpt lat="40.0827098646454" lon="116.5313371781273">
        <ele>18.4</ele>
        <time>2023-05-04T01:22:10Z</time>
      </trkpt>
      <trkpt lat="40.083002531980746" lon="116.53120875366828">
        <ele>22.4</ele>
        <time>2023-05-04T01:22:25Z</time>
      </trkpt>
      <trkpt lat="40.083091313177825" lon="116.53112147838063">
        <ele>21.299999999999997</ele>
        <time>2023-05-04T01:22:31Z</time>
      </trkpt>
      <trkpt lat="40.08338908218053" lon="116.5310351800788">
        <ele>18.0</ele>
        <time>2023-05-04T01:22:46Z</time>
      </trkpt>
      <trkpt lat="40.08367278082109" lon="116.53091979484907">
        <ele>15.9</ele>
        <time>2023-05-04T01:23:01Z</time>
      </trkpt>
      <trkpt lat="40.083962458995195" lon="116.53079638394806">
        <ele>11.9</ele>
        <time>2023-05-04T01:23:16Z</time>
      </trkpt>
      <trkpt lat="40.08426304741789" lon="116.5306368610237">
        <ele>8.1</ele>
        <time>2023-05-04T01:23:31Z</time>
      </trkpt>
      <trkpt lat="40.08444101783055" lon="116.53062981766725">
        <ele>8.8</ele>
        <time>2023-05-04T01:23:40Z</time>
      </trkpt>
      <trkpt lat="40.08449994976732" lon="116.53060373085175">
        <ele>9.1</ele>
        <time>2023-05-04T01:23:43Z</time>
      </trkpt>
      <trkpt lat="40.08470747224441" lon="116.53041512929023">
        <ele>9.6</ele>
        <time>2023-05-04T01:23:55Z</time>
      </trkpt>
      <trkpt lat="40.08498119409359" lon="116.53030977326061">
        <ele>14.799999999999999</ele>
        <time>2023-05-04T01:24:07Z</time>
      </trkpt>
      <trkpt lat="40.08510114868395" lon="116.53029471239418">
        <ele>19.1</ele>
        <time>2023-05-04T01:24:13Z</time>
      </trkpt>
      <trkpt lat="40.08528975986514" lon="116.53014222176891">
        <ele>22.299999999999997</ele>
        <time>2023-05-04T01:24:25Z</time>
      </trkpt>
      <trkpt lat="40.08543460375075" lon="116.5300830222572">
        <ele>19.6</ele>
        <time>2023-05-04T01:24:34Z</time>
      </trkpt>
      <trkpt lat="40.085652511745664" lon="116.53005189988679">
        <ele>13.9</ele>
        <time>2023-05-04T01:24:46Z</time>
      </trkpt>
      <trkpt lat="40.08594612440224" lon="116.52990340725673">
        <ele>10.1</ele>
        <time>2023-05-04T01:25:01Z</time>
      </trkpt>
      <trkpt lat="40.08624679552595" lon="116.52977898712899">
        <ele>9.1</ele>
        <time>2023-05-04T01:25:19Z</time>
      </trkpt>
      <trkpt lat="40.086506483993126" lon="116.52966059004977">
        <ele>12.000000000000002</ele>
        <time>2023-05-04T01:25:34Z</time>
      </trkpt>
      <trkpt lat="40.0866741735602" lon="116.5295401975932">
        <ele>13.299999999999999</ele>
        <time>2023-05-04T01:25:43Z</time>
      </trkpt>
      <trkpt lat="40.08695990174304" lon="116.52943884901867">
        <ele>12.6</ele>
        <time>2023-05-04T01:25:58Z</time>
      </trkpt>
      <trkpt lat="40.087062717413076" lon="116.52936761584682">
        <ele>15.299999999999999</ele>
        <time>2023-05-04T01:26:04Z</time>
      </trkpt>
      <trkpt lat="40.08717968418465" lon="116.52935757034673">
        <ele>18.1</ele>
        <time>2023-05-04T01:26:10Z</time>
      </trkpt>
      <trkpt lat="40.087374385779384" lon="116.5292431918662">
        <ele>20.700000000000003</ele>
        <time>2023-05-04T01:26:19Z</time>
      </trkpt>
      <trkpt lat="40.08769007340619" lon="116.52912679174104">
        <ele>19.299999999999997</ele>
        <time>2023-05-04T01:26:34Z</time>
      </trkpt>
      <trkpt lat="40.087799900455714" lon="116.52906057247017">
        <ele>21.0</ele>
        <time>2023-05-04T01:26:40Z</time>
      </trkpt>
      <trkpt lat="40.0879076799295" lon="116.52897529399118">
        <ele>21.5</ele>
        <time>2023-05-04T01:26:46Z</time>
      </trkpt>
      <trkpt lat="40.088147429738314" lon="116.52888197396241">
        <ele>18.6</ele>
        <time>2023-05-04T01:26:58Z</time>
      </trkpt>
      <trkpt lat="40.08843006071706" lon="116.52874250438366">
        <ele>18.6</ele>
        <time>2023-05-04T01:27:13Z</time>
      </trkpt>
      <trkpt lat="40.088592772647665" lon="116.5286321397906">
        <ele>17.0</ele>
        <time>2023-05-04T01:27:22Z</time>
      </trkpt>
      <trkpt lat="40.08887134751571" lon="116.52847060036729">
        <ele>17.200000000000003</ele>
        <time>2023-05-04T01:27:37Z</time>
      </trkpt>
      <trkpt lat="40.08915984270816" lon="116.52827796123296">
        <ele>17.1</ele>
        <time>2023-05-04T01:27:55Z</time>
      </trkpt>
      <trkpt lat="40.089294631022774" lon="116.52819769272962">
        <ele>15.6</ele>
        <time>2023-05-04T01:28:04Z</time>
      </trkpt>
      <trkpt lat="40.08954313270693" lon="116.52800706294128">
        <ele>18.5</ele>
        <time>2023-05-04T01:28:19Z</time>
      </trkpt>
      <trkpt lat="40.08978968680217" lon="116.52783749851119">
        <ele>20.299999999999997</ele>
        <time>2023-05-04T01:28:34Z</time>
      </trkpt>
      <trkpt lat="40.09003722734376" lon="116.52766291708328">
        <ele>21.0</ele>
        <time>2023-05-04T01:28:49Z</time>
      </trkpt>
      <trkpt lat="40.090321741484566" lon="116.52747930142283">
        <ele>20.0</ele>
        <time>2023-05-04T01:29:07Z</time>
      </trkpt>
      <trkpt lat="40.0904316087989" lon="116.5274301322107">
        <ele>17.799999999999997</ele>
        <time>2023-05-04T01:29:13Z</time>
      </trkpt>
      <trkpt lat="40.09071505041536" lon="116.52721842600154">
        <ele>17.6</ele>
        <time>2023-05-04T01:29:31Z</time>
      </trkpt>
      <trkpt lat="40.090944625137965" lon="116.52705788762346">
        <ele>19.6</ele>
        <time>2023-05-04T01:29:46Z</time>
      </trkpt>
      <trkpt lat="40.09119724869468" lon="116.5269174094079">
        <ele>17.299999999999997</ele>
        <time>2023-05-04T01:30:01Z</time>
      </trkpt>
      <trkpt lat="40.09143980579891" lon="116.52675084852154">
        <ele>17.700000000000003</ele>
        <time>2023-05-04T01:30:16Z</time>
      </trkpt>
      <trkpt lat="40.0916683657583" lon="116.52658529160253">
        <ele>17.200000000000003</ele>
        <time>2023-05-04T01:30:31Z</time>
      </trkpt>
      <trkpt lat="40.09194788526064" lon="116.52640568245293">
        <ele>16.4</ele>
        <time>2023-05-04T01:30:49Z</time>
      </trkpt>
      <trkpt lat="40.09218542760162" lon="116.52623410312725">
        <ele>17.299999999999997</ele>
        <time>2023-05-04T01:31:04Z</time>
      </trkpt>
      <trkpt lat="40.092437993886264" lon="116.52607255318071">
        <ele>16.9</ele>
        <time>2023-05-04T01:31:19Z</time>
      </trkpt>
      <trkpt lat="40.09272749731282" lon="116.52588792346783">
        <ele>16.200000000000003</ele>
        <time>2023-05-04T01:31:37Z</time>
      </trkpt>
      <trkpt lat="40.09301601805464" lon="116.52571031537293">
        <ele>15.6</ele>
        <time>2023-05-04T01:31:55Z</time>
      </trkpt>
      <trkpt lat="40.09330855583996" lon="116.52553972841044">
        <ele>12.799999999999999</ele>
        <time>2023-05-04T01:32:13Z</time>
      </trkpt>
      <trkpt lat="40.09358199032185" lon="116.52532901284692">
        <ele>15.1</ele>
        <time>2023-05-04T01:32:31Z</time>
      </trkpt>
      <trkpt lat="40.093808500072264" lon="116.52514639277727">
        <ele>17.200000000000003</ele>
        <time>2023-05-04T01:32:46Z</time>
      </trkpt>
      <trkpt lat="40.09397030576074" lon="116.52507614476">
        <ele>14.9</ele>
        <time>2023-05-04T01:32:55Z</time>
      </trkpt>
      <trkpt lat="40.094255794308474" lon="116.52488749626663">
        <ele>15.500000000000002</ele>
        <time>2023-05-04T01:33:13Z</time>
      </trkpt>
      <trkpt lat="40.09439049181398" lon="116.5247751137409">
        <ele>16.9</ele>
        <time>2023-05-04T01:33:22Z</time>
      </trkpt>
      <trkpt lat="40.094640078434004" lon="116.52462358894738">
        <ele>15.000000000000002</ele>
        <time>2023-05-04T01:33:37Z</time>
      </trkpt>
      <trkpt lat="40.094766786273325" lon="116.52451521953775">
        <ele>17.5</ele>
        <time>2023-05-04T01:33:46Z</time>
      </trkpt>
      <trkpt lat="40.095023374005095" lon="116.52436469586226">
        <ele>14.9</ele>
        <time>2023-05-04T01:34:01Z</time>
      </trkpt>
      <trkpt lat="40.09527090142998" lon="116.52419109695231">
        <ele>15.6</ele>
        <time>2023-05-04T01:34:16Z</time>
      </trkpt>
      <trkpt lat="40.095545368207006" lon="116.52399542126341">
        <ele>14.799999999999999</ele>
        <time>2023-05-04T01:34:34Z</time>
      </trkpt>
      <trkpt lat="40.095545368207006" lon="116.52399542126341">
        <ele>14.799999999999999</ele>
        <time>2023-05-04T01:34:37Z</time>
      </trkpt>
    </trkseg>
  </trk>
</gpx>