<?xml version="1.0" encoding="UTF-8"?>
<gpx xmlns="http://www.topografix.com/GPX/1/1" xmlns:gpxtpx="http://www.garmin.com/xmlschemas/TrackPointExtension/v1" xmlns:xsi="http://www.w3.org/2001/XMLSchema-instance" xsi:schemaLocation="http://www.topografix.com/GPX/1/1 http://www.topografix.com/GPX/1/1/gpx.xsd" version="1.1" creator="gpx.py -- https://github.com/tkrajina/gpxpy">
  <trk>
    <name>gpx from keep</name>
    <type>Run</type>
    <trkseg>
      <trkpt lat="39.93335673034714" lon="116.47639088020385">
        <ele>25.4</ele>
        <time>2023-05-31T11:44:55Z</time>
      </trkpt>
      <trkpt lat="39.933349057743264" lon="116.47650530006506">
        <ele>26.0</ele>
        <time>2023-05-31T11:44:58Z</time>
      </trkpt>
      <trkpt lat="39.93337638965672" lon="116.47662172311581">
        <ele>22.9</ele>
        <time>2023-05-31T11:45:04Z</time>
      </trkpt>
      <trkpt lat="39.93352698694293" lon="116.47683247689224">
        <ele>20.7</ele>
        <time>2023-05-31T11:45:13Z</time>
      </trkpt>
      <trkpt lat="39.93357447103745" lon="116.47700209326618">
        <ele>20.4</ele>
        <time>2023-05-31T11:45:19Z</time>
      </trkpt>
      <trkpt lat="39.93369694962704" lon="116.47717069703026">
        <ele>18.099999999999998</ele>
        <time>2023-05-31T11:45:28Z</time>
      </trkpt>
      <trkpt lat="39.93382712292417" lon="116.47723290932345">
        <ele>16.2</ele>
        <time>2023-05-31T11:45:34Z</time>
      </trkpt>
      <trkpt lat="39.93404919750864" lon="116.47726198845893">
        <ele>14.399999999999999</ele>
        <time>2023-05-31T11:45:40Z</time>
      </trkpt>
      <trkpt lat="39.934349194071906" lon="116.47726496195588">
        <ele>17.8</ele>
        <time>2023-05-31T11:45:49Z</time>
      </trkpt>
      <trkpt lat="39.934645095753574" lon="116.47723481426634">
        <ele>23.0</ele>
        <time>2023-05-31T11:46:01Z</time>
      </trkpt>
      <trkpt lat="39.93488502562281" lon="116.47721370678403">
        <ele>26.999999999999996</ele>
        <time>2023-05-31T11:46:10Z</time>
      </trkpt>
      <trkpt lat="39.935163818614555" lon="116.47714542117305">
        <ele>30.099999999999998</ele>
        <time>2023-05-31T11:46:22Z</time>
      </trkpt>
      <trkpt lat="39.93523383595341" lon="116.47715243820792">
        <ele>30.499999999999996</ele>
        <time>2023-05-31T11:46:25Z</time>
      </trkpt>
      <trkpt lat="39.93549221436706" lon="116.47728790364737">
        <ele>32.1</ele>
        <time>2023-05-31T11:46:37Z</time>
      </trkpt>
      <trkpt lat="39.93569669321894" lon="116.47745750162375">
        <ele>34.2</ele>
        <time>2023-05-31T11:46:49Z</time>
      </trkpt>
      <trkpt lat="39.935917842935325" lon="116.47751267697069">
        <ele>27.499999999999996</ele>
        <time>2023-05-31T11:46:58Z</time>
      </trkpt>
      <trkpt lat="39.93619378860312" lon="116.47749758703657">
        <ele>26.499999999999996</ele>
        <time>2023-05-31T11:47:10Z</time>
      </trkpt>
      <trkpt lat="39.936411788508664" lon="116.47750057081333">
        <ele>26.8</ele>
        <time>2023-05-31T11:47:19Z</time>
      </trkpt>
      <trkpt lat="39.93664908763215" lon="116.47760793622372">
        <ele>26.900000000000002</ele>
        <time>2023-05-31T11:47:34Z</time>
      </trkpt>
      <trkpt lat="39.93694709011251" lon="116.47761291737577">
        <ele>26.900000000000002</ele>
        <time>2023-05-31T11:47:43Z</time>
      </trkpt>
      <trkpt lat="39.93727523567489" lon="116.47766807946306">
        <ele>25.9</ele>
        <time>2023-05-31T11:47:55Z</time>
      </trkpt>
      <trkpt lat="39.937433388091094" lon="116.47772326288549">
        <ele>26.3</ele>
        <time>2023-05-31T11:48:01Z</time>
      </trkpt>
      <trkpt lat="39.93761378225278" lon="116.47786275411684">
        <ele>27.400000000000002</ele>
        <time>2023-05-31T11:48:10Z</time>
      </trkpt>
      <trkpt lat="39.93785846031306" lon="116.47810160395396">
        <ele>29.2</ele>
        <time>2023-05-31T11:48:22Z</time>
      </trkpt>
      <trkpt lat="39.93799193517266" lon="116.47826820186732">
        <ele>30.499999999999996</ele>
        <time>2023-05-31T11:48:31Z</time>
      </trkpt>
      <trkpt lat="39.93825429808984" lon="116.47839764693948">
        <ele>30.900000000000002</ele>
        <time>2023-05-31T11:48:43Z</time>
      </trkpt>
      <trkpt lat="39.93850965860637" lon="116.478526089432">
        <ele>31.900000000000002</ele>
        <time>2023-05-31T11:48:58Z</time>
      </trkpt>
      <trkpt lat="39.93861995556672" lon="116.47863046130314">
        <ele>30.900000000000002</ele>
        <time>2023-05-31T11:49:07Z</time>
      </trkpt>
      <trkpt lat="39.93890704554488" lon="116.47866555519757">
        <ele>31.099999999999998</ele>
        <time>2023-05-31T11:49:19Z</time>
      </trkpt>
      <trkpt lat="39.93923711353123" lon="116.47869361775916">
        <ele>30.099999999999998</ele>
        <time>2023-05-31T11:49:31Z</time>
      </trkpt>
      <trkpt lat="39.939497007483745" lon="116.47866046279805">
        <ele>28.900000000000002</ele>
        <time>2023-05-31T11:49:43Z</time>
      </trkpt>
      <trkpt lat="39.93965975463148" lon="116.47857512715314">
        <ele>29.900000000000002</ele>
        <time>2023-05-31T11:49:52Z</time>
      </trkpt>
      <trkpt lat="39.93991697401243" lon="116.47830810902383">
        <ele>28.599999999999998</ele>
        <time>2023-05-31T11:50:07Z</time>
      </trkpt>
      <trkpt lat="39.94000169572533" lon="116.47821274655504">
        <ele>27.900000000000002</ele>
        <time>2023-05-31T11:50:10Z</time>
      </trkpt>
      <trkpt lat="39.94013701368769" lon="116.47797786350365">
        <ele>23.3</ele>
        <time>2023-05-31T11:50:19Z</time>
      </trkpt>
      <trkpt lat="39.940176905171846" lon="116.47794072163619">
        <ele>22.5</ele>
        <time>2023-05-31T11:50:22Z</time>
      </trkpt>
      <trkpt lat="39.940276958975325" lon="116.47796078308966">
        <ele>20.7</ele>
        <time>2023-05-31T11:50:28Z</time>
      </trkpt>
      <trkpt lat="39.940482381517874" lon="116.47811030873022">
        <ele>18.2</ele>
        <time>2023-05-31T11:50:40Z</time>
      </trkpt>
      <trkpt lat="39.9406087843522" lon="116.47825181497535">
        <ele>17.2</ele>
        <time>2023-05-31T11:50:49Z</time>
      </trkpt>
      <trkpt lat="39.94066721910846" lon="116.47840336709056">
        <ele>15.0</ele>
        <time>2023-05-31T11:50:55Z</time>
      </trkpt>
      <trkpt lat="39.940680456060925" lon="116.47848566937341">
        <ele>14.399999999999999</ele>
        <time>2023-05-31T11:50:58Z</time>
      </trkpt>
      <trkpt lat="39.940833568991955" lon="116.47887308227953">
        <ele>16.3</ele>
        <time>2023-05-31T11:51:13Z</time>
      </trkpt>
      <trkpt lat="39.94086372738921" lon="116.47892828273301">
        <ele>17.3</ele>
        <time>2023-05-31T11:51:16Z</time>
      </trkpt>
      <trkpt lat="39.94104732688895" lon="116.47913803621667">
        <ele>20.5</ele>
        <time>2023-05-31T11:51:28Z</time>
      </trkpt>
      <trkpt lat="39.94125021112126" lon="116.47944615249422">
        <ele>25.9</ele>
        <time>2023-05-31T11:51:40Z</time>
      </trkpt>
      <trkpt lat="39.94129441297838" lon="116.4795164074621">
        <ele>27.400000000000002</ele>
        <time>2023-05-31T11:51:43Z</time>
      </trkpt>
      <trkpt lat="39.94138234395166" lon="116.47983859189449">
        <ele>27.599999999999998</ele>
        <time>2023-05-31T11:51:55Z</time>
      </trkpt>
      <trkpt lat="39.941399888190006" lon="116.48002628674607">
        <ele>25.8</ele>
        <time>2023-05-31T11:52:01Z</time>
      </trkpt>
      <trkpt lat="39.94143416965072" lon="116.48012364420933">
        <ele>26.2</ele>
        <time>2023-05-31T11:52:04Z</time>
      </trkpt>
      <trkpt lat="39.94148033989244" lon="116.48018285852841">
        <ele>26.599999999999998</ele>
        <time>2023-05-31T11:52:07Z</time>
      </trkpt>
      <trkpt lat="39.94167875506793" lon="116.4803283748116">
        <ele>25.4</ele>
        <time>2023-05-31T11:52:16Z</time>
      </trkpt>
      <trkpt lat="39.94182935930152" lon="116.48053813638953">
        <ele>25.7</ele>
        <time>2023-05-31T11:52:25Z</time>
      </trkpt>
      <trkpt lat="39.94204346470188" lon="116.48057725529658">
        <ele>26.999999999999996</ele>
        <time>2023-05-31T11:52:34Z</time>
      </trkpt>
      <trkpt lat="39.9423194829299" lon="116.48058725812808">
        <ele>29.8</ele>
        <time>2023-05-31T11:52:43Z</time>
      </trkpt>
      <trkpt lat="39.94260641600704" lon="116.48056815125125">
        <ele>31.599999999999998</ele>
        <time>2023-05-31T11:52:55Z</time>
      </trkpt>
      <trkpt lat="39.942747460059174" lon="116.48058519711786">
        <ele>30.8</ele>
        <time>2023-05-31T11:53:04Z</time>
      </trkpt>
      <trkpt lat="39.942889179855435" lon="116.48049082825646">
        <ele>29.900000000000002</ele>
        <time>2023-05-31T11:53:13Z</time>
      </trkpt>
      <trkpt lat="39.94306012341209" lon="116.48047374338">
        <ele>28.8</ele>
        <time>2023-05-31T11:53:19Z</time>
      </trkpt>
      <trkpt lat="39.94314514923394" lon="116.48048377009003">
        <ele>28.499999999999996</ele>
        <time>2023-05-31T11:53:22Z</time>
      </trkpt>
      <trkpt lat="39.943199360291835" lon="116.48055703598106">
        <ele>28.2</ele>
        <time>2023-05-31T11:53:25Z</time>
      </trkpt>
      <trkpt lat="39.94326204456946" lon="116.48079290637969">
        <ele>29.400000000000002</ele>
        <time>2023-05-31T11:53:34Z</time>
      </trkpt>
      <trkpt lat="39.94325814479885" lon="116.48117031347367">
        <ele>25.4</ele>
        <time>2023-05-31T11:53:49Z</time>
      </trkpt>
      <trkpt lat="39.94324146986229" lon="116.48162400872472">
        <ele>23.3</ele>
        <time>2023-05-31T11:54:04Z</time>
      </trkpt>
      <trkpt lat="39.94327971470079" lon="116.48170831886462">
        <ele>22.8</ele>
        <time>2023-05-31T11:54:07Z</time>
      </trkpt>
      <trkpt lat="39.94339800044166" lon="116.48180767533684">
        <ele>24.7</ele>
        <time>2023-05-31T11:54:13Z</time>
      </trkpt>
      <trkpt lat="39.943447013164786" lon="116.48181268796212">
        <ele>25.5</ele>
        <time>2023-05-31T11:54:16Z</time>
      </trkpt>
      <trkpt lat="39.94359680476681" lon="116.48174341045741">
        <ele>24.8</ele>
        <time>2023-05-31T11:54:28Z</time>
      </trkpt>
      <trkpt lat="39.94374748493859" lon="116.48163599043382">
        <ele>25.9</ele>
        <time>2023-05-31T11:54:40Z</time>
      </trkpt>
      <trkpt lat="39.943907419934696" lon="116.48161589546147">
        <ele>25.5</ele>
        <time>2023-05-31T11:54:46Z</time>
      </trkpt>
      <trkpt lat="39.94397145257936" lon="116.4816279324375">
        <ele>25.4</ele>
        <time>2023-05-31T11:54:49Z</time>
      </trkpt>
      <trkpt lat="39.94409528052637" lon="116.48157070329704">
        <ele>25.3</ele>
        <time>2023-05-31T11:54:55Z</time>
      </trkpt>
      <trkpt lat="39.944275179565594" lon="116.48153856086921">
        <ele>24.599999999999998</ele>
        <time>2023-05-31T11:54:58Z</time>
      </trkpt>
      <trkpt lat="39.944475224390324" lon="116.48155660331247">
        <ele>25.7</ele>
        <time>2023-05-31T11:55:04Z</time>
      </trkpt>
      <trkpt lat="39.944547344668216" lon="116.48159875171471">
        <ele>26.8</ele>
        <time>2023-05-31T11:55:07Z</time>
      </trkpt>
      <trkpt lat="39.94456459032096" lon="116.48168306446188">
        <ele>28.099999999999998</ele>
        <time>2023-05-31T11:55:10Z</time>
      </trkpt>
      <trkpt lat="39.94465994443794" lon="116.48180551004305">
        <ele>29.8</ele>
        <time>2023-05-31T11:55:16Z</time>
      </trkpt>
      <trkpt lat="39.94474407901815" lon="116.48185267582">
        <ele>30.900000000000002</ele>
        <time>2023-05-31T11:55:22Z</time>
      </trkpt>
      <trkpt lat="39.94503235816012" lon="116.48195201120615">
        <ele>32.6</ele>
        <time>2023-05-31T11:55:34Z</time>
      </trkpt>
      <trkpt lat="39.945232458846085" lon="116.4819891250331">
        <ele>33.800000000000004</ele>
        <time>2023-05-31T11:55:43Z</time>
      </trkpt>
      <trkpt lat="39.9455592961504" lon="116.48193789278574">
        <ele>27.400000000000002</ele>
        <time>2023-05-31T11:55:58Z</time>
      </trkpt>
      <trkpt lat="39.94583710314383" lon="116.48187562542797">
        <ele>25.3</ele>
        <time>2023-05-31T11:56:10Z</time>
      </trkpt>
      <trkpt lat="39.946095690894175" lon="116.48173807922885">
        <ele>24.2</ele>
        <time>2023-05-31T11:56:22Z</time>
      </trkpt>
      <trkpt lat="39.94638405190804" lon="116.48152324091727">
        <ele>23.9</ele>
        <time>2023-05-31T11:56:37Z</time>
      </trkpt>
      <trkpt lat="39.946643678201745" lon="116.48139874383278">
        <ele>26.499999999999996</ele>
        <time>2023-05-31T11:56:49Z</time>
      </trkpt>
      <trkpt lat="39.94690507909848" lon="116.4811969583973">
        <ele>23.9</ele>
        <time>2023-05-31T11:57:04Z</time>
      </trkpt>
      <trkpt lat="39.9471586563046" lon="116.48105539892288">
        <ele>22.5</ele>
        <time>2023-05-31T11:57:13Z</time>
      </trkpt>
      <trkpt lat="39.947435107052485" lon="116.48087067599921">
        <ele>20.8</ele>
        <time>2023-05-31T11:57:28Z</time>
      </trkpt>
      <trkpt lat="39.94771668949023" lon="116.48073112104919">
        <ele>24.0</ele>
        <time>2023-05-31T11:57:40Z</time>
      </trkpt>
      <trkpt lat="39.947969249918415" lon="116.48058354007635">
        <ele>27.900000000000002</ele>
        <time>2023-05-31T11:57:49Z</time>
      </trkpt>
      <trkpt lat="39.94823861140087" lon="116.48036770335699">
        <ele>28.400000000000002</ele>
        <time>2023-05-31T11:58:04Z</time>
      </trkpt>
      <trkpt lat="39.948468525942154" lon="116.47999729777553">
        <ele>30.8</ele>
        <time>2023-05-31T11:58:16Z</time>
      </trkpt>
      <trkpt lat="39.94854383537821" lon="116.47976040873041">
        <ele>30.099999999999998</ele>
        <time>2023-05-31T11:58:22Z</time>
      </trkpt>
      <trkpt lat="39.94860363712872" lon="116.47934787116746">
        <ele>29.3</ele>
        <time>2023-05-31T11:58:34Z</time>
      </trkpt>
      <trkpt lat="39.94864234017392" lon="116.4789002086102">
        <ele>25.0</ele>
        <time>2023-05-31T11:58:49Z</time>
      </trkpt>
      <trkpt lat="39.94864174269012" lon="116.47869344397672">
        <ele>23.9</ele>
        <time>2023-05-31T11:58:55Z</time>
      </trkpt>
      <trkpt lat="39.94870503314639" lon="116.47844853108207">
        <ele>22.5</ele>
        <time>2023-05-31T11:59:04Z</time>
      </trkpt>
      <trkpt lat="39.948812351549066" lon="116.47821365059113">
        <ele>24.099999999999998</ele>
        <time>2023-05-31T11:59:13Z</time>
      </trkpt>
      <trkpt lat="39.949006678776335" lon="116.47798277482556">
        <ele>26.8</ele>
        <time>2023-05-31T11:59:25Z</time>
      </trkpt>
      <trkpt lat="39.94913958103807" lon="116.47795063978172">
        <ele>25.4</ele>
        <time>2023-05-31T11:59:31Z</time>
      </trkpt>
      <trkpt lat="39.94926961923929" lon="116.47796567898757">
        <ele>25.5</ele>
        <time>2023-05-31T11:59:37Z</time>
      </trkpt>
      <trkpt lat="39.94951463844344" lon="116.47797568529293">
        <ele>24.5</ele>
        <time>2023-05-31T11:59:49Z</time>
      </trkpt>
      <trkpt lat="39.949633812936995" lon="116.4780378997942">
        <ele>22.5</ele>
        <time>2023-05-31T11:59:55Z</time>
      </trkpt>
      <trkpt lat="39.94970975211745" lon="116.47801781626497">
        <ele>19.3</ele>
        <time>2023-05-31T12:00:01Z</time>
      </trkpt>
      <trkpt lat="39.949844402899856" lon="116.47789835912583">
        <ele>15.7</ele>
        <time>2023-05-31T12:00:10Z</time>
      </trkpt>
      <trkpt lat="39.95007188851866" lon="116.4777226835645">
        <ele>14.599999999999998</ele>
        <time>2023-05-31T12:00:19Z</time>
      </trkpt>
      <trkpt lat="39.95012487198918" lon="116.47771765844577">
        <ele>16.3</ele>
        <time>2023-05-31T12:00:22Z</time>
      </trkpt>
      <trkpt lat="39.950307153511716" lon="116.47781800529297">
        <ele>18.0</ele>
        <time>2023-05-31T12:00:31Z</time>
      </trkpt>
      <trkpt lat="39.95038147411011" lon="116.4779304102137">
        <ele>18.4</ele>
        <time>2023-05-31T12:00:37Z</time>
      </trkpt>
      <trkpt lat="39.95040671298314" lon="116.47801371415213">
        <ele>18.099999999999998</ele>
        <time>2023-05-31T12:00:40Z</time>
      </trkpt>
      <trkpt lat="39.95040688354218" lon="116.47807293249517">
        <ele>16.8</ele>
        <time>2023-05-31T12:00:43Z</time>
      </trkpt>
      <trkpt lat="39.950279365832635" lon="116.47823855942976">
        <ele>15.2</ele>
        <time>2023-05-31T12:00:52Z</time>
      </trkpt>
      <trkpt lat="39.95020876225653" lon="116.47837507216153">
        <ele>12.8</ele>
        <time>2023-05-31T12:00:58Z</time>
      </trkpt>
      <trkpt lat="39.950132098323735" lon="116.47849050806093">
        <ele>9.7</ele>
        <time>2023-05-31T12:01:04Z</time>
      </trkpt>
      <trkpt lat="39.95009851980441" lon="116.47863605005033">
        <ele>6.6000000000000005</ele>
        <time>2023-05-31T12:01:10Z</time>
      </trkpt>
      <trkpt lat="39.950109733885476" lon="116.47871032322016">
        <ele>5.3999999999999995</ele>
        <time>2023-05-31T12:01:13Z</time>
      </trkpt>
      <trkpt lat="39.95017018105838" lon="116.47886589103078">
        <ele>3.6000000000000005</ele>
        <time>2023-05-31T12:01:19Z</time>
      </trkpt>
      <trkpt lat="39.950199592015295" lon="116.47900841477546">
        <ele>3.2</ele>
        <time>2023-05-31T12:01:22Z</time>
      </trkpt>
      <trkpt lat="39.95034462056561" lon="116.47936572016093">
        <ele>7.7</ele>
        <time>2023-05-31T12:01:34Z</time>
      </trkpt>
      <trkpt lat="39.95051648654017" lon="116.4796668153644">
        <ele>13.099999999999998</ele>
        <time>2023-05-31T12:01:46Z</time>
      </trkpt>
      <trkpt lat="39.95068141306628" lon="116.47964370905824">
        <ele>17.599999999999998</ele>
        <time>2023-05-31T12:01:55Z</time>
      </trkpt>
      <trkpt lat="39.95080717236032" lon="116.47956239170185">
        <ele>21.0</ele>
        <time>2023-05-31T12:02:04Z</time>
      </trkpt>
      <trkpt lat="39.950945204729386" lon="116.47957542282177">
        <ele>22.9</ele>
        <time>2023-05-31T12:02:10Z</time>
      </trkpt>
      <trkpt lat="39.95105451474923" lon="116.47968381132706">
        <ele>24.5</ele>
        <time>2023-05-31T12:02:16Z</time>
      </trkpt>
      <trkpt lat="39.951086699818376" lon="116.47974804570785">
        <ele>24.8</ele>
        <time>2023-05-31T12:02:19Z</time>
      </trkpt>
      <trkpt lat="39.95110152669968" lon="116.48003310246061">
        <ele>23.2</ele>
        <time>2023-05-31T12:02:31Z</time>
      </trkpt>
      <trkpt lat="39.95109270781644" lon="116.48009533481184">
        <ele>22.7</ele>
        <time>2023-05-31T12:02:34Z</time>
      </trkpt>
      <trkpt lat="39.951114182420895" lon="116.48025894032136">
        <ele>22.7</ele>
        <time>2023-05-31T12:02:40Z</time>
      </trkpt>
      <trkpt lat="39.95124516994554" lon="116.48060019366692">
        <ele>21.599999999999998</ele>
        <time>2023-05-31T12:02:52Z</time>
      </trkpt>
      <trkpt lat="39.95126860153696" lon="116.48074874390355">
        <ele>18.2</ele>
        <time>2023-05-31T12:02:58Z</time>
      </trkpt>
      <trkpt lat="39.95121744589825" lon="116.48103782752081">
        <ele>12.3</ele>
        <time>2023-05-31T12:03:10Z</time>
      </trkpt>
      <trkpt lat="39.95111422583006" lon="116.48130383251453">
        <ele>9.7</ele>
        <time>2023-05-31T12:03:22Z</time>
      </trkpt>
      <trkpt lat="39.951021601576514" lon="116.48143131984787">
        <ele>9.2</ele>
        <time>2023-05-31T12:03:28Z</time>
      </trkpt>
      <trkpt lat="39.95090488756326" lon="116.48152769419255">
        <ele>9.399999999999999</ele>
        <time>2023-05-31T12:03:34Z</time>
      </trkpt>
      <trkpt lat="39.95086009749265" lon="116.48159896592509">
        <ele>10.599999999999998</ele>
        <time>2023-05-31T12:03:37Z</time>
      </trkpt>
      <trkpt lat="39.95083039486787" lon="116.4817003483197">
        <ele>11.2</ele>
        <time>2023-05-31T12:03:40Z</time>
      </trkpt>
      <trkpt lat="39.95080252892756" lon="116.48208780010276">
        <ele>12.7</ele>
        <time>2023-05-31T12:03:49Z</time>
      </trkpt>
      <trkpt lat="39.95082039506984" lon="116.48238390584271">
        <ele>13.2</ele>
        <time>2023-05-31T12:03:58Z</time>
      </trkpt>
      <trkpt lat="39.9508556083147" lon="116.48245717576174">
        <ele>13.0</ele>
        <time>2023-05-31T12:04:01Z</time>
      </trkpt>
      <trkpt lat="39.95108385809533" lon="116.48254547798736">
        <ele>14.599999999999998</ele>
        <time>2023-05-31T12:04:13Z</time>
      </trkpt>
      <trkpt lat="39.9513368657375" lon="116.48255146890685">
        <ele>15.5</ele>
        <time>2023-05-31T12:04:25Z</time>
      </trkpt>
      <trkpt lat="39.95154224305331" lon="116.4823416577725">
        <ele>15.0</ele>
        <time>2023-05-31T12:04:40Z</time>
      </trkpt>
      <trkpt lat="39.95187670968844" lon="116.4821639511187">
        <ele>14.3</ele>
        <time>2023-05-31T12:04:52Z</time>
      </trkpt>
      <trkpt lat="39.951997328963536" lon="116.48203545546743">
        <ele>15.2</ele>
        <time>2023-05-31T12:04:58Z</time>
      </trkpt>
      <trkpt lat="39.95204908909089" lon="116.48195414497917">
        <ele>15.0</ele>
        <time>2023-05-31T12:05:01Z</time>
      </trkpt>
      <trkpt lat="39.95207485031135" lon="116.48187283781593">
        <ele>15.0</ele>
        <time>2023-05-31T12:05:04Z</time>
      </trkpt>
      <trkpt lat="39.95216042440368" lon="116.48172828695508">
        <ele>14.899999999999999</ele>
        <time>2023-05-31T12:05:10Z</time>
      </trkpt>
      <trkpt lat="39.95228963055951" lon="116.48145826238535">
        <ele>15.2</ele>
        <time>2023-05-31T12:05:19Z</time>
      </trkpt>
      <trkpt lat="39.952457210804745" lon="116.48131671318635">
        <ele>15.8</ele>
        <time>2023-05-31T12:05:28Z</time>
      </trkpt>
      <trkpt lat="39.95252212622304" lon="116.48128860019503">
        <ele>16.599999999999998</ele>
        <time>2023-05-31T12:05:31Z</time>
      </trkpt>
      <trkpt lat="39.95278860327933" lon="116.48111291162955">
        <ele>17.9</ele>
        <time>2023-05-31T12:05:46Z</time>
      </trkpt>
      <trkpt lat="39.953075123748505" lon="116.48095227703683">
        <ele>19.0</ele>
        <time>2023-05-31T12:06:01Z</time>
      </trkpt>
      <trkpt lat="39.95337657666053" lon="116.48076855488549">
        <ele>20.5</ele>
        <time>2023-05-31T12:06:16Z</time>
      </trkpt>
      <trkpt lat="39.95369402638355" lon="116.48058382740595">
        <ele>21.599999999999998</ele>
        <time>2023-05-31T12:06:28Z</time>
      </trkpt>
      <trkpt lat="39.953920442127554" lon="116.48038606319754">
        <ele>19.5</ele>
        <time>2023-05-31T12:06:40Z</time>
      </trkpt>
      <trkpt lat="39.95416379054803" lon="116.48016521154013">
        <ele>15.099999999999998</ele>
        <time>2023-05-31T12:06:52Z</time>
      </trkpt>
      <trkpt lat="39.954206628450216" lon="116.48011000097655">
        <ele>14.3</ele>
        <time>2023-05-31T12:06:55Z</time>
      </trkpt>
      <trkpt lat="39.954364225732625" lon="116.47997347401133">
        <ele>13.599999999999998</ele>
        <time>2023-05-31T12:07:01Z</time>
      </trkpt>
      <trkpt lat="39.95439401182205" lon="116.4799001981168">
        <ele>13.0</ele>
        <time>2023-05-31T12:07:04Z</time>
      </trkpt>
      <trkpt lat="39.95440174641472" lon="116.47980885797328">
        <ele>13.399999999999999</ele>
        <time>2023-05-31T12:07:07Z</time>
      </trkpt>
      <trkpt lat="39.95428377889832" lon="116.47947362882137">
        <ele>15.3</ele>
        <time>2023-05-31T12:07:19Z</time>
      </trkpt>
      <trkpt lat="39.95408871990913" lon="116.479105288203">
        <ele>17.099999999999998</ele>
        <time>2023-05-31T12:07:40Z</time>
      </trkpt>
      <trkpt lat="39.95390894039681" lon="116.47883330396925">
        <ele>15.5</ele>
        <time>2023-05-31T12:07:55Z</time>
      </trkpt>
      <trkpt lat="39.95374409456593" lon="116.47853823362868">
        <ele>16.599999999999998</ele>
        <time>2023-05-31T12:08:07Z</time>
      </trkpt>
      <trkpt lat="39.95349926456521" lon="116.47824718940774">
        <ele>18.4</ele>
        <time>2023-05-31T12:08:19Z</time>
      </trkpt>
      <trkpt lat="39.953254438538686" lon="116.47795715016122">
        <ele>21.4</ele>
        <time>2023-05-31T12:08:31Z</time>
      </trkpt>
      <trkpt lat="39.95297180272099" lon="116.47773235717979">
        <ele>23.4</ele>
        <time>2023-05-31T12:08:43Z</time>
      </trkpt>
      <trkpt lat="39.95271014078787" lon="116.4774985291238">
        <ele>23.099999999999998</ele>
        <time>2023-05-31T12:08:55Z</time>
      </trkpt>
      <trkpt lat="39.95243352626946" lon="116.47728076283475">
        <ele>21.8</ele>
        <time>2023-05-31T12:09:07Z</time>
      </trkpt>
      <trkpt lat="39.95235715490081" lon="116.4771502929349">
        <ele>22.099999999999998</ele>
        <time>2023-05-31T12:09:13Z</time>
      </trkpt>
      <trkpt lat="39.95224718405893" lon="116.47681005770063">
        <ele>23.5</ele>
        <time>2023-05-31T12:09:25Z</time>
      </trkpt>
      <trkpt lat="39.95212525834662" lon="116.47648488101268">
        <ele>21.599999999999998</ele>
        <time>2023-05-31T12:09:37Z</time>
      </trkpt>
      <trkpt lat="39.952058781932585" lon="116.47631727565708">
        <ele>21.2</ele>
        <time>2023-05-31T12:09:43Z</time>
      </trkpt>
      <trkpt lat="39.9519638030523" lon="116.4759730286122">
        <ele>20.8</ele>
        <time>2023-05-31T12:09:55Z</time>
      </trkpt>
      <trkpt lat="39.951803845613235" lon="116.47563481373673">
        <ele>20.4</ele>
        <time>2023-05-31T12:10:07Z</time>
      </trkpt>
      <trkpt lat="39.95170418991185" lon="116.47540298090121">
        <ele>20.2</ele>
        <time>2023-05-31T12:10:16Z</time>
      </trkpt>
      <trkpt lat="39.95148327194946" lon="116.47507682091918">
        <ele>20.2</ele>
        <time>2023-05-31T12:10:28Z</time>
      </trkpt>
      <trkpt lat="39.951343463328406" lon="116.47478979489145">
        <ele>15.8</ele>
        <time>2023-05-31T12:10:37Z</time>
      </trkpt>
      <trkpt lat="39.95122943349784" lon="116.47442448323073">
        <ele>10.399999999999999</ele>
        <time>2023-05-31T12:10:49Z</time>
      </trkpt>
      <trkpt lat="39.95109466445297" lon="116.47415050731547">
        <ele>10.0</ele>
        <time>2023-05-31T12:10:58Z</time>
      </trkpt>
      <trkpt lat="39.95089090782707" lon="116.47387955238334">
        <ele>12.5</ele>
        <time>2023-05-31T12:11:10Z</time>
      </trkpt>
      <trkpt lat="39.95076132184669" lon="116.47366981064438">
        <ele>12.7</ele>
        <time>2023-05-31T12:11:19Z</time>
      </trkpt>
      <trkpt lat="39.9507011264101" lon="116.4735995645157">
        <ele>12.5</ele>
        <time>2023-05-31T12:11:22Z</time>
      </trkpt>
      <trkpt lat="39.95058794444698" lon="116.47353333962282">
        <ele>10.599999999999998</ele>
        <time>2023-05-31T12:11:28Z</time>
      </trkpt>
      <trkpt lat="39.95041825970765" lon="116.47328747412128">
        <ele>10.7</ele>
        <time>2023-05-31T12:11:40Z</time>
      </trkpt>
      <trkpt lat="39.950344099097464" lon="116.47322927367054">
        <ele>9.8</ele>
        <time>2023-05-31T12:11:46Z</time>
      </trkpt>
      <trkpt lat="39.95015103907659" lon="116.47320521112701">
        <ele>11.099999999999998</ele>
        <time>2023-05-31T12:11:58Z</time>
      </trkpt>
      <trkpt lat="39.94982414503686" lon="116.47323837148019">
        <ele>15.3</ele>
        <time>2023-05-31T12:12:13Z</time>
      </trkpt>
      <trkpt lat="39.949514337767155" lon="116.47330264183826">
        <ele>19.5</ele>
        <time>2023-05-31T12:12:28Z</time>
      </trkpt>
      <trkpt lat="39.949206699803455" lon="116.47342712915915">
        <ele>19.099999999999998</ele>
        <time>2023-05-31T12:12:43Z</time>
      </trkpt>
      <trkpt lat="39.94905683276414" lon="116.47347231088175">
        <ele>17.9</ele>
        <time>2023-05-31T12:12:52Z</time>
      </trkpt>
      <trkpt lat="39.94898907265915" lon="116.4735566235985">
        <ele>17.7</ele>
        <time>2023-05-31T12:12:58Z</time>
      </trkpt>
      <trkpt lat="39.949056172877484" lon="116.47394802942054">
        <ele>18.2</ele>
        <time>2023-05-31T12:13:16Z</time>
      </trkpt>
      <trkpt lat="39.94907957129444" lon="116.47408953851976">
        <ele>17.8</ele>
        <time>2023-05-31T12:13:22Z</time>
      </trkpt>
      <trkpt lat="39.94923451807992" lon="116.47442674079312">
        <ele>16.099999999999998</ele>
        <time>2023-05-31T12:13:34Z</time>
      </trkpt>
      <trkpt lat="39.94929587346039" lon="116.47455319179376">
        <ele>15.399999999999999</ele>
        <time>2023-05-31T12:13:40Z</time>
      </trkpt>
      <trkpt lat="39.94934703622578" lon="116.47461139662302">
        <ele>15.2</ele>
        <time>2023-05-31T12:13:43Z</time>
      </trkpt>
      <trkpt lat="39.949459112753054" lon="116.47499276815662">
        <ele>13.399999999999999</ele>
        <time>2023-05-31T12:14:02Z</time>
      </trkpt>
      <trkpt lat="39.949563123354714" lon="116.47535005560759">
        <ele>14.0</ele>
        <time>2023-05-31T12:14:14Z</time>
      </trkpt>
      <trkpt lat="39.94963484567871" lon="116.47560497589713">
        <ele>12.899999999999999</ele>
        <time>2023-05-31T12:14:26Z</time>
      </trkpt>
      <trkpt lat="39.94964446273213" lon="116.47582176585226">
        <ele>11.2</ele>
        <time>2023-05-31T12:14:35Z</time>
      </trkpt>
      <trkpt lat="39.94962168676576" lon="116.47590005460692">
        <ele>10.599999999999998</ele>
        <time>2023-05-31T12:14:38Z</time>
      </trkpt>
      <trkpt lat="39.949574846010016" lon="116.4759552621391">
        <ele>10.0</ele>
        <time>2023-05-31T12:14:41Z</time>
      </trkpt>
      <trkpt lat="39.94947789277865" lon="116.47597032930192">
        <ele>8.5</ele>
        <time>2023-05-31T12:14:47Z</time>
      </trkpt>
      <trkpt lat="39.94916184231822" lon="116.47594828825167">
        <ele>14.399999999999999</ele>
        <time>2023-05-31T12:15:02Z</time>
      </trkpt>
      <trkpt lat="39.94883459489238" lon="116.47585699566926">
        <ele>20.3</ele>
        <time>2023-05-31T12:15:17Z</time>
      </trkpt>
      <trkpt lat="39.948574242019056" lon="116.4757295629673">
        <ele>22.599999999999998</ele>
        <time>2023-05-31T12:15:29Z</time>
      </trkpt>
      <trkpt lat="39.948313920812005" lon="116.4756131708186">
        <ele>23.0</ele>
        <time>2023-05-31T12:15:41Z</time>
      </trkpt>
      <trkpt lat="39.948013584261126" lon="116.47549076197672">
        <ele>22.4</ele>
        <time>2023-05-31T12:15:56Z</time>
      </trkpt>
      <trkpt lat="39.94769936548538" lon="116.47540950507882">
        <ele>22.4</ele>
        <time>2023-05-31T12:16:11Z</time>
      </trkpt>
      <trkpt lat="39.947431065122295" lon="116.4753001401874">
        <ele>23.4</ele>
        <time>2023-05-31T12:16:26Z</time>
      </trkpt>
      <trkpt lat="39.9471467142689" lon="116.4751727117699">
        <ele>24.3</ele>
        <time>2023-05-31T12:16:41Z</time>
      </trkpt>
      <trkpt lat="39.946851378342146" lon="116.47505030328074">
        <ele>22.4</ele>
        <time>2023-05-31T12:16:56Z</time>
      </trkpt>
      <trkpt lat="39.94658126088104" lon="116.47500517289222">
        <ele>22.0</ele>
        <time>2023-05-31T12:17:11Z</time>
      </trkpt>
      <trkpt lat="39.94647920797336" lon="116.47498511269669">
        <ele>22.2</ele>
        <time>2023-05-31T12:17:17Z</time>
      </trkpt>
      <trkpt lat="39.946422996684475" lon="116.47490984608444">
        <ele>22.9</ele>
        <time>2023-05-31T12:17:23Z</time>
      </trkpt>
      <trkpt lat="39.94638670503547" lon="116.47480647497696">
        <ele>22.3</ele>
        <time>2023-05-31T12:17:29Z</time>
      </trkpt>
      <trkpt lat="39.946346555879394" lon="116.4747532867891">
        <ele>21.4</ele>
        <time>2023-05-31T12:17:32Z</time>
      </trkpt>
      <trkpt lat="39.94631415064954" lon="116.47460976977703">
        <ele>18.8</ele>
        <time>2023-05-31T12:17:38Z</time>
      </trkpt>
      <trkpt lat="39.94630595888775" lon="116.47418824260383">
        <ele>17.3</ele>
        <time>2023-05-31T12:17:53Z</time>
      </trkpt>
      <trkpt lat="39.94627767659489" lon="116.47408788279171">
        <ele>17.0</ele>
        <time>2023-05-31T12:17:56Z</time>
      </trkpt>
      <trkpt lat="39.94621946644801" lon="116.47401261770136">
        <ele>16.599999999999998</ele>
        <time>2023-05-31T12:17:59Z</time>
      </trkpt>
      <trkpt lat="39.94609626463092" lon="116.47393936813413">
        <ele>17.099999999999998</ele>
        <time>2023-05-31T12:18:05Z</time>
      </trkpt>
      <trkpt lat="39.9457643853776" lon="116.47397754771661">
        <ele>16.5</ele>
        <time>2023-05-31T12:18:23Z</time>
      </trkpt>
      <trkpt lat="39.94544958761338" lon="116.47404483049526">
        <ele>15.2</ele>
        <time>2023-05-31T12:18:38Z</time>
      </trkpt>
      <trkpt lat="39.94511375108941" lon="116.47409806513672">
        <ele>14.5</ele>
        <time>2023-05-31T12:18:53Z</time>
      </trkpt>
      <trkpt lat="39.944978796115" lon="116.47411213292729">
        <ele>14.899999999999999</ele>
        <time>2023-05-31T12:18:59Z</time>
      </trkpt>
      <trkpt lat="39.94489104619218" lon="116.47419946008179">
        <ele>15.0</ele>
        <time>2023-05-31T12:19:05Z</time>
      </trkpt>
      <trkpt lat="39.94487899449416" lon="116.47453467664988">
        <ele>13.899999999999999</ele>
        <time>2023-05-31T12:19:17Z</time>
      </trkpt>
      <trkpt lat="39.944816012037265" lon="116.47489298560292">
        <ele>10.2</ele>
        <time>2023-05-31T12:19:32Z</time>
      </trkpt>
      <trkpt lat="39.94470393371508" lon="116.4752161751803">
        <ele>6.6000000000000005</ele>
        <time>2023-05-31T12:19:47Z</time>
      </trkpt>
      <trkpt lat="39.944626838454695" lon="116.4755333402968">
        <ele>2.7</ele>
        <time>2023-05-31T12:19:59Z</time>
      </trkpt>
      <trkpt lat="39.944549358676795" lon="116.47571501263923">
        <ele>1.7000000000000002</ele>
        <time>2023-05-31T12:20:05Z</time>
      </trkpt>
      <trkpt lat="39.94431602293011" lon="116.47594488107013">
        <ele>-4.699999999999999</ele>
        <time>2023-05-31T12:20:23Z</time>
      </trkpt>
      <trkpt lat="39.9441335197781" lon="116.4761165311784">
        <ele>-7.5</ele>
        <time>2023-05-31T12:20:32Z</time>
      </trkpt>
      <trkpt lat="39.944021911039" lon="116.47625204070633">
        <ele>-7.6</ele>
        <time>2023-05-31T12:20:38Z</time>
      </trkpt>
      <trkpt lat="39.94387317784688" lon="116.47634339355281">
        <ele>-7.699999999999999</ele>
        <time>2023-05-31T12:20:44Z</time>
      </trkpt>
      <trkpt lat="39.94374526036163" lon="116.47637050877105">
        <ele>-5.7</ele>
        <time>2023-05-31T12:20:50Z</time>
      </trkpt>
      <trkpt lat="39.94369722211863" lon="116.47635646335966">
        <ele>-5.3999999999999995</ele>
        <time>2023-05-31T12:20:53Z</time>
      </trkpt>
      <trkpt lat="39.943586922587734" lon="116.47625008788017">
        <ele>-3.5</ele>
        <time>2023-05-31T12:21:02Z</time>
      </trkpt>
      <trkpt lat="39.943279356106196" lon="116.47604738508547">
        <ele>3.8999999999999995</ele>
        <time>2023-05-31T12:21:17Z</time>
      </trkpt>
      <trkpt lat="39.94301708312745" lon="116.47594805488649">
        <ele>11.099999999999998</ele>
        <time>2023-05-31T12:21:29Z</time>
      </trkpt>
      <trkpt lat="39.94274403388751" lon="116.47592701211791">
        <ele>13.2</ele>
        <time>2023-05-31T12:21:41Z</time>
      </trkpt>
      <trkpt lat="39.94243702606828" lon="116.47592002493607">
        <ele>19.0</ele>
        <time>2023-05-31T12:21:53Z</time>
      </trkpt>
      <trkpt lat="39.94214697179804" lon="116.4758969769781">
        <ele>20.0</ele>
        <time>2023-05-31T12:22:05Z</time>
      </trkpt>
      <trkpt lat="39.94198407843229" lon="116.47593212570128">
        <ele>20.5</ele>
        <time>2023-05-31T12:22:14Z</time>
      </trkpt>
      <trkpt lat="39.94169645057593" lon="116.4760586238286">
        <ele>19.8</ele>
        <time>2023-05-31T12:22:29Z</time>
      </trkpt>
      <trkpt lat="39.9414149659994" lon="116.47623530500492">
        <ele>20.7</ele>
        <time>2023-05-31T12:22:44Z</time>
      </trkpt>
      <trkpt lat="39.94125812417227" lon="116.47628851926733">
        <ele>21.4</ele>
        <time>2023-05-31T12:22:53Z</time>
      </trkpt>
      <trkpt lat="39.940944070750994" lon="116.47626547416485">
        <ele>22.2</ele>
        <time>2023-05-31T12:23:08Z</time>
      </trkpt>
      <trkpt lat="39.940764034929856" lon="116.4762504416497">
        <ele>22.099999999999998</ele>
        <time>2023-05-31T12:23:17Z</time>
      </trkpt>
      <trkpt lat="39.94048664484236" lon="116.47610996255483">
        <ele>19.2</ele>
        <time>2023-05-31T12:23:35Z</time>
      </trkpt>
      <trkpt lat="39.940158417382285" lon="116.47602569553838">
        <ele>15.8</ele>
        <time>2023-05-31T12:23:53Z</time>
      </trkpt>
      <trkpt lat="39.94004323018375" lon="116.47595846427609">
        <ele>14.0</ele>
        <time>2023-05-31T12:23:59Z</time>
      </trkpt>
      <trkpt lat="39.939936888220195" lon="116.47583703407958">
        <ele>13.5</ele>
        <time>2023-05-31T12:24:05Z</time>
      </trkpt>
      <trkpt lat="39.93989125827358" lon="116.47561523039101">
        <ele>14.7</ele>
        <time>2023-05-31T12:24:14Z</time>
      </trkpt>
      <trkpt lat="39.93990386364371" lon="116.4754767238287">
        <ele>14.8</ele>
        <time>2023-05-31T12:24:20Z</time>
      </trkpt>
      <trkpt lat="39.939864636861095" lon="116.47539643615862">
        <ele>14.8</ele>
        <time>2023-05-31T12:24:23Z</time>
      </trkpt>
      <trkpt lat="39.93972129738975" lon="116.47527501180856">
        <ele>15.7</ele>
        <time>2023-05-31T12:24:29Z</time>
      </trkpt>
      <trkpt lat="39.93944112893444" lon="116.47521181673795">
        <ele>15.8</ele>
        <time>2023-05-31T12:24:44Z</time>
      </trkpt>
      <trkpt lat="39.9391931901553" lon="116.47522991358116">
        <ele>15.5</ele>
        <time>2023-05-31T12:24:56Z</time>
      </trkpt>
      <trkpt lat="39.939121301384176" lon="116.47526806144216">
        <ele>14.7</ele>
        <time>2023-05-31T12:25:02Z</time>
      </trkpt>
      <trkpt lat="39.939053268876314" lon="116.47560730614137">
        <ele>14.2</ele>
        <time>2023-05-31T12:25:17Z</time>
      </trkpt>
      <trkpt lat="39.939014496167836" lon="116.47568660022279">
        <ele>13.899999999999999</ele>
        <time>2023-05-31T12:25:23Z</time>
      </trkpt>
      <trkpt lat="39.93907896251925" lon="116.47585119290537">
        <ele>11.8</ele>
        <time>2023-05-31T12:25:32Z</time>
      </trkpt>
      <trkpt lat="39.93907699620551" lon="116.47621351721689">
        <ele>10.599999999999998</ele>
        <time>2023-05-31T12:25:44Z</time>
      </trkpt>
      <trkpt lat="39.93906452139008" lon="116.47639719083934">
        <ele>10.7</ele>
        <time>2023-05-31T12:25:50Z</time>
      </trkpt>
      <trkpt lat="39.93910373732974" lon="116.47682274522158">
        <ele>12.7</ele>
        <time>2023-05-31T12:26:02Z</time>
      </trkpt>
      <trkpt lat="39.93912137510265" lon="116.47704556062705">
        <ele>12.5</ele>
        <time>2023-05-31T12:26:08Z</time>
      </trkpt>
      <trkpt lat="39.93909646480111" lon="116.477424957746">
        <ele>13.8</ele>
        <time>2023-05-31T12:26:17Z</time>
      </trkpt>
      <trkpt lat="39.93911355764544" lon="116.47780535557601">
        <ele>15.0</ele>
        <time>2023-05-31T12:26:29Z</time>
      </trkpt>
      <trkpt lat="39.93912418418962" lon="116.47802315681969">
        <ele>13.5</ele>
        <time>2023-05-31T12:26:38Z</time>
      </trkpt>
      <trkpt lat="39.939069135231136" lon="116.47835237818394">
        <ele>12.8</ele>
        <time>2023-05-31T12:26:47Z</time>
      </trkpt>
      <trkpt lat="39.93901430534917" lon="116.47841059997084">
        <ele>13.399999999999999</ele>
        <time>2023-05-31T12:26:50Z</time>
      </trkpt>
      <trkpt lat="39.93896537101228" lon="116.47843268763239">
        <ele>13.899999999999999</ele>
        <time>2023-05-31T12:26:53Z</time>
      </trkpt>
      <trkpt lat="39.93866345837799" lon="116.47845882179745">
        <ele>14.3</ele>
        <time>2023-05-31T12:27:11Z</time>
      </trkpt>
      <trkpt lat="39.93859248728232" lon="116.47846786404286">
        <ele>14.899999999999999</ele>
        <time>2023-05-31T12:27:14Z</time>
      </trkpt>
      <trkpt lat="39.93852243215788" lon="116.47844779867944">
        <ele>14.899999999999999</ele>
        <time>2023-05-31T12:27:17Z</time>
      </trkpt>
      <trkpt lat="39.938203230644156" lon="116.47837356439865">
        <ele>14.8</ele>
        <time>2023-05-31T12:27:29Z</time>
      </trkpt>
      <trkpt lat="39.93806703056625" lon="116.4783023184043">
        <ele>13.3</ele>
        <time>2023-05-31T12:27:35Z</time>
      </trkpt>
      <trkpt lat="39.93780341625058" lon="116.47808555162685">
        <ele>8.899999999999999</ele>
        <time>2023-05-31T12:27:47Z</time>
      </trkpt>
      <trkpt lat="39.9375317942013" lon="116.47786577547568">
        <ele>10.399999999999999</ele>
        <time>2023-05-31T12:27:56Z</time>
      </trkpt>
      <trkpt lat="39.9372952175587" lon="116.47766205479365">
        <ele>15.399999999999999</ele>
        <time>2023-05-31T12:28:05Z</time>
      </trkpt>
      <trkpt lat="39.93721513419491" lon="116.47763195399412">
        <ele>16.8</ele>
        <time>2023-05-31T12:28:08Z</time>
      </trkpt>
      <trkpt lat="39.937048155312795" lon="116.47763699337379">
        <ele>18.4</ele>
        <time>2023-05-31T12:28:14Z</time>
      </trkpt>
      <trkpt lat="39.936760031252675" lon="116.47758985584866">
        <ele>21.9</ele>
        <time>2023-05-31T12:28:26Z</time>
      </trkpt>
      <trkpt lat="39.936443908350384" lon="116.4775427218654">
        <ele>24.099999999999998</ele>
        <time>2023-05-31T12:28:41Z</time>
      </trkpt>
      <trkpt lat="39.93610692187019" lon="116.4775427640635">
        <ele>24.599999999999998</ele>
        <time>2023-05-31T12:28:56Z</time>
      </trkpt>
      <trkpt lat="39.93597880011477" lon="116.47749861764997">
        <ele>22.9</ele>
        <time>2023-05-31T12:29:02Z</time>
      </trkpt>
      <trkpt lat="39.9358347136262" lon="116.47746651756175">
        <ele>21.599999999999998</ele>
        <time>2023-05-31T12:29:08Z</time>
      </trkpt>
      <trkpt lat="39.93557925408569" lon="116.47730294807636">
        <ele>18.599999999999998</ele>
        <time>2023-05-31T12:29:20Z</time>
      </trkpt>
      <trkpt lat="39.935449928045315" lon="116.47718754017556">
        <ele>19.3</ele>
        <time>2023-05-31T12:29:26Z</time>
      </trkpt>
      <trkpt lat="39.9353097551735" lon="116.47712532917603">
        <ele>19.599999999999998</ele>
        <time>2023-05-31T12:29:32Z</time>
      </trkpt>
      <trkpt lat="39.935016890740165" lon="116.4771685243598">
        <ele>21.2</ele>
        <time>2023-05-31T12:29:47Z</time>
      </trkpt>
      <trkpt lat="39.93477894061959" lon="116.47718260577214">
        <ele>20.4</ele>
        <time>2023-05-31T12:29:56Z</time>
      </trkpt>
      <trkpt lat="39.93446011183722" lon="116.47723784849441">
        <ele>22.5</ele>
        <time>2023-05-31T12:30:08Z</time>
      </trkpt>
      <trkpt lat="39.93411816880688" lon="116.47725294663078">
        <ele>25.9</ele>
        <time>2023-05-31T12:30:17Z</time>
      </trkpt>
      <trkpt lat="39.93402925016385" lon="116.47728005734317">
        <ele>26.2</ele>
        <time>2023-05-31T12:30:20Z</time>
      </trkpt>
      <trkpt lat="39.933873270850754" lon="116.47728509531689">
        <ele>25.7</ele>
        <time>2023-05-31T12:30:26Z</time>
      </trkpt>
      <trkpt lat="39.93371683366523" lon="116.47713054709317">
        <ele>25.8</ele>
        <time>2023-05-31T12:30:35Z</time>
      </trkpt>
      <trkpt lat="39.93351204504024" lon="116.47685255238649">
        <ele>27.8</ele>
        <time>2023-05-31T12:30:47Z</time>
      </trkpt>
      <trkpt lat="39.933411350916856" lon="116.47660867093096">
        <ele>30.400000000000002</ele>
        <time>2023-05-31T12:30:53Z</time>
      </trkpt>
    </trkseg>
  </trk>
</gpx>