<?xml version="1.0" encoding="UTF-8"?>
<gpx xmlns="http://www.topografix.com/GPX/1/1" xmlns:gpxtpx="http://www.garmin.com/xmlschemas/TrackPointExtension/v1" xmlns:xsi="http://www.w3.org/2001/XMLSchema-instance" xsi:schemaLocation="http://www.topografix.com/GPX/1/1 http://www.topografix.com/GPX/1/1/gpx.xsd" version="1.1" creator="gpx.py -- https://github.com/tkrajina/gpxpy">
  <trk>
    <name>gpx from keep</name>
    <type>Run</type>
    <trkseg>
      <trkpt lat="39.92278012295849" lon="116.48767531952873">
        <ele>36.400000000000006</ele>
        <time>2023-06-01T11:45:21Z</time>
      </trkpt>
      <trkpt lat="39.922764178492876" lon="116.48803066624279">
        <ele>29.400000000000002</ele>
        <time>2023-06-01T11:45:39Z</time>
      </trkpt>
      <trkpt lat="39.92277078341603" lon="116.4882344368199">
        <ele>26.999999999999996</ele>
        <time>2023-06-01T11:45:48Z</time>
      </trkpt>
      <trkpt lat="39.92274065255024" lon="116.4885265466958">
        <ele>24.8</ele>
        <time>2023-06-01T11:45:57Z</time>
      </trkpt>
      <trkpt lat="39.92274489402132" lon="116.48860785412171">
        <ele>24.7</ele>
        <time>2023-06-01T11:46:00Z</time>
      </trkpt>
      <trkpt lat="39.922797351359854" lon="116.48876243315551">
        <ele>23.8</ele>
        <time>2023-06-01T11:46:09Z</time>
      </trkpt>
      <trkpt lat="39.923144608588316" lon="116.48885373596774">
        <ele>25.5</ele>
        <time>2023-06-01T11:46:27Z</time>
      </trkpt>
      <trkpt lat="39.923367635195824" lon="116.48886575382764">
        <ele>27.3</ele>
        <time>2023-06-01T11:46:36Z</time>
      </trkpt>
      <trkpt lat="39.923545559210034" lon="116.48884264419641">
        <ele>30.400000000000002</ele>
        <time>2023-06-01T11:46:45Z</time>
      </trkpt>
      <trkpt lat="39.923684571383696" lon="116.48884864970087">
        <ele>33.0</ele>
        <time>2023-06-01T11:46:51Z</time>
      </trkpt>
      <trkpt lat="39.923954578160824" lon="116.48885463888999">
        <ele>34.5</ele>
        <time>2023-06-01T11:47:03Z</time>
      </trkpt>
      <trkpt lat="39.92427473211485" lon="116.48891081199581">
        <ele>38.5</ele>
        <time>2023-06-01T11:47:18Z</time>
      </trkpt>
      <trkpt lat="39.924595668166056" lon="116.4888937073663">
        <ele>39.6</ele>
        <time>2023-06-01T11:47:30Z</time>
      </trkpt>
      <trkpt lat="39.92480056124638" lon="116.48886055633895">
        <ele>39.400000000000006</ele>
        <time>2023-06-01T11:47:39Z</time>
      </trkpt>
      <trkpt lat="39.92487445375128" lon="116.48882541402587">
        <ele>39.5</ele>
        <time>2023-06-01T11:47:45Z</time>
      </trkpt>
      <trkpt lat="39.92514449338987" lon="116.48884244504292">
        <ele>39.5</ele>
        <time>2023-06-01T11:47:51Z</time>
      </trkpt>
      <trkpt lat="39.925447564511764" lon="116.48887051378247">
        <ele>36.300000000000004</ele>
        <time>2023-06-01T11:48:03Z</time>
      </trkpt>
      <trkpt lat="39.92558444249759" lon="116.48883134840857">
        <ele>33.800000000000004</ele>
        <time>2023-06-01T11:48:12Z</time>
      </trkpt>
      <trkpt lat="39.92589023597466" lon="116.48876606312277">
        <ele>28.499999999999996</ele>
        <time>2023-06-01T11:48:27Z</time>
      </trkpt>
      <trkpt lat="39.92611995800118" lon="116.48867569226275">
        <ele>23.7</ele>
        <time>2023-06-01T11:48:39Z</time>
      </trkpt>
      <trkpt lat="39.92629931222915" lon="116.48846085627036">
        <ele>20.9</ele>
        <time>2023-06-01T11:48:48Z</time>
      </trkpt>
      <trkpt lat="39.92635562996402" lon="116.48823198259005">
        <ele>19.9</ele>
        <time>2023-06-01T11:48:57Z</time>
      </trkpt>
      <trkpt lat="39.926439420804286" lon="116.48816270991543">
        <ele>18.4</ele>
        <time>2023-06-01T11:49:04Z</time>
      </trkpt>
      <trkpt lat="39.92654736868286" lon="116.48814663565993">
        <ele>18.3</ele>
        <time>2023-06-01T11:49:10Z</time>
      </trkpt>
      <trkpt lat="39.92682739896238" lon="116.48816065397146">
        <ele>19.4</ele>
        <time>2023-06-01T11:49:22Z</time>
      </trkpt>
      <trkpt lat="39.927070129672586" lon="116.48807329311171">
        <ele>22.099999999999998</ele>
        <time>2023-06-01T11:49:34Z</time>
      </trkpt>
      <trkpt lat="39.92734258502272" lon="116.48789357904118">
        <ele>20.8</ele>
        <time>2023-06-01T11:49:46Z</time>
      </trkpt>
      <trkpt lat="39.92747226982426" lon="116.48778916779713">
        <ele>21.0</ele>
        <time>2023-06-01T11:49:52Z</time>
      </trkpt>
      <trkpt lat="39.92766756477763" lon="116.4875542547193">
        <ele>28.3</ele>
        <time>2023-06-01T11:50:04Z</time>
      </trkpt>
      <trkpt lat="39.927727091839884" lon="116.48739564737255">
        <ele>29.400000000000002</ele>
        <time>2023-06-01T11:50:10Z</time>
      </trkpt>
      <trkpt lat="39.927717029649116" lon="116.48703729360011">
        <ele>30.599999999999998</ele>
        <time>2023-06-01T11:50:22Z</time>
      </trkpt>
      <trkpt lat="39.927669359289034" lon="116.48681044211901">
        <ele>29.2</ele>
        <time>2023-06-01T11:50:31Z</time>
      </trkpt>
      <trkpt lat="39.92770987887592" lon="116.48664882643439">
        <ele>29.099999999999998</ele>
        <time>2023-06-01T11:50:37Z</time>
      </trkpt>
      <trkpt lat="39.92777048399674" lon="116.48651631835429">
        <ele>28.099999999999998</ele>
        <time>2023-06-01T11:50:43Z</time>
      </trkpt>
      <trkpt lat="39.927777705158086" lon="116.48625332432172">
        <ele>25.4</ele>
        <time>2023-06-01T11:50:52Z</time>
      </trkpt>
      <trkpt lat="39.92780451395156" lon="116.48618907844963">
        <ele>24.7</ele>
        <time>2023-06-01T11:50:55Z</time>
      </trkpt>
      <trkpt lat="39.927890204548326" lon="116.48608567750038">
        <ele>23.8</ele>
        <time>2023-06-01T11:51:01Z</time>
      </trkpt>
      <trkpt lat="39.92796447712518" lon="116.48584074402211">
        <ele>22.4</ele>
        <time>2023-06-01T11:51:10Z</time>
      </trkpt>
      <trkpt lat="39.92798697471099" lon="116.48567110132949">
        <ele>20.5</ele>
        <time>2023-06-01T11:51:16Z</time>
      </trkpt>
      <trkpt lat="39.927909868741" lon="116.48529569561462">
        <ele>14.599999999999998</ele>
        <time>2023-06-01T11:51:28Z</time>
      </trkpt>
      <trkpt lat="39.92787397534169" lon="116.48499255801029">
        <ele>9.5</ele>
        <time>2023-06-01T11:51:40Z</time>
      </trkpt>
      <trkpt lat="39.92787778267121" lon="116.48492731181697">
        <ele>8.5</ele>
        <time>2023-06-01T11:51:43Z</time>
      </trkpt>
      <trkpt lat="39.92801712859307" lon="116.48470746679796">
        <ele>13.399999999999999</ele>
        <time>2023-06-01T11:51:55Z</time>
      </trkpt>
      <trkpt lat="39.928174740406874" lon="116.48457795980418">
        <ele>18.2</ele>
        <time>2023-06-01T11:52:04Z</time>
      </trkpt>
      <trkpt lat="39.92820654680002" lon="116.48451271033647">
        <ele>19.0</ele>
        <time>2023-06-01T11:52:07Z</time>
      </trkpt>
      <trkpt lat="39.92826977235932" lon="116.48425071703956">
        <ele>20.5</ele>
        <time>2023-06-01T11:52:16Z</time>
      </trkpt>
      <trkpt lat="39.92831267305746" lon="116.48421758713513">
        <ele>21.0</ele>
        <time>2023-06-01T11:52:19Z</time>
      </trkpt>
      <trkpt lat="39.92836767377181" lon="116.48421858404379">
        <ele>21.5</ele>
        <time>2023-06-01T11:52:22Z</time>
      </trkpt>
      <trkpt lat="39.92847432495144" lon="116.48342157696298">
        <ele>30.900000000000002</ele>
        <time>2023-06-01T11:52:49Z</time>
      </trkpt>
      <trkpt lat="39.92860480952783" lon="116.48324790916298">
        <ele>34.800000000000004</ele>
        <time>2023-06-01T11:52:55Z</time>
      </trkpt>
      <trkpt lat="39.92866469802473" lon="116.48321076238257">
        <ele>34.800000000000004</ele>
        <time>2023-06-01T11:52:58Z</time>
      </trkpt>
      <trkpt lat="39.92895851806914" lon="116.48315351111579">
        <ele>32.300000000000004</ele>
        <time>2023-06-01T11:53:13Z</time>
      </trkpt>
      <trkpt lat="39.92928937200282" lon="116.48310830041812">
        <ele>30.3</ele>
        <time>2023-06-01T11:53:25Z</time>
      </trkpt>
      <trkpt lat="39.929482384781274" lon="116.4831153026594">
        <ele>31.499999999999996</ele>
        <time>2023-06-01T11:53:34Z</time>
      </trkpt>
      <trkpt lat="39.92952425932734" lon="116.48307313935766">
        <ele>31.7</ele>
        <time>2023-06-01T11:53:37Z</time>
      </trkpt>
      <trkpt lat="39.92953695244702" lon="116.48296874643206">
        <ele>31.999999999999996</ele>
        <time>2023-06-01T11:53:43Z</time>
      </trkpt>
      <trkpt lat="39.929504014689655" lon="116.48264855087415">
        <ele>30.499999999999996</ele>
        <time>2023-06-01T11:53:55Z</time>
      </trkpt>
      <trkpt lat="39.929269385950946" lon="116.48243076471451">
        <ele>25.599999999999998</ele>
        <time>2023-06-01T11:54:10Z</time>
      </trkpt>
      <trkpt lat="39.92922422608296" lon="116.4823755637504">
        <ele>24.7</ele>
        <time>2023-06-01T11:54:13Z</time>
      </trkpt>
      <trkpt lat="39.929144227419705" lon="116.48203329352383">
        <ele>21.9</ele>
        <time>2023-06-01T11:54:25Z</time>
      </trkpt>
      <trkpt lat="39.929056705503854" lon="116.48185363295303">
        <ele>21.9</ele>
        <time>2023-06-01T11:54:31Z</time>
      </trkpt>
      <trkpt lat="39.92900957243457" lon="116.48180746633507">
        <ele>22.7</ele>
        <time>2023-06-01T11:54:34Z</time>
      </trkpt>
      <trkpt lat="39.928725490106515" lon="116.48177538184234">
        <ele>24.3</ele>
        <time>2023-06-01T11:54:49Z</time>
      </trkpt>
      <trkpt lat="39.92856444385565" lon="116.48175733447673">
        <ele>24.3</ele>
        <time>2023-06-01T11:54:55Z</time>
      </trkpt>
      <trkpt lat="39.9283065130423" lon="116.48177744169497">
        <ele>25.599999999999998</ele>
        <time>2023-06-01T11:55:07Z</time>
      </trkpt>
      <trkpt lat="39.928018738981514" lon="116.48185075139773">
        <ele>26.0</ele>
        <time>2023-06-01T11:55:19Z</time>
      </trkpt>
      <trkpt lat="39.927866906598716" lon="116.48190597665408">
        <ele>23.8</ele>
        <time>2023-06-01T11:55:25Z</time>
      </trkpt>
      <trkpt lat="39.927865552649294" lon="116.48212680230229">
        <ele>22.2</ele>
        <time>2023-06-01T11:55:34Z</time>
      </trkpt>
      <trkpt lat="39.9278542083995" lon="116.48235064099937">
        <ele>18.2</ele>
        <time>2023-06-01T11:55:43Z</time>
      </trkpt>
      <trkpt lat="39.92787466037452" lon="116.48250521696961">
        <ele>18.4</ele>
        <time>2023-06-01T11:55:49Z</time>
      </trkpt>
      <trkpt lat="39.92785403774808" lon="116.48263370058946">
        <ele>18.599999999999998</ele>
        <time>2023-06-01T11:55:52Z</time>
      </trkpt>
      <trkpt lat="39.927809207301244" lon="116.48269092045918">
        <ele>20.2</ele>
        <time>2023-06-01T11:55:55Z</time>
      </trkpt>
      <trkpt lat="39.92753421852565" lon="116.48269095480595">
        <ele>21.7</ele>
        <time>2023-06-01T11:56:07Z</time>
      </trkpt>
      <trkpt lat="39.92740425620421" lon="116.48270201239245">
        <ele>22.4</ele>
        <time>2023-06-01T11:56:13Z</time>
      </trkpt>
      <trkpt lat="39.92731252779304" lon="116.48279336600778">
        <ele>22.8</ele>
        <time>2023-06-01T11:56:19Z</time>
      </trkpt>
      <trkpt lat="39.927225647675996" lon="116.48317380280038">
        <ele>23.3</ele>
        <time>2023-06-01T11:56:31Z</time>
      </trkpt>
      <trkpt lat="39.927197079226694" lon="116.48332035605819">
        <ele>25.0</ele>
        <time>2023-06-01T11:56:37Z</time>
      </trkpt>
      <trkpt lat="39.927181406565495" lon="116.48352803123322">
        <ele>26.099999999999998</ele>
        <time>2023-06-01T11:56:46Z</time>
      </trkpt>
      <trkpt lat="39.92719471277235" lon="116.48421571913235">
        <ele>22.8</ele>
        <time>2023-06-01T11:57:07Z</time>
      </trkpt>
      <trkpt lat="39.92715494203425" lon="116.48429301472055">
        <ele>27.2</ele>
        <time>2023-06-01T11:57:10Z</time>
      </trkpt>
      <trkpt lat="39.92699501953293" lon="116.48431712527557">
        <ele>24.9</ele>
        <time>2023-06-01T11:57:16Z</time>
      </trkpt>
      <trkpt lat="39.9268492029194" lon="116.48437736998291">
        <ele>26.499999999999996</ele>
        <time>2023-06-01T11:57:22Z</time>
      </trkpt>
      <trkpt lat="39.92657027347906" lon="116.48439748030445">
        <ele>30.8</ele>
        <time>2023-06-01T11:57:34Z</time>
      </trkpt>
      <trkpt lat="39.92626231862017" lon="116.48440856026991">
        <ele>31.2</ele>
        <time>2023-06-01T11:57:46Z</time>
      </trkpt>
      <trkpt lat="39.92613432090603" lon="116.48440757246874">
        <ele>30.400000000000002</ele>
        <time>2023-06-01T11:57:52Z</time>
      </trkpt>
      <trkpt lat="39.925847158194635" lon="116.48434838556203">
        <ele>32.7</ele>
        <time>2023-06-01T11:58:04Z</time>
      </trkpt>
      <trkpt lat="39.92549919908116" lon="116.48435746296428">
        <ele>36.6</ele>
        <time>2023-06-01T11:58:19Z</time>
      </trkpt>
      <trkpt lat="39.92517922700258" lon="116.48436252177272">
        <ele>35.6</ele>
        <time>2023-06-01T11:58:31Z</time>
      </trkpt>
      <trkpt lat="39.92510818556359" lon="116.48434747401213">
        <ele>35.800000000000004</ele>
        <time>2023-06-01T11:58:34Z</time>
      </trkpt>
      <trkpt lat="39.925025233328164" lon="116.48436254099099">
        <ele>37.900000000000006</ele>
        <time>2023-06-01T11:58:37Z</time>
      </trkpt>
      <trkpt lat="39.924899483968936" lon="116.48444587005184">
        <ele>35.300000000000004</ele>
        <time>2023-06-01T11:58:43Z</time>
      </trkpt>
      <trkpt lat="39.92472737578739" lon="116.48474602089014">
        <ele>30.499999999999996</ele>
        <time>2023-06-01T11:58:55Z</time>
      </trkpt>
      <trkpt lat="39.924682883915935" lon="116.48491767266296">
        <ele>26.7</ele>
        <time>2023-06-01T11:59:04Z</time>
      </trkpt>
      <trkpt lat="39.92468536663072" lon="116.48508128856159">
        <ele>22.8</ele>
        <time>2023-06-01T11:59:13Z</time>
      </trkpt>
      <trkpt lat="39.924721880744855" lon="116.48525594203078">
        <ele>20.599999999999998</ele>
        <time>2023-06-01T11:59:19Z</time>
      </trkpt>
      <trkpt lat="39.92484863750274" lon="116.4855138985548">
        <ele>17.5</ele>
        <time>2023-06-01T11:59:28Z</time>
      </trkpt>
      <trkpt lat="39.92496198878679" lon="116.48563433859513">
        <ele>18.3</ele>
        <time>2023-06-01T11:59:34Z</time>
      </trkpt>
      <trkpt lat="39.92503994415358" lon="116.48595855188982">
        <ele>18.8</ele>
        <time>2023-06-01T11:59:46Z</time>
      </trkpt>
      <trkpt lat="39.92502733661043" lon="116.48609105348228">
        <ele>18.0</ele>
        <time>2023-06-01T11:59:52Z</time>
      </trkpt>
      <trkpt lat="39.92492772978587" lon="116.4862225622526">
        <ele>19.9</ele>
        <time>2023-06-01T11:59:58Z</time>
      </trkpt>
      <trkpt lat="39.924639202155355" lon="116.48637818565956">
        <ele>22.599999999999998</ele>
        <time>2023-06-01T12:00:16Z</time>
      </trkpt>
      <trkpt lat="39.92457725224839" lon="116.48639425403064">
        <ele>22.7</ele>
        <time>2023-06-01T12:00:19Z</time>
      </trkpt>
      <trkpt lat="39.92434294693483" lon="116.48628788149362">
        <ele>23.7</ele>
        <time>2023-06-01T12:00:28Z</time>
      </trkpt>
      <trkpt lat="39.924265923367315" lon="116.48627885699024">
        <ele>23.0</ele>
        <time>2023-06-01T12:00:31Z</time>
      </trkpt>
      <trkpt lat="39.92403017670909" lon="116.48636119716213">
        <ele>22.0</ele>
        <time>2023-06-01T12:00:40Z</time>
      </trkpt>
      <trkpt lat="39.92392238916332" lon="116.48643147593295">
        <ele>21.099999999999998</ele>
        <time>2023-06-01T12:00:46Z</time>
      </trkpt>
      <trkpt lat="39.92380444157446" lon="116.48644755129028">
        <ele>18.599999999999998</ele>
        <time>2023-06-01T12:00:52Z</time>
      </trkpt>
      <trkpt lat="39.92366694067063" lon="116.4866141977883">
        <ele>17.5</ele>
        <time>2023-06-01T12:01:01Z</time>
      </trkpt>
      <trkpt lat="39.92353471632451" lon="116.48687419655796">
        <ele>19.7</ele>
        <time>2023-06-01T12:01:10Z</time>
      </trkpt>
      <trkpt lat="39.92335558954704" lon="116.48716632301044">
        <ele>22.9</ele>
        <time>2023-06-01T12:01:19Z</time>
      </trkpt>
      <trkpt lat="39.92331075212071" lon="116.48722053354125">
        <ele>24.9</ele>
        <time>2023-06-01T12:01:22Z</time>
      </trkpt>
      <trkpt lat="39.923184929961614" lon="116.48727876936418">
        <ele>27.2</ele>
        <time>2023-06-01T12:01:28Z</time>
      </trkpt>
      <trkpt lat="39.92291995579011" lon="116.4872838213667">
        <ele>29.8</ele>
        <time>2023-06-01T12:01:40Z</time>
      </trkpt>
      <trkpt lat="39.92286303256545" lon="116.48730892335544">
        <ele>30.3</ele>
        <time>2023-06-01T12:01:43Z</time>
      </trkpt>
      <trkpt lat="39.92280555004387" lon="116.48748258728166">
        <ele>30.900000000000002</ele>
        <time>2023-06-01T12:01:49Z</time>
      </trkpt>
      <trkpt lat="39.92275756185495" lon="116.48782288066849">
        <ele>33.300000000000004</ele>
        <time>2023-06-01T12:02:01Z</time>
      </trkpt>
      <trkpt lat="39.922685789911505" lon="116.48823545120867">
        <ele>31.2</ele>
        <time>2023-06-01T12:02:16Z</time>
      </trkpt>
      <trkpt lat="39.92267799300437" lon="116.48830371062206">
        <ele>29.900000000000002</ele>
        <time>2023-06-01T12:02:19Z</time>
      </trkpt>
      <trkpt lat="39.922732775187065" lon="116.48856770355164">
        <ele>27.900000000000002</ele>
        <time>2023-06-01T12:02:28Z</time>
      </trkpt>
      <trkpt lat="39.92283943317839" lon="116.48879053439136">
        <ele>27.7</ele>
        <time>2023-06-01T12:02:37Z</time>
      </trkpt>
      <trkpt lat="39.92311267556796" lon="116.48887582361336">
        <ele>29.3</ele>
        <time>2023-06-01T12:02:52Z</time>
      </trkpt>
      <trkpt lat="39.923222745639976" lon="116.48890090498479">
        <ele>28.2</ele>
        <time>2023-06-01T12:02:58Z</time>
      </trkpt>
      <trkpt lat="39.92346059554497" lon="116.48885369661232">
        <ele>28.499999999999996</ele>
        <time>2023-06-01T12:03:07Z</time>
      </trkpt>
      <trkpt lat="39.92377064841813" lon="116.48887574166469">
        <ele>29.7</ele>
        <time>2023-06-01T12:03:16Z</time>
      </trkpt>
      <trkpt lat="39.92386057308133" lon="116.48885163918906">
        <ele>29.599999999999998</ele>
        <time>2023-06-01T12:03:19Z</time>
      </trkpt>
      <trkpt lat="39.9241325529216" lon="116.48884859390424">
        <ele>28.499999999999996</ele>
        <time>2023-06-01T12:03:31Z</time>
      </trkpt>
      <trkpt lat="39.92441763669078" lon="116.48888068009799">
        <ele>26.499999999999996</ele>
        <time>2023-06-01T12:03:43Z</time>
      </trkpt>
      <trkpt lat="39.924714690133015" lon="116.48890272677171">
        <ele>25.599999999999998</ele>
        <time>2023-06-01T12:03:58Z</time>
      </trkpt>
      <trkpt lat="39.92492756796348" lon="116.48886455573235">
        <ele>25.3</ele>
        <time>2023-06-01T12:04:10Z</time>
      </trkpt>
      <trkpt lat="39.92510759936529" lon="116.48887758275046">
        <ele>24.0</ele>
        <time>2023-06-01T12:04:19Z</time>
      </trkpt>
      <trkpt lat="39.925200500042756" lon="116.48884544947626">
        <ele>24.4</ele>
        <time>2023-06-01T12:04:22Z</time>
      </trkpt>
      <trkpt lat="39.925414527068426" lon="116.4888574684555">
        <ele>23.8</ele>
        <time>2023-06-01T12:04:31Z</time>
      </trkpt>
      <trkpt lat="39.92568733680737" lon="116.48879720628793">
        <ele>26.0</ele>
        <time>2023-06-01T12:04:40Z</time>
      </trkpt>
      <trkpt lat="39.92599012743632" lon="116.48873091758105">
        <ele>28.7</ele>
        <time>2023-06-01T12:04:49Z</time>
      </trkpt>
      <trkpt lat="39.92617697058387" lon="116.48868070417326">
        <ele>30.8</ele>
        <time>2023-06-01T12:04:58Z</time>
      </trkpt>
      <trkpt lat="39.92623886958517" lon="116.48864757098008">
        <ele>31.499999999999996</ele>
        <time>2023-06-01T12:05:01Z</time>
      </trkpt>
      <trkpt lat="39.92631751432481" lon="116.48852911252487">
        <ele>32.400000000000006</ele>
        <time>2023-06-01T12:05:07Z</time>
      </trkpt>
      <trkpt lat="39.92633912269102" lon="116.48839761181492">
        <ele>32.300000000000004</ele>
        <time>2023-06-01T12:05:13Z</time>
      </trkpt>
      <trkpt lat="39.92639775347605" lon="116.48827413697298">
        <ele>30.499999999999996</ele>
        <time>2023-06-01T12:05:19Z</time>
      </trkpt>
      <trkpt lat="39.926510480505414" lon="116.4881837808695">
        <ele>29.099999999999998</ele>
        <time>2023-06-01T12:05:28Z</time>
      </trkpt>
      <trkpt lat="39.9268734209311" lon="116.48816867863992">
        <ele>29.2</ele>
        <time>2023-06-01T12:05:40Z</time>
      </trkpt>
      <trkpt lat="39.927022286645816" lon="116.48812549667764">
        <ele>28.3</ele>
        <time>2023-06-01T12:05:46Z</time>
      </trkpt>
      <trkpt lat="39.92728053391761" lon="116.48787551839078">
        <ele>27.900000000000002</ele>
        <time>2023-06-01T12:06:01Z</time>
      </trkpt>
      <trkpt lat="39.92749787254449" lon="116.48765565943536">
        <ele>29.400000000000002</ele>
        <time>2023-06-01T12:06:13Z</time>
      </trkpt>
      <trkpt lat="39.92767040086225" lon="116.48749904551546">
        <ele>32.6</ele>
        <time>2023-06-01T12:06:22Z</time>
      </trkpt>
      <trkpt lat="39.92769925674515" lon="116.4874508596624">
        <ele>32.7</ele>
        <time>2023-06-01T12:06:25Z</time>
      </trkpt>
      <trkpt lat="39.927734519964524" lon="116.48720291760364">
        <ele>33.6</ele>
        <time>2023-06-01T12:06:34Z</time>
      </trkpt>
      <trkpt lat="39.927718857007335" lon="116.48697907329647">
        <ele>35.2</ele>
        <time>2023-06-01T12:06:43Z</time>
      </trkpt>
      <trkpt lat="39.927680326126136" lon="116.48679939902638">
        <ele>35.800000000000004</ele>
        <time>2023-06-01T12:06:49Z</time>
      </trkpt>
      <trkpt lat="39.92769410847193" lon="116.48672612042256">
        <ele>35.6</ele>
        <time>2023-06-01T12:06:52Z</time>
      </trkpt>
      <trkpt lat="39.927767704081894" lon="116.48659059928377">
        <ele>34.400000000000006</ele>
        <time>2023-06-01T12:06:58Z</time>
      </trkpt>
      <trkpt lat="39.92778948322131" lon="116.48651631598513">
        <ele>33.1</ele>
        <time>2023-06-01T12:07:01Z</time>
      </trkpt>
      <trkpt lat="39.92779469258199" lon="116.48624930704433">
        <ele>30.400000000000002</ele>
        <time>2023-06-01T12:07:10Z</time>
      </trkpt>
      <trkpt lat="39.92791679965439" lon="116.4859491589965">
        <ele>26.499999999999996</ele>
        <time>2023-06-01T12:07:22Z</time>
      </trkpt>
      <trkpt lat="39.92794476876973" lon="116.48560084161336">
        <ele>25.7</ele>
        <time>2023-06-01T12:07:34Z</time>
      </trkpt>
      <trkpt lat="39.927918957300136" lon="116.48532580797132">
        <ele>25.599999999999998</ele>
        <time>2023-06-01T12:07:43Z</time>
      </trkpt>
      <trkpt lat="39.92785033180145" lon="116.48511301468245">
        <ele>24.599999999999998</ele>
        <time>2023-06-01T12:07:52Z</time>
      </trkpt>
      <trkpt lat="39.927821861955294" lon="116.48495341707812">
        <ele>23.3</ele>
        <time>2023-06-01T12:07:58Z</time>
      </trkpt>
      <trkpt lat="39.92783738162152" lon="116.484790802851">
        <ele>20.3</ele>
        <time>2023-06-01T12:08:04Z</time>
      </trkpt>
      <trkpt lat="39.92787723789995" lon="116.48474261649888">
        <ele>20.099999999999998</ele>
        <time>2023-06-01T12:08:07Z</time>
      </trkpt>
      <trkpt lat="39.92815901329696" lon="116.48467030930182">
        <ele>21.099999999999998</ele>
        <time>2023-06-01T12:08:19Z</time>
      </trkpt>
      <trkpt lat="39.92824389441844" lon="116.48463115137532">
        <ele>22.2</ele>
        <time>2023-06-01T12:08:22Z</time>
      </trkpt>
      <trkpt lat="39.9283503959859" lon="116.48446350733842">
        <ele>26.2</ele>
        <time>2023-06-01T12:08:28Z</time>
      </trkpt>
      <trkpt lat="39.92840753026738" lon="116.48417039792236">
        <ele>28.999999999999996</ele>
        <time>2023-06-01T12:08:40Z</time>
      </trkpt>
      <trkpt lat="39.92838923844412" lon="116.48407102665601">
        <ele>29.7</ele>
        <time>2023-06-01T12:08:46Z</time>
      </trkpt>
      <trkpt lat="39.92849981443495" lon="116.4839284772068">
        <ele>30.3</ele>
        <time>2023-06-01T12:08:55Z</time>
      </trkpt>
      <trkpt lat="39.9285175656335" lon="116.48384415821617">
        <ele>29.900000000000002</ele>
        <time>2023-06-01T12:08:58Z</time>
      </trkpt>
      <trkpt lat="39.92860737890741" lon="116.4837819132349">
        <ele>28.099999999999998</ele>
        <time>2023-06-01T12:09:04Z</time>
      </trkpt>
      <trkpt lat="39.9287249490557" lon="116.48363735574728">
        <ele>25.5</ele>
        <time>2023-06-01T12:09:10Z</time>
      </trkpt>
      <trkpt lat="39.928834207072285" lon="116.48338640019333">
        <ele>24.8</ele>
        <time>2023-06-01T12:09:16Z</time>
      </trkpt>
      <trkpt lat="39.928938922689305" lon="116.48329102934801">
        <ele>23.099999999999998</ele>
        <time>2023-06-01T12:09:22Z</time>
      </trkpt>
      <trkpt lat="39.92919959667419" lon="116.48318359393878">
        <ele>22.2</ele>
        <time>2023-06-01T12:09:34Z</time>
      </trkpt>
      <trkpt lat="39.92944237756777" lon="116.48311229636447">
        <ele>24.4</ele>
        <time>2023-06-01T12:09:46Z</time>
      </trkpt>
      <trkpt lat="39.929529382870825" lon="116.48311529678982">
        <ele>22.9</ele>
        <time>2023-06-01T12:09:52Z</time>
      </trkpt>
      <trkpt lat="39.92954706691107" lon="116.48300789190866">
        <ele>22.099999999999998</ele>
        <time>2023-06-01T12:09:58Z</time>
      </trkpt>
      <trkpt lat="39.92949017709811" lon="116.48270375936751">
        <ele>22.9</ele>
        <time>2023-06-01T12:10:10Z</time>
      </trkpt>
      <trkpt lat="39.92944184657363" lon="116.48259034063136">
        <ele>23.2</ele>
        <time>2023-06-01T12:10:16Z</time>
      </trkpt>
      <trkpt lat="39.92924226356782" lon="116.48238861032819">
        <ele>19.4</ele>
        <time>2023-06-01T12:10:31Z</time>
      </trkpt>
      <trkpt lat="39.929184290395604" lon="116.4820553710745">
        <ele>20.8</ele>
        <time>2023-06-01T12:10:43Z</time>
      </trkpt>
      <trkpt lat="39.929116841000706" lon="116.48190080172141">
        <ele>20.7</ele>
        <time>2023-06-01T12:10:49Z</time>
      </trkpt>
      <trkpt lat="39.929054687977725" lon="116.48184761070279">
        <ele>20.3</ele>
        <time>2023-06-01T12:10:52Z</time>
      </trkpt>
      <trkpt lat="39.92898961432752" lon="116.48182152132868">
        <ele>20.0</ele>
        <time>2023-06-01T12:10:55Z</time>
      </trkpt>
      <trkpt lat="39.9287716349378" lon="116.48182556356666">
        <ele>19.2</ele>
        <time>2023-06-01T12:11:04Z</time>
      </trkpt>
      <trkpt lat="39.928439666065394" lon="116.48183162754803">
        <ele>22.7</ele>
        <time>2023-06-01T12:11:19Z</time>
      </trkpt>
      <trkpt lat="39.92816973869373" lon="116.4818527400311">
        <ele>25.5</ele>
        <time>2023-06-01T12:11:31Z</time>
      </trkpt>
      <trkpt lat="39.92801575671155" lon="116.48185677427257">
        <ele>25.8</ele>
        <time>2023-06-01T12:11:37Z</time>
      </trkpt>
      <trkpt lat="39.92788389709984" lon="116.4819029632784">
        <ele>26.2</ele>
        <time>2023-06-01T12:11:43Z</time>
      </trkpt>
      <trkpt lat="39.92782733099276" lon="116.48205052185125">
        <ele>26.8</ele>
        <time>2023-06-01T12:11:49Z</time>
      </trkpt>
      <trkpt lat="39.92779709315422" lon="116.48231049790988">
        <ele>26.599999999999998</ele>
        <time>2023-06-01T12:11:58Z</time>
      </trkpt>
      <trkpt lat="39.92781295116094" lon="116.48260359296137">
        <ele>26.400000000000002</ele>
        <time>2023-06-01T12:12:07Z</time>
      </trkpt>
      <trkpt lat="39.92779521670055" lon="116.48269393348497">
        <ele>26.400000000000002</ele>
        <time>2023-06-01T12:12:10Z</time>
      </trkpt>
      <trkpt lat="39.927735339807505" lon="116.48273509510994">
        <ele>26.900000000000002</ele>
        <time>2023-06-01T12:12:13Z</time>
      </trkpt>
      <trkpt lat="39.927665389754935" lon="116.48275116400602">
        <ele>27.499999999999996</ele>
        <time>2023-06-01T12:12:16Z</time>
      </trkpt>
      <trkpt lat="39.9274473309634" lon="116.48272810476338">
        <ele>27.499999999999996</ele>
        <time>2023-06-01T12:12:25Z</time>
      </trkpt>
      <trkpt lat="39.92733045052678" lon="116.482767266001">
        <ele>27.2</ele>
        <time>2023-06-01T12:12:31Z</time>
      </trkpt>
      <trkpt lat="39.927276623464266" lon="116.4828254908318">
        <ele>26.099999999999998</ele>
        <time>2023-06-01T12:12:34Z</time>
      </trkpt>
      <trkpt lat="39.927236878309124" lon="116.48291181926064">
        <ele>25.099999999999998</ele>
        <time>2023-06-01T12:12:37Z</time>
      </trkpt>
      <trkpt lat="39.9271955663876" lon="116.48314570116075">
        <ele>23.4</ele>
        <time>2023-06-01T12:12:46Z</time>
      </trkpt>
      <trkpt lat="39.927216780670534" lon="116.48321897331041">
        <ele>21.8</ele>
        <time>2023-06-01T12:12:49Z</time>
      </trkpt>
      <trkpt lat="39.92720234441002" lon="116.48341069435486">
        <ele>20.4</ele>
        <time>2023-06-01T12:12:55Z</time>
      </trkpt>
      <trkpt lat="39.92714177166997" lon="116.4835552444067">
        <ele>18.099999999999998</ele>
        <time>2023-06-01T12:13:01Z</time>
      </trkpt>
      <trkpt lat="39.92723167715948" lon="116.48386439416423">
        <ele>13.899999999999999</ele>
        <time>2023-06-01T12:13:13Z</time>
      </trkpt>
      <trkpt lat="39.92723693685238" lon="116.48395272537833">
        <ele>12.899999999999999</ele>
        <time>2023-06-01T12:13:16Z</time>
      </trkpt>
      <trkpt lat="39.92714972347904" lon="116.48421873606986">
        <ele>13.3</ele>
        <time>2023-06-01T12:13:22Z</time>
      </trkpt>
      <trkpt lat="39.92709393270144" lon="116.48428900723673">
        <ele>14.0</ele>
        <time>2023-06-01T12:13:25Z</time>
      </trkpt>
      <trkpt lat="39.92696516564737" lon="116.48436631398098">
        <ele>15.399999999999999</ele>
        <time>2023-06-01T12:13:31Z</time>
      </trkpt>
      <trkpt lat="39.9266572403459" lon="116.48438743169544">
        <ele>19.9</ele>
        <time>2023-06-01T12:13:43Z</time>
      </trkpt>
      <trkpt lat="39.926489309325575" lon="116.48440853194067">
        <ele>18.2</ele>
        <time>2023-06-01T12:13:49Z</time>
      </trkpt>
      <trkpt lat="39.926414253249" lon="116.48438846579701">
        <ele>18.0</ele>
        <time>2023-06-01T12:13:52Z</time>
      </trkpt>
      <trkpt lat="39.92611233067967" lon="116.48441058654002">
        <ele>17.0</ele>
        <time>2023-06-01T12:14:04Z</time>
      </trkpt>
      <trkpt lat="39.925822200617695" lon="116.48436244152884">
        <ele>22.599999999999998</ele>
        <time>2023-06-01T12:14:16Z</time>
      </trkpt>
      <trkpt lat="39.925512192633704" lon="116.4843554537924">
        <ele>23.7</ele>
        <time>2023-06-01T12:14:28Z</time>
      </trkpt>
      <trkpt lat="39.925242322002894" lon="116.48439563848392">
        <ele>19.5</ele>
        <time>2023-06-01T12:14:40Z</time>
      </trkpt>
      <trkpt lat="39.92502423632631" lon="116.48436354489058">
        <ele>15.3</ele>
        <time>2023-06-01T12:14:49Z</time>
      </trkpt>
      <trkpt lat="39.92495533970627" lon="116.48439768184942">
        <ele>15.7</ele>
        <time>2023-06-01T12:14:52Z</time>
      </trkpt>
      <trkpt lat="39.92483577353511" lon="116.4845432443016">
        <ele>17.2</ele>
        <time>2023-06-01T12:14:58Z</time>
      </trkpt>
      <trkpt lat="39.92471038536653" lon="116.4847490343453">
        <ele>21.099999999999998</ele>
        <time>2023-06-01T12:15:07Z</time>
      </trkpt>
      <trkpt lat="39.92465494429558" lon="116.48493775174583">
        <ele>24.0</ele>
        <time>2023-06-01T12:15:13Z</time>
      </trkpt>
      <trkpt lat="39.92460062196956" lon="116.48516662055292">
        <ele>26.900000000000002</ele>
        <time>2023-06-01T12:15:19Z</time>
      </trkpt>
      <trkpt lat="39.92459992132823" lon="116.48526800263465">
        <ele>28.499999999999996</ele>
        <time>2023-06-01T12:15:22Z</time>
      </trkpt>
      <trkpt lat="39.924617113298126" lon="116.48533324636956">
        <ele>30.2</ele>
        <time>2023-06-01T12:15:25Z</time>
      </trkpt>
      <trkpt lat="39.92465228676917" lon="116.48539246519286">
        <ele>31.099999999999998</ele>
        <time>2023-06-01T12:15:28Z</time>
      </trkpt>
      <trkpt lat="39.924864983873796" lon="116.48563133933877">
        <ele>34.0</ele>
        <time>2023-06-01T12:15:40Z</time>
      </trkpt>
      <trkpt lat="39.92492518017641" lon="116.48569858545825">
        <ele>34.5</ele>
        <time>2023-06-01T12:15:43Z</time>
      </trkpt>
      <trkpt lat="39.92501202546064" lon="116.4859856576387">
        <ele>32.400000000000006</ele>
        <time>2023-06-01T12:15:52Z</time>
      </trkpt>
      <trkpt lat="39.92501560438897" lon="116.48618139593634">
        <ele>30.999999999999996</ele>
        <time>2023-06-01T12:15:58Z</time>
      </trkpt>
      <trkpt lat="39.92498483438193" lon="116.48625869155323">
        <ele>30.999999999999996</ele>
        <time>2023-06-01T12:16:01Z</time>
      </trkpt>
      <trkpt lat="39.92493195539007" lon="116.48629884973646">
        <ele>31.400000000000002</ele>
        <time>2023-06-01T12:16:04Z</time>
      </trkpt>
      <trkpt lat="39.92481099007264" lon="116.486308902719">
        <ele>33.0</ele>
        <time>2023-06-01T12:16:10Z</time>
      </trkpt>
      <trkpt lat="39.924699178888375" lon="116.4863711516487">
        <ele>32.800000000000004</ele>
        <time>2023-06-01T12:16:16Z</time>
      </trkpt>
      <trkpt lat="39.924495151623645" lon="116.48635913160523">
        <ele>31.8</ele>
        <time>2023-06-01T12:16:25Z</time>
      </trkpt>
      <trkpt lat="39.92426887571254" lon="116.48626279598777">
        <ele>28.999999999999996</ele>
        <time>2023-06-01T12:16:34Z</time>
      </trkpt>
      <trkpt lat="39.92410893577338" lon="116.48628088414459">
        <ele>29.900000000000002</ele>
        <time>2023-06-01T12:16:40Z</time>
      </trkpt>
      <trkpt lat="39.9239072322892" lon="116.48637827692617">
        <ele>31.999999999999996</ele>
        <time>2023-06-01T12:16:49Z</time>
      </trkpt>
      <trkpt lat="39.923692013962835" lon="116.4866392894598">
        <ele>30.900000000000002</ele>
        <time>2023-06-01T12:17:01Z</time>
      </trkpt>
      <trkpt lat="39.92347894470578" lon="116.48695049182507">
        <ele>27.8</ele>
        <time>2023-06-01T12:17:13Z</time>
      </trkpt>
      <trkpt lat="39.923310600332464" lon="116.48716934000309">
        <ele>25.7</ele>
        <time>2023-06-01T12:17:22Z</time>
      </trkpt>
      <trkpt lat="39.92325475443215" lon="116.48722054052055">
        <ele>26.8</ele>
        <time>2023-06-01T12:17:25Z</time>
      </trkpt>
      <trkpt lat="39.92297395058246" lon="116.4872828108416">
        <ele>28.7</ele>
        <time>2023-06-01T12:17:34Z</time>
      </trkpt>
      <trkpt lat="39.922821031324226" lon="116.48730792479415">
        <ele>26.599999999999998</ele>
        <time>2023-06-01T12:17:40Z</time>
      </trkpt>
      <trkpt lat="39.922790199318776" lon="116.48736414121211">
        <ele>25.9</ele>
        <time>2023-06-01T12:17:43Z</time>
      </trkpt>
      <trkpt lat="39.92277983701399" lon="116.4875789550011">
        <ele>27.400000000000002</ele>
        <time>2023-06-01T12:17:49Z</time>
      </trkpt>
      <trkpt lat="39.922789450290516" lon="116.48778573615324">
        <ele>30.3</ele>
        <time>2023-06-01T12:17:55Z</time>
      </trkpt>
      <trkpt lat="39.922709723324495" lon="116.4882133646179">
        <ele>36.400000000000006</ele>
        <time>2023-06-01T12:18:07Z</time>
      </trkpt>
      <trkpt lat="39.92268735050077" lon="116.48842416558062">
        <ele>35.6</ele>
        <time>2023-06-01T12:18:16Z</time>
      </trkpt>
      <trkpt lat="39.92274191801226" lon="116.48861588490911">
        <ele>35.400000000000006</ele>
        <time>2023-06-01T12:18:22Z</time>
      </trkpt>
      <trkpt lat="39.92279020842098" lon="116.4887142515203">
        <ele>33.300000000000004</ele>
        <time>2023-06-01T12:18:25Z</time>
      </trkpt>
      <trkpt lat="39.922897544182234" lon="116.4888286716634">
        <ele>30.900000000000002</ele>
        <time>2023-06-01T12:18:31Z</time>
      </trkpt>
      <trkpt lat="39.923167649420826" lon="116.48886778634146">
        <ele>31.8</ele>
        <time>2023-06-01T12:18:46Z</time>
      </trkpt>
      <trkpt lat="39.92318262791024" lon="116.48886075785416">
        <ele>31.599999999999998</ele>
        <time>2023-06-01T12:18:49Z</time>
      </trkpt>
    </trkseg>
  </trk>
</gpx>