<?xml version="1.0" encoding="UTF-8"?>
<gpx xmlns="http://www.topografix.com/GPX/1/1" xmlns:gpxtpx="http://www.garmin.com/xmlschemas/TrackPointExtension/v1" xmlns:xsi="http://www.w3.org/2001/XMLSchema-instance" xsi:schemaLocation="http://www.topografix.com/GPX/1/1 http://www.topografix.com/GPX/1/1/gpx.xsd" version="1.1" creator="gpx.py -- https://github.com/tkrajina/gpxpy">
  <trk>
    <name>gpx from keep</name>
    <type>Run</type>
    <trkseg>
      <trkpt lat="39.92343820519468" lon="116.49845107950145">
        <ele>0.0</ele>
        <time>2023-08-01T22:28:45Z</time>
      </trkpt>
      <trkpt lat="39.92343422760382" lon="116.49644449120912">
        <ele>0.0</ele>
        <time>2023-08-01T22:29:43Z</time>
      </trkpt>
      <trkpt lat="39.92354536893803" lon="116.49783574143527">
        <ele>27.3</ele>
        <time>2023-08-01T22:30:07Z</time>
      </trkpt>
      <trkpt lat="39.92391453143653" lon="116.49588230217654">
        <ele>27.2</ele>
        <time>2023-08-01T22:30:28Z</time>
      </trkpt>
      <trkpt lat="39.92421973741578" lon="116.49595554193341">
        <ele>25.599999999999998</ele>
        <time>2023-08-01T22:30:37Z</time>
      </trkpt>
      <trkpt lat="39.924537362069856" lon="116.49583404225862">
        <ele>25.599999999999998</ele>
        <time>2023-08-01T22:30:43Z</time>
      </trkpt>
      <trkpt lat="39.92464740245218" lon="116.49584908565112">
        <ele>24.4</ele>
        <time>2023-08-01T22:30:52Z</time>
      </trkpt>
      <trkpt lat="39.92486429472712" lon="116.49581593319105">
        <ele>29.099999999999998</ele>
        <time>2023-08-01T22:31:01Z</time>
      </trkpt>
      <trkpt lat="39.92497933790204" lon="116.4958319797671">
        <ele>30.999999999999996</ele>
        <time>2023-08-01T22:31:07Z</time>
      </trkpt>
      <trkpt lat="39.92525222788311" lon="116.49579882034985">
        <ele>34.300000000000004</ele>
        <time>2023-08-01T22:31:16Z</time>
      </trkpt>
      <trkpt lat="39.925575181686064" lon="116.49578773839993">
        <ele>37.1</ele>
        <time>2023-08-01T22:31:28Z</time>
      </trkpt>
      <trkpt lat="39.92590207246103" lon="116.4957555760727">
        <ele>39.6</ele>
        <time>2023-08-01T22:31:43Z</time>
      </trkpt>
      <trkpt lat="39.92596500101418" lon="116.49573248076051">
        <ele>39.900000000000006</ele>
        <time>2023-08-01T22:31:46Z</time>
      </trkpt>
      <trkpt lat="39.92614939166922" lon="116.49586596379757">
        <ele>50.2</ele>
        <time>2023-08-01T22:31:55Z</time>
      </trkpt>
      <trkpt lat="39.926300529185276" lon="116.49591412760675">
        <ele>55.1</ele>
        <time>2023-08-01T22:32:04Z</time>
      </trkpt>
      <trkpt lat="39.92633765939483" lon="116.49595829035162">
        <ele>56.900000000000006</ele>
        <time>2023-08-01T22:32:07Z</time>
      </trkpt>
      <trkpt lat="39.92641568613673" lon="116.49596831869667">
        <ele>59.400000000000006</ele>
        <time>2023-08-01T22:32:10Z</time>
      </trkpt>
      <trkpt lat="39.92650060781217" lon="116.49594321306418">
        <ele>59.7</ele>
        <time>2023-08-01T22:32:16Z</time>
      </trkpt>
      <trkpt lat="39.92662562963755" lon="116.49595223177029">
        <ele>61.3</ele>
        <time>2023-08-01T22:32:19Z</time>
      </trkpt>
      <trkpt lat="39.926710542332785" lon="116.49592411472614">
        <ele>60.900000000000006</ele>
        <time>2023-08-01T22:32:22Z</time>
      </trkpt>
      <trkpt lat="39.926744355323784" lon="116.4958618746962">
        <ele>59.900000000000006</ele>
        <time>2023-08-01T22:32:25Z</time>
      </trkpt>
      <trkpt lat="39.926890040971834" lon="116.49575846478811">
        <ele>60.7</ele>
        <time>2023-08-01T22:32:31Z</time>
      </trkpt>
      <trkpt lat="39.926980665977986" lon="116.49563398178161">
        <ele>61.0</ele>
        <time>2023-08-01T22:32:37Z</time>
      </trkpt>
      <trkpt lat="39.92701542201109" lon="116.49555266927572">
        <ele>60.60000000000001</ele>
        <time>2023-08-01T22:32:40Z</time>
      </trkpt>
      <trkpt lat="39.927097280690404" lon="116.49517121299597">
        <ele>56.5</ele>
        <time>2023-08-01T22:32:52Z</time>
      </trkpt>
      <trkpt lat="39.92711588459836" lon="116.49503870824815">
        <ele>56.1</ele>
        <time>2023-08-01T22:32:55Z</time>
      </trkpt>
      <trkpt lat="39.92711764153907" lon="116.49462212809199">
        <ele>54.5</ele>
        <time>2023-08-01T22:33:07Z</time>
      </trkpt>
      <trkpt lat="39.927112443605246" lon="116.49422060552072">
        <ele>53.900000000000006</ele>
        <time>2023-08-01T22:33:19Z</time>
      </trkpt>
      <trkpt lat="39.92710232671883" lon="116.49384618609906">
        <ele>54.2</ele>
        <time>2023-08-01T22:33:31Z</time>
      </trkpt>
      <trkpt lat="39.92707744109519" lon="116.49354906163713">
        <ele>54.5</ele>
        <time>2023-08-01T22:33:40Z</time>
      </trkpt>
      <trkpt lat="39.92707931179866" lon="116.49317062514659">
        <ele>54.6</ele>
        <time>2023-08-01T22:33:52Z</time>
      </trkpt>
      <trkpt lat="39.92708410760834" lon="116.49276709292675">
        <ele>54.400000000000006</ele>
        <time>2023-08-01T22:34:04Z</time>
      </trkpt>
      <trkpt lat="39.927052309328296" lon="116.49249907957284">
        <ele>55.0</ele>
        <time>2023-08-01T22:34:13Z</time>
      </trkpt>
      <trkpt lat="39.92712019866899" lon="116.49212766137117">
        <ele>53.0</ele>
        <time>2023-08-01T22:34:25Z</time>
      </trkpt>
      <trkpt lat="39.92715564634862" lon="116.49194295590597">
        <ele>52.1</ele>
        <time>2023-08-01T22:34:31Z</time>
      </trkpt>
      <trkpt lat="39.92714734732528" lon="116.49184257593693">
        <ele>51.6</ele>
        <time>2023-08-01T22:34:34Z</time>
      </trkpt>
      <trkpt lat="39.927045309859885" lon="116.4914932628047">
        <ele>54.900000000000006</ele>
        <time>2023-08-01T22:34:40Z</time>
      </trkpt>
      <trkpt lat="39.927055108941765" lon="116.49142600633843">
        <ele>54.5</ele>
        <time>2023-08-01T22:34:43Z</time>
      </trkpt>
      <trkpt lat="39.92703582243865" lon="116.49132964301988">
        <ele>56.5</ele>
        <time>2023-08-01T22:34:46Z</time>
      </trkpt>
      <trkpt lat="39.92705007080578" lon="116.49107768509988">
        <ele>54.900000000000006</ele>
        <time>2023-08-01T22:34:58Z</time>
      </trkpt>
      <trkpt lat="39.9271519239057" lon="116.49069421743302">
        <ele>50.2</ele>
        <time>2023-08-01T22:35:10Z</time>
      </trkpt>
      <trkpt lat="39.927170109727385" lon="116.49042117931766">
        <ele>48.7</ele>
        <time>2023-08-01T22:35:19Z</time>
      </trkpt>
      <trkpt lat="39.92725560990476" lon="116.49025453657674">
        <ele>46.1</ele>
        <time>2023-08-01T22:35:31Z</time>
      </trkpt>
      <trkpt lat="39.927390377191536" lon="116.49017823042576">
        <ele>43.0</ele>
        <time>2023-08-01T22:35:43Z</time>
      </trkpt>
      <trkpt lat="39.927522356852904" lon="116.4901731949572">
        <ele>40.300000000000004</ele>
        <time>2023-08-01T22:35:55Z</time>
      </trkpt>
      <trkpt lat="39.927790205417026" lon="116.49012598266205">
        <ele>39.0</ele>
        <time>2023-08-01T22:36:07Z</time>
      </trkpt>
      <trkpt lat="39.928130260295795" lon="116.49014902789379">
        <ele>36.800000000000004</ele>
        <time>2023-08-01T22:36:22Z</time>
      </trkpt>
      <trkpt lat="39.92842238888727" lon="116.49019617047462">
        <ele>35.0</ele>
        <time>2023-08-01T22:36:34Z</time>
      </trkpt>
      <trkpt lat="39.92870236851053" lon="116.49019312419342">
        <ele>33.800000000000004</ele>
        <time>2023-08-01T22:36:43Z</time>
      </trkpt>
      <trkpt lat="39.9289573880205" lon="116.49020313051797">
        <ele>33.300000000000004</ele>
        <time>2023-08-01T22:36:52Z</time>
      </trkpt>
      <trkpt lat="39.929269151128445" lon="116.49012780613722">
        <ele>32.6</ele>
        <time>2023-08-01T22:37:04Z</time>
      </trkpt>
      <trkpt lat="39.929424064118116" lon="116.4901006840488">
        <ele>33.300000000000004</ele>
        <time>2023-08-01T22:37:10Z</time>
      </trkpt>
      <trkpt lat="39.92948917506168" lon="116.49013882062364">
        <ele>31.900000000000002</ele>
        <time>2023-08-01T22:37:13Z</time>
      </trkpt>
      <trkpt lat="39.92982007791179" lon="116.49011067281332">
        <ele>32.7</ele>
        <time>2023-08-01T22:37:25Z</time>
      </trkpt>
      <trkpt lat="39.93010212623963" lon="116.49013071384296">
        <ele>32.800000000000004</ele>
        <time>2023-08-01T22:37:34Z</time>
      </trkpt>
      <trkpt lat="39.93040703315234" lon="116.4901035730754">
        <ele>29.7</ele>
        <time>2023-08-01T22:37:46Z</time>
      </trkpt>
      <trkpt lat="39.93070288066138" lon="116.49005635728929">
        <ele>27.3</ele>
        <time>2023-08-01T22:38:04Z</time>
      </trkpt>
      <trkpt lat="39.930996788042094" lon="116.49002921789344">
        <ele>25.9</ele>
        <time>2023-08-01T22:38:16Z</time>
      </trkpt>
      <trkpt lat="39.93123753619227" lon="116.48994787953208">
        <ele>26.2</ele>
        <time>2023-08-01T22:38:28Z</time>
      </trkpt>
      <trkpt lat="39.93143415466976" lon="116.48982237918224">
        <ele>26.499999999999996</ele>
        <time>2023-08-01T22:38:37Z</time>
      </trkpt>
      <trkpt lat="39.931539087668284" lon="116.48980128617282">
        <ele>27.499999999999996</ele>
        <time>2023-08-01T22:38:43Z</time>
      </trkpt>
      <trkpt lat="39.931755651628094" lon="116.48965771487285">
        <ele>27.400000000000002</ele>
        <time>2023-08-01T22:38:55Z</time>
      </trkpt>
      <trkpt lat="39.93190064874869" lon="116.48965870061964">
        <ele>25.5</ele>
        <time>2023-08-01T22:39:01Z</time>
      </trkpt>
      <trkpt lat="39.932027449427764" lon="116.48959343742321">
        <ele>25.099999999999998</ele>
        <time>2023-08-01T22:39:07Z</time>
      </trkpt>
      <trkpt lat="39.93212421847898" lon="116.48951713611463">
        <ele>25.099999999999998</ele>
        <time>2023-08-01T22:39:13Z</time>
      </trkpt>
      <trkpt lat="39.93244713074681" lon="116.48949200074611">
        <ele>26.8</ele>
        <time>2023-08-01T22:39:34Z</time>
      </trkpt>
      <trkpt lat="39.93250907149004" lon="116.48947292072064">
        <ele>27.599999999999998</ele>
        <time>2023-08-01T22:39:37Z</time>
      </trkpt>
      <trkpt lat="39.93264564484279" lon="116.48933136712796">
        <ele>27.599999999999998</ele>
        <time>2023-08-01T22:39:43Z</time>
      </trkpt>
      <trkpt lat="39.93271533742869" lon="116.48922897032243">
        <ele>27.099999999999998</ele>
        <time>2023-08-01T22:39:46Z</time>
      </trkpt>
      <trkpt lat="39.93274412725114" lon="116.48915870039703">
        <ele>26.900000000000002</ele>
        <time>2023-08-01T22:39:49Z</time>
      </trkpt>
      <trkpt lat="39.93278506590301" lon="116.48880234485163">
        <ele>26.499999999999996</ele>
        <time>2023-08-01T22:40:10Z</time>
      </trkpt>
      <trkpt lat="39.93276212102441" lon="116.48848414223565">
        <ele>25.599999999999998</ele>
        <time>2023-08-01T22:40:22Z</time>
      </trkpt>
      <trkpt lat="39.932716970725906" lon="116.48843295396058">
        <ele>24.2</ele>
        <time>2023-08-01T22:40:25Z</time>
      </trkpt>
      <trkpt lat="39.932660418314406" lon="116.48824625393415">
        <ele>23.3</ele>
        <time>2023-08-01T22:40:31Z</time>
      </trkpt>
      <trkpt lat="39.93262421552855" lon="116.48784072319822">
        <ele>20.099999999999998</ele>
        <time>2023-08-01T22:40:40Z</time>
      </trkpt>
      <trkpt lat="39.932579633386744" lon="116.48764398421899">
        <ele>20.5</ele>
        <time>2023-08-01T22:40:46Z</time>
      </trkpt>
      <trkpt lat="39.93253431949548" lon="116.48753758729269">
        <ele>19.7</ele>
        <time>2023-08-01T22:40:49Z</time>
      </trkpt>
      <trkpt lat="39.93244524235704" lon="116.48717322022542">
        <ele>21.0</ele>
        <time>2023-08-01T22:41:04Z</time>
      </trkpt>
      <trkpt lat="39.932463795236565" lon="116.48702264863398">
        <ele>22.5</ele>
        <time>2023-08-01T22:41:10Z</time>
      </trkpt>
      <trkpt lat="39.932427672424325" lon="116.48664321914713">
        <ele>23.2</ele>
        <time>2023-08-01T22:41:25Z</time>
      </trkpt>
      <trkpt lat="39.93241742906182" lon="116.48656090946263">
        <ele>22.9</ele>
        <time>2023-08-01T22:41:28Z</time>
      </trkpt>
      <trkpt lat="39.93234890874379" lon="116.48638425072264">
        <ele>23.4</ele>
        <time>2023-08-01T22:41:34Z</time>
      </trkpt>
      <trkpt lat="39.93234873549379" lon="116.48598775388446">
        <ele>27.3</ele>
        <time>2023-08-01T22:41:52Z</time>
      </trkpt>
      <trkpt lat="39.93234951280727" lon="116.48591246969364">
        <ele>27.999999999999996</ele>
        <time>2023-08-01T22:41:55Z</time>
      </trkpt>
      <trkpt lat="39.932296918403765" lon="116.48571071507975">
        <ele>28.7</ele>
        <time>2023-08-01T22:42:01Z</time>
      </trkpt>
      <trkpt lat="39.93230036649874" lon="116.48552401053801">
        <ele>30.2</ele>
        <time>2023-08-01T22:42:07Z</time>
      </trkpt>
      <trkpt lat="39.93232459464154" lon="116.48526302370439">
        <ele>29.8</ele>
        <time>2023-08-01T22:42:16Z</time>
      </trkpt>
      <trkpt lat="39.93230875676589" lon="116.48497895543329">
        <ele>33.7</ele>
        <time>2023-08-01T22:42:25Z</time>
      </trkpt>
      <trkpt lat="39.93232895058877" lon="116.48470592486852">
        <ele>39.2</ele>
        <time>2023-08-01T22:42:34Z</time>
      </trkpt>
      <trkpt lat="39.932304324269246" lon="116.48449312709698">
        <ele>37.300000000000004</ele>
        <time>2023-08-01T22:42:43Z</time>
      </trkpt>
      <trkpt lat="39.932304324269246" lon="116.48449312709698">
        <ele>37.300000000000004</ele>
        <time>2023-08-01T22:42:45Z</time>
      </trkpt>
      <trkpt lat="39.93275726389517" lon="116.48311890868754">
        <ele>31.999999999999996</ele>
        <time>2023-08-01T22:45:58Z</time>
      </trkpt>
      <trkpt lat="39.932753668993236" lon="116.48291614900481">
        <ele>29.7</ele>
        <time>2023-08-01T22:46:07Z</time>
      </trkpt>
      <trkpt lat="39.93273438121976" lon="116.48281778278675">
        <ele>27.7</ele>
        <time>2023-08-01T22:46:10Z</time>
      </trkpt>
      <trkpt lat="39.93274428043037" lon="116.48244237566428">
        <ele>22.7</ele>
        <time>2023-08-01T22:46:25Z</time>
      </trkpt>
      <trkpt lat="39.93273436387592" lon="116.48212920522049">
        <ele>26.0</ele>
        <time>2023-08-01T22:46:37Z</time>
      </trkpt>
      <trkpt lat="39.932765461289" lon="116.48182104947504">
        <ele>23.9</ele>
        <time>2023-08-01T22:46:49Z</time>
      </trkpt>
      <trkpt lat="39.932744251100296" lon="116.48140650424848">
        <ele>25.099999999999998</ele>
        <time>2023-08-01T22:47:04Z</time>
      </trkpt>
      <trkpt lat="39.932732402260896" lon="116.48111542003885">
        <ele>28.400000000000002</ele>
        <time>2023-08-01T22:47:16Z</time>
      </trkpt>
      <trkpt lat="39.932755149646205" lon="116.4810290954258">
        <ele>28.499999999999996</ele>
        <time>2023-08-01T22:47:19Z</time>
      </trkpt>
      <trkpt lat="39.932739082933495" lon="116.48066273279608">
        <ele>30.099999999999998</ele>
        <time>2023-08-01T22:47:31Z</time>
      </trkpt>
      <trkpt lat="39.93273985943263" lon="116.48024216823488">
        <ele>29.3</ele>
        <time>2023-08-01T22:47:46Z</time>
      </trkpt>
      <trkpt lat="39.93273173149164" lon="116.4798537262948">
        <ele>27.999999999999996</ele>
        <time>2023-08-01T22:48:01Z</time>
      </trkpt>
      <trkpt lat="39.932757308167886" lon="116.47970818296658">
        <ele>25.9</ele>
        <time>2023-08-01T22:48:07Z</time>
      </trkpt>
      <trkpt lat="39.93275685995383" lon="116.47955360968052">
        <ele>23.5</ele>
        <time>2023-08-01T22:48:13Z</time>
      </trkpt>
      <trkpt lat="39.93277537636186" lon="116.4793869897103">
        <ele>21.5</ele>
        <time>2023-08-01T22:48:19Z</time>
      </trkpt>
      <trkpt lat="39.93274355815186" lon="116.47910394530403">
        <ele>21.099999999999998</ele>
        <time>2023-08-01T22:48:28Z</time>
      </trkpt>
      <trkpt lat="39.93276712169374" lon="116.47895338516108">
        <ele>20.8</ele>
        <time>2023-08-01T22:48:34Z</time>
      </trkpt>
      <trkpt lat="39.93285731454844" lon="116.47867534577192">
        <ele>17.0</ele>
        <time>2023-08-01T22:48:46Z</time>
      </trkpt>
      <trkpt lat="39.93285663076132" lon="116.47843847081299">
        <ele>12.8</ele>
        <time>2023-08-01T22:48:55Z</time>
      </trkpt>
      <trkpt lat="39.932821821782326" lon="116.47815743805737">
        <ele>7.2</ele>
        <time>2023-08-01T22:49:07Z</time>
      </trkpt>
      <trkpt lat="39.932833521044685" lon="116.4777057723059">
        <ele>7.2</ele>
        <time>2023-08-01T22:49:19Z</time>
      </trkpt>
      <trkpt lat="39.93284912492169" lon="116.47721998385475">
        <ele>8.600000000000001</ele>
        <time>2023-08-01T22:49:37Z</time>
      </trkpt>
      <trkpt lat="39.93281104169444" lon="116.4768415996878">
        <ele>13.3</ele>
        <time>2023-08-01T22:49:46Z</time>
      </trkpt>
      <trkpt lat="39.93277649427076" lon="116.47664990122924">
        <ele>16.9</ele>
        <time>2023-08-01T22:49:52Z</time>
      </trkpt>
      <trkpt lat="39.93278322121886" lon="116.47655455106045">
        <ele>18.3</ele>
        <time>2023-08-01T22:49:55Z</time>
      </trkpt>
      <trkpt lat="39.932881617583845" lon="116.47634477075243">
        <ele>23.099999999999998</ele>
        <time>2023-08-01T22:50:04Z</time>
      </trkpt>
      <trkpt lat="39.93298332964734" lon="116.47624539448826">
        <ele>25.099999999999998</ele>
        <time>2023-08-01T22:50:10Z</time>
      </trkpt>
      <trkpt lat="39.933126189184804" lon="116.47619820406867">
        <ele>32.800000000000004</ele>
        <time>2023-08-01T22:50:19Z</time>
      </trkpt>
      <trkpt lat="39.93319151618857" lon="116.47631361808364">
        <ele>34.7</ele>
        <time>2023-08-01T22:50:25Z</time>
      </trkpt>
      <trkpt lat="39.933212804996245" lon="116.47641498640378">
        <ele>35.900000000000006</ele>
        <time>2023-08-01T22:50:31Z</time>
      </trkpt>
      <trkpt lat="39.93329518907987" lon="116.47655047222823">
        <ele>37.2</ele>
        <time>2023-08-01T22:50:40Z</time>
      </trkpt>
      <trkpt lat="39.93338847532525" lon="116.47665183193388">
        <ele>38.0</ele>
        <time>2023-08-01T22:50:46Z</time>
      </trkpt>
      <trkpt lat="39.933498988071605" lon="116.47683248039893">
        <ele>38.300000000000004</ele>
        <time>2023-08-01T22:50:55Z</time>
      </trkpt>
      <trkpt lat="39.93351414846055" lon="116.47688868466084">
        <ele>38.5</ele>
        <time>2023-08-01T22:50:58Z</time>
      </trkpt>
      <trkpt lat="39.933626750939645" lon="116.47710044780602">
        <ele>42.900000000000006</ele>
        <time>2023-08-01T22:51:07Z</time>
      </trkpt>
      <trkpt lat="39.93369397566104" lon="116.47717973058184">
        <ele>43.6</ele>
        <time>2023-08-01T22:51:10Z</time>
      </trkpt>
      <trkpt lat="39.93386316179555" lon="116.47724695643721">
        <ele>44.800000000000004</ele>
        <time>2023-08-01T22:51:16Z</time>
      </trkpt>
      <trkpt lat="39.934180140388406" lon="116.47724390568037">
        <ele>42.900000000000006</ele>
        <time>2023-08-01T22:51:28Z</time>
      </trkpt>
      <trkpt lat="39.93445925013759" lon="116.47728602562671">
        <ele>37.800000000000004</ele>
        <time>2023-08-01T22:51:43Z</time>
      </trkpt>
      <trkpt lat="39.934724014819416" lon="116.4772077048244">
        <ele>36.1</ele>
        <time>2023-08-01T22:51:58Z</time>
      </trkpt>
      <trkpt lat="39.93503458778246" lon="116.47706313514647">
        <ele>28.3</ele>
        <time>2023-08-01T22:52:22Z</time>
      </trkpt>
      <trkpt lat="39.935382933616424" lon="116.47718855225254">
        <ele>28.400000000000002</ele>
        <time>2023-08-01T22:52:37Z</time>
      </trkpt>
      <trkpt lat="39.935532126343276" lon="116.4772577880019">
        <ele>29.999999999999996</ele>
        <time>2023-08-01T22:52:43Z</time>
      </trkpt>
      <trkpt lat="39.93577457477499" lon="116.47741734423606">
        <ele>33.7</ele>
        <time>2023-08-01T22:52:55Z</time>
      </trkpt>
      <trkpt lat="39.9359768261482" lon="116.47750765112451">
        <ele>35.900000000000006</ele>
        <time>2023-08-01T22:53:07Z</time>
      </trkpt>
      <trkpt lat="39.936296729684614" lon="116.47747850400344">
        <ele>36.1</ele>
        <time>2023-08-01T22:53:22Z</time>
      </trkpt>
      <trkpt lat="39.93657481080889" lon="116.47751058731879">
        <ele>29.8</ele>
        <time>2023-08-01T22:53:37Z</time>
      </trkpt>
      <trkpt lat="39.936844900925244" lon="116.47754568272941">
        <ele>28.999999999999996</ele>
        <time>2023-08-01T22:53:49Z</time>
      </trkpt>
      <trkpt lat="39.93709197467604" lon="116.4775747588832">
        <ele>30.099999999999998</ele>
        <time>2023-08-01T22:54:01Z</time>
      </trkpt>
      <trkpt lat="39.937394181850564" lon="116.47765100176264">
        <ele>26.499999999999996</ele>
        <time>2023-08-01T22:54:16Z</time>
      </trkpt>
      <trkpt lat="39.93764159629708" lon="116.47779851401769">
        <ele>25.599999999999998</ele>
        <time>2023-08-01T22:54:28Z</time>
      </trkpt>
      <trkpt lat="39.937867248901874" lon="116.47802833269988">
        <ele>29.499999999999996</ele>
        <time>2023-08-01T22:54:40Z</time>
      </trkpt>
      <trkpt lat="39.93804393019834" lon="116.47826719165408">
        <ele>28.999999999999996</ele>
        <time>2023-08-01T22:54:55Z</time>
      </trkpt>
      <trkpt lat="39.93834432054929" lon="116.47840666902222">
        <ele>30.7</ele>
        <time>2023-08-01T22:55:10Z</time>
      </trkpt>
      <trkpt lat="39.938400373326665" lon="116.4784257324199">
        <ele>31.3</ele>
        <time>2023-08-01T22:55:13Z</time>
      </trkpt>
      <trkpt lat="39.93851163245377" lon="116.47851705581644">
        <ele>33.6</ele>
        <time>2023-08-01T22:55:22Z</time>
      </trkpt>
      <trkpt lat="39.9387689583058" lon="116.47863345377898">
        <ele>32.1</ele>
        <time>2023-08-01T22:55:37Z</time>
      </trkpt>
      <trkpt lat="39.93904710372686" lon="116.47868761928338">
        <ele>26.499999999999996</ele>
        <time>2023-08-01T22:55:58Z</time>
      </trkpt>
      <trkpt lat="39.93933987462977" lon="116.47861230441981">
        <ele>22.9</ele>
        <time>2023-08-01T22:56:10Z</time>
      </trkpt>
      <trkpt lat="39.93964651469028" lon="116.47849182105952">
        <ele>25.7</ele>
        <time>2023-08-01T22:56:22Z</time>
      </trkpt>
      <trkpt lat="39.93992807198525" lon="116.47834223359655">
        <ele>29.499999999999996</ele>
        <time>2023-08-01T22:56:37Z</time>
      </trkpt>
      <trkpt lat="39.94003876947194" lon="116.47823883819859">
        <ele>26.2</ele>
        <time>2023-08-01T22:56:43Z</time>
      </trkpt>
      <trkpt lat="39.940171781135405" lon="116.47789756323658">
        <ele>20.099999999999998</ele>
        <time>2023-08-01T22:56:58Z</time>
      </trkpt>
      <trkpt lat="39.94023968598403" lon="116.47786543639532">
        <ele>20.099999999999998</ele>
        <time>2023-08-01T22:57:04Z</time>
      </trkpt>
      <trkpt lat="39.94034963827054" lon="116.47785036716081">
        <ele>20.5</ele>
        <time>2023-08-01T22:57:10Z</time>
      </trkpt>
      <trkpt lat="39.94059126151407" lon="116.478070147046">
        <ele>20.4</ele>
        <time>2023-08-01T22:57:28Z</time>
      </trkpt>
      <trkpt lat="39.94061346305125" lon="116.47814040337084">
        <ele>20.2</ele>
        <time>2023-08-01T22:57:31Z</time>
      </trkpt>
      <trkpt lat="39.94060396976348" lon="116.47831605264636">
        <ele>21.4</ele>
        <time>2023-08-01T22:57:37Z</time>
      </trkpt>
      <trkpt lat="39.940723923746866" lon="116.47864826469136">
        <ele>25.0</ele>
        <time>2023-08-01T22:57:49Z</time>
      </trkpt>
      <trkpt lat="39.94075947040208" lon="116.47883796161419">
        <ele>25.0</ele>
        <time>2023-08-01T22:57:58Z</time>
      </trkpt>
      <trkpt lat="39.940829798396756" lon="116.47895237611158">
        <ele>24.5</ele>
        <time>2023-08-01T22:58:04Z</time>
      </trkpt>
      <trkpt lat="39.94111742286281" lon="116.47917215381699">
        <ele>22.599999999999998</ele>
        <time>2023-08-01T22:58:22Z</time>
      </trkpt>
      <trkpt lat="39.941161604149265" lon="116.47923538249364">
        <ele>22.599999999999998</ele>
        <time>2023-08-01T22:58:25Z</time>
      </trkpt>
      <trkpt lat="39.9411918645225" lon="116.4793257133838">
        <ele>21.9</ele>
        <time>2023-08-01T22:58:28Z</time>
      </trkpt>
      <trkpt lat="39.94124508336691" lon="116.47940198942804">
        <ele>22.599999999999998</ele>
        <time>2023-08-01T22:58:31Z</time>
      </trkpt>
      <trkpt lat="39.94136945944752" lon="116.47953346134481">
        <ele>22.4</ele>
        <time>2023-08-01T22:58:37Z</time>
      </trkpt>
      <trkpt lat="39.94147712755646" lon="116.47976530805178">
        <ele>21.599999999999998</ele>
        <time>2023-08-01T22:58:49Z</time>
      </trkpt>
      <trkpt lat="39.94146466991753" lon="116.47995200274796">
        <ele>24.099999999999998</ele>
        <time>2023-08-01T22:58:55Z</time>
      </trkpt>
      <trkpt lat="39.94150824544398" lon="116.48015073565749">
        <ele>25.4</ele>
        <time>2023-08-01T22:59:01Z</time>
      </trkpt>
      <trkpt lat="39.94154551233453" lon="116.48024307424751">
        <ele>25.2</ele>
        <time>2023-08-01T22:59:04Z</time>
      </trkpt>
      <trkpt lat="39.94167000353769" lon="116.48041369323366">
        <ele>26.599999999999998</ele>
        <time>2023-08-01T22:59:13Z</time>
      </trkpt>
      <trkpt lat="39.94172208613517" lon="116.48044279500398">
        <ele>27.499999999999996</ele>
        <time>2023-08-01T22:59:16Z</time>
      </trkpt>
      <trkpt lat="39.94177509278405" lon="116.4804457995755">
        <ele>27.499999999999996</ele>
        <time>2023-08-01T22:59:19Z</time>
      </trkpt>
      <trkpt lat="39.94192230594665" lon="116.48052106126238">
        <ele>28.599999999999998</ele>
        <time>2023-08-01T22:59:25Z</time>
      </trkpt>
      <trkpt lat="39.94221136746186" lon="116.48054611848578">
        <ele>35.2</ele>
        <time>2023-08-01T22:59:34Z</time>
      </trkpt>
      <trkpt lat="39.942317442111666" lon="116.48057320608001">
        <ele>40.1</ele>
        <time>2023-08-01T22:59:40Z</time>
      </trkpt>
      <trkpt lat="39.94260643061288" lon="116.48057316992868">
        <ele>41.300000000000004</ele>
        <time>2023-08-01T22:59:58Z</time>
      </trkpt>
      <trkpt lat="39.9427184466062" lon="116.48058018206731">
        <ele>38.1</ele>
        <time>2023-08-01T23:00:04Z</time>
      </trkpt>
      <trkpt lat="39.94293699399046" lon="116.480427587004">
        <ele>28.8</ele>
        <time>2023-08-01T23:00:13Z</time>
      </trkpt>
      <trkpt lat="39.94302190594701" lon="116.48039846809866">
        <ele>26.7</ele>
        <time>2023-08-01T23:00:16Z</time>
      </trkpt>
      <trkpt lat="39.94308890912145" lon="116.48040046718337">
        <ele>25.5</ele>
        <time>2023-08-01T23:00:19Z</time>
      </trkpt>
      <trkpt lat="39.94319049502816" lon="116.48060320894619">
        <ele>24.099999999999998</ele>
        <time>2023-08-01T23:00:31Z</time>
      </trkpt>
      <trkpt lat="39.94322192337843" lon="116.48075075438561">
        <ele>25.3</ele>
        <time>2023-08-01T23:00:38Z</time>
      </trkpt>
      <trkpt lat="39.94319157966483" lon="116.48097559583478">
        <ele>28.2</ele>
        <time>2023-08-01T23:00:47Z</time>
      </trkpt>
      <trkpt lat="39.943209351705875" lon="116.48124058163359">
        <ele>25.0</ele>
        <time>2023-08-01T23:00:56Z</time>
      </trkpt>
      <trkpt lat="39.943189674683154" lon="116.48135099601708">
        <ele>22.2</ele>
        <time>2023-08-01T23:01:02Z</time>
      </trkpt>
      <trkpt lat="39.94328671148936" lon="116.48170731424018">
        <ele>19.8</ele>
        <time>2023-08-01T23:01:14Z</time>
      </trkpt>
      <trkpt lat="39.94338989220291" lon="116.48177053758282">
        <ele>19.3</ele>
        <time>2023-08-01T23:01:20Z</time>
      </trkpt>
      <trkpt lat="39.94352805395939" lon="116.48182773409174">
        <ele>20.4</ele>
        <time>2023-08-01T23:01:29Z</time>
      </trkpt>
      <trkpt lat="39.943774563044855" lon="116.48166308826836">
        <ele>20.3</ele>
        <time>2023-08-01T23:01:41Z</time>
      </trkpt>
      <trkpt lat="39.94387741526223" lon="116.48161389171648">
        <ele>19.8</ele>
        <time>2023-08-01T23:01:47Z</time>
      </trkpt>
      <trkpt lat="39.94398444619823" lon="116.48162592331536">
        <ele>19.5</ele>
        <time>2023-08-01T23:01:53Z</time>
      </trkpt>
      <trkpt lat="39.944172034166954" lon="116.48148738265292">
        <ele>19.099999999999998</ele>
        <time>2023-08-01T23:02:02Z</time>
      </trkpt>
      <trkpt lat="39.944348895256496" lon="116.48144219192899">
        <ele>18.4</ele>
        <time>2023-08-01T23:02:08Z</time>
      </trkpt>
      <trkpt lat="39.944479045421964" lon="116.48149537423575">
        <ele>18.0</ele>
        <time>2023-08-01T23:02:14Z</time>
      </trkpt>
      <trkpt lat="39.94468374105399" lon="116.48173624829357">
        <ele>29.2</ele>
        <time>2023-08-01T23:02:26Z</time>
      </trkpt>
      <trkpt lat="39.94479386576784" lon="116.48178039953204">
        <ele>31.7</ele>
        <time>2023-08-01T23:02:32Z</time>
      </trkpt>
      <trkpt lat="39.94485501298716" lon="116.48183158317431">
        <ele>31.8</ele>
        <time>2023-08-01T23:02:38Z</time>
      </trkpt>
      <trkpt lat="39.94517027049056" lon="116.48192388889883">
        <ele>37.400000000000006</ele>
        <time>2023-08-01T23:02:56Z</time>
      </trkpt>
      <trkpt lat="39.94535724545814" lon="116.48191784300711">
        <ele>36.300000000000004</ele>
        <time>2023-08-01T23:03:05Z</time>
      </trkpt>
      <trkpt lat="39.94546030007823" lon="116.48193790516423">
        <ele>36.7</ele>
        <time>2023-08-01T23:03:11Z</time>
      </trkpt>
      <trkpt lat="39.94576206503213" lon="116.48186158229001">
        <ele>33.800000000000004</ele>
        <time>2023-08-01T23:03:23Z</time>
      </trkpt>
      <trkpt lat="39.945816980683105" lon="116.48183347038731">
        <ele>33.5</ele>
        <time>2023-08-01T23:03:26Z</time>
      </trkpt>
      <trkpt lat="39.9460298225933" lon="116.48178225247906">
        <ele>34.1</ele>
        <time>2023-08-01T23:03:41Z</time>
      </trkpt>
      <trkpt lat="39.946119816090274" lon="116.48178123747468">
        <ele>35.1</ele>
        <time>2023-08-01T23:03:47Z</time>
      </trkpt>
      <trkpt lat="39.9462235860868" lon="116.48170393573966">
        <ele>37.0</ele>
        <time>2023-08-01T23:03:53Z</time>
      </trkpt>
      <trkpt lat="39.94631723045947" lon="116.48158347415087">
        <ele>36.6</ele>
        <time>2023-08-01T23:04:02Z</time>
      </trkpt>
      <trkpt lat="39.94655670509081" lon="116.48140678468052">
        <ele>35.400000000000006</ele>
        <time>2023-08-01T23:04:14Z</time>
      </trkpt>
      <trkpt lat="39.946779371076566" lon="116.48129534106886">
        <ele>33.0</ele>
        <time>2023-08-01T23:04:23Z</time>
      </trkpt>
      <trkpt lat="39.946978798063334" lon="116.48110159357091">
        <ele>29.400000000000002</ele>
        <time>2023-08-01T23:04:35Z</time>
      </trkpt>
      <trkpt lat="39.94725447401" lon="116.48099415869127">
        <ele>27.400000000000002</ele>
        <time>2023-08-01T23:04:50Z</time>
      </trkpt>
      <trkpt lat="39.947349376627415" lon="116.48096202710175">
        <ele>27.999999999999996</ele>
        <time>2023-08-01T23:04:56Z</time>
      </trkpt>
      <trkpt lat="39.947479491427785" lon="116.48100316421421">
        <ele>21.9</ele>
        <time>2023-08-01T23:05:08Z</time>
      </trkpt>
      <trkpt lat="39.94771188262481" lon="116.48079736839502">
        <ele>22.4</ele>
        <time>2023-08-01T23:05:20Z</time>
      </trkpt>
      <trkpt lat="39.94799421971578" lon="116.48057349958955">
        <ele>25.4</ele>
        <time>2023-08-01T23:05:32Z</time>
      </trkpt>
      <trkpt lat="39.94824372212992" lon="116.48040584460273">
        <ele>28.499999999999996</ele>
        <time>2023-08-01T23:05:44Z</time>
      </trkpt>
      <trkpt lat="39.94836433208286" lon="116.48027333672441">
        <ele>29.3</ele>
        <time>2023-08-01T23:05:50Z</time>
      </trkpt>
      <trkpt lat="39.94854034822835" lon="116.47993706508369">
        <ele>35.0</ele>
        <time>2023-08-01T23:06:08Z</time>
      </trkpt>
      <trkpt lat="39.9485721721398" lon="116.47987683744576">
        <ele>35.5</ele>
        <time>2023-08-01T23:06:11Z</time>
      </trkpt>
      <trkpt lat="39.94862485145758" lon="116.47942214382839">
        <ele>33.1</ele>
        <time>2023-08-01T23:06:29Z</time>
      </trkpt>
      <trkpt lat="39.948638659592525" lon="116.47901061766125">
        <ele>30.8</ele>
        <time>2023-08-01T23:06:47Z</time>
      </trkpt>
      <trkpt lat="39.94862701295627" lon="116.47878679097738">
        <ele>30.400000000000002</ele>
        <time>2023-08-01T23:06:56Z</time>
      </trkpt>
      <trkpt lat="39.9486664779325" lon="116.47860210326793">
        <ele>31.999999999999996</ele>
        <time>2023-08-01T23:07:05Z</time>
      </trkpt>
      <trkpt lat="39.948813490390044" lon="116.47826182823789">
        <ele>32.400000000000006</ele>
        <time>2023-08-01T23:07:17Z</time>
      </trkpt>
      <trkpt lat="39.948914202876225" lon="116.4781634526731">
        <ele>33.300000000000004</ele>
        <time>2023-08-01T23:07:23Z</time>
      </trkpt>
      <trkpt lat="39.94898382420509" lon="116.4780329627122">
        <ele>32.5</ele>
        <time>2023-08-01T23:07:29Z</time>
      </trkpt>
      <trkpt lat="39.94899960102703" lon="116.47795567581532">
        <ele>32.900000000000006</ele>
        <time>2023-08-01T23:07:32Z</time>
      </trkpt>
      <trkpt lat="39.94931362616764" lon="116.47796868457439">
        <ele>26.599999999999998</ele>
        <time>2023-08-01T23:07:53Z</time>
      </trkpt>
      <trkpt lat="39.94941765095152" lon="116.47797870854279">
        <ele>25.0</ele>
        <time>2023-08-01T23:07:59Z</time>
      </trkpt>
      <trkpt lat="39.94946974138027" lon="116.47801082042695">
        <ele>24.8</ele>
        <time>2023-08-01T23:08:02Z</time>
      </trkpt>
      <trkpt lat="39.94972185281814" lon="116.47805294428179">
        <ele>26.499999999999996</ele>
        <time>2023-08-01T23:08:14Z</time>
      </trkpt>
      <trkpt lat="39.94996426527539" lon="116.47785217397899">
        <ele>26.599999999999998</ele>
        <time>2023-08-01T23:08:29Z</time>
      </trkpt>
      <trkpt lat="39.95009883260723" lon="116.47770360996489">
        <ele>27.7</ele>
        <time>2023-08-01T23:08:38Z</time>
      </trkpt>
      <trkpt lat="39.95014676721166" lon="116.4776815226544">
        <ele>27.400000000000002</ele>
        <time>2023-08-01T23:08:41Z</time>
      </trkpt>
      <trkpt lat="39.950273932489566" lon="116.47774072478383">
        <ele>27.3</ele>
        <time>2023-08-01T23:08:47Z</time>
      </trkpt>
      <trkpt lat="39.95034842340908" lon="116.47791234776824">
        <ele>26.999999999999996</ele>
        <time>2023-08-01T23:08:56Z</time>
      </trkpt>
      <trkpt lat="39.95035862817422" lon="116.47798360916367">
        <ele>26.900000000000002</ele>
        <time>2023-08-01T23:08:59Z</time>
      </trkpt>
      <trkpt lat="39.95040482579957" lon="116.47805285872515">
        <ele>27.400000000000002</ele>
        <time>2023-08-01T23:09:02Z</time>
      </trkpt>
      <trkpt lat="39.95015270078255" lon="116.47835299765347">
        <ele>26.599999999999998</ele>
        <time>2023-08-01T23:09:23Z</time>
      </trkpt>
      <trkpt lat="39.950062211171655" lon="116.4785286577205">
        <ele>25.8</ele>
        <time>2023-08-01T23:09:32Z</time>
      </trkpt>
      <trkpt lat="39.95003657732902" lon="116.47865512829908">
        <ele>26.999999999999996</ele>
        <time>2023-08-01T23:09:38Z</time>
      </trkpt>
      <trkpt lat="39.95009972371577" lon="116.47905259076776">
        <ele>29.2</ele>
        <time>2023-08-01T23:09:50Z</time>
      </trkpt>
      <trkpt lat="39.95013419581268" lon="116.4792161923349">
        <ele>31.400000000000002</ele>
        <time>2023-08-01T23:09:59Z</time>
      </trkpt>
      <trkpt lat="39.95028486138117" lon="116.47944803275605">
        <ele>32.2</ele>
        <time>2023-08-01T23:10:11Z</time>
      </trkpt>
      <trkpt lat="39.95033021450493" lon="116.47957048119885">
        <ele>28.999999999999996</ele>
        <time>2023-08-01T23:10:17Z</time>
      </trkpt>
      <trkpt lat="39.95045447152732" lon="116.47966080078145">
        <ele>27.999999999999996</ele>
        <time>2023-08-01T23:10:23Z</time>
      </trkpt>
      <trkpt lat="39.950709409048216" lon="116.47964270182926">
        <ele>27.3</ele>
        <time>2023-08-01T23:10:35Z</time>
      </trkpt>
      <trkpt lat="39.95078516159181" lon="116.47955837956538">
        <ele>25.5</ele>
        <time>2023-08-01T23:10:41Z</time>
      </trkpt>
      <trkpt lat="39.95098010441785" lon="116.4795412918701">
        <ele>25.4</ele>
        <time>2023-08-01T23:10:53Z</time>
      </trkpt>
      <trkpt lat="39.951053185909295" lon="116.4795703906869">
        <ele>24.7</ele>
        <time>2023-08-01T23:10:56Z</time>
      </trkpt>
      <trkpt lat="39.95103672217897" lon="116.47975507804384">
        <ele>26.900000000000002</ele>
        <time>2023-08-01T23:11:08Z</time>
      </trkpt>
      <trkpt lat="39.95104999835135" lon="116.47985043038251">
        <ele>26.900000000000002</ele>
        <time>2023-08-01T23:11:14Z</time>
      </trkpt>
      <trkpt lat="39.951029290544" lon="116.47995080573766">
        <ele>27.099999999999998</ele>
        <time>2023-08-01T23:11:20Z</time>
      </trkpt>
      <trkpt lat="39.95105759257565" lon="116.48005519000961">
        <ele>25.0</ele>
        <time>2023-08-01T23:11:23Z</time>
      </trkpt>
      <trkpt lat="39.951064857647026" lon="116.48014652855524">
        <ele>24.4</ele>
        <time>2023-08-01T23:11:26Z</time>
      </trkpt>
      <trkpt lat="39.95104236618747" lon="116.48032118073938">
        <ele>23.7</ele>
        <time>2023-08-01T23:11:32Z</time>
      </trkpt>
      <trkpt lat="39.951142811799116" lon="116.48047574322403">
        <ele>25.0</ele>
        <time>2023-08-01T23:11:38Z</time>
      </trkpt>
      <trkpt lat="39.95134914246128" lon="116.48059215076226">
        <ele>25.4</ele>
        <time>2023-08-01T23:11:44Z</time>
      </trkpt>
      <trkpt lat="39.951417616106866" lon="116.48075575142678">
        <ele>27.2</ele>
        <time>2023-08-01T23:11:50Z</time>
      </trkpt>
      <trkpt lat="39.9513438178351" lon="116.48082401491823">
        <ele>30.7</ele>
        <time>2023-08-01T23:11:53Z</time>
      </trkpt>
      <trkpt lat="39.95131001218237" lon="116.48089026598159">
        <ele>31.3</ele>
        <time>2023-08-01T23:11:56Z</time>
      </trkpt>
      <trkpt lat="39.95130218214596" lon="116.48094848391968">
        <ele>32.1</ele>
        <time>2023-08-01T23:11:59Z</time>
      </trkpt>
      <trkpt lat="39.951238594318625" lon="116.48108901573767">
        <ele>29.8</ele>
        <time>2023-08-01T23:12:08Z</time>
      </trkpt>
      <trkpt lat="39.95125875451543" lon="116.48114421908323">
        <ele>26.999999999999996</ele>
        <time>2023-08-01T23:12:14Z</time>
      </trkpt>
      <trkpt lat="39.9510977157923" lon="116.48147146020683">
        <ele>20.5</ele>
        <time>2023-08-01T23:12:29Z</time>
      </trkpt>
      <trkpt lat="39.9508204685934" lon="116.48172544331187">
        <ele>22.9</ele>
        <time>2023-08-01T23:12:47Z</time>
      </trkpt>
      <trkpt lat="39.95071232105464" lon="116.48201554110895">
        <ele>26.7</ele>
        <time>2023-08-01T23:12:56Z</time>
      </trkpt>
      <trkpt lat="39.95073251701185" lon="116.48208279008755">
        <ele>27.499999999999996</ele>
        <time>2023-08-01T23:12:59Z</time>
      </trkpt>
      <trkpt lat="39.95073251701185" lon="116.48208279008755">
        <ele>27.499999999999996</ele>
        <time>2023-08-01T23:13:05Z</time>
      </trkpt>
    </trkseg>
  </trk>
</gpx>