<?xml version="1.0" encoding="UTF-8"?>
<gpx xmlns="http://www.topografix.com/GPX/1/1" xmlns:gpxtpx="http://www.garmin.com/xmlschemas/TrackPointExtension/v1" xmlns:xsi="http://www.w3.org/2001/XMLSchema-instance" xsi:schemaLocation="http://www.topografix.com/GPX/1/1 http://www.topografix.com/GPX/1/1/gpx.xsd" version="1.1" creator="gpx.py -- https://github.com/tkrajina/gpxpy">
  <trk>
    <name>gpx from keep</name>
    <type>Run</type>
    <trkseg>
      <trkpt lat="39.923104792490314" lon="116.49931638575005">
        <ele>73.89999999999999</ele>
        <time>2023-06-29T11:24:33Z</time>
      </trkpt>
      <trkpt lat="39.923117568170476" lon="116.49924110030628">
        <ele>73.7</ele>
        <time>2023-06-29T11:24:35Z</time>
      </trkpt>
      <trkpt lat="39.92345539605776" lon="116.49918785779992">
        <ele>73.39999999999999</ele>
        <time>2023-06-29T11:24:41Z</time>
      </trkpt>
      <trkpt lat="39.92340712337805" lon="116.4987592467375">
        <ele>73.2</ele>
        <time>2023-06-29T11:24:56Z</time>
      </trkpt>
      <trkpt lat="39.9234022962922" lon="116.49848119766813">
        <ele>72.89999999999999</ele>
        <time>2023-06-29T11:25:05Z</time>
      </trkpt>
      <trkpt lat="39.923425823310716" lon="116.49832259579685">
        <ele>71.6</ele>
        <time>2023-06-29T11:25:11Z</time>
      </trkpt>
      <trkpt lat="39.92348257297731" lon="116.49823927405379">
        <ele>69.6</ele>
        <time>2023-06-29T11:25:14Z</time>
      </trkpt>
      <trkpt lat="39.9235103477219" lon="116.49816398620027">
        <ele>64.7</ele>
        <time>2023-06-29T11:25:17Z</time>
      </trkpt>
      <trkpt lat="39.923524857003876" lon="116.49799936237376">
        <ele>55.3</ele>
        <time>2023-06-29T11:25:23Z</time>
      </trkpt>
      <trkpt lat="39.923509730618356" lon="116.49762093374383">
        <ele>38.599999999999994</ele>
        <time>2023-06-29T11:25:35Z</time>
      </trkpt>
      <trkpt lat="39.92350298031328" lon="116.49736898173103">
        <ele>32.4</ele>
        <time>2023-06-29T11:25:44Z</time>
      </trkpt>
      <trkpt lat="39.923512737652025" lon="116.49728767295429">
        <ele>30.900000000000002</ele>
        <time>2023-06-29T11:25:47Z</time>
      </trkpt>
      <trkpt lat="39.92359923156391" lon="116.49711902419683">
        <ele>31.599999999999998</ele>
        <time>2023-06-29T11:25:53Z</time>
      </trkpt>
      <trkpt lat="39.92361401855747" lon="116.49704775267735">
        <ele>32.4</ele>
        <time>2023-06-29T11:25:56Z</time>
      </trkpt>
      <trkpt lat="39.923552644703975" lon="116.49658601245446">
        <ele>34.699999999999996</ele>
        <time>2023-06-29T11:26:08Z</time>
      </trkpt>
      <trkpt lat="39.92353482537013" lon="116.49631097310514">
        <ele>32.5</ele>
        <time>2023-06-29T11:26:17Z</time>
      </trkpt>
      <trkpt lat="39.923509610893326" lon="116.4962387024876">
        <ele>33.199999999999996</ele>
        <time>2023-06-29T11:26:20Z</time>
      </trkpt>
      <trkpt lat="39.92349934490027" lon="116.49614936535009">
        <ele>34.0</ele>
        <time>2023-06-29T11:26:23Z</time>
      </trkpt>
      <trkpt lat="39.92351004509717" lon="116.49604898374551">
        <ele>33.7</ele>
        <time>2023-06-29T11:26:26Z</time>
      </trkpt>
      <trkpt lat="39.92347474717528" lon="116.49594860781319">
        <ele>34.6</ele>
        <time>2023-06-29T11:26:29Z</time>
      </trkpt>
      <trkpt lat="39.923382460571716" lon="116.49585125033077">
        <ele>36.0</ele>
        <time>2023-06-29T11:26:32Z</time>
      </trkpt>
      <trkpt lat="39.92310435229455" lon="116.495811132713">
        <ele>34.800000000000004</ele>
        <time>2023-06-29T11:26:41Z</time>
      </trkpt>
      <trkpt lat="39.922892486799924" lon="116.49585331877748">
        <ele>34.300000000000004</ele>
        <time>2023-06-29T11:26:50Z</time>
      </trkpt>
      <trkpt lat="39.92276064194993" lon="116.49590352532643">
        <ele>35.1</ele>
        <time>2023-06-29T11:26:56Z</time>
      </trkpt>
      <trkpt lat="39.922687665925416" lon="116.49591056101158">
        <ele>35.2</ele>
        <time>2023-06-29T11:26:59Z</time>
      </trkpt>
      <trkpt lat="39.92244949015255" lon="116.49584835476435">
        <ele>34.2</ele>
        <time>2023-06-29T11:27:08Z</time>
      </trkpt>
      <trkpt lat="39.9223543683392" lon="116.49580620681844">
        <ele>34.0</ele>
        <time>2023-06-29T11:27:11Z</time>
      </trkpt>
      <trkpt lat="39.92221532319651" lon="116.49578915941807">
        <ele>33.5</ele>
        <time>2023-06-29T11:27:17Z</time>
      </trkpt>
      <trkpt lat="39.92215219706246" lon="116.49574600368705">
        <ele>31.499999999999996</ele>
        <time>2023-06-29T11:27:20Z</time>
      </trkpt>
      <trkpt lat="39.92216402574395" lon="116.49535351458707">
        <ele>25.5</ele>
        <time>2023-06-29T11:27:35Z</time>
      </trkpt>
      <trkpt lat="39.9221673697429" lon="116.49513368073164">
        <ele>23.5</ele>
        <time>2023-06-29T11:27:44Z</time>
      </trkpt>
      <trkpt lat="39.92214504084326" lon="116.49468799337473">
        <ele>19.7</ele>
        <time>2023-06-29T11:28:02Z</time>
      </trkpt>
      <trkpt lat="39.922115140487236" lon="116.49438585102487">
        <ele>17.2</ele>
        <time>2023-06-29T11:28:11Z</time>
      </trkpt>
      <trkpt lat="39.922144001026666" lon="116.49400440031148">
        <ele>11.0</ele>
        <time>2023-06-29T11:28:26Z</time>
      </trkpt>
      <trkpt lat="39.92217946636716" lon="116.49382571795135">
        <ele>6.8</ele>
        <time>2023-06-29T11:28:32Z</time>
      </trkpt>
      <trkpt lat="39.92218070547941" lon="116.49357075030034">
        <ele>7.3</ele>
        <time>2023-06-29T11:28:38Z</time>
      </trkpt>
      <trkpt lat="39.92220744635208" lon="116.49314914701309">
        <ele>13.7</ele>
        <time>2023-06-29T11:28:50Z</time>
      </trkpt>
      <trkpt lat="39.9221707889526" lon="116.49292831343486">
        <ele>16.7</ele>
        <time>2023-06-29T11:28:56Z</time>
      </trkpt>
      <trkpt lat="39.92208498688886" lon="116.49265829925868">
        <ele>19.8</ele>
        <time>2023-06-29T11:29:05Z</time>
      </trkpt>
      <trkpt lat="39.92205993086519" lon="116.49230395748289">
        <ele>23.7</ele>
        <time>2023-06-29T11:29:17Z</time>
      </trkpt>
      <trkpt lat="39.92202687834123" lon="116.49195062053003">
        <ele>21.5</ele>
        <time>2023-06-29T11:29:29Z</time>
      </trkpt>
      <trkpt lat="39.922040665456244" lon="116.49154407591354">
        <ele>17.2</ele>
        <time>2023-06-29T11:29:42Z</time>
      </trkpt>
      <trkpt lat="39.9219958173934" lon="116.49125899964683">
        <ele>9.8</ele>
        <time>2023-06-29T11:29:51Z</time>
      </trkpt>
      <trkpt lat="39.92202572708947" lon="116.49089360948732">
        <ele>7.6000000000000005</ele>
        <time>2023-06-29T11:30:03Z</time>
      </trkpt>
      <trkpt lat="39.922020542885896" lon="116.49049610206117">
        <ele>8.0</ele>
        <time>2023-06-29T11:30:15Z</time>
      </trkpt>
      <trkpt lat="39.9220373104015" lon="116.49008253131952">
        <ele>20.599999999999998</ele>
        <time>2023-06-29T11:30:24Z</time>
      </trkpt>
      <trkpt lat="39.92204034495877" lon="116.4897583014439">
        <ele>30.2</ele>
        <time>2023-06-29T11:30:33Z</time>
      </trkpt>
      <trkpt lat="39.92206583598681" lon="116.48958765128462">
        <ele>30.900000000000002</ele>
        <time>2023-06-29T11:30:39Z</time>
      </trkpt>
      <trkpt lat="39.92206072513262" lon="116.48921423648035">
        <ele>34.5</ele>
        <time>2023-06-29T11:30:51Z</time>
      </trkpt>
      <trkpt lat="39.92203762452562" lon="116.48884383580575">
        <ele>33.1</ele>
        <time>2023-06-29T11:31:03Z</time>
      </trkpt>
      <trkpt lat="39.922005333986796" lon="116.488409193518">
        <ele>32.1</ele>
        <time>2023-06-29T11:31:15Z</time>
      </trkpt>
      <trkpt lat="39.92202966500059" lon="116.4881843391299">
        <ele>25.099999999999998</ele>
        <time>2023-06-29T11:31:24Z</time>
      </trkpt>
      <trkpt lat="39.922130195780134" lon="116.48802773383056">
        <ele>22.8</ele>
        <time>2023-06-29T11:31:33Z</time>
      </trkpt>
      <trkpt lat="39.92232698197361" lon="116.48795844716037">
        <ele>20.599999999999998</ele>
        <time>2023-06-29T11:31:45Z</time>
      </trkpt>
      <trkpt lat="39.922409026265676" lon="116.48797449772562">
        <ele>21.3</ele>
        <time>2023-06-29T11:31:51Z</time>
      </trkpt>
      <trkpt lat="39.92262671327749" lon="116.48787208310534">
        <ele>28.599999999999998</ele>
        <time>2023-06-29T11:32:00Z</time>
      </trkpt>
      <trkpt lat="39.92271570661791" lon="116.48787106821828">
        <ele>31.3</ele>
        <time>2023-06-29T11:32:03Z</time>
      </trkpt>
      <trkpt lat="39.92275083926929" lon="116.4879162347899">
        <ele>33.2</ele>
        <time>2023-06-29T11:32:06Z</time>
      </trkpt>
      <trkpt lat="39.92275778395339" lon="116.48823443843935">
        <ele>36.0</ele>
        <time>2023-06-29T11:32:18Z</time>
      </trkpt>
      <trkpt lat="39.922741972466845" lon="116.48829767984732">
        <ele>36.7</ele>
        <time>2023-06-29T11:32:21Z</time>
      </trkpt>
      <trkpt lat="39.92273938414154" lon="116.48843620471483">
        <ele>35.900000000000006</ele>
        <time>2023-06-29T11:32:27Z</time>
      </trkpt>
      <trkpt lat="39.922797193212624" lon="116.48870923163784">
        <ele>34.300000000000004</ele>
        <time>2023-06-29T11:32:36Z</time>
      </trkpt>
      <trkpt lat="39.92285253112031" lon="116.48882365825489">
        <ele>35.7</ele>
        <time>2023-06-29T11:32:42Z</time>
      </trkpt>
      <trkpt lat="39.92290061866735" lon="116.48885376635573">
        <ele>37.6</ele>
        <time>2023-06-29T11:32:45Z</time>
      </trkpt>
      <trkpt lat="39.92323265569057" lon="116.48887078965458">
        <ele>40.5</ele>
        <time>2023-06-29T11:32:57Z</time>
      </trkpt>
      <trkpt lat="39.92343756068127" lon="116.48884165384452">
        <ele>42.300000000000004</ele>
        <time>2023-06-29T11:33:06Z</time>
      </trkpt>
      <trkpt lat="39.92371870428383" lon="116.48889381659225">
        <ele>43.6</ele>
        <time>2023-06-29T11:33:18Z</time>
      </trkpt>
      <trkpt lat="39.9238217298837" lon="116.48890384179342">
        <ele>44.5</ele>
        <time>2023-06-29T11:33:24Z</time>
      </trkpt>
      <trkpt lat="39.92388266767781" lon="116.48888375813846">
        <ele>43.0</ele>
        <time>2023-06-29T11:33:27Z</time>
      </trkpt>
      <trkpt lat="39.92418465225192" lon="116.48888271672304">
        <ele>36.0</ele>
        <time>2023-06-29T11:33:39Z</time>
      </trkpt>
      <trkpt lat="39.924337705644206" lon="116.48890277372574">
        <ele>34.7</ele>
        <time>2023-06-29T11:33:45Z</time>
      </trkpt>
      <trkpt lat="39.92445063533271" lon="116.48888067598793">
        <ele>34.2</ele>
        <time>2023-06-29T11:33:51Z</time>
      </trkpt>
      <trkpt lat="39.92478063071202" lon="116.48888364629572">
        <ele>36.0</ele>
        <time>2023-06-29T11:34:03Z</time>
      </trkpt>
      <trkpt lat="39.92504062002522" lon="116.4888836139128">
        <ele>36.0</ele>
        <time>2023-06-29T11:34:12Z</time>
      </trkpt>
      <trkpt lat="39.9251575495596" lon="116.48886151567697">
        <ele>36.400000000000006</ele>
        <time>2023-06-29T11:34:15Z</time>
      </trkpt>
      <trkpt lat="39.925469497951106" lon="116.48884842737964">
        <ele>38.5</ele>
        <time>2023-06-29T11:34:27Z</time>
      </trkpt>
      <trkpt lat="39.925627491467296" lon="116.48884840769993">
        <ele>37.5</ele>
        <time>2023-06-29T11:34:33Z</time>
      </trkpt>
      <trkpt lat="39.92595527210263" lon="116.48877910445927">
        <ele>38.800000000000004</ele>
        <time>2023-06-29T11:34:45Z</time>
      </trkpt>
      <trkpt lat="39.92604021788943" lon="116.48876202922848">
        <ele>38.7</ele>
        <time>2023-06-29T11:34:48Z</time>
      </trkpt>
      <trkpt lat="39.9262000621373" lon="116.48871181917791">
        <ele>40.0</ele>
        <time>2023-06-29T11:34:54Z</time>
      </trkpt>
      <trkpt lat="39.92629457492761" lon="116.48854919142235">
        <ele>39.7</ele>
        <time>2023-06-29T11:35:00Z</time>
      </trkpt>
      <trkpt lat="39.92637486474829" lon="116.488311280459">
        <ele>35.2</ele>
        <time>2023-06-29T11:35:09Z</time>
      </trkpt>
      <trkpt lat="39.92649547217537" lon="116.48818077133826">
        <ele>32.5</ele>
        <time>2023-06-29T11:35:18Z</time>
      </trkpt>
      <trkpt lat="39.926804387978216" lon="116.48815664163735">
        <ele>31.7</ele>
        <time>2023-06-29T11:35:33Z</time>
      </trkpt>
      <trkpt lat="39.92705327345397" lon="116.48812147761566">
        <ele>30.999999999999996</ele>
        <time>2023-06-29T11:35:42Z</time>
      </trkpt>
      <trkpt lat="39.92729458698393" lon="116.48789358502276">
        <ele>29.2</ele>
        <time>2023-06-29T11:35:54Z</time>
      </trkpt>
      <trkpt lat="39.92755077506323" lon="116.48762353131033">
        <ele>30.3</ele>
        <time>2023-06-29T11:36:06Z</time>
      </trkpt>
      <trkpt lat="39.92767836777903" lon="116.48748800275428">
        <ele>31.999999999999996</ele>
        <time>2023-06-29T11:36:12Z</time>
      </trkpt>
      <trkpt lat="39.92771409832524" lon="116.48739765658537">
        <ele>32.5</ele>
        <time>2023-06-29T11:36:15Z</time>
      </trkpt>
      <trkpt lat="39.92772847854203" lon="116.48718886521998">
        <ele>33.7</ele>
        <time>2023-06-29T11:36:21Z</time>
      </trkpt>
      <trkpt lat="39.927677424392314" lon="116.48683252456614">
        <ele>30.599999999999998</ele>
        <time>2023-06-29T11:36:33Z</time>
      </trkpt>
      <trkpt lat="39.92768019230426" lon="116.48675422835647">
        <ele>30.2</ele>
        <time>2023-06-29T11:36:36Z</time>
      </trkpt>
      <trkpt lat="39.927799429313865" lon="116.4864982465002">
        <ele>30.400000000000002</ele>
        <time>2023-06-29T11:36:45Z</time>
      </trkpt>
      <trkpt lat="39.92781982227281" lon="116.4862934706635">
        <ele>28.900000000000002</ele>
        <time>2023-06-29T11:36:51Z</time>
      </trkpt>
      <trkpt lat="39.927935665298484" lon="116.48590398620536">
        <ele>29.099999999999998</ele>
        <time>2023-06-29T11:37:03Z</time>
      </trkpt>
      <trkpt lat="39.92792950244724" lon="116.48551050288083">
        <ele>31.7</ele>
        <time>2023-06-29T11:37:15Z</time>
      </trkpt>
      <trkpt lat="39.92789240712256" lon="116.485139107754">
        <ele>32.400000000000006</ele>
        <time>2023-06-29T11:37:27Z</time>
      </trkpt>
      <trkpt lat="39.927866842349665" lon="116.48494738878414">
        <ele>30.499999999999996</ele>
        <time>2023-06-29T11:37:33Z</time>
      </trkpt>
      <trkpt lat="39.92787457255261" lon="116.48485604385655">
        <ele>28.8</ele>
        <time>2023-06-29T11:37:36Z</time>
      </trkpt>
      <trkpt lat="39.927900393853065" lon="116.4847958138823">
        <ele>28.099999999999998</ele>
        <time>2023-06-29T11:37:39Z</time>
      </trkpt>
      <trkpt lat="39.92801510499692" lon="116.48469943682488">
        <ele>27.3</ele>
        <time>2023-06-29T11:37:48Z</time>
      </trkpt>
      <trkpt lat="39.9282416429994" lon="116.4845458305893">
        <ele>27.3</ele>
        <time>2023-06-29T11:38:00Z</time>
      </trkpt>
      <trkpt lat="39.92839677309561" lon="116.48425270873575">
        <ele>28.8</ele>
        <time>2023-06-29T11:38:12Z</time>
      </trkpt>
      <trkpt lat="39.928522311660934" lon="116.48397838663179">
        <ele>29.499999999999996</ele>
        <time>2023-06-29T11:38:21Z</time>
      </trkpt>
      <trkpt lat="39.92854022222358" lon="116.48372771804381">
        <ele>29.999999999999996</ele>
        <time>2023-06-29T11:38:27Z</time>
      </trkpt>
      <trkpt lat="39.92853035806154" lon="116.48343361516821">
        <ele>30.999999999999996</ele>
        <time>2023-06-29T11:38:33Z</time>
      </trkpt>
      <trkpt lat="39.928608759254985" lon="116.48323084466466">
        <ele>37.900000000000006</ele>
        <time>2023-06-29T11:38:42Z</time>
      </trkpt>
      <trkpt lat="39.92866458603037" lon="116.48317261934406">
        <ele>40.7</ele>
        <time>2023-06-29T11:38:45Z</time>
      </trkpt>
      <trkpt lat="39.928960479679056" lon="116.48314046193734">
        <ele>37.0</ele>
        <time>2023-06-29T11:38:57Z</time>
      </trkpt>
      <trkpt lat="39.92915843626233" lon="116.48312839204732">
        <ele>34.1</ele>
        <time>2023-06-29T11:39:06Z</time>
      </trkpt>
      <trkpt lat="39.92948453203814" lon="116.48316549059508">
        <ele>30.2</ele>
        <time>2023-06-29T11:39:21Z</time>
      </trkpt>
      <trkpt lat="39.92953555059424" lon="116.48317251057406">
        <ele>29.900000000000002</ele>
        <time>2023-06-29T11:39:24Z</time>
      </trkpt>
      <trkpt lat="39.92969438500513" lon="116.48311828747421">
        <ele>27.499999999999996</ele>
        <time>2023-06-29T11:39:33Z</time>
      </trkpt>
      <trkpt lat="39.92993560212764" lon="116.48319554719669">
        <ele>26.400000000000002</ele>
        <time>2023-06-29T11:39:45Z</time>
      </trkpt>
      <trkpt lat="39.92998455593004" lon="116.48318048461432">
        <ele>26.999999999999996</ele>
        <time>2023-06-29T11:39:48Z</time>
      </trkpt>
      <trkpt lat="39.930112052798" lon="116.48301083263185">
        <ele>26.400000000000002</ele>
        <time>2023-06-29T11:39:57Z</time>
      </trkpt>
      <trkpt lat="39.930250667249446" lon="116.48288132999886">
        <ele>30.599999999999998</ele>
        <time>2023-06-29T11:40:03Z</time>
      </trkpt>
      <trkpt lat="39.93026546938488" lon="116.4828140761514">
        <ele>30.400000000000002</ele>
        <time>2023-06-29T11:40:06Z</time>
      </trkpt>
      <trkpt lat="39.93028022727952" lon="116.48239048816815">
        <ele>30.900000000000002</ele>
        <time>2023-06-29T11:40:21Z</time>
      </trkpt>
      <trkpt lat="39.93029219839786" lon="116.48203917260156">
        <ele>29.099999999999998</ele>
        <time>2023-06-29T11:40:36Z</time>
      </trkpt>
      <trkpt lat="39.93033882364168" lon="116.48191169028955">
        <ele>26.999999999999996</ele>
        <time>2023-06-29T11:40:42Z</time>
      </trkpt>
      <trkpt lat="39.93035362334148" lon="116.48150115517335">
        <ele>26.3</ele>
        <time>2023-06-29T11:40:57Z</time>
      </trkpt>
      <trkpt lat="39.930309719886225" lon="116.48119100356793">
        <ele>26.900000000000002</ele>
        <time>2023-06-29T11:41:06Z</time>
      </trkpt>
      <trkpt lat="39.93032386480244" lon="116.48089790941889">
        <ele>27.400000000000002</ele>
        <time>2023-06-29T11:41:15Z</time>
      </trkpt>
      <trkpt lat="39.93027377370443" lon="116.48052251807346">
        <ele>24.9</ele>
        <time>2023-06-29T11:41:27Z</time>
      </trkpt>
      <trkpt lat="39.9302547003966" lon="116.48015314700714">
        <ele>25.8</ele>
        <time>2023-06-29T11:41:39Z</time>
      </trkpt>
      <trkpt lat="39.930244417954746" lon="116.48005578656236">
        <ele>26.3</ele>
        <time>2023-06-29T11:41:42Z</time>
      </trkpt>
      <trkpt lat="39.93029528262813" lon="116.47966533080552">
        <ele>24.7</ele>
        <time>2023-06-29T11:42:00Z</time>
      </trkpt>
      <trkpt lat="39.930255228340535" lon="116.47930098515019">
        <ele>23.5</ele>
        <time>2023-06-29T11:42:12Z</time>
      </trkpt>
      <trkpt lat="39.93026453070889" lon="116.47906009199309">
        <ele>23.099999999999998</ele>
        <time>2023-06-29T11:42:21Z</time>
      </trkpt>
      <trkpt lat="39.930312290703704" lon="116.4789777814404">
        <ele>25.7</ele>
        <time>2023-06-29T11:42:27Z</time>
      </trkpt>
      <trkpt lat="39.930397197279646" lon="116.47894665569716">
        <ele>27.2</ele>
        <time>2023-06-29T11:42:33Z</time>
      </trkpt>
      <trkpt lat="39.93060723229849" lon="116.47896168512011">
        <ele>26.2</ele>
        <time>2023-06-29T11:42:48Z</time>
      </trkpt>
      <trkpt lat="39.93063637916322" lon="116.47901287088362">
        <ele>26.8</ele>
        <time>2023-06-29T11:42:54Z</time>
      </trkpt>
      <trkpt lat="39.93096717997697" lon="116.47894859180913">
        <ele>30.099999999999998</ele>
        <time>2023-06-29T11:43:06Z</time>
      </trkpt>
      <trkpt lat="39.931153806813064" lon="116.478822100684">
        <ele>30.8</ele>
        <time>2023-06-29T11:43:12Z</time>
      </trkpt>
      <trkpt lat="39.93122471982222" lon="116.47879298418084">
        <ele>31.2</ele>
        <time>2023-06-29T11:43:15Z</time>
      </trkpt>
      <trkpt lat="39.93145160912749" lon="116.4787578259079">
        <ele>36.7</ele>
        <time>2023-06-29T11:43:27Z</time>
      </trkpt>
      <trkpt lat="39.93153979988874" lon="116.47882506352047">
        <ele>36.5</ele>
        <time>2023-06-29T11:43:30Z</time>
      </trkpt>
      <trkpt lat="39.931831889609775" lon="116.47886015688862">
        <ele>35.2</ele>
        <time>2023-06-29T11:43:39Z</time>
      </trkpt>
      <trkpt lat="39.93194492855939" lon="116.47887519842851">
        <ele>34.5</ele>
        <time>2023-06-29T11:43:45Z</time>
      </trkpt>
      <trkpt lat="39.93203986669342" lon="116.47885511230395">
        <ele>32.6</ele>
        <time>2023-06-29T11:43:48Z</time>
      </trkpt>
      <trkpt lat="39.93212166613072" lon="116.47878684967802">
        <ele>29.3</ele>
        <time>2023-06-29T11:43:51Z</time>
      </trkpt>
      <trkpt lat="39.93216845834252" lon="116.47871558036893">
        <ele>26.400000000000002</ele>
        <time>2023-06-29T11:43:54Z</time>
      </trkpt>
      <trkpt lat="39.93225447265666" lon="116.47837531272494">
        <ele>26.7</ele>
        <time>2023-06-29T11:44:06Z</time>
      </trkpt>
      <trkpt lat="39.93231284523025" lon="116.47815850546745">
        <ele>28.099999999999998</ele>
        <time>2023-06-29T11:44:15Z</time>
      </trkpt>
      <trkpt lat="39.93230235412784" lon="116.47798787768605">
        <ele>25.2</ele>
        <time>2023-06-29T11:44:21Z</time>
      </trkpt>
      <trkpt lat="39.932169308338324" lon="116.47762254883783">
        <ele>19.599999999999998</ele>
        <time>2023-06-29T11:44:33Z</time>
      </trkpt>
      <trkpt lat="39.93216670280643" lon="116.47741177385679">
        <ele>15.899999999999999</ele>
        <time>2023-06-29T11:44:42Z</time>
      </trkpt>
      <trkpt lat="39.93219449705498" lon="116.47734050840747">
        <ele>14.7</ele>
        <time>2023-06-29T11:44:45Z</time>
      </trkpt>
      <trkpt lat="39.93219821745324" lon="116.4772431501704">
        <ele>13.399999999999999</ele>
        <time>2023-06-29T11:44:48Z</time>
      </trkpt>
      <trkpt lat="39.932168660132305" lon="116.47704843878488">
        <ele>10.899999999999999</ele>
        <time>2023-06-29T11:44:54Z</time>
      </trkpt>
      <trkpt lat="39.93213134231164" lon="116.47693703458636">
        <ele>7.2</ele>
        <time>2023-06-29T11:45:00Z</time>
      </trkpt>
      <trkpt lat="39.93211963569636" lon="116.47669013062773">
        <ele>7.3</ele>
        <time>2023-06-29T11:45:06Z</time>
      </trkpt>
      <trkpt lat="39.93211963569636" lon="116.47669013062773">
        <ele>7.3</ele>
        <time>2023-06-29T11:45:08Z</time>
      </trkpt>
      <trkpt lat="39.93243444353509" lon="116.47627758073047">
        <ele>34.400000000000006</ele>
        <time>2023-06-29T11:45:51Z</time>
      </trkpt>
      <trkpt lat="39.932537407843206" lon="116.47626652744553">
        <ele>34.2</ele>
        <time>2023-06-29T11:46:00Z</time>
      </trkpt>
      <trkpt lat="39.93270614309656" lon="116.47617617594733">
        <ele>35.5</ele>
        <time>2023-06-29T11:46:09Z</time>
      </trkpt>
      <trkpt lat="39.93279308514927" lon="116.47615709533059">
        <ele>36.0</ele>
        <time>2023-06-29T11:46:12Z</time>
      </trkpt>
      <trkpt lat="39.9328840958011" lon="116.47616210227734">
        <ele>37.0</ele>
        <time>2023-06-29T11:46:15Z</time>
      </trkpt>
      <trkpt lat="39.933124295298036" lon="116.47623534011896">
        <ele>40.900000000000006</ele>
        <time>2023-06-29T11:46:24Z</time>
      </trkpt>
      <trkpt lat="39.933196527455586" lon="116.47631763214514">
        <ele>39.300000000000004</ele>
        <time>2023-06-29T11:46:30Z</time>
      </trkpt>
      <trkpt lat="39.93333941412132" lon="116.47662975716747">
        <ele>34.7</ele>
        <time>2023-06-29T11:46:45Z</time>
      </trkpt>
      <trkpt lat="39.93343910835641" lon="116.47687363883229">
        <ele>30.3</ele>
        <time>2023-06-29T11:46:54Z</time>
      </trkpt>
      <trkpt lat="39.93360990131026" lon="116.47715264157678">
        <ele>30.599999999999998</ele>
        <time>2023-06-29T11:47:06Z</time>
      </trkpt>
      <trkpt lat="39.93374521839574" lon="116.47726503758827">
        <ele>30.999999999999996</ele>
        <time>2023-06-29T11:47:12Z</time>
      </trkpt>
      <trkpt lat="39.933979353009256" lon="116.47731519269084">
        <ele>36.1</ele>
        <time>2023-06-29T11:47:21Z</time>
      </trkpt>
      <trkpt lat="39.934274263345024" lon="116.47728805616846">
        <ele>36.800000000000004</ele>
        <time>2023-06-29T11:47:33Z</time>
      </trkpt>
      <trkpt lat="39.934591169931515" lon="116.47725991321397">
        <ele>34.800000000000004</ele>
        <time>2023-06-29T11:47:45Z</time>
      </trkpt>
      <trkpt lat="39.93490179460227" lon="116.47713340975511">
        <ele>33.800000000000004</ele>
        <time>2023-06-29T11:48:00Z</time>
      </trkpt>
      <trkpt lat="39.93518457887545" lon="116.47706211267666">
        <ele>34.5</ele>
        <time>2023-06-29T11:48:15Z</time>
      </trkpt>
      <trkpt lat="39.93539383816119" lon="116.47715542922867">
        <ele>35.5</ele>
        <time>2023-06-29T11:48:24Z</time>
      </trkpt>
      <trkpt lat="39.93557325432668" lon="116.47730294882771">
        <ele>34.900000000000006</ele>
        <time>2023-06-29T11:48:33Z</time>
      </trkpt>
      <trkpt lat="39.93576973641857" lon="116.47747355153818">
        <ele>32.800000000000004</ele>
        <time>2023-06-29T11:48:45Z</time>
      </trkpt>
      <trkpt lat="39.93588881237834" lon="116.47750163999409">
        <ele>31.8</ele>
        <time>2023-06-29T11:48:51Z</time>
      </trkpt>
      <trkpt lat="39.93618475436188" lon="116.4774855438668">
        <ele>31.7</ele>
        <time>2023-06-29T11:49:06Z</time>
      </trkpt>
      <trkpt lat="39.93646481522014" lon="116.47751060109297">
        <ele>32.900000000000006</ele>
        <time>2023-06-29T11:49:21Z</time>
      </trkpt>
      <trkpt lat="39.936763941668524" lon="116.47755874087318">
        <ele>30.900000000000002</ele>
        <time>2023-06-29T11:49:36Z</time>
      </trkpt>
      <trkpt lat="39.93706903040825" lon="116.47759383192842">
        <ele>30.2</ele>
        <time>2023-06-29T11:49:48Z</time>
      </trkpt>
      <trkpt lat="39.93729021775897" lon="116.47766205541974">
        <ele>28.8</ele>
        <time>2023-06-29T11:50:00Z</time>
      </trkpt>
      <trkpt lat="39.93758472564713" lon="116.47784268380568">
        <ele>27.900000000000002</ele>
        <time>2023-06-29T11:50:12Z</time>
      </trkpt>
      <trkpt lat="39.93784152171958" lon="116.47812268380517">
        <ele>28.099999999999998</ele>
        <time>2023-06-29T11:50:27Z</time>
      </trkpt>
      <trkpt lat="39.938101243409825" lon="116.47837658828254">
        <ele>27.900000000000002</ele>
        <time>2023-06-29T11:50:42Z</time>
      </trkpt>
      <trkpt lat="39.93838269844983" lon="116.4785381498182">
        <ele>28.8</ele>
        <time>2023-06-29T11:51:00Z</time>
      </trkpt>
      <trkpt lat="39.938582015055026" lon="116.47865054023956">
        <ele>28.8</ele>
        <time>2023-06-29T11:51:12Z</time>
      </trkpt>
      <trkpt lat="39.93887002383371" lon="116.47865753015441">
        <ele>28.099999999999998</ele>
        <time>2023-06-29T11:51:24Z</time>
      </trkpt>
      <trkpt lat="39.93915202995857" lon="116.47866351711141">
        <ele>28.099999999999998</ele>
        <time>2023-06-29T11:51:33Z</time>
      </trkpt>
      <trkpt lat="39.939354050878364" lon="116.47867352892064">
        <ele>28.400000000000002</ele>
        <time>2023-06-29T11:51:42Z</time>
      </trkpt>
      <trkpt lat="39.93954890396049" lon="116.47862532647106">
        <ele>30.599999999999998</ele>
        <time>2023-06-29T11:51:48Z</time>
      </trkpt>
      <trkpt lat="39.93978450628517" lon="116.478490800077">
        <ele>32.1</ele>
        <time>2023-06-29T11:51:57Z</time>
      </trkpt>
      <trkpt lat="39.93995707951211" lon="116.47834524107994">
        <ele>34.400000000000006</ele>
        <time>2023-06-29T11:52:03Z</time>
      </trkpt>
      <trkpt lat="39.940012854422136" lon="116.47826794885061">
        <ele>35.0</ele>
        <time>2023-06-29T11:52:06Z</time>
      </trkpt>
      <trkpt lat="39.940041630485965" lon="116.47819066009058">
        <ele>34.6</ele>
        <time>2023-06-29T11:52:09Z</time>
      </trkpt>
      <trkpt lat="39.94008942611101" lon="116.47812039495003">
        <ele>34.2</ele>
        <time>2023-06-29T11:52:12Z</time>
      </trkpt>
      <trkpt lat="39.94030198687635" lon="116.47797081694918">
        <ele>32.300000000000004</ele>
        <time>2023-06-29T11:52:24Z</time>
      </trkpt>
      <trkpt lat="39.94039699464708" lon="116.47797481985">
        <ele>32.2</ele>
        <time>2023-06-29T11:52:30Z</time>
      </trkpt>
      <trkpt lat="39.940609356212356" lon="116.47810326692036">
        <ele>30.3</ele>
        <time>2023-06-29T11:52:39Z</time>
      </trkpt>
      <trkpt lat="39.940642583374185" lon="116.47818255522327">
        <ele>28.999999999999996</ele>
        <time>2023-06-29T11:52:42Z</time>
      </trkpt>
      <trkpt lat="39.940664456698805" lon="116.47848567137648">
        <ele>26.999999999999996</ele>
        <time>2023-06-29T11:52:54Z</time>
      </trkpt>
      <trkpt lat="39.940783396926314" lon="116.47881286581509">
        <ele>30.3</ele>
        <time>2023-06-29T11:53:06Z</time>
      </trkpt>
      <trkpt lat="39.94084975696818" lon="116.47893832161888">
        <ele>29.999999999999996</ele>
        <time>2023-06-29T11:53:12Z</time>
      </trkpt>
      <trkpt lat="39.94111855646625" lon="116.47921832467743">
        <ele>29.999999999999996</ele>
        <time>2023-06-29T11:53:27Z</time>
      </trkpt>
      <trkpt lat="39.94116867651848" lon="116.47926047456303">
        <ele>29.400000000000002</ele>
        <time>2023-06-29T11:53:30Z</time>
      </trkpt>
      <trkpt lat="39.94129956988962" lon="116.47957060781975">
        <ele>31.599999999999998</ele>
        <time>2023-06-29T11:53:42Z</time>
      </trkpt>
      <trkpt lat="39.941347010438946" lon="116.4797231678835">
        <ele>33.300000000000004</ele>
        <time>2023-06-29T11:53:48Z</time>
      </trkpt>
      <trkpt lat="39.9413800230918" lon="116.48007246076872">
        <ele>31.499999999999996</ele>
        <time>2023-06-29T11:54:00Z</time>
      </trkpt>
      <trkpt lat="39.94141925482205" lon="116.4801527542522">
        <ele>31.2</ele>
        <time>2023-06-29T11:54:03Z</time>
      </trkpt>
      <trkpt lat="39.94168386286028" lon="116.48036551229187">
        <ele>28.3</ele>
        <time>2023-06-29T11:54:15Z</time>
      </trkpt>
      <trkpt lat="39.94181220811125" lon="116.48048594431161">
        <ele>28.499999999999996</ele>
        <time>2023-06-29T11:54:21Z</time>
      </trkpt>
      <trkpt lat="39.942105336630824" lon="116.48053408692454">
        <ele>24.7</ele>
        <time>2023-06-29T11:54:33Z</time>
      </trkpt>
      <trkpt lat="39.9424323353005" lon="116.48053806095956">
        <ele>28.2</ele>
        <time>2023-06-29T11:54:48Z</time>
      </trkpt>
      <trkpt lat="39.94275336634368" lon="116.48055307683214">
        <ele>30.3</ele>
        <time>2023-06-29T11:55:03Z</time>
      </trkpt>
      <trkpt lat="39.94280933490712" lon="116.48054303247477">
        <ele>30.7</ele>
        <time>2023-06-29T11:55:06Z</time>
      </trkpt>
      <trkpt lat="39.94288708357152" lon="116.48045770527541">
        <ele>32.400000000000006</ele>
        <time>2023-06-29T11:55:12Z</time>
      </trkpt>
      <trkpt lat="39.94301396465262" lon="116.48041854376845">
        <ele>34.7</ele>
        <time>2023-06-29T11:55:18Z</time>
      </trkpt>
      <trkpt lat="39.943080046698036" lon="116.48044764379092">
        <ele>35.0</ele>
        <time>2023-06-29T11:55:21Z</time>
      </trkpt>
      <trkpt lat="39.94306725454943" lon="116.48051891055997">
        <ele>34.7</ele>
        <time>2023-06-29T11:55:24Z</time>
      </trkpt>
      <trkpt lat="39.9431669781833" lon="116.4807688285472">
        <ele>34.7</ele>
        <time>2023-06-29T11:55:33Z</time>
      </trkpt>
      <trkpt lat="39.94318938960599" lon="116.4809103529759">
        <ele>33.2</ele>
        <time>2023-06-29T11:55:39Z</time>
      </trkpt>
      <trkpt lat="39.94320031692421" lon="116.48122853783522">
        <ele>31.900000000000002</ele>
        <time>2023-06-29T11:55:51Z</time>
      </trkpt>
      <trkpt lat="39.943243933303044" lon="116.48144032261955">
        <ele>27.900000000000002</ele>
        <time>2023-06-29T11:56:00Z</time>
      </trkpt>
      <trkpt lat="39.9432402412135" lon="116.48154571652373">
        <ele>26.0</ele>
        <time>2023-06-29T11:56:03Z</time>
      </trkpt>
      <trkpt lat="39.94325754840205" lon="116.48165110793029">
        <ele>24.599999999999998</ele>
        <time>2023-06-29T11:56:06Z</time>
      </trkpt>
      <trkpt lat="39.943328923966135" lon="116.48178058270939">
        <ele>25.2</ele>
        <time>2023-06-29T11:56:12Z</time>
      </trkpt>
      <trkpt lat="39.94342999916964" lon="116.48180767133586">
        <ele>26.2</ele>
        <time>2023-06-29T11:56:18Z</time>
      </trkpt>
      <trkpt lat="39.9437516226148" lon="116.48168316612056">
        <ele>28.900000000000002</ele>
        <time>2023-06-29T11:56:36Z</time>
      </trkpt>
      <trkpt lat="39.94379951512959" lon="116.48164702516463">
        <ele>28.8</ele>
        <time>2023-06-29T11:56:39Z</time>
      </trkpt>
      <trkpt lat="39.944184400134034" lon="116.48161284957969">
        <ele>29.900000000000002</ele>
        <time>2023-06-29T11:56:51Z</time>
      </trkpt>
      <trkpt lat="39.94433043956801" lon="116.48159096150692">
        <ele>30.3</ele>
        <time>2023-06-29T11:56:54Z</time>
      </trkpt>
      <trkpt lat="39.94441515055442" lon="116.48153051338417">
        <ele>30.7</ele>
        <time>2023-06-29T11:56:57Z</time>
      </trkpt>
      <trkpt lat="39.944496789750055" lon="116.48140804605741">
        <ele>31.8</ele>
        <time>2023-06-29T11:57:09Z</time>
      </trkpt>
      <trkpt lat="39.94454548256504" lon="116.48164592813366">
        <ele>27.599999999999998</ele>
        <time>2023-06-29T11:57:18Z</time>
      </trkpt>
      <trkpt lat="39.944598726828424" lon="116.48173023642481">
        <ele>27.599999999999998</ele>
        <time>2023-06-29T11:57:21Z</time>
      </trkpt>
      <trkpt lat="39.94470394855929" lon="116.48180751204214">
        <ele>27.999999999999996</ele>
        <time>2023-06-29T11:57:27Z</time>
      </trkpt>
      <trkpt lat="39.944967161143175" lon="116.48188376422085">
        <ele>30.8</ele>
        <time>2023-06-29T11:57:39Z</time>
      </trkpt>
      <trkpt lat="39.945154385610124" lon="116.48196303722538">
        <ele>29.599999999999998</ele>
        <time>2023-06-29T11:57:48Z</time>
      </trkpt>
      <trkpt lat="39.94548236672326" lon="116.48196098871023">
        <ele>29.999999999999996</ele>
        <time>2023-06-29T11:58:03Z</time>
      </trkpt>
      <trkpt lat="39.94555934311882" lon="116.48195395281772">
        <ele>30.2</ele>
        <time>2023-06-29T11:58:06Z</time>
      </trkpt>
      <trkpt lat="39.945824047899514" lon="116.48185655578227">
        <ele>30.400000000000002</ele>
        <time>2023-06-29T11:58:18Z</time>
      </trkpt>
      <trkpt lat="39.94607268887283" lon="116.48173707835531">
        <ele>34.0</ele>
        <time>2023-06-29T11:58:30Z</time>
      </trkpt>
      <trkpt lat="39.94635899720686" lon="116.4815041728486">
        <ele>33.800000000000004</ele>
        <time>2023-06-29T11:58:42Z</time>
      </trkpt>
      <trkpt lat="39.9466495461246" lon="116.48135357453378">
        <ele>35.6</ele>
        <time>2023-06-29T11:58:54Z</time>
      </trkpt>
      <trkpt lat="39.946806326073734" lon="116.48128028152446">
        <ele>36.2</ele>
        <time>2023-06-29T11:59:00Z</time>
      </trkpt>
      <trkpt lat="39.94700987586475" lon="116.48112869073898">
        <ele>35.5</ele>
        <time>2023-06-29T11:59:09Z</time>
      </trkpt>
      <trkpt lat="39.947310433757316" lon="116.48098110305412">
        <ele>33.7</ele>
        <time>2023-06-29T11:59:21Z</time>
      </trkpt>
      <trkpt lat="39.94749223640458" lon="116.48091583715782">
        <ele>33.0</ele>
        <time>2023-06-29T11:59:30Z</time>
      </trkpt>
      <trkpt lat="39.94776661444011" lon="116.48070602135306">
        <ele>32.400000000000006</ele>
        <time>2023-06-29T11:59:45Z</time>
      </trkpt>
      <trkpt lat="39.947982220191015" lon="116.480573501091">
        <ele>30.2</ele>
        <time>2023-06-29T11:59:57Z</time>
      </trkpt>
      <trkpt lat="39.94808494448827" lon="116.48048014082697">
        <ele>28.999999999999996</ele>
        <time>2023-06-29T12:00:06Z</time>
      </trkpt>
      <trkpt lat="39.94829960314764" lon="116.48036568825742">
        <ele>27.8</ele>
        <time>2023-06-29T12:00:15Z</time>
      </trkpt>
      <trkpt lat="39.948485029728786" lon="116.48017094098488">
        <ele>25.5</ele>
        <time>2023-06-29T12:00:24Z</time>
      </trkpt>
      <trkpt lat="39.94860694063598" lon="116.47979753868854">
        <ele>19.099999999999998</ele>
        <time>2023-06-29T12:00:39Z</time>
      </trkpt>
      <trkpt lat="39.94861213119648" lon="116.4795185027016">
        <ele>19.3</ele>
        <time>2023-06-29T12:00:48Z</time>
      </trkpt>
      <trkpt lat="39.94863189505639" lon="116.47909191948972">
        <ele>21.5</ele>
        <time>2023-06-29T12:01:00Z</time>
      </trkpt>
      <trkpt lat="39.94864677148402" lon="116.4787034804545">
        <ele>21.9</ele>
        <time>2023-06-29T12:01:12Z</time>
      </trkpt>
      <trkpt lat="39.94869441596938" lon="116.47858102187608">
        <ele>21.5</ele>
        <time>2023-06-29T12:01:18Z</time>
      </trkpt>
      <trkpt lat="39.948826825625886" lon="116.47837825636846">
        <ele>21.7</ele>
        <time>2023-06-29T12:01:30Z</time>
      </trkpt>
      <trkpt lat="39.94886951132314" lon="116.47826985085607">
        <ele>22.3</ele>
        <time>2023-06-29T12:01:33Z</time>
      </trkpt>
      <trkpt lat="39.94899888720989" lon="116.47805504224787">
        <ele>25.599999999999998</ele>
        <time>2023-06-29T12:01:39Z</time>
      </trkpt>
      <trkpt lat="39.94916165530203" lon="116.47797673321146">
        <ele>31.099999999999998</ele>
        <time>2023-06-29T12:01:48Z</time>
      </trkpt>
      <trkpt lat="39.94931362327778" lon="116.47796768087485">
        <ele>32.300000000000004</ele>
        <time>2023-06-29T12:01:57Z</time>
      </trkpt>
      <trkpt lat="39.94954474997439" lon="116.47801482583294">
        <ele>33.2</ele>
        <time>2023-06-29T12:02:06Z</time>
      </trkpt>
      <trkpt lat="39.94968995527567" lon="116.47808807782887">
        <ele>32.7</ele>
        <time>2023-06-29T12:02:12Z</time>
      </trkpt>
      <trkpt lat="39.94974998759969" lon="116.47810011473074">
        <ele>32.6</ele>
        <time>2023-06-29T12:02:15Z</time>
      </trkpt>
      <trkpt lat="39.949996555798045" lon="116.47795354352449">
        <ele>36.2</ele>
        <time>2023-06-29T12:02:27Z</time>
      </trkpt>
      <trkpt lat="39.950211819478305" lon="116.47770058472132">
        <ele>35.7</ele>
        <time>2023-06-29T12:02:39Z</time>
      </trkpt>
      <trkpt lat="39.95030513048822" lon="116.4778099759659">
        <ele>32.5</ele>
        <time>2023-06-29T12:02:48Z</time>
      </trkpt>
      <trkpt lat="39.95038164171493" lon="116.47798862478172">
        <ele>31.7</ele>
        <time>2023-06-29T12:02:54Z</time>
      </trkpt>
      <trkpt lat="39.95039897060096" lon="116.47810304453955">
        <ele>31.3</ele>
        <time>2023-06-29T12:02:57Z</time>
      </trkpt>
      <trkpt lat="39.95039420795414" lon="116.47818534875117">
        <ele>31.2</ele>
        <time>2023-06-29T12:03:00Z</time>
      </trkpt>
      <trkpt lat="39.95019197140955" lon="116.47844734114078">
        <ele>27.2</ele>
        <time>2023-06-29T12:03:15Z</time>
      </trkpt>
      <trkpt lat="39.95010332254437" lon="116.47856779720817">
        <ele>27.999999999999996</ele>
        <time>2023-06-29T12:03:21Z</time>
      </trkpt>
      <trkpt lat="39.95007552071427" lon="116.47863605293074">
        <ele>27.8</ele>
        <time>2023-06-29T12:03:24Z</time>
      </trkpt>
      <trkpt lat="39.95005708979359" lon="116.4788327826636">
        <ele>27.2</ele>
        <time>2023-06-29T12:03:30Z</time>
      </trkpt>
      <trkpt lat="39.95011996105735" lon="116.47913489298698">
        <ele>25.3</ele>
        <time>2023-06-29T12:03:39Z</time>
      </trkpt>
      <trkpt lat="39.950279887754334" lon="116.47945706687243">
        <ele>28.599999999999998</ele>
        <time>2023-06-29T12:03:51Z</time>
      </trkpt>
      <trkpt lat="39.95045150657684" lon="116.47967284584611">
        <ele>28.2</ele>
        <time>2023-06-29T12:04:00Z</time>
      </trkpt>
      <trkpt lat="39.950521547473976" lon="116.47968789294752">
        <ele>28.499999999999996</ele>
        <time>2023-06-29T12:04:03Z</time>
      </trkpt>
      <trkpt lat="39.95062934236083" lon="116.47961862247739">
        <ele>28.999999999999996</ele>
        <time>2023-06-29T12:04:09Z</time>
      </trkpt>
      <trkpt lat="39.9507021125031" lon="116.47954032295102">
        <ele>30.499999999999996</ele>
        <time>2023-06-29T12:04:15Z</time>
      </trkpt>
      <trkpt lat="39.950985211877025" lon="116.47957842898285">
        <ele>30.8</ele>
        <time>2023-06-29T12:04:24Z</time>
      </trkpt>
      <trkpt lat="39.95106435426088" lon="116.47962860525614">
        <ele>30.099999999999998</ele>
        <time>2023-06-29T12:04:27Z</time>
      </trkpt>
      <trkpt lat="39.951097798393135" lon="116.47978217099634">
        <ele>26.7</ele>
        <time>2023-06-29T12:04:33Z</time>
      </trkpt>
      <trkpt lat="39.951086950108675" lon="116.48017864518467">
        <ele>15.2</ele>
        <time>2023-06-29T12:04:48Z</time>
      </trkpt>
      <trkpt lat="39.95107525399132" lon="116.4802830347734">
        <ele>14.8</ele>
        <time>2023-06-29T12:04:51Z</time>
      </trkpt>
      <trkpt lat="39.95109962371529" lon="116.48041050587352">
        <ele>12.2</ele>
        <time>2023-06-29T12:04:57Z</time>
      </trkpt>
      <trkpt lat="39.95121923524921" lon="116.4806222791228">
        <ele>18.5</ele>
        <time>2023-06-29T12:05:06Z</time>
      </trkpt>
      <trkpt lat="39.951251505752445" lon="116.48071562267737">
        <ele>19.2</ele>
        <time>2023-06-29T12:05:09Z</time>
      </trkpt>
      <trkpt lat="39.95125746187389" lon="116.48104384496686">
        <ele>14.899999999999999</ele>
        <time>2023-06-29T12:05:24Z</time>
      </trkpt>
      <trkpt lat="39.95123681686193" lon="116.48116530044167">
        <ele>14.7</ele>
        <time>2023-06-29T12:05:30Z</time>
      </trkpt>
      <trkpt lat="39.9511941640881" lon="116.4812837476105">
        <ele>13.399999999999999</ele>
        <time>2023-06-29T12:05:36Z</time>
      </trkpt>
      <trkpt lat="39.95113844751588" lon="116.48138011416003">
        <ele>12.899999999999999</ele>
        <time>2023-06-29T12:05:42Z</time>
      </trkpt>
      <trkpt lat="39.95109853113636" lon="116.4814082240513">
        <ele>12.599999999999998</ele>
        <time>2023-06-29T12:05:45Z</time>
      </trkpt>
      <trkpt lat="39.95089436887228" lon="116.48169231031899">
        <ele>17.2</ele>
        <time>2023-06-29T12:05:54Z</time>
      </trkpt>
      <trkpt lat="39.95074504965972" lon="116.48192319174791">
        <ele>25.2</ele>
        <time>2023-06-29T12:06:03Z</time>
      </trkpt>
      <trkpt lat="39.950722267808885" lon="116.48199747230514">
        <ele>26.900000000000002</ele>
        <time>2023-06-29T12:06:06Z</time>
      </trkpt>
      <trkpt lat="39.95076530611679" lon="116.48235279625577">
        <ele>25.2</ele>
        <time>2023-06-29T12:06:21Z</time>
      </trkpt>
      <trkpt lat="39.950755612270086" lon="116.4824571882654">
        <ele>24.9</ele>
        <time>2023-06-29T12:06:24Z</time>
      </trkpt>
      <trkpt lat="39.95079205202378" lon="116.48260774756244">
        <ele>23.099999999999998</ele>
        <time>2023-06-29T12:06:30Z</time>
      </trkpt>
      <trkpt lat="39.951120050818325" lon="116.48261172159073">
        <ele>27.2</ele>
        <time>2023-06-29T12:06:48Z</time>
      </trkpt>
      <trkpt lat="39.9513969192523" lon="116.48257053282558">
        <ele>28.499999999999996</ele>
        <time>2023-06-29T12:07:00Z</time>
      </trkpt>
      <trkpt lat="39.95165942068628" lon="116.48240387607629">
        <ele>24.9</ele>
        <time>2023-06-29T12:07:15Z</time>
      </trkpt>
      <trkpt lat="39.9519377895348" lon="116.48219204862768">
        <ele>26.099999999999998</ele>
        <time>2023-06-29T12:07:30Z</time>
      </trkpt>
      <trkpt lat="39.95197965861445" lon="116.48214787816289">
        <ele>24.8</ele>
        <time>2023-06-29T12:07:33Z</time>
      </trkpt>
      <trkpt lat="39.951999461032734" lon="116.48208062412918">
        <ele>24.099999999999998</ele>
        <time>2023-06-29T12:07:36Z</time>
      </trkpt>
      <trkpt lat="39.95207703220907" lon="116.48193507018273">
        <ele>23.4</ele>
        <time>2023-06-29T12:07:42Z</time>
      </trkpt>
      <trkpt lat="39.95213448116723" lon="116.48174736145747">
        <ele>22.599999999999998</ele>
        <time>2023-06-29T12:07:48Z</time>
      </trkpt>
      <trkpt lat="39.95221701451168" lon="116.48158875869915">
        <ele>23.5</ele>
        <time>2023-06-29T12:07:54Z</time>
      </trkpt>
      <trkpt lat="39.952462310204034" lon="116.48135083990249">
        <ele>27.8</ele>
        <time>2023-06-29T12:08:06Z</time>
      </trkpt>
      <trkpt lat="39.95252714066976" lon="116.48129361829369">
        <ele>29.999999999999996</ele>
        <time>2023-06-29T12:08:09Z</time>
      </trkpt>
      <trkpt lat="39.952779665104664" lon="116.48113399135555">
        <ele>32.2</ele>
        <time>2023-06-29T12:08:21Z</time>
      </trkpt>
      <trkpt lat="39.95299027338717" lon="116.48100247472762">
        <ele>34.0</ele>
        <time>2023-06-29T12:08:33Z</time>
      </trkpt>
      <trkpt lat="39.953281893273854" lon="116.4808759668692">
        <ele>32.900000000000006</ele>
        <time>2023-06-29T12:08:45Z</time>
      </trkpt>
      <trkpt lat="39.95354736529507" lon="116.48069827181776">
        <ele>36.400000000000006</ele>
        <time>2023-06-29T12:08:57Z</time>
      </trkpt>
      <trkpt lat="39.95382390440146" lon="116.4805436616956">
        <ele>37.400000000000006</ele>
        <time>2023-06-29T12:09:12Z</time>
      </trkpt>
      <trkpt lat="39.9541273551335" lon="116.48035893648135">
        <ele>39.300000000000004</ele>
        <time>2023-06-29T12:09:24Z</time>
      </trkpt>
      <trkpt lat="39.954239128908625" lon="116.48028263875928">
        <ele>38.1</ele>
        <time>2023-06-29T12:09:30Z</time>
      </trkpt>
      <trkpt lat="39.954416573495216" lon="116.48009391500686">
        <ele>36.1</ele>
        <time>2023-06-29T12:09:39Z</time>
      </trkpt>
      <trkpt lat="39.954544985458874" lon="116.47989315312084">
        <ele>35.300000000000004</ele>
        <time>2023-06-29T12:09:48Z</time>
      </trkpt>
      <trkpt lat="39.954494582565786" lon="116.47975364140771">
        <ele>32.900000000000006</ele>
        <time>2023-06-29T12:09:54Z</time>
      </trkpt>
      <trkpt lat="39.95431462353267" lon="116.47942042771072">
        <ele>29.999999999999996</ele>
        <time>2023-06-29T12:10:06Z</time>
      </trkpt>
      <trkpt lat="39.954096705072104" lon="116.47910026861871">
        <ele>29.599999999999998</ele>
        <time>2023-06-29T12:10:21Z</time>
      </trkpt>
      <trkpt lat="39.953954138807205" lon="116.47890255453913">
        <ele>26.400000000000002</ele>
        <time>2023-06-29T12:10:30Z</time>
      </trkpt>
      <trkpt lat="39.953791315828134" lon="116.47861551332615">
        <ele>25.599999999999998</ele>
        <time>2023-06-29T12:10:42Z</time>
      </trkpt>
      <trkpt lat="39.95375513179549" lon="116.47855128046027">
        <ele>26.599999999999998</ele>
        <time>2023-06-29T12:10:45Z</time>
      </trkpt>
      <trkpt lat="39.95371003507189" lon="116.47851716001607">
        <ele>26.900000000000002</ele>
        <time>2023-06-29T12:10:48Z</time>
      </trkpt>
      <trkpt lat="39.953499209591655" lon="116.47822811903481">
        <ele>24.2</ele>
        <time>2023-06-29T12:11:03Z</time>
      </trkpt>
      <trkpt lat="39.953359549987425" lon="116.47799728500118">
        <ele>24.5</ele>
        <time>2023-06-29T12:11:12Z</time>
      </trkpt>
      <trkpt lat="39.95310978283289" lon="116.47772732140824">
        <ele>27.3</ele>
        <time>2023-06-29T12:11:30Z</time>
      </trkpt>
      <trkpt lat="39.95281428087525" lon="116.47754870073197">
        <ele>23.3</ele>
        <time>2023-06-29T12:11:42Z</time>
      </trkpt>
      <trkpt lat="39.952664937863126" lon="116.47742727264202">
        <ele>22.2</ele>
        <time>2023-06-29T12:11:51Z</time>
      </trkpt>
      <trkpt lat="39.95260671246733" lon="116.4773479883493">
        <ele>22.9</ele>
        <time>2023-06-29T12:11:54Z</time>
      </trkpt>
      <trkpt lat="39.95234991627641" lon="116.47706698786143">
        <ele>25.2</ele>
        <time>2023-06-29T12:12:09Z</time>
      </trkpt>
      <trkpt lat="39.95219400223484" lon="116.4767458287767">
        <ele>23.5</ele>
        <time>2023-06-29T12:12:24Z</time>
      </trkpt>
      <trkpt lat="39.952103259216294" lon="116.47648488377058">
        <ele>22.599999999999998</ele>
        <time>2023-06-29T12:12:33Z</time>
      </trkpt>
      <trkpt lat="39.951938342433934" lon="116.47616172159158">
        <ele>20.099999999999998</ele>
        <time>2023-06-29T12:12:48Z</time>
      </trkpt>
      <trkpt lat="39.951804317256155" lon="116.47580041806859">
        <ele>17.4</ele>
        <time>2023-06-29T12:13:00Z</time>
      </trkpt>
      <trkpt lat="39.95175181909757" lon="116.47562478364696">
        <ele>17.5</ele>
        <time>2023-06-29T12:13:06Z</time>
      </trkpt>
      <trkpt lat="39.95158400634238" lon="116.47533675462688">
        <ele>19.8</ele>
        <time>2023-06-29T12:13:21Z</time>
      </trkpt>
      <trkpt lat="39.95149958192448" lon="116.4751862169921">
        <ele>21.599999999999998</ele>
        <time>2023-06-29T12:13:27Z</time>
      </trkpt>
      <trkpt lat="39.95135960493225" lon="116.47483997519873">
        <ele>23.0</ele>
        <time>2023-06-29T12:13:39Z</time>
      </trkpt>
      <trkpt lat="39.951218510580794" lon="116.47445158287">
        <ele>16.9</ele>
        <time>2023-06-29T12:13:57Z</time>
      </trkpt>
      <trkpt lat="39.95110147431894" lon="116.4740832630194">
        <ele>15.7</ele>
        <time>2023-06-29T12:14:12Z</time>
      </trkpt>
      <trkpt lat="39.95093655523243" lon="116.47375509682719">
        <ele>19.099999999999998</ele>
        <time>2023-06-29T12:14:24Z</time>
      </trkpt>
      <trkpt lat="39.950666797311825" lon="116.47348214502773">
        <ele>21.2</ele>
        <time>2023-06-29T12:14:36Z</time>
      </trkpt>
      <trkpt lat="39.95061652550478" lon="116.47338480019185">
        <ele>21.7</ele>
        <time>2023-06-29T12:14:39Z</time>
      </trkpt>
      <trkpt lat="39.95038176787425" lon="116.47311184601351">
        <ele>28.2</ele>
        <time>2023-06-29T12:14:48Z</time>
      </trkpt>
      <trkpt lat="39.950296743065245" lon="116.47310182055175">
        <ele>28.8</ele>
        <time>2023-06-29T12:14:51Z</time>
      </trkpt>
      <trkpt lat="39.95002090330402" lon="116.47315504671455">
        <ele>30.2</ele>
        <time>2023-06-29T12:15:03Z</time>
      </trkpt>
      <trkpt lat="39.94969300082156" lon="116.47318519631615">
        <ele>29.900000000000002</ele>
        <time>2023-06-29T12:15:15Z</time>
      </trkpt>
      <trkpt lat="39.949441374500424" lon="116.47331469440623">
        <ele>26.2</ele>
        <time>2023-06-29T12:15:27Z</time>
      </trkpt>
      <trkpt lat="39.949178638822325" lon="116.47340505304904">
        <ele>26.8</ele>
        <time>2023-06-29T12:15:39Z</time>
      </trkpt>
      <trkpt lat="39.94904769198302" lon="116.47342213101662">
        <ele>27.099999999999998</ele>
        <time>2023-06-29T12:15:45Z</time>
      </trkpt>
      <trkpt lat="39.94899682102279" lon="116.47346730030996">
        <ele>27.599999999999998</ele>
        <time>2023-06-29T12:15:48Z</time>
      </trkpt>
      <trkpt lat="39.948964005863864" lon="116.47353253981214">
        <ele>27.599999999999998</ele>
        <time>2023-06-29T12:15:51Z</time>
      </trkpt>
      <trkpt lat="39.94897966374807" lon="116.4737663822959">
        <ele>25.8</ele>
        <time>2023-06-29T12:16:00Z</time>
      </trkpt>
      <trkpt lat="39.94901183219153" lon="116.47382659588709">
        <ele>25.599999999999998</ele>
        <time>2023-06-29T12:16:03Z</time>
      </trkpt>
      <trkpt lat="39.94910304659765" lon="116.4742581461603">
        <ele>24.599999999999998</ele>
        <time>2023-06-29T12:16:18Z</time>
      </trkpt>
      <trkpt lat="39.949128553500195" lon="116.4744377941199">
        <ele>24.8</ele>
        <time>2023-06-29T12:16:24Z</time>
      </trkpt>
      <trkpt lat="39.94915576538728" lon="116.47451306371948">
        <ele>25.2</ele>
        <time>2023-06-29T12:16:27Z</time>
      </trkpt>
      <trkpt lat="39.9493425083372" lon="116.47477800214493">
        <ele>26.7</ele>
        <time>2023-06-29T12:16:39Z</time>
      </trkpt>
      <trkpt lat="39.949459155467" lon="116.47500782290064">
        <ele>24.5</ele>
        <time>2023-06-29T12:16:51Z</time>
      </trkpt>
      <trkpt lat="39.94954926086694" lon="116.47539823286992">
        <ele>18.2</ele>
        <time>2023-06-29T12:17:06Z</time>
      </trkpt>
      <trkpt lat="39.94960964101955" lon="116.47553271552138">
        <ele>14.399999999999999</ele>
        <time>2023-06-29T12:17:12Z</time>
      </trkpt>
      <trkpt lat="39.94965732781498" lon="116.47577459201821">
        <ele>10.2</ele>
        <time>2023-06-29T12:17:21Z</time>
      </trkpt>
      <trkpt lat="39.94963991499165" lon="116.4759803456617">
        <ele>9.100000000000001</ele>
        <time>2023-06-29T12:17:27Z</time>
      </trkpt>
      <trkpt lat="39.949592097245564" lon="116.47604358274063">
        <ele>10.2</ele>
        <time>2023-06-29T12:17:30Z</time>
      </trkpt>
      <trkpt lat="39.94952921714315" lon="116.47608474104875">
        <ele>11.8</ele>
        <time>2023-06-29T12:17:33Z</time>
      </trkpt>
      <trkpt lat="39.949341261812805" lon="116.47609781231436">
        <ele>19.7</ele>
        <time>2023-06-29T12:17:42Z</time>
      </trkpt>
      <trkpt lat="39.94906900342212" lon="116.47600350159522">
        <ele>26.8</ele>
        <time>2023-06-29T12:17:54Z</time>
      </trkpt>
      <trkpt lat="39.94881167590254" lon="116.47588510117693">
        <ele>26.999999999999996</ele>
        <time>2023-06-29T12:18:06Z</time>
      </trkpt>
      <trkpt lat="39.94853139524882" lon="116.47578276250388">
        <ele>28.099999999999998</ele>
        <time>2023-06-29T12:18:18Z</time>
      </trkpt>
      <trkpt lat="39.948257085935474" lon="116.47567038664745">
        <ele>28.099999999999998</ele>
        <time>2023-06-29T12:18:30Z</time>
      </trkpt>
      <trkpt lat="39.947951698074675" lon="116.47552991244157">
        <ele>27.3</ele>
        <time>2023-06-29T12:18:45Z</time>
      </trkpt>
      <trkpt lat="39.947691374363764" lon="116.47541251705277">
        <ele>29.999999999999996</ele>
        <time>2023-06-29T12:19:00Z</time>
      </trkpt>
      <trkpt lat="39.94738805826907" lon="116.47529713461466">
        <ele>27.8</ele>
        <time>2023-06-29T12:19:15Z</time>
      </trkpt>
      <trkpt lat="39.94713270057253" lon="116.47516769526263">
        <ele>26.8</ele>
        <time>2023-06-29T12:19:27Z</time>
      </trkpt>
      <trkpt lat="39.946923520775826" lon="116.47510148044472">
        <ele>22.8</ele>
        <time>2023-06-29T12:19:36Z</time>
      </trkpt>
      <trkpt lat="39.946754476190264" lon="116.47508343591718">
        <ele>23.0</ele>
        <time>2023-06-29T12:19:42Z</time>
      </trkpt>
      <trkpt lat="39.946679379461294" lon="116.47504831754962">
        <ele>23.3</ele>
        <time>2023-06-29T12:19:45Z</time>
      </trkpt>
      <trkpt lat="39.946603353990646" lon="116.47503829057797">
        <ele>24.0</ele>
        <time>2023-06-29T12:19:48Z</time>
      </trkpt>
      <trkpt lat="39.94653939925154" lon="116.47505335335798">
        <ele>25.4</ele>
        <time>2023-06-29T12:19:51Z</time>
      </trkpt>
      <trkpt lat="39.946476330543064" lon="116.47502827000383">
        <ele>27.3</ele>
        <time>2023-06-29T12:19:54Z</time>
      </trkpt>
      <trkpt lat="39.946363157231886" lon="116.4746127745579">
        <ele>28.8</ele>
        <time>2023-06-29T12:20:09Z</time>
      </trkpt>
      <trkpt lat="39.946284405026404" lon="116.47434581617077">
        <ele>26.499999999999996</ele>
        <time>2023-06-29T12:20:18Z</time>
      </trkpt>
      <trkpt lat="39.94626596614303" lon="116.47419025489015">
        <ele>23.3</ele>
        <time>2023-06-29T12:20:24Z</time>
      </trkpt>
      <trkpt lat="39.94621958540656" lon="116.4740547702132">
        <ele>20.099999999999998</ele>
        <time>2023-06-29T12:20:30Z</time>
      </trkpt>
      <trkpt lat="39.94606940726267" lon="116.47398955301584">
        <ele>19.599999999999998</ele>
        <time>2023-06-29T12:20:39Z</time>
      </trkpt>
      <trkpt lat="39.94591335681835" lon="116.47396949998343">
        <ele>18.9</ele>
        <time>2023-06-29T12:20:45Z</time>
      </trkpt>
      <trkpt lat="39.94564957401595" lon="116.47404279814252">
        <ele>20.3</ele>
        <time>2023-06-29T12:20:57Z</time>
      </trkpt>
      <trkpt lat="39.94552975442094" lon="116.47410503837882">
        <ele>18.8</ele>
        <time>2023-06-29T12:21:03Z</time>
      </trkpt>
      <trkpt lat="39.94524871456715" lon="116.47408700824617">
        <ele>23.7</ele>
        <time>2023-06-29T12:21:18Z</time>
      </trkpt>
      <trkpt lat="39.94515376933646" lon="116.47410508554633">
        <ele>24.4</ele>
        <time>2023-06-29T12:21:21Z</time>
      </trkpt>
      <trkpt lat="39.94508889377071" lon="116.47414824991763">
        <ele>23.8</ele>
        <time>2023-06-29T12:21:24Z</time>
      </trkpt>
      <trkpt lat="39.94492094011724" lon="116.47416232186085">
        <ele>23.2</ele>
        <time>2023-06-29T12:21:30Z</time>
      </trkpt>
      <trkpt lat="39.944894080094436" lon="116.47421150331904">
        <ele>21.8</ele>
        <time>2023-06-29T12:21:33Z</time>
      </trkpt>
      <trkpt lat="39.94486386445059" lon="116.47448851107868">
        <ele>21.2</ele>
        <time>2023-06-29T12:21:42Z</time>
      </trkpt>
      <trkpt lat="39.94483805577189" lon="116.47455575825109">
        <ele>20.599999999999998</ele>
        <time>2023-06-29T12:21:45Z</time>
      </trkpt>
      <trkpt lat="39.94479112687936" lon="116.47493313464774">
        <ele>15.0</ele>
        <time>2023-06-29T12:22:00Z</time>
      </trkpt>
      <trkpt lat="39.94470521028447" lon="116.47531352950816">
        <ele>12.8</ele>
        <time>2023-06-29T12:22:15Z</time>
      </trkpt>
      <trkpt lat="39.94459627106569" lon="116.47568489688993">
        <ele>15.099999999999998</ele>
        <time>2023-06-29T12:22:30Z</time>
      </trkpt>
      <trkpt lat="39.944538693648134" lon="116.47583244261362">
        <ele>15.599999999999998</ele>
        <time>2023-06-29T12:22:36Z</time>
      </trkpt>
      <trkpt lat="39.94435956809247" lon="116.4761365762392">
        <ele>17.599999999999998</ele>
        <time>2023-06-29T12:22:51Z</time>
      </trkpt>
      <trkpt lat="39.94426193017091" lon="116.47626204734327">
        <ele>18.8</ele>
        <time>2023-06-29T12:22:57Z</time>
      </trkpt>
      <trkpt lat="39.94416906573391" lon="116.47630822791216">
        <ele>22.099999999999998</ele>
        <time>2023-06-29T12:23:03Z</time>
      </trkpt>
      <trkpt lat="39.94408426697166" lon="116.47637749200226">
        <ele>25.5</ele>
        <time>2023-06-29T12:23:09Z</time>
      </trkpt>
      <trkpt lat="39.9438895443783" lon="116.4764718618316">
        <ele>28.2</ele>
        <time>2023-06-29T12:23:18Z</time>
      </trkpt>
      <trkpt lat="39.9437645493441" lon="116.4764718774959">
        <ele>29.099999999999998</ele>
        <time>2023-06-29T12:23:24Z</time>
      </trkpt>
      <trkpt lat="39.943671286245866" lon="116.47637854743284">
        <ele>27.8</ele>
        <time>2023-06-29T12:23:30Z</time>
      </trkpt>
      <trkpt lat="39.94359891637848" lon="116.47624807903351">
        <ele>28.599999999999998</ele>
        <time>2023-06-29T12:23:36Z</time>
      </trkpt>
      <trkpt lat="39.94341843362328" lon="116.47607647404081">
        <ele>29.400000000000002</ele>
        <time>2023-06-29T12:23:45Z</time>
      </trkpt>
      <trkpt lat="39.94318109664095" lon="116.47595505999479">
        <ele>28.599999999999998</ele>
        <time>2023-06-29T12:23:54Z</time>
      </trkpt>
      <trkpt lat="39.94293994311543" lon="116.47589788125093">
        <ele>29.400000000000002</ele>
        <time>2023-06-29T12:24:06Z</time>
      </trkpt>
      <trkpt lat="39.942626946979395" lon="116.47589490948613">
        <ele>30.099999999999998</ele>
        <time>2023-06-29T12:24:18Z</time>
      </trkpt>
      <trkpt lat="39.94244096296134" lon="116.4758979437946">
        <ele>29.3</ele>
        <time>2023-06-29T12:24:27Z</time>
      </trkpt>
      <trkpt lat="39.94238403389968" lon="116.47592203891017">
        <ele>27.8</ele>
        <time>2023-06-29T12:24:30Z</time>
      </trkpt>
      <trkpt lat="39.942093982490555" lon="116.47589999461663">
        <ele>25.099999999999998</ele>
        <time>2023-06-29T12:24:45Z</time>
      </trkpt>
      <trkpt lat="39.9420359647713" lon="116.47589297622949">
        <ele>25.2</ele>
        <time>2023-06-29T12:24:48Z</time>
      </trkpt>
      <trkpt lat="39.94187216302109" lon="116.4759602423886">
        <ele>24.8</ele>
        <time>2023-06-29T12:25:00Z</time>
      </trkpt>
      <trkpt lat="39.94179616604657" lon="116.47596025191368">
        <ele>24.7</ele>
        <time>2023-06-29T12:25:03Z</time>
      </trkpt>
      <trkpt lat="39.94166638305175" lon="116.47603453956104">
        <ele>23.4</ele>
        <time>2023-06-29T12:25:09Z</time>
      </trkpt>
      <trkpt lat="39.94152678100867" lon="116.47617205972848">
        <ele>23.7</ele>
        <time>2023-06-29T12:25:18Z</time>
      </trkpt>
      <trkpt lat="39.94123217394543" lon="116.47630558495065">
        <ele>26.400000000000002</ele>
        <time>2023-06-29T12:25:33Z</time>
      </trkpt>
      <trkpt lat="39.940924169015716" lon="116.47629960151258">
        <ele>33.300000000000004</ele>
        <time>2023-06-29T12:25:48Z</time>
      </trkpt>
      <trkpt lat="39.940770086285255" lon="116.4762685069832">
        <ele>33.800000000000004</ele>
        <time>2023-06-29T12:25:57Z</time>
      </trkpt>
      <trkpt lat="39.94062963341259" lon="116.4761079372971">
        <ele>33.2</ele>
        <time>2023-06-29T12:26:09Z</time>
      </trkpt>
      <trkpt lat="39.94033626142795" lon="116.47597348255202">
        <ele>33.5</ele>
        <time>2023-06-29T12:26:24Z</time>
      </trkpt>
      <trkpt lat="39.94023926529664" lon="116.47597349470814">
        <ele>32.300000000000004</ele>
        <time>2023-06-29T12:26:30Z</time>
      </trkpt>
      <trkpt lat="39.94000700270803" lon="116.47587817554842">
        <ele>32.7</ele>
        <time>2023-06-29T12:26:42Z</time>
      </trkpt>
      <trkpt lat="39.939911546100056" lon="116.47571659765131">
        <ele>31.999999999999996</ele>
        <time>2023-06-29T12:26:51Z</time>
      </trkpt>
      <trkpt lat="39.93986392233965" lon="116.47549680200005">
        <ele>28.2</ele>
        <time>2023-06-29T12:27:00Z</time>
      </trkpt>
      <trkpt lat="39.93987371070147" lon="116.47542253009942">
        <ele>27.099999999999998</ele>
        <time>2023-06-29T12:27:03Z</time>
      </trkpt>
      <trkpt lat="39.93982829311951" lon="116.47527499839565">
        <ele>26.3</ele>
        <time>2023-06-29T12:27:10Z</time>
      </trkpt>
      <trkpt lat="39.93970803560834" lon="116.47518267734056">
        <ele>25.599999999999998</ele>
        <time>2023-06-29T12:27:15Z</time>
      </trkpt>
      <trkpt lat="39.939398928241005" lon="116.47514056269219">
        <ele>29.499999999999996</ele>
        <time>2023-06-29T12:27:31Z</time>
      </trkpt>
      <trkpt lat="39.93927402158191" lon="116.47517169157071">
        <ele>31.400000000000002</ele>
        <time>2023-06-29T12:27:37Z</time>
      </trkpt>
      <trkpt lat="39.939128913376635" lon="116.47513156367529">
        <ele>32.300000000000004</ele>
        <time>2023-06-29T12:27:43Z</time>
      </trkpt>
      <trkpt lat="39.93906407557502" lon="116.47518777633252">
        <ele>31.2</ele>
        <time>2023-06-29T12:27:49Z</time>
      </trkpt>
      <trkpt lat="39.93908870494131" lon="116.47540958095983">
        <ele>29.900000000000002</ele>
        <time>2023-06-29T12:27:58Z</time>
      </trkpt>
      <trkpt lat="39.93907908217769" lon="116.47554206502171">
        <ele>29.599999999999998</ele>
        <time>2023-06-29T12:28:04Z</time>
      </trkpt>
      <trkpt lat="39.93899970543905" lon="116.47575986943026">
        <ele>25.3</ele>
        <time>2023-06-29T12:28:13Z</time>
      </trkpt>
      <trkpt lat="39.93899707164048" lon="116.47588833877141">
        <ele>23.5</ele>
        <time>2023-06-29T12:28:19Z</time>
      </trkpt>
      <trkpt lat="39.93903452237757" lon="116.4760469134089">
        <ele>22.099999999999998</ele>
        <time>2023-06-29T12:28:25Z</time>
      </trkpt>
      <trkpt lat="39.93907466155655" lon="116.4764463696159">
        <ele>21.2</ele>
        <time>2023-06-29T12:28:37Z</time>
      </trkpt>
      <trkpt lat="39.93909383546555" lon="116.47685687162972">
        <ele>20.7</ele>
        <time>2023-06-29T12:28:52Z</time>
      </trkpt>
      <trkpt lat="39.93909392894665" lon="116.47723827184002">
        <ele>22.8</ele>
        <time>2023-06-29T12:29:07Z</time>
      </trkpt>
      <trkpt lat="39.939078817301926" lon="116.47754741035932">
        <ele>24.5</ele>
        <time>2023-06-29T12:29:19Z</time>
      </trkpt>
      <trkpt lat="39.93909884997083" lon="116.47790673087572">
        <ele>24.599999999999998</ele>
        <time>2023-06-29T12:29:34Z</time>
      </trkpt>
      <trkpt lat="39.93912374524447" lon="116.47821787499406">
        <ele>24.8</ele>
        <time>2023-06-29T12:29:46Z</time>
      </trkpt>
      <trkpt lat="39.93910239739358" lon="116.47844371124849">
        <ele>23.0</ele>
        <time>2023-06-29T12:29:55Z</time>
      </trkpt>
      <trkpt lat="39.93897976150635" lon="116.47856818631908">
        <ele>23.099999999999998</ele>
        <time>2023-06-29T12:30:04Z</time>
      </trkpt>
      <trkpt lat="39.93885988221361" lon="116.47860834967015">
        <ele>22.7</ele>
        <time>2023-06-29T12:30:10Z</time>
      </trkpt>
      <trkpt lat="39.938531512891764" lon="116.47847590133098">
        <ele>21.0</ele>
        <time>2023-06-29T12:30:25Z</time>
      </trkpt>
      <trkpt lat="39.938222224094005" lon="116.47837155461012">
        <ele>26.099999999999998</ele>
        <time>2023-06-29T12:30:40Z</time>
      </trkpt>
      <trkpt lat="39.937996882887475" lon="116.47825013458171">
        <ele>27.499999999999996</ele>
        <time>2023-06-29T12:30:52Z</time>
      </trkpt>
      <trkpt lat="39.937779070339914" lon="116.47796511065972">
        <ele>27.8</ele>
        <time>2023-06-29T12:31:07Z</time>
      </trkpt>
      <trkpt lat="39.937709821738196" lon="116.47787779755767">
        <ele>27.3</ele>
        <time>2023-06-29T12:31:13Z</time>
      </trkpt>
      <trkpt lat="39.93747341246947" lon="116.47773229113345">
        <ele>25.0</ele>
        <time>2023-06-29T12:31:25Z</time>
      </trkpt>
      <trkpt lat="39.93718412389523" lon="116.47762794310135">
        <ele>23.5</ele>
        <time>2023-06-29T12:31:37Z</time>
      </trkpt>
      <trkpt lat="39.93688899146478" lon="116.47757779538098">
        <ele>23.2</ele>
        <time>2023-06-29T12:31:52Z</time>
      </trkpt>
      <trkpt lat="39.936701877815686" lon="116.47753566371381">
        <ele>23.0</ele>
        <time>2023-06-29T12:32:01Z</time>
      </trkpt>
      <trkpt lat="39.936556673124564" lon="116.47746241238865">
        <ele>26.0</ele>
        <time>2023-06-29T12:32:10Z</time>
      </trkpt>
      <trkpt lat="39.93647966179692" lon="116.47745740357622">
        <ele>26.900000000000002</ele>
        <time>2023-06-29T12:32:16Z</time>
      </trkpt>
      <trkpt lat="39.93637673224223" lon="116.47748050136822">
        <ele>26.3</ele>
        <time>2023-06-29T12:32:22Z</time>
      </trkpt>
      <trkpt lat="39.93630370922066" lon="116.47747147728892">
        <ele>26.0</ele>
        <time>2023-06-29T12:32:25Z</time>
      </trkpt>
      <trkpt lat="39.936003767392315" lon="116.47748757391403">
        <ele>24.7</ele>
        <time>2023-06-29T12:32:40Z</time>
      </trkpt>
      <trkpt lat="39.93574657589924" lon="116.47741734774223">
        <ele>27.900000000000002</ele>
        <time>2023-06-29T12:32:52Z</time>
      </trkpt>
      <trkpt lat="39.93562914837122" lon="116.47726680904424">
        <ele>29.8</ele>
        <time>2023-06-29T12:33:01Z</time>
      </trkpt>
      <trkpt lat="39.93535658923007" lon="116.4770681132431">
        <ele>29.499999999999996</ele>
        <time>2023-06-29T12:33:13Z</time>
      </trkpt>
      <trkpt lat="39.93526849780737" lon="116.47703500268211">
        <ele>31.400000000000002</ele>
        <time>2023-06-29T12:33:16Z</time>
      </trkpt>
      <trkpt lat="39.935146525729294" lon="116.4770430474338">
        <ele>31.099999999999998</ele>
        <time>2023-06-29T12:33:22Z</time>
      </trkpt>
      <trkpt lat="39.93501468931428" lon="116.47709826661763">
        <ele>31.099999999999998</ele>
        <time>2023-06-29T12:33:31Z</time>
      </trkpt>
      <trkpt lat="39.9348867232432" lon="116.4771083194986">
        <ele>29.2</ele>
        <time>2023-06-29T12:33:37Z</time>
      </trkpt>
      <trkpt lat="39.93461701624397" lon="116.47720671453673">
        <ele>27.599999999999998</ele>
        <time>2023-06-29T12:33:52Z</time>
      </trkpt>
      <trkpt lat="39.934474108393765" lon="116.47723684305404">
        <ele>25.9</ele>
        <time>2023-06-29T12:33:58Z</time>
      </trkpt>
      <trkpt lat="39.9341921082242" lon="116.47723286361791">
        <ele>23.9</ele>
        <time>2023-06-29T12:34:13Z</time>
      </trkpt>
      <trkpt lat="39.933936173256214" lon="116.47725196573329">
        <ele>24.599999999999998</ele>
        <time>2023-06-29T12:34:25Z</time>
      </trkpt>
      <trkpt lat="39.93388623575924" lon="116.47727304943439">
        <ele>25.8</ele>
        <time>2023-06-29T12:34:28Z</time>
      </trkpt>
      <trkpt lat="39.93383921460849" lon="116.4772650258178">
        <ele>25.9</ele>
        <time>2023-06-29T12:34:31Z</time>
      </trkpt>
      <trkpt lat="39.93378497199432" lon="116.47717971918664">
        <ele>26.499999999999996</ele>
        <time>2023-06-29T12:34:37Z</time>
      </trkpt>
      <trkpt lat="39.93370172777009" lon="116.47709341261945">
        <ele>29.999999999999996</ele>
        <time>2023-06-29T12:34:43Z</time>
      </trkpt>
      <trkpt lat="39.93364443369503" lon="116.47699004030038">
        <ele>33.5</ele>
        <time>2023-06-29T12:34:49Z</time>
      </trkpt>
      <trkpt lat="39.93359730040041" lon="116.47694287309373">
        <ele>33.400000000000006</ele>
        <time>2023-06-29T12:34:52Z</time>
      </trkpt>
      <trkpt lat="39.9334815031683" lon="116.4766628607407">
        <ele>33.0</ele>
        <time>2023-06-29T12:35:01Z</time>
      </trkpt>
      <trkpt lat="39.93336902823874" lon="116.47649526080912">
        <ele>30.099999999999998</ele>
        <time>2023-06-29T12:35:07Z</time>
      </trkpt>
      <trkpt lat="39.933301672334835" lon="116.47636980995901">
        <ele>31.599999999999998</ele>
        <time>2023-06-29T12:35:13Z</time>
      </trkpt>
      <trkpt lat="39.93323452018862" lon="116.47631562004116">
        <ele>31.099999999999998</ele>
        <time>2023-06-29T12:35:16Z</time>
      </trkpt>
      <trkpt lat="39.933179273017814" lon="116.47622830753555">
        <ele>32.1</ele>
        <time>2023-06-29T12:35:19Z</time>
      </trkpt>
      <trkpt lat="39.93309818171794" lon="116.47619519656647">
        <ele>34.2</ele>
        <time>2023-06-29T12:35:25Z</time>
      </trkpt>
      <trkpt lat="39.93282840756085" lon="116.4762705056783">
        <ele>33.300000000000004</ele>
        <time>2023-06-29T12:35:40Z</time>
      </trkpt>
      <trkpt lat="39.93270650422151" lon="116.47630263844631">
        <ele>32.1</ele>
        <time>2023-06-29T12:35:49Z</time>
      </trkpt>
      <trkpt lat="39.93255147607711" lon="116.47629061380273">
        <ele>28.400000000000002</ele>
        <time>2023-06-29T12:37:34Z</time>
      </trkpt>
      <trkpt lat="39.93234648722398" lon="116.47629164315279">
        <ele>27.3</ele>
        <time>2023-06-29T12:37:46Z</time>
      </trkpt>
      <trkpt lat="39.93225956528127" lon="116.47631774951506">
        <ele>26.2</ele>
        <time>2023-06-29T12:37:52Z</time>
      </trkpt>
      <trkpt lat="39.932201012254076" lon="116.47647332625945">
        <ele>26.3</ele>
        <time>2023-06-29T12:38:01Z</time>
      </trkpt>
      <trkpt lat="39.932246797192576" lon="116.47674832808565">
        <ele>27.900000000000002</ele>
        <time>2023-06-29T12:38:16Z</time>
      </trkpt>
      <trkpt lat="39.9321764497891" lon="116.47697516888896">
        <ele>28.099999999999998</ele>
        <time>2023-06-29T12:38:25Z</time>
      </trkpt>
      <trkpt lat="39.93218888381042" lon="116.4771267236881">
        <ele>29.599999999999998</ele>
        <time>2023-06-29T12:38:31Z</time>
      </trkpt>
      <trkpt lat="39.9322162714514" lon="116.47726221797677">
        <ele>29.2</ele>
        <time>2023-06-29T12:38:37Z</time>
      </trkpt>
      <trkpt lat="39.93218671929311" lon="116.47741779349253">
        <ele>26.999999999999996</ele>
        <time>2023-06-29T12:38:46Z</time>
      </trkpt>
      <trkpt lat="39.932094429677484" lon="116.47766370966279">
        <ele>21.9</ele>
        <time>2023-06-29T12:38:58Z</time>
      </trkpt>
      <trkpt lat="39.9320748086441" lon="116.47779519619823">
        <ele>21.0</ele>
        <time>2023-06-29T12:39:01Z</time>
      </trkpt>
      <trkpt lat="39.93209329032565" lon="116.4779628113795">
        <ele>22.3</ele>
        <time>2023-06-29T12:39:04Z</time>
      </trkpt>
      <trkpt lat="39.93214179429671" lon="116.47813845284365">
        <ele>21.4</ele>
        <time>2023-06-29T12:39:10Z</time>
      </trkpt>
      <trkpt lat="39.93214179429671" lon="116.47813845284365">
        <ele>21.4</ele>
        <time>2023-06-29T12:39:12Z</time>
      </trkpt>
    </trkseg>
  </trk>
</gpx>