<?xml version="1.0" encoding="UTF-8"?>
<gpx xmlns="http://www.topografix.com/GPX/1/1" xmlns:gpxtpx="http://www.garmin.com/xmlschemas/TrackPointExtension/v1" xmlns:xsi="http://www.w3.org/2001/XMLSchema-instance" xsi:schemaLocation="http://www.topografix.com/GPX/1/1 http://www.topografix.com/GPX/1/1/gpx.xsd" version="1.1" creator="gpx.py -- https://github.com/tkrajina/gpxpy">
  <trk>
    <name>gpx from keep</name>
    <type>Walk</type>
    <trkseg>
      <trkpt lat="39.90009366520299" lon="116.66983906446082">
        <ele>49.9</ele>
        <time>2023-02-05T23:52:43Z</time>
      </trkpt>
      <trkpt lat="39.90011582305968" lon="116.66975629776496">
        <ele>49.9</ele>
        <time>2023-02-05T23:52:46Z</time>
      </trkpt>
      <trkpt lat="39.900189737435745" lon="116.66979916636022">
        <ele>49.9</ele>
        <time>2023-02-05T23:52:49Z</time>
      </trkpt>
      <trkpt lat="39.90020814433432" lon="116.66958676988041">
        <ele>49.9</ele>
        <time>2023-02-05T23:52:52Z</time>
      </trkpt>
      <trkpt lat="39.90030778329014" lon="116.66925171341485">
        <ele>50.2</ele>
        <time>2023-02-05T23:53:01Z</time>
      </trkpt>
      <trkpt lat="39.90007460224393" lon="116.6693514576788">
        <ele>49.8</ele>
        <time>2023-02-05T23:53:07Z</time>
      </trkpt>
      <trkpt lat="39.90015150685994" lon="116.66939931164254">
        <ele>49.9</ele>
        <time>2023-02-05T23:53:11Z</time>
      </trkpt>
      <trkpt lat="39.900026407163885" lon="116.66945417061446">
        <ele>49.9</ele>
        <time>2023-02-05T23:53:13Z</time>
      </trkpt>
      <trkpt lat="39.89997331764122" lon="116.66950204062293">
        <ele>49.9</ele>
        <time>2023-02-05T23:53:16Z</time>
      </trkpt>
      <trkpt lat="39.899805187355035" lon="116.66957385656153">
        <ele>49.8</ele>
        <time>2023-02-05T23:53:22Z</time>
      </trkpt>
      <trkpt lat="39.89967102492913" lon="116.66966162281639">
        <ele>49.8</ele>
        <time>2023-02-05T23:53:28Z</time>
      </trkpt>
      <trkpt lat="39.89960501258983" lon="116.66966960820602">
        <ele>49.7</ele>
        <time>2023-02-05T23:53:31Z</time>
      </trkpt>
      <trkpt lat="39.899554074230075" lon="116.66963870265819">
        <ele>49.7</ele>
        <time>2023-02-05T23:53:34Z</time>
      </trkpt>
      <trkpt lat="39.8994165552822" lon="116.66939142504981">
        <ele>49.8</ele>
        <time>2023-02-05T23:53:50Z</time>
      </trkpt>
      <trkpt lat="39.89930471928785" lon="116.669308674964">
        <ele>48.0</ele>
        <time>2023-02-05T23:53:55Z</time>
      </trkpt>
      <trkpt lat="39.89927988896377" lon="116.66922092838628">
        <ele>43.4</ele>
        <time>2023-02-05T23:54:01Z</time>
      </trkpt>
      <trkpt lat="39.89930644145334" lon="116.66893274741862">
        <ele>31.4</ele>
        <time>2023-02-05T23:54:19Z</time>
      </trkpt>
      <trkpt lat="39.89937773911189" lon="116.66877618540656">
        <ele>18.4</ele>
        <time>2023-02-05T23:54:28Z</time>
      </trkpt>
      <trkpt lat="39.899384892122974" lon="116.66869641219765">
        <ele>19.7</ele>
        <time>2023-02-05T23:54:31Z</time>
      </trkpt>
      <trkpt lat="39.89930792818111" lon="116.66867947006959">
        <ele>17.8</ele>
        <time>2023-02-05T23:54:43Z</time>
      </trkpt>
      <trkpt lat="39.89927082060207" lon="116.66873631242606">
        <ele>16.0</ele>
        <time>2023-02-05T23:54:49Z</time>
      </trkpt>
      <trkpt lat="39.89935861348514" lon="116.66884199994188">
        <ele>15.3</ele>
        <time>2023-02-05T23:55:01Z</time>
      </trkpt>
      <trkpt lat="39.899373474837155" lon="116.66891379321902">
        <ele>17.8</ele>
        <time>2023-02-05T23:55:07Z</time>
      </trkpt>
      <trkpt lat="39.89930678814645" lon="116.66927277712695">
        <ele>20.0</ele>
        <time>2023-02-05T23:55:25Z</time>
      </trkpt>
      <trkpt lat="39.899396335980185" lon="116.66950610041245">
        <ele>9.9</ele>
        <time>2023-02-05T23:55:37Z</time>
      </trkpt>
      <trkpt lat="39.8994249556251" lon="116.66970353371771">
        <ele>7.0</ele>
        <time>2023-02-05T23:55:49Z</time>
      </trkpt>
      <trkpt lat="39.899485625608115" lon="116.66987403994054">
        <ele>3.8000000000000007</ele>
        <time>2023-02-05T23:56:01Z</time>
      </trkpt>
      <trkpt lat="39.899439975292815" lon="116.67021407606234">
        <ele>1.2999999999999998</ele>
        <time>2023-02-05T23:56:19Z</time>
      </trkpt>
      <trkpt lat="39.89951521670571" lon="116.67060794417141">
        <ele>-2.4</ele>
        <time>2023-02-05T23:56:43Z</time>
      </trkpt>
      <trkpt lat="39.89958567663438" lon="116.6708881371765">
        <ele>-8.8</ele>
        <time>2023-02-05T23:57:01Z</time>
      </trkpt>
      <trkpt lat="39.89962653154462" lon="116.6709629191128">
        <ele>-8.3</ele>
        <time>2023-02-05T23:57:07Z</time>
      </trkpt>
      <trkpt lat="39.89963172572211" lon="116.67138372026922">
        <ele>0.09999999999999964</ele>
        <time>2023-02-05T23:57:31Z</time>
      </trkpt>
      <trkpt lat="39.899685872704005" lon="116.67182844804137">
        <ele>-1.0</ele>
        <time>2023-02-05T23:57:58Z</time>
      </trkpt>
      <trkpt lat="39.89975121242683" lon="116.67217246164353">
        <ele>-1.4</ele>
        <time>2023-02-05T23:58:19Z</time>
      </trkpt>
      <trkpt lat="39.89981584965499" lon="116.67236091795368">
        <ele>1.9000000000000004</ele>
        <time>2023-02-05T23:58:34Z</time>
      </trkpt>
      <trkpt lat="39.899816347271425" lon="116.67262416990727">
        <ele>4.800000000000001</ele>
        <time>2023-02-05T23:58:46Z</time>
      </trkpt>
      <trkpt lat="39.8998599592691" lon="116.67282658962134">
        <ele>6.300000000000001</ele>
        <time>2023-02-05T23:58:58Z</time>
      </trkpt>
      <trkpt lat="39.89989620332185" lon="116.67322246150594">
        <ele>7.6</ele>
        <time>2023-02-05T23:59:19Z</time>
      </trkpt>
      <trkpt lat="39.899921566362046" lon="116.67355651094618">
        <ele>12.2</ele>
        <time>2023-02-05T23:59:37Z</time>
      </trkpt>
      <trkpt lat="39.89996499368803" lon="116.67385665491584">
        <ele>10.0</ele>
        <time>2023-02-05T23:59:55Z</time>
      </trkpt>
      <trkpt lat="39.89998632412673" lon="116.67420865542275">
        <ele>13.2</ele>
        <time>2023-02-06T00:00:13Z</time>
      </trkpt>
      <trkpt lat="39.899999672743355" lon="116.67455168316773">
        <ele>10.4</ele>
        <time>2023-02-06T00:00:31Z</time>
      </trkpt>
      <trkpt lat="39.90005791251101" lon="116.67495154563474">
        <ele>7.5</ele>
        <time>2023-02-06T00:00:55Z</time>
      </trkpt>
      <trkpt lat="39.900070504318485" lon="116.6751669357295">
        <ele>3.6999999999999993</ele>
        <time>2023-02-06T00:01:07Z</time>
      </trkpt>
      <trkpt lat="39.90017473435702" lon="116.67557178038545">
        <ele>-0.9000000000000004</ele>
        <time>2023-02-06T00:01:34Z</time>
      </trkpt>
      <trkpt lat="39.90023519893571" lon="116.6758539773733">
        <ele>0.20000000000000018</ele>
        <time>2023-02-06T00:01:49Z</time>
      </trkpt>
      <trkpt lat="39.90023608415327" lon="116.67591480587708">
        <ele>1.0999999999999996</ele>
        <time>2023-02-06T00:01:52Z</time>
      </trkpt>
      <trkpt lat="39.900260910037396" lon="116.6760065443842">
        <ele>1.7000000000000002</ele>
        <time>2023-02-06T00:01:58Z</time>
      </trkpt>
      <trkpt lat="39.90028120653035" lon="116.676379492098">
        <ele>2.7</ele>
        <time>2023-02-06T00:02:19Z</time>
      </trkpt>
      <trkpt lat="39.90032340948179" lon="116.67680229830714">
        <ele>8.4</ele>
        <time>2023-02-06T00:02:43Z</time>
      </trkpt>
      <trkpt lat="39.90035565366609" lon="116.67720416620637">
        <ele>7.800000000000001</ele>
        <time>2023-02-06T00:03:04Z</time>
      </trkpt>
      <trkpt lat="39.90041488872254" lon="116.67761101841695">
        <ele>5.4</ele>
        <time>2023-02-06T00:03:28Z</time>
      </trkpt>
      <trkpt lat="39.900480240518235" lon="116.6779560445229">
        <ele>5.6</ele>
        <time>2023-02-06T00:03:49Z</time>
      </trkpt>
      <trkpt lat="39.90052558316524" lon="116.67830705766836">
        <ele>8.2</ele>
        <time>2023-02-06T00:04:10Z</time>
      </trkpt>
      <trkpt lat="39.90055287396931" lon="116.67868699374748">
        <ele>10.9</ele>
        <time>2023-02-06T00:04:31Z</time>
      </trkpt>
      <trkpt lat="39.90058508262775" lon="116.67911180591948">
        <ele>14.2</ele>
        <time>2023-02-06T00:04:55Z</time>
      </trkpt>
      <trkpt lat="39.90061856664351" lon="116.67938903037295">
        <ele>14.0</ele>
        <time>2023-02-06T00:05:10Z</time>
      </trkpt>
      <trkpt lat="39.900630913965664" lon="116.67974105067898">
        <ele>9.3</ele>
        <time>2023-02-06T00:05:28Z</time>
      </trkpt>
      <trkpt lat="39.90068115963352" lon="116.68014791582037">
        <ele>11.2</ele>
        <time>2023-02-06T00:05:49Z</time>
      </trkpt>
      <trkpt lat="39.90067793156404" lon="116.6802715736223">
        <ele>11.2</ele>
        <time>2023-02-06T00:05:55Z</time>
      </trkpt>
      <trkpt lat="39.900748261309076" lon="116.68063356313806">
        <ele>13.7</ele>
        <time>2023-02-06T00:06:13Z</time>
      </trkpt>
      <trkpt lat="39.90074866162271" lon="116.68095966215971">
        <ele>11.3</ele>
        <time>2023-02-06T00:06:31Z</time>
      </trkpt>
      <trkpt lat="39.900843918181096" lon="116.68136253930108">
        <ele>7.5</ele>
        <time>2023-02-06T00:06:56Z</time>
      </trkpt>
      <trkpt lat="39.900878569662645" lon="116.68155201326557">
        <ele>11.600000000000001</ele>
        <time>2023-02-06T00:07:08Z</time>
      </trkpt>
      <trkpt lat="39.90101123358854" lon="116.68173250027915">
        <ele>8.3</ele>
        <time>2023-02-06T00:07:23Z</time>
      </trkpt>
      <trkpt lat="39.90105105504778" lon="116.68182922943002">
        <ele>8.2</ele>
        <time>2023-02-06T00:07:29Z</time>
      </trkpt>
      <trkpt lat="39.90114875754508" lon="116.68198977626054">
        <ele>12.3</ele>
        <time>2023-02-06T00:07:41Z</time>
      </trkpt>
      <trkpt lat="39.90116937112811" lon="116.68220119350052">
        <ele>12.100000000000001</ele>
        <time>2023-02-06T00:07:53Z</time>
      </trkpt>
      <trkpt lat="39.90116307539601" lon="116.68236374863005">
        <ele>9.8</ele>
        <time>2023-02-06T00:08:02Z</time>
      </trkpt>
      <trkpt lat="39.901213795574876" lon="116.68251632439723">
        <ele>9.5</ele>
        <time>2023-02-06T00:08:14Z</time>
      </trkpt>
      <trkpt lat="39.90121468677261" lon="116.68257616048152">
        <ele>9.4</ele>
        <time>2023-02-06T00:08:17Z</time>
      </trkpt>
      <trkpt lat="39.90127336899422" lon="116.68274967848406">
        <ele>7.5</ele>
        <time>2023-02-06T00:08:29Z</time>
      </trkpt>
      <trkpt lat="39.901270953119976" lon="116.68297905198361">
        <ele>5.9</ele>
        <time>2023-02-06T00:08:41Z</time>
      </trkpt>
      <trkpt lat="39.90132080455408" lon="116.6830598252584">
        <ele>5.9</ele>
        <time>2023-02-06T00:08:47Z</time>
      </trkpt>
      <trkpt lat="39.90134655970096" lon="116.68319445471496">
        <ele>5.699999999999999</ele>
        <time>2023-02-06T00:08:56Z</time>
      </trkpt>
      <trkpt lat="39.90137543394346" lon="116.68326326348956">
        <ele>4.9</ele>
        <time>2023-02-06T00:08:59Z</time>
      </trkpt>
      <trkpt lat="39.90143630321287" lon="116.68333406293821">
        <ele>2.4000000000000004</ele>
        <time>2023-02-06T00:09:05Z</time>
      </trkpt>
      <trkpt lat="39.90145618879521" lon="116.6833968892802">
        <ele>1.4000000000000004</ele>
        <time>2023-02-06T00:09:11Z</time>
      </trkpt>
      <trkpt lat="39.90149810946323" lon="116.68343976727452">
        <ele>4.9</ele>
        <time>2023-02-06T00:09:20Z</time>
      </trkpt>
      <trkpt lat="39.901603025539636" lon="116.68348363477502">
        <ele>14.2</ele>
        <time>2023-02-06T00:09:32Z</time>
      </trkpt>
      <trkpt lat="39.90170788945579" lon="116.6835564235909">
        <ele>18.5</ele>
        <time>2023-02-06T00:09:44Z</time>
      </trkpt>
      <trkpt lat="39.901781048194955" lon="116.68346665887606">
        <ele>15.2</ele>
        <time>2023-02-06T00:09:56Z</time>
      </trkpt>
      <trkpt lat="39.90184112655614" lon="116.68342177365498">
        <ele>12.0</ele>
        <time>2023-02-06T00:10:02Z</time>
      </trkpt>
      <trkpt lat="39.90185523943326" lon="116.6833589430753">
        <ele>9.8</ele>
        <time>2023-02-06T00:10:11Z</time>
      </trkpt>
      <trkpt lat="39.90179032344117" lon="116.68331407342323">
        <ele>8.6</ele>
        <time>2023-02-06T00:10:26Z</time>
      </trkpt>
      <trkpt lat="39.90175322957256" lon="116.68336693397885">
        <ele>7.4</ele>
        <time>2023-02-06T00:10:47Z</time>
      </trkpt>
      <trkpt lat="39.90187508893855" lon="116.68233872874147">
        <ele>0.0</ele>
        <time>2023-02-06T00:12:29Z</time>
      </trkpt>
    </trkseg>
  </trk>
</gpx>