<?xml version="1.0" encoding="UTF-8"?>
<gpx xmlns="http://www.topografix.com/GPX/1/1" xmlns:gpxtpx="http://www.garmin.com/xmlschemas/TrackPointExtension/v1" xmlns:xsi="http://www.w3.org/2001/XMLSchema-instance" xsi:schemaLocation="http://www.topografix.com/GPX/1/1 http://www.topografix.com/GPX/1/1/gpx.xsd" version="1.1" creator="gpx.py -- https://github.com/tkrajina/gpxpy">
  <trk>
    <name>gpx from keep</name>
    <type>Run</type>
    <trkseg>
      <trkpt lat="39.92273407719912" lon="116.4876592645026">
        <ele>20.3</ele>
        <time>2023-07-02T23:58:02Z</time>
      </trkpt>
      <trkpt lat="39.922770795342586" lon="116.48823845202031">
        <ele>31.999999999999996</ele>
        <time>2023-07-03T00:01:47Z</time>
      </trkpt>
      <trkpt lat="39.922737960704524" lon="116.48829366514414">
        <ele>31.7</ele>
        <time>2023-07-03T00:01:50Z</time>
      </trkpt>
      <trkpt lat="39.92271520618771" lon="116.48837597965337">
        <ele>30.499999999999996</ele>
        <time>2023-07-03T00:01:56Z</time>
      </trkpt>
      <trkpt lat="39.92271581467142" lon="116.48858075508936">
        <ele>27.3</ele>
        <time>2023-07-03T00:02:08Z</time>
      </trkpt>
      <trkpt lat="39.92276417965774" lon="116.4887042167374">
        <ele>24.4</ele>
        <time>2023-07-03T00:02:14Z</time>
      </trkpt>
      <trkpt lat="39.9229728544594" lon="116.48893406161628">
        <ele>22.5</ele>
        <time>2023-07-03T00:02:29Z</time>
      </trkpt>
      <trkpt lat="39.923097879143874" lon="116.4889440840794">
        <ele>23.7</ele>
        <time>2023-07-03T00:02:38Z</time>
      </trkpt>
      <trkpt lat="39.92339767275623" lon="116.48887879952757">
        <ele>25.8</ele>
        <time>2023-07-03T00:02:50Z</time>
      </trkpt>
      <trkpt lat="39.92358761119698" lon="116.48886070741443">
        <ele>28.2</ele>
        <time>2023-07-03T00:02:59Z</time>
      </trkpt>
      <trkpt lat="39.92360784914128" lon="116.4889410091559">
        <ele>30.900000000000002</ele>
        <time>2023-07-03T00:03:05Z</time>
      </trkpt>
      <trkpt lat="39.923691890449476" lon="116.4889560557409">
        <ele>32.900000000000006</ele>
        <time>2023-07-03T00:03:11Z</time>
      </trkpt>
      <trkpt lat="39.92404474158694" lon="116.48891084064095">
        <ele>31.999999999999996</ele>
        <time>2023-07-03T00:03:29Z</time>
      </trkpt>
      <trkpt lat="39.92430367122868" lon="116.48889073232516">
        <ele>31.499999999999996</ele>
        <time>2023-07-03T00:03:38Z</time>
      </trkpt>
      <trkpt lat="39.92442475578724" lon="116.4889208313441">
        <ele>32.1</ele>
        <time>2023-07-03T00:03:44Z</time>
      </trkpt>
      <trkpt lat="39.92453376025613" lon="116.48892382917778">
        <ele>32.1</ele>
        <time>2023-07-03T00:03:50Z</time>
      </trkpt>
      <trkpt lat="39.92458985346518" lon="116.4889559439026">
        <ele>31.8</ele>
        <time>2023-07-03T00:03:56Z</time>
      </trkpt>
      <trkpt lat="39.92488367124615" lon="116.4888986905112">
        <ele>27.900000000000002</ele>
        <time>2023-07-03T00:04:08Z</time>
      </trkpt>
      <trkpt lat="39.92510458755051" lon="116.48887356791255">
        <ele>26.0</ele>
        <time>2023-07-03T00:04:17Z</time>
      </trkpt>
      <trkpt lat="39.92522770188144" lon="116.48891370471132">
        <ele>24.9</ele>
        <time>2023-07-03T00:04:20Z</time>
      </trkpt>
      <trkpt lat="39.925474703679015" lon="116.48891768915962">
        <ele>27.8</ele>
        <time>2023-07-03T00:04:29Z</time>
      </trkpt>
      <trkpt lat="39.92576045019901" lon="116.48883634550043">
        <ele>30.8</ele>
        <time>2023-07-03T00:04:44Z</time>
      </trkpt>
      <trkpt lat="39.926034259912065" lon="116.48877608321123">
        <ele>30.099999999999998</ele>
        <time>2023-07-03T00:04:59Z</time>
      </trkpt>
      <trkpt lat="39.92622715651505" lon="116.48874393749065">
        <ele>24.3</ele>
        <time>2023-07-03T00:05:08Z</time>
      </trkpt>
      <trkpt lat="39.926363807779076" lon="116.48862848317042">
        <ele>20.9</ele>
        <time>2023-07-03T00:05:14Z</time>
      </trkpt>
      <trkpt lat="39.92639563045365" lon="116.48856925487419">
        <ele>19.0</ele>
        <time>2023-07-03T00:05:17Z</time>
      </trkpt>
      <trkpt lat="39.92644683496229" lon="116.48830223728304">
        <ele>14.099999999999998</ele>
        <time>2023-07-03T00:05:26Z</time>
      </trkpt>
      <trkpt lat="39.926450584331725" lon="116.48821791755016">
        <ele>12.0</ele>
        <time>2023-07-03T00:05:29Z</time>
      </trkpt>
      <trkpt lat="39.92648742778289" lon="116.48816571533472">
        <ele>13.399999999999999</ele>
        <time>2023-07-03T00:05:35Z</time>
      </trkpt>
      <trkpt lat="39.92678731414387" lon="116.48813154875796">
        <ele>14.3</ele>
        <time>2023-07-03T00:05:50Z</time>
      </trkpt>
      <trkpt lat="39.92690237502585" lon="116.48815361802673">
        <ele>15.5</ele>
        <time>2023-07-03T00:05:56Z</time>
      </trkpt>
      <trkpt lat="39.927069210198155" lon="116.48810039582695">
        <ele>19.599999999999998</ele>
        <time>2023-07-03T00:06:05Z</time>
      </trkpt>
      <trkpt lat="39.92730052118096" lon="116.48787150070385">
        <ele>20.599999999999998</ele>
        <time>2023-07-03T00:06:17Z</time>
      </trkpt>
      <trkpt lat="39.92740010592547" lon="116.48773296407654">
        <ele>20.2</ele>
        <time>2023-07-03T00:06:23Z</time>
      </trkpt>
      <trkpt lat="39.927690382178454" lon="116.48749302024218">
        <ele>17.099999999999998</ele>
        <time>2023-07-03T00:06:38Z</time>
      </trkpt>
      <trkpt lat="39.927773699936324" lon="116.48726414425691">
        <ele>18.5</ele>
        <time>2023-07-03T00:06:47Z</time>
      </trkpt>
      <trkpt lat="39.9277722059351" lon="116.48709751440668">
        <ele>18.2</ele>
        <time>2023-07-03T00:06:53Z</time>
      </trkpt>
      <trkpt lat="39.927677064563824" lon="116.4867110656575">
        <ele>17.3</ele>
        <time>2023-07-03T00:07:05Z</time>
      </trkpt>
      <trkpt lat="39.92770571553063" lon="116.48659361838907">
        <ele>18.099999999999998</ele>
        <time>2023-07-03T00:07:11Z</time>
      </trkpt>
      <trkpt lat="39.927765252384916" lon="116.48643802329491">
        <ele>18.8</ele>
        <time>2023-07-03T00:07:17Z</time>
      </trkpt>
      <trkpt lat="39.92778260395766" lon="116.48621919486405">
        <ele>21.0</ele>
        <time>2023-07-03T00:07:26Z</time>
      </trkpt>
      <trkpt lat="39.927829117955035" lon="116.48605557146425">
        <ele>22.4</ele>
        <time>2023-07-03T00:07:32Z</time>
      </trkpt>
      <trkpt lat="39.927962471271" lon="116.4858387366985">
        <ele>22.7</ele>
        <time>2023-07-03T00:07:41Z</time>
      </trkpt>
      <trkpt lat="39.92800004241744" lon="116.48569418677243">
        <ele>20.9</ele>
        <time>2023-07-03T00:07:47Z</time>
      </trkpt>
      <trkpt lat="39.927995573897654" lon="116.48553558925369">
        <ele>21.099999999999998</ele>
        <time>2023-07-03T00:07:53Z</time>
      </trkpt>
      <trkpt lat="39.92791739721374" lon="116.48513609329086">
        <ele>20.8</ele>
        <time>2023-07-03T00:08:08Z</time>
      </trkpt>
      <trkpt lat="39.92787024114557" lon="116.48474362115054">
        <ele>17.2</ele>
        <time>2023-07-03T00:08:23Z</time>
      </trkpt>
      <trkpt lat="39.92807184224981" lon="116.4846110972972">
        <ele>20.099999999999998</ele>
        <time>2023-07-03T00:08:41Z</time>
      </trkpt>
      <trkpt lat="39.92828418277347" lon="116.48439023996242">
        <ele>20.4</ele>
        <time>2023-07-03T00:08:50Z</time>
      </trkpt>
      <trkpt lat="39.92842556795637" lon="116.48418344472924">
        <ele>23.099999999999998</ele>
        <time>2023-07-03T00:08:59Z</time>
      </trkpt>
      <trkpt lat="39.92853603182271" lon="116.48401339983363">
        <ele>24.4</ele>
        <time>2023-07-03T00:09:05Z</time>
      </trkpt>
      <trkpt lat="39.92859504288673" lon="116.48366748503601">
        <ele>34.300000000000004</ele>
        <time>2023-07-03T00:09:17Z</time>
      </trkpt>
      <trkpt lat="39.928502621728306" lon="116.48352295392239">
        <ele>49.0</ele>
        <time>2023-07-03T00:09:20Z</time>
      </trkpt>
      <trkpt lat="39.928484439571015" lon="116.4834607226113">
        <ele>44.900000000000006</ele>
        <time>2023-07-03T00:09:23Z</time>
      </trkpt>
      <trkpt lat="39.92852531107684" lon="116.48341755552946">
        <ele>39.900000000000006</ele>
        <time>2023-07-03T00:09:26Z</time>
      </trkpt>
      <trkpt lat="39.92856203533142" lon="116.48332420067942">
        <ele>33.900000000000006</ele>
        <time>2023-07-03T00:09:29Z</time>
      </trkpt>
      <trkpt lat="39.928616912214636" lon="116.48328303943576">
        <ele>28.499999999999996</ele>
        <time>2023-07-03T00:09:32Z</time>
      </trkpt>
      <trkpt lat="39.92865870711129" lon="116.48321377442494">
        <ele>28.8</ele>
        <time>2023-07-03T00:09:35Z</time>
      </trkpt>
      <trkpt lat="39.92878260480227" lon="116.48318063472077">
        <ele>27.599999999999998</ele>
        <time>2023-07-03T00:09:44Z</time>
      </trkpt>
      <trkpt lat="39.92906863147537" lon="116.48319364793956">
        <ele>26.3</ele>
        <time>2023-07-03T00:09:59Z</time>
      </trkpt>
      <trkpt lat="39.92919452320166" lon="116.48315850046326">
        <ele>25.3</ele>
        <time>2023-07-03T00:10:05Z</time>
      </trkpt>
      <trkpt lat="39.929428525473746" lon="116.48316248629665">
        <ele>24.5</ele>
        <time>2023-07-03T00:10:17Z</time>
      </trkpt>
      <trkpt lat="39.92947543810498" lon="116.48313337127748">
        <ele>24.0</ele>
        <time>2023-07-03T00:10:20Z</time>
      </trkpt>
      <trkpt lat="39.929570021793694" lon="116.48299283260144">
        <ele>23.3</ele>
        <time>2023-07-03T00:10:26Z</time>
      </trkpt>
      <trkpt lat="39.92960224317568" lon="116.48272783560381">
        <ele>19.2</ele>
        <time>2023-07-03T00:10:35Z</time>
      </trkpt>
      <trkpt lat="39.92959405222456" lon="116.48266259225524">
        <ele>16.7</ele>
        <time>2023-07-03T00:10:38Z</time>
      </trkpt>
      <trkpt lat="39.92955688602621" lon="116.4826053826391">
        <ele>14.0</ele>
        <time>2023-07-03T00:10:41Z</time>
      </trkpt>
      <trkpt lat="39.929408700840305" lon="116.48254015686202">
        <ele>10.5</ele>
        <time>2023-07-03T00:10:47Z</time>
      </trkpt>
      <trkpt lat="39.92929014990923" lon="116.48235046161365">
        <ele>5.500000000000001</ele>
        <time>2023-07-03T00:10:56Z</time>
      </trkpt>
      <trkpt lat="39.92926738393327" lon="116.48208848453712">
        <ele>-1.2999999999999998</ele>
        <time>2023-07-03T00:11:08Z</time>
      </trkpt>
      <trkpt lat="39.92919893159292" lon="116.48193291150055">
        <ele>-0.5999999999999996</ele>
        <time>2023-07-03T00:11:14Z</time>
      </trkpt>
      <trkpt lat="39.92912871137858" lon="116.48185663520688">
        <ele>1.0</ele>
        <time>2023-07-03T00:11:17Z</time>
      </trkpt>
      <trkpt lat="39.929054594077144" lon="116.48181549070888">
        <ele>1.7999999999999998</ele>
        <time>2023-07-03T00:11:20Z</time>
      </trkpt>
      <trkpt lat="39.928895571205565" lon="116.48180547308048">
        <ele>1.4000000000000004</ele>
        <time>2023-07-03T00:11:26Z</time>
      </trkpt>
      <trkpt lat="39.92863404265433" lon="116.48196309462703">
        <ele>7.6000000000000005</ele>
        <time>2023-07-03T00:11:38Z</time>
      </trkpt>
      <trkpt lat="39.92850712415864" lon="116.48198920803097">
        <ele>10.7</ele>
        <time>2023-07-03T00:11:44Z</time>
      </trkpt>
      <trkpt lat="39.92830017956965" lon="116.48200529391927">
        <ele>16.9</ele>
        <time>2023-07-03T00:11:53Z</time>
      </trkpt>
      <trkpt lat="39.928112495579775" lon="116.48211071139748">
        <ele>20.4</ele>
        <time>2023-07-03T00:12:02Z</time>
      </trkpt>
      <trkpt lat="39.92798403262373" lon="116.48229240696115">
        <ele>19.7</ele>
        <time>2023-07-03T00:12:11Z</time>
      </trkpt>
      <trkpt lat="39.92785999043026" lon="116.482617639706">
        <ele>19.4</ele>
        <time>2023-07-03T00:12:23Z</time>
      </trkpt>
      <trkpt lat="39.92782719773883" lon="116.4826879069339">
        <ele>21.3</ele>
        <time>2023-07-03T00:12:26Z</time>
      </trkpt>
      <trkpt lat="39.927789317002556" lon="116.48272806204926">
        <ele>21.0</ele>
        <time>2023-07-03T00:12:29Z</time>
      </trkpt>
      <trkpt lat="39.92753048062363" lon="116.48278028990126">
        <ele>19.9</ele>
        <time>2023-07-03T00:12:41Z</time>
      </trkpt>
      <trkpt lat="39.927400456497764" lon="116.48277026853809">
        <ele>18.599999999999998</ele>
        <time>2023-07-03T00:12:47Z</time>
      </trkpt>
      <trkpt lat="39.927283617290485" lon="116.48282348243677">
        <ele>18.9</ele>
        <time>2023-07-03T00:12:53Z</time>
      </trkpt>
      <trkpt lat="39.927244810256504" lon="116.48288873175454">
        <ele>19.4</ele>
        <time>2023-07-03T00:12:56Z</time>
      </trkpt>
      <trkpt lat="39.92724987954104" lon="116.48325309718383">
        <ele>21.5</ele>
        <time>2023-07-03T00:13:11Z</time>
      </trkpt>
      <trkpt lat="39.92730723690527" lon="116.48337554943278">
        <ele>22.5</ele>
        <time>2023-07-03T00:13:14Z</time>
      </trkpt>
      <trkpt lat="39.92732042806723" lon="116.48344079261307">
        <ele>23.7</ele>
        <time>2023-07-03T00:13:17Z</time>
      </trkpt>
      <trkpt lat="39.927418872474334" lon="116.48359335299985">
        <ele>25.4</ele>
        <time>2023-07-03T00:13:29Z</time>
      </trkpt>
      <trkpt lat="39.927454745573584" lon="116.48364812615493">
        <ele>26.099999999999998</ele>
        <time>2023-07-03T00:13:32Z</time>
      </trkpt>
      <trkpt lat="39.92752217814108" lon="116.48369873583077">
        <ele>27.099999999999998</ele>
        <time>2023-07-03T00:13:38Z</time>
      </trkpt>
      <trkpt lat="39.92714202830763" lon="116.48432212580161">
        <ele>28.2</ele>
        <time>2023-07-03T00:13:47Z</time>
      </trkpt>
      <trkpt lat="39.927100201528546" lon="116.48438034998239">
        <ele>26.999999999999996</ele>
        <time>2023-07-03T00:13:50Z</time>
      </trkpt>
      <trkpt lat="39.926914362918" lon="116.48443256951003">
        <ele>22.099999999999998</ele>
        <time>2023-07-03T00:13:59Z</time>
      </trkpt>
      <trkpt lat="39.92663737424889" lon="116.48443260407944">
        <ele>17.599999999999998</ele>
        <time>2023-07-03T00:14:11Z</time>
      </trkpt>
      <trkpt lat="39.92652939345693" lon="116.48443763643515">
        <ele>14.099999999999998</ele>
        <time>2023-07-03T00:14:17Z</time>
      </trkpt>
      <trkpt lat="39.92633929180766" lon="116.48440052045866">
        <ele>10.5</ele>
        <time>2023-07-03T00:14:26Z</time>
      </trkpt>
      <trkpt lat="39.926132457037525" lon="116.48445374638847">
        <ele>12.7</ele>
        <time>2023-07-03T00:14:35Z</time>
      </trkpt>
      <trkpt lat="39.925915315093796" lon="116.48440258092315">
        <ele>14.3</ele>
        <time>2023-07-03T00:14:44Z</time>
      </trkpt>
      <trkpt lat="39.92584418493049" lon="116.48435741990922">
        <ele>14.899999999999999</ele>
        <time>2023-07-03T00:14:47Z</time>
      </trkpt>
      <trkpt lat="39.92554530365161" lon="116.48439359312121">
        <ele>16.8</ele>
        <time>2023-07-03T00:14:59Z</time>
      </trkpt>
      <trkpt lat="39.925400433815845" lon="116.48443576977735">
        <ele>15.399999999999999</ele>
        <time>2023-07-03T00:15:05Z</time>
      </trkpt>
      <trkpt lat="39.925207441739346" lon="116.48443579386203">
        <ele>15.0</ele>
        <time>2023-07-03T00:15:14Z</time>
      </trkpt>
      <trkpt lat="39.92507937601536" lon="116.48441171922748">
        <ele>17.5</ele>
        <time>2023-07-03T00:15:20Z</time>
      </trkpt>
      <trkpt lat="39.92492449773025" lon="116.48445088580974">
        <ele>21.5</ele>
        <time>2023-07-03T00:15:26Z</time>
      </trkpt>
      <trkpt lat="39.92472242631479" lon="116.48476308574126">
        <ele>30.499999999999996</ele>
        <time>2023-07-03T00:15:44Z</time>
      </trkpt>
      <trkpt lat="39.92460440551293" lon="116.48509334403546">
        <ele>35.300000000000004</ele>
        <time>2023-07-03T00:15:56Z</time>
      </trkpt>
      <trkpt lat="39.924724639634775" lon="116.48551291023736">
        <ele>33.2</ele>
        <time>2023-07-03T00:16:11Z</time>
      </trkpt>
      <trkpt lat="39.92477187497613" lon="116.4855932071185">
        <ele>31.400000000000002</ele>
        <time>2023-07-03T00:16:14Z</time>
      </trkpt>
      <trkpt lat="39.92488721734173" lon="116.48571063562248">
        <ele>28.8</ele>
        <time>2023-07-03T00:16:20Z</time>
      </trkpt>
      <trkpt lat="39.92495767443299" lon="116.48586621372293">
        <ele>23.599999999999998</ele>
        <time>2023-07-03T00:16:26Z</time>
      </trkpt>
      <trkpt lat="39.92500739088506" lon="116.48610912416342">
        <ele>18.7</ele>
        <time>2023-07-03T00:16:35Z</time>
      </trkpt>
      <trkpt lat="39.92497683174004" lon="116.48625768876153">
        <ele>16.9</ele>
        <time>2023-07-03T00:16:41Z</time>
      </trkpt>
      <trkpt lat="39.924674254201875" lon="116.4863962495167">
        <ele>18.8</ele>
        <time>2023-07-03T00:16:59Z</time>
      </trkpt>
      <trkpt lat="39.92455723821375" lon="116.48638923757389">
        <ele>19.9</ele>
        <time>2023-07-03T00:17:05Z</time>
      </trkpt>
      <trkpt lat="39.92435496426592" lon="116.48629390273386">
        <ele>21.5</ele>
        <time>2023-07-03T00:17:14Z</time>
      </trkpt>
      <trkpt lat="39.92421287801805" lon="116.48626280297024">
        <ele>22.7</ele>
        <time>2023-07-03T00:17:20Z</time>
      </trkpt>
      <trkpt lat="39.924080990401436" lon="116.48629895584484">
        <ele>24.4</ele>
        <time>2023-07-03T00:17:26Z</time>
      </trkpt>
      <trkpt lat="39.92391430628734" lon="116.48640337080441">
        <ele>26.499999999999996</ele>
        <time>2023-07-03T00:17:32Z</time>
      </trkpt>
      <trkpt lat="39.92364520618492" lon="116.48670353799413">
        <ele>32.2</ele>
        <time>2023-07-03T00:17:50Z</time>
      </trkpt>
      <trkpt lat="39.92344799953283" lon="116.48696856397248">
        <ele>24.3</ele>
        <time>2023-07-03T00:18:02Z</time>
      </trkpt>
      <trkpt lat="39.9232398800644" lon="116.48726270178514">
        <ele>19.2</ele>
        <time>2023-07-03T00:18:14Z</time>
      </trkpt>
      <trkpt lat="39.92319095055099" lon="116.48728579518384">
        <ele>18.9</ele>
        <time>2023-07-03T00:18:17Z</time>
      </trkpt>
      <trkpt lat="39.92307399110357" lon="116.48729785530978">
        <ele>18.0</ele>
        <time>2023-07-03T00:18:23Z</time>
      </trkpt>
      <trkpt lat="39.923011949012746" lon="116.48728280610584">
        <ele>17.0</ele>
        <time>2023-07-03T00:18:26Z</time>
      </trkpt>
      <trkpt lat="39.92288503165638" lon="116.48730892061373">
        <ele>15.899999999999999</ele>
        <time>2023-07-03T00:18:32Z</time>
      </trkpt>
      <trkpt lat="39.92277244420976" lon="116.48744645472672">
        <ele>13.899999999999999</ele>
        <time>2023-07-03T00:18:38Z</time>
      </trkpt>
      <trkpt lat="39.922750867996285" lon="116.48758899658412">
        <ele>16.2</ele>
        <time>2023-07-03T00:18:44Z</time>
      </trkpt>
      <trkpt lat="39.92278434026246" lon="116.48774859625486">
        <ele>20.4</ele>
        <time>2023-07-03T00:18:50Z</time>
      </trkpt>
      <trkpt lat="39.92277298438957" lon="116.4879654181865">
        <ele>23.8</ele>
        <time>2023-07-03T00:18:59Z</time>
      </trkpt>
      <trkpt lat="39.922709264226405" lon="116.488058779473">
        <ele>24.0</ele>
        <time>2023-07-03T00:19:02Z</time>
      </trkpt>
      <trkpt lat="39.92267951288838" lon="116.48814209856701">
        <ele>23.8</ele>
        <time>2023-07-03T00:19:05Z</time>
      </trkpt>
      <trkpt lat="39.92270062437426" lon="116.48851651366466">
        <ele>19.7</ele>
        <time>2023-07-03T00:19:17Z</time>
      </trkpt>
      <trkpt lat="39.92272702603704" lon="116.48865202364242">
        <ele>20.099999999999998</ele>
        <time>2023-07-03T00:19:20Z</time>
      </trkpt>
      <trkpt lat="39.9228075986355" lon="116.48884574751662">
        <ele>18.0</ele>
        <time>2023-07-03T00:19:26Z</time>
      </trkpt>
      <trkpt lat="39.92301186478733" lon="116.48893807197138">
        <ele>16.2</ele>
        <time>2023-07-03T00:19:39Z</time>
      </trkpt>
      <trkpt lat="39.92331967597531" lon="116.4888788092418">
        <ele>14.8</ele>
        <time>2023-07-03T00:19:54Z</time>
      </trkpt>
      <trkpt lat="39.92356560613551" lon="116.4888587025489">
        <ele>17.3</ele>
        <time>2023-07-03T00:20:03Z</time>
      </trkpt>
      <trkpt lat="39.923876733586056" lon="116.48890584254943">
        <ele>19.599999999999998</ele>
        <time>2023-07-03T00:20:18Z</time>
      </trkpt>
      <trkpt lat="39.924002677655814" lon="116.48888876220748">
        <ele>17.9</ele>
        <time>2023-07-03T00:20:24Z</time>
      </trkpt>
      <trkpt lat="39.924252888228445" lon="116.48896301249573">
        <ele>15.8</ele>
        <time>2023-07-03T00:20:42Z</time>
      </trkpt>
      <trkpt lat="39.924370146096905" lon="116.48905133261849">
        <ele>14.399999999999999</ele>
        <time>2023-07-03T00:20:51Z</time>
      </trkpt>
      <trkpt lat="39.92462507590048" lon="116.48903122479156">
        <ele>13.7</ele>
        <time>2023-07-03T00:21:00Z</time>
      </trkpt>
      <trkpt lat="39.92500477670635" lon="116.48893581615336">
        <ele>10.8</ele>
        <time>2023-07-03T00:21:09Z</time>
      </trkpt>
      <trkpt lat="39.92520274469398" lon="116.48892776106801">
        <ele>9.5</ele>
        <time>2023-07-03T00:21:15Z</time>
      </trkpt>
      <trkpt lat="39.925298812386124" lon="116.48895184038675">
        <ele>9.5</ele>
        <time>2023-07-03T00:21:18Z</time>
      </trkpt>
      <trkpt lat="39.92556563428237" lon="116.48889559415873">
        <ele>16.7</ele>
        <time>2023-07-03T00:21:27Z</time>
      </trkpt>
      <trkpt lat="39.925870433750646" lon="116.48883231658805">
        <ele>27.2</ele>
        <time>2023-07-03T00:21:42Z</time>
      </trkpt>
      <trkpt lat="39.9261742034461" lon="116.48875900112955">
        <ele>24.7</ele>
        <time>2023-07-03T00:21:57Z</time>
      </trkpt>
      <trkpt lat="39.92622407308928" lon="116.4887158313976">
        <ele>23.9</ele>
        <time>2023-07-03T00:22:00Z</time>
      </trkpt>
      <trkpt lat="39.926304559602656" lon="116.48854417116839">
        <ele>24.4</ele>
        <time>2023-07-03T00:22:06Z</time>
      </trkpt>
      <trkpt lat="39.92642248410837" lon="116.48818379183395">
        <ele>28.599999999999998</ele>
        <time>2023-07-03T00:22:21Z</time>
      </trkpt>
      <trkpt lat="39.9266954550453" lon="116.48817773501872">
        <ele>29.599999999999998</ele>
        <time>2023-07-03T00:22:36Z</time>
      </trkpt>
      <trkpt lat="39.92684949346564" lon="116.48819277283208">
        <ele>28.499999999999996</ele>
        <time>2023-07-03T00:22:45Z</time>
      </trkpt>
      <trkpt lat="39.92717093179915" lon="116.48800803356278">
        <ele>28.7</ele>
        <time>2023-07-03T00:22:57Z</time>
      </trkpt>
      <trkpt lat="39.927393091315814" lon="116.48772794595922">
        <ele>29.099999999999998</ele>
        <time>2023-07-03T00:23:12Z</time>
      </trkpt>
      <trkpt lat="39.927605418405626" lon="116.48750407260087">
        <ele>27.7</ele>
        <time>2023-07-03T00:23:24Z</time>
      </trkpt>
      <trkpt lat="39.92771899391698" lon="116.48736252309766">
        <ele>28.099999999999998</ele>
        <time>2023-07-03T00:23:30Z</time>
      </trkpt>
      <trkpt lat="39.927734775945474" lon="116.48728924400746">
        <ele>27.7</ele>
        <time>2023-07-03T00:23:33Z</time>
      </trkpt>
      <trkpt lat="39.927716987994884" lon="116.48702324048178">
        <ele>28.499999999999996</ele>
        <time>2023-07-03T00:23:42Z</time>
      </trkpt>
      <trkpt lat="39.92767747792798" lon="116.48685059284112">
        <ele>28.599999999999998</ele>
        <time>2023-07-03T00:23:48Z</time>
      </trkpt>
      <trkpt lat="39.92770402183427" lon="116.48669700919997">
        <ele>28.499999999999996</ele>
        <time>2023-07-03T00:23:54Z</time>
      </trkpt>
      <trkpt lat="39.9277843199615" lon="116.48646110811016">
        <ele>27.3</ele>
        <time>2023-07-03T00:24:03Z</time>
      </trkpt>
      <trkpt lat="39.92780478723524" lon="116.48628142705913">
        <ele>24.599999999999998</ele>
        <time>2023-07-03T00:24:09Z</time>
      </trkpt>
      <trkpt lat="39.92782955451449" lon="116.48620312837751">
        <ele>22.7</ele>
        <time>2023-07-03T00:24:12Z</time>
      </trkpt>
      <trkpt lat="39.927995677692515" lon="116.48590899765678">
        <ele>17.099999999999998</ele>
        <time>2023-07-03T00:24:24Z</time>
      </trkpt>
      <trkpt lat="39.92803772344936" lon="116.48558677702545">
        <ele>11.899999999999999</ele>
        <time>2023-07-03T00:24:36Z</time>
      </trkpt>
      <trkpt lat="39.927987607709426" lon="116.48520835683152">
        <ele>8.2</ele>
        <time>2023-07-03T00:24:51Z</time>
      </trkpt>
      <trkpt lat="39.927954791375555" lon="116.48493131732768">
        <ele>8.5</ele>
        <time>2023-07-03T00:25:00Z</time>
      </trkpt>
      <trkpt lat="39.92798925701131" lon="116.48475063274802">
        <ele>9.7</ele>
        <time>2023-07-03T00:25:09Z</time>
      </trkpt>
      <trkpt lat="39.92812407391486" lon="116.4846903892226">
        <ele>13.099999999999998</ele>
        <time>2023-07-03T00:25:18Z</time>
      </trkpt>
      <trkpt lat="39.9281919202119" lon="116.48463918808297">
        <ele>13.599999999999998</ele>
        <time>2023-07-03T00:25:24Z</time>
      </trkpt>
      <trkpt lat="39.92828438388677" lon="116.48445849669655">
        <ele>15.899999999999999</ele>
        <time>2023-07-03T00:25:30Z</time>
      </trkpt>
      <trkpt lat="39.928289141168534" lon="116.48437618648627">
        <ele>16.099999999999998</ele>
        <time>2023-07-03T00:25:33Z</time>
      </trkpt>
      <trkpt lat="39.92831882948706" lon="116.4842707864053">
        <ele>17.7</ele>
        <time>2023-07-03T00:25:42Z</time>
      </trkpt>
      <trkpt lat="39.92840264869848" lon="116.4842105494856">
        <ele>18.0</ele>
        <time>2023-07-03T00:25:45Z</time>
      </trkpt>
      <trkpt lat="39.92852404090453" lon="116.48400576461559">
        <ele>18.4</ele>
        <time>2023-07-03T00:25:51Z</time>
      </trkpt>
      <trkpt lat="39.928516801928275" lon="116.4839244600001">
        <ele>18.7</ele>
        <time>2023-07-03T00:25:54Z</time>
      </trkpt>
      <trkpt lat="39.928537414234775" lon="116.48379296344234">
        <ele>19.099999999999998</ele>
        <time>2023-07-03T00:25:57Z</time>
      </trkpt>
      <trkpt lat="39.92852698958249" lon="116.48364842192153">
        <ele>19.2</ele>
        <time>2023-07-03T00:26:00Z</time>
      </trkpt>
      <trkpt lat="39.92856958359819" lon="116.48351090034912">
        <ele>19.599999999999998</ele>
        <time>2023-07-03T00:26:06Z</time>
      </trkpt>
      <trkpt lat="39.92860747880524" lon="116.4834757637562">
        <ele>19.7</ele>
        <time>2023-07-03T00:26:09Z</time>
      </trkpt>
      <trkpt lat="39.92863694088081" lon="116.4832930745895">
        <ele>22.0</ele>
        <time>2023-07-03T00:26:12Z</time>
      </trkpt>
      <trkpt lat="39.92868673544564" lon="116.48322380857283">
        <ele>24.2</ele>
        <time>2023-07-03T00:26:15Z</time>
      </trkpt>
      <trkpt lat="39.928847610997515" lon="116.48318363789599">
        <ele>24.5</ele>
        <time>2023-07-03T00:26:24Z</time>
      </trkpt>
      <trkpt lat="39.92917453874992" lon="116.48316352178036">
        <ele>27.400000000000002</ele>
        <time>2023-07-03T00:26:39Z</time>
      </trkpt>
      <trkpt lat="39.92928454606388" lon="116.48316752309927">
        <ele>27.900000000000002</ele>
        <time>2023-07-03T00:26:45Z</time>
      </trkpt>
      <trkpt lat="39.92937561898864" lon="116.48319360960171">
        <ele>26.900000000000002</ele>
        <time>2023-07-03T00:26:51Z</time>
      </trkpt>
      <trkpt lat="39.92953011178667" lon="116.48302295046877">
        <ele>26.8</ele>
        <time>2023-07-03T00:27:00Z</time>
      </trkpt>
      <trkpt lat="39.92956683931594" lon="116.48293059973673">
        <ele>25.7</ele>
        <time>2023-07-03T00:27:03Z</time>
      </trkpt>
      <trkpt lat="39.92956242434239" lon="116.48278906995088">
        <ele>24.099999999999998</ele>
        <time>2023-07-03T00:27:09Z</time>
      </trkpt>
      <trkpt lat="39.92953716047389" lon="116.4826987347006">
        <ele>22.4</ele>
        <time>2023-07-03T00:27:15Z</time>
      </trkpt>
      <trkpt lat="39.929391804481426" lon="116.48257529050679">
        <ele>16.2</ele>
        <time>2023-07-03T00:27:24Z</time>
      </trkpt>
      <trkpt lat="39.92930722858693" lon="116.48237756089344">
        <ele>8.8</ele>
        <time>2023-07-03T00:27:33Z</time>
      </trkpt>
      <trkpt lat="39.92929705262752" lon="116.48231733681226">
        <ele>7.1000000000000005</ele>
        <time>2023-07-03T00:27:36Z</time>
      </trkpt>
      <trkpt lat="39.9293098728289" lon="116.4822561061422">
        <ele>6.1000000000000005</ele>
        <time>2023-07-03T00:27:39Z</time>
      </trkpt>
      <trkpt lat="39.92929052691931" lon="116.48213766555851">
        <ele>4.1000000000000005</ele>
        <time>2023-07-03T00:27:45Z</time>
      </trkpt>
      <trkpt lat="39.92925933139545" lon="116.48207041799006">
        <ele>2.0</ele>
        <time>2023-07-03T00:27:48Z</time>
      </trkpt>
      <trkpt lat="39.92913498703503" lon="116.48195098701605">
        <ele>-0.09999999999999964</ele>
        <time>2023-07-03T00:27:54Z</time>
      </trkpt>
      <trkpt lat="39.928958920809556" lon="116.48192591523113">
        <ele>-0.39999999999999947</ele>
        <time>2023-07-03T00:28:00Z</time>
      </trkpt>
      <trkpt lat="39.92876996666269" lon="116.48193898760772">
        <ele>1.2000000000000002</ele>
        <time>2023-07-03T00:28:06Z</time>
      </trkpt>
      <trkpt lat="39.92857420364016" lon="116.48201730470778">
        <ele>5.3999999999999995</ele>
        <time>2023-07-03T00:28:15Z</time>
      </trkpt>
      <trkpt lat="39.92849715099002" lon="116.48199824304471">
        <ele>9.0</ele>
        <time>2023-07-03T00:28:18Z</time>
      </trkpt>
      <trkpt lat="39.92827416007677" lon="116.48199827090592">
        <ele>18.7</ele>
        <time>2023-07-03T00:28:27Z</time>
      </trkpt>
      <trkpt lat="39.92804469516344" lon="116.4821779713594">
        <ele>28.2</ele>
        <time>2023-07-03T00:28:39Z</time>
      </trkpt>
      <trkpt lat="39.92794508711634" lon="116.48231047942191">
        <ele>31.2</ele>
        <time>2023-07-03T00:28:45Z</time>
      </trkpt>
      <trkpt lat="39.927830271185435" lon="116.48271300053807">
        <ele>32.2</ele>
        <time>2023-07-03T00:29:00Z</time>
      </trkpt>
      <trkpt lat="39.927690441714184" lon="116.48276922855943">
        <ele>31.099999999999998</ele>
        <time>2023-07-03T00:29:06Z</time>
      </trkpt>
      <trkpt lat="39.92737247530199" lon="116.48277629459436">
        <ele>24.5</ele>
        <time>2023-07-03T00:29:21Z</time>
      </trkpt>
      <trkpt lat="39.9273086103814" lon="116.4828214717938">
        <ele>21.9</ele>
        <time>2023-07-03T00:29:24Z</time>
      </trkpt>
      <trkpt lat="39.927259789032426" lon="116.48288170355411">
        <ele>20.5</ele>
        <time>2023-07-03T00:29:27Z</time>
      </trkpt>
      <trkpt lat="39.92721945638105" lon="116.48310855891609">
        <ele>20.599999999999998</ele>
        <time>2023-07-03T00:29:36Z</time>
      </trkpt>
      <trkpt lat="39.92739961657014" lon="116.4835060275939">
        <ele>16.8</ele>
        <time>2023-07-03T00:29:48Z</time>
      </trkpt>
      <trkpt lat="39.92710223989109" lon="116.48439339880929">
        <ele>15.3</ele>
        <time>2023-07-03T00:30:18Z</time>
      </trkpt>
      <trkpt lat="39.9270454108003" lon="116.48445062112164">
        <ele>22.4</ele>
        <time>2023-07-03T00:30:21Z</time>
      </trkpt>
      <trkpt lat="39.926732358531595" lon="116.48442857712169">
        <ele>17.7</ele>
        <time>2023-07-03T00:30:36Z</time>
      </trkpt>
      <trkpt lat="39.926585320183584" lon="116.4844135388364">
        <ele>15.7</ele>
        <time>2023-07-03T00:30:42Z</time>
      </trkpt>
      <trkpt lat="39.926355444945976" lon="116.48445271478349">
        <ele>13.899999999999999</ele>
        <time>2023-07-03T00:30:54Z</time>
      </trkpt>
      <trkpt lat="39.92607749478496" lon="116.48446579856036">
        <ele>11.599999999999998</ele>
        <time>2023-07-03T00:31:06Z</time>
      </trkpt>
      <trkpt lat="39.925954375601876" lon="116.48442365533693">
        <ele>9.5</ele>
        <time>2023-07-03T00:31:12Z</time>
      </trkpt>
      <trkpt lat="39.92587523097292" lon="116.4843734764383">
        <ele>9.100000000000001</ele>
        <time>2023-07-03T00:31:15Z</time>
      </trkpt>
      <trkpt lat="39.92555530028402" lon="116.48439258809819">
        <ele>10.100000000000001</ele>
        <time>2023-07-03T00:31:27Z</time>
      </trkpt>
      <trkpt lat="39.925247301096526" lon="116.48438861143453">
        <ele>15.7</ele>
        <time>2023-07-03T00:31:39Z</time>
      </trkpt>
      <trkpt lat="39.9251072979742" lon="116.48438561758051">
        <ele>17.8</ele>
        <time>2023-07-03T00:31:45Z</time>
      </trkpt>
      <trkpt lat="39.92501235510846" lon="116.48440369738702">
        <ele>19.8</ele>
        <time>2023-07-03T00:31:48Z</time>
      </trkpt>
      <trkpt lat="39.92481391645547" lon="116.48459142831999">
        <ele>22.099999999999998</ele>
        <time>2023-07-03T00:32:00Z</time>
      </trkpt>
      <trkpt lat="39.924654819919745" lon="116.48489559301153">
        <ele>20.8</ele>
        <time>2023-07-03T00:32:15Z</time>
      </trkpt>
      <trkpt lat="39.92459742061412" lon="116.48509836381277">
        <ele>23.599999999999998</ele>
        <time>2023-07-03T00:32:21Z</time>
      </trkpt>
      <trkpt lat="39.92465708200972" lon="116.48532320355393">
        <ele>26.7</ele>
        <time>2023-07-03T00:32:27Z</time>
      </trkpt>
      <trkpt lat="39.92480069879023" lon="116.48553398022347">
        <ele>26.900000000000002</ele>
        <time>2023-07-03T00:32:36Z</time>
      </trkpt>
      <trkpt lat="39.9249472386122" lon="116.48571865842308">
        <ele>26.8</ele>
        <time>2023-07-03T00:32:45Z</time>
      </trkpt>
      <trkpt lat="39.92501488580855" lon="116.48593847926483">
        <ele>25.2</ele>
        <time>2023-07-03T00:32:54Z</time>
      </trkpt>
      <trkpt lat="39.92503236610079" lon="116.48610109074026">
        <ele>22.3</ele>
        <time>2023-07-03T00:33:00Z</time>
      </trkpt>
      <trkpt lat="39.924977712879276" lon="116.48621753707305">
        <ele>21.3</ele>
        <time>2023-07-03T00:33:06Z</time>
      </trkpt>
      <trkpt lat="39.92469928883222" lon="116.48640829188152">
        <ele>19.9</ele>
        <time>2023-07-03T00:33:21Z</time>
      </trkpt>
      <trkpt lat="39.924509320419915" lon="116.48641634589266">
        <ele>20.0</ele>
        <time>2023-07-03T00:33:30Z</time>
      </trkpt>
      <trkpt lat="39.92424496582305" lon="116.48629291265988">
        <ele>17.0</ele>
        <time>2023-07-03T00:33:42Z</time>
      </trkpt>
      <trkpt lat="39.92417192723749" lon="116.48627886871074">
        <ele>16.9</ele>
        <time>2023-07-03T00:33:45Z</time>
      </trkpt>
      <trkpt lat="39.92393522519272" lon="116.48637626585524">
        <ele>22.4</ele>
        <time>2023-07-03T00:33:57Z</time>
      </trkpt>
      <trkpt lat="39.92366205087617" lon="116.48665133869937">
        <ele>25.3</ele>
        <time>2023-07-03T00:34:12Z</time>
      </trkpt>
      <trkpt lat="39.92350765795144" lon="116.48685412406431">
        <ele>24.8</ele>
        <time>2023-07-03T00:34:21Z</time>
      </trkpt>
      <trkpt lat="39.92332568007004" lon="116.48719644059315">
        <ele>26.400000000000002</ele>
        <time>2023-07-03T00:34:33Z</time>
      </trkpt>
      <trkpt lat="39.923267852119245" lon="116.48725366413862">
        <ele>27.400000000000002</ele>
        <time>2023-07-03T00:34:36Z</time>
      </trkpt>
      <trkpt lat="39.92306699139267" lon="116.48729785618215">
        <ele>28.400000000000002</ele>
        <time>2023-07-03T00:34:45Z</time>
      </trkpt>
      <trkpt lat="39.922935961082544" lon="116.48728582696339">
        <ele>28.900000000000002</ele>
        <time>2023-07-03T00:34:51Z</time>
      </trkpt>
      <trkpt lat="39.92286003864318" lon="116.48731093132028">
        <ele>28.999999999999996</ele>
        <time>2023-07-03T00:34:54Z</time>
      </trkpt>
      <trkpt lat="39.92278950603845" lon="116.48746753232994">
        <ele>27.400000000000002</ele>
        <time>2023-07-03T00:35:00Z</time>
      </trkpt>
      <trkpt lat="39.92276975403603" lon="116.48755084993566">
        <ele>26.3</ele>
        <time>2023-07-03T00:35:03Z</time>
      </trkpt>
      <trkpt lat="39.92277683223444" lon="116.48791422395334">
        <ele>28.3</ele>
        <time>2023-07-03T00:35:15Z</time>
      </trkpt>
      <trkpt lat="39.92276426195281" lon="116.48805877262097">
        <ele>26.0</ele>
        <time>2023-07-03T00:35:21Z</time>
      </trkpt>
      <trkpt lat="39.9226589311699" lon="116.4882826331815">
        <ele>23.9</ele>
        <time>2023-07-03T00:35:30Z</time>
      </trkpt>
      <trkpt lat="39.922658972161905" lon="116.48863295987691">
        <ele>23.5</ele>
        <time>2023-07-03T00:35:42Z</time>
      </trkpt>
      <trkpt lat="39.92270931023766" lon="116.48874738708106">
        <ele>23.4</ele>
        <time>2023-07-03T00:35:45Z</time>
      </trkpt>
      <trkpt lat="39.92286881100104" lon="116.48891801372068">
        <ele>23.8</ele>
        <time>2023-07-03T00:35:54Z</time>
      </trkpt>
      <trkpt lat="39.923054074981735" lon="116.48900933676431">
        <ele>19.099999999999998</ele>
        <time>2023-07-03T00:36:12Z</time>
      </trkpt>
      <trkpt lat="39.92317502222419" lon="116.4889932608437">
        <ele>16.8</ele>
        <time>2023-07-03T00:36:24Z</time>
      </trkpt>
      <trkpt lat="39.9234791171396" lon="116.4890293599042">
        <ele>16.3</ele>
        <time>2023-07-03T00:36:36Z</time>
      </trkpt>
      <trkpt lat="39.92372220861476" lon="116.48906345895962">
        <ele>14.5</ele>
        <time>2023-07-03T00:36:51Z</time>
      </trkpt>
      <trkpt lat="39.923920200453225" lon="116.48906343430188">
        <ele>11.7</ele>
        <time>2023-07-03T00:37:00Z</time>
      </trkpt>
      <trkpt lat="39.92402012170195" lon="116.4890383267613">
        <ele>10.3</ele>
        <time>2023-07-03T00:37:06Z</time>
      </trkpt>
      <trkpt lat="39.924355209405235" lon="116.48907241436092">
        <ele>9.7</ele>
        <time>2023-07-03T00:37:18Z</time>
      </trkpt>
      <trkpt lat="39.924637120184684" lon="116.48904628034919">
        <ele>8.7</ele>
        <time>2023-07-03T00:37:27Z</time>
      </trkpt>
      <trkpt lat="39.92500493191954" lon="116.4889880139203">
        <ele>12.099999999999998</ele>
        <time>2023-07-03T00:37:36Z</time>
      </trkpt>
      <trkpt lat="39.925314755018185" lon="116.48893276613406">
        <ele>20.7</ele>
        <time>2023-07-03T00:37:45Z</time>
      </trkpt>
      <trkpt lat="39.92561756648871" lon="116.48887350401704">
        <ele>28.2</ele>
        <time>2023-07-03T00:37:54Z</time>
      </trkpt>
      <trkpt lat="39.92594932307883" lon="116.48879616985077">
        <ele>33.300000000000004</ele>
        <time>2023-07-03T00:38:09Z</time>
      </trkpt>
      <trkpt lat="39.92608521306112" lon="116.48876101982066">
        <ele>33.800000000000004</ele>
        <time>2023-07-03T00:38:15Z</time>
      </trkpt>
      <trkpt lat="39.92616206071043" lon="116.48871082010909">
        <ele>30.2</ele>
        <time>2023-07-03T00:38:21Z</time>
      </trkpt>
      <trkpt lat="39.926247561937515" lon="116.48854417826918">
        <ele>29.7</ele>
        <time>2023-07-03T00:38:27Z</time>
      </trkpt>
      <trkpt lat="39.92626237339928" lon="116.48848093690626">
        <ele>28.8</ele>
        <time>2023-07-03T00:38:30Z</time>
      </trkpt>
      <trkpt lat="39.926327066517906" lon="116.48837854109152">
        <ele>26.999999999999996</ele>
        <time>2023-07-03T00:38:33Z</time>
      </trkpt>
      <trkpt lat="39.926380605087445" lon="116.48822394907312">
        <ele>24.3</ele>
        <time>2023-07-03T00:38:39Z</time>
      </trkpt>
      <trkpt lat="39.926677503484164" lon="116.4881937980629">
        <ele>14.599999999999998</ele>
        <time>2023-07-03T00:38:57Z</time>
      </trkpt>
      <trkpt lat="39.92687546258812" lon="116.48818273159146">
        <ele>13.099999999999998</ele>
        <time>2023-07-03T00:39:06Z</time>
      </trkpt>
      <trkpt lat="39.92701026328781" lon="116.48811746777436">
        <ele>13.0</ele>
        <time>2023-07-03T00:39:12Z</time>
      </trkpt>
      <trkpt lat="39.92712790673224" lon="116.4879990047276">
        <ele>12.0</ele>
        <time>2023-07-03T00:39:18Z</time>
      </trkpt>
      <trkpt lat="39.92720753392096" lon="116.48787452368914">
        <ele>12.099999999999998</ele>
        <time>2023-07-03T00:39:24Z</time>
      </trkpt>
      <trkpt lat="39.927436919717586" lon="116.48767072400182">
        <ele>12.5</ele>
        <time>2023-07-03T00:39:36Z</time>
      </trkpt>
      <trkpt lat="39.92764737202245" lon="116.48748901041482">
        <ele>15.099999999999998</ele>
        <time>2023-07-03T00:39:45Z</time>
      </trkpt>
      <trkpt lat="39.92769718238734" lon="116.48742576500067">
        <ele>15.5</ele>
        <time>2023-07-03T00:39:48Z</time>
      </trkpt>
      <trkpt lat="39.92771386313111" lon="116.48731835670075">
        <ele>16.099999999999998</ele>
        <time>2023-07-03T00:39:51Z</time>
      </trkpt>
      <trkpt lat="39.927702580797494" lon="116.48722299749674">
        <ele>16.4</ele>
        <time>2023-07-03T00:39:54Z</time>
      </trkpt>
      <trkpt lat="39.927720336389186" lon="116.48680340921055">
        <ele>14.099999999999998</ele>
        <time>2023-07-03T00:40:09Z</time>
      </trkpt>
      <trkpt lat="39.92778201865063" lon="116.4866969994747">
        <ele>12.5</ele>
        <time>2023-07-03T00:40:15Z</time>
      </trkpt>
      <trkpt lat="39.927809461599566" lon="116.48650928695402">
        <ele>15.099999999999998</ele>
        <time>2023-07-03T00:40:21Z</time>
      </trkpt>
      <trkpt lat="39.92779176697054" lon="116.48627440215368">
        <ele>19.2</ele>
        <time>2023-07-03T00:40:27Z</time>
      </trkpt>
      <trkpt lat="39.927807507888794" lon="116.48618707049766">
        <ele>21.4</ele>
        <time>2023-07-03T00:40:30Z</time>
      </trkpt>
      <trkpt lat="39.927914061040255" lon="116.48603749267976">
        <ele>25.599999999999998</ele>
        <time>2023-07-03T00:40:39Z</time>
      </trkpt>
      <trkpt lat="39.92797749737024" lon="116.4858477689066">
        <ele>28.099999999999998</ele>
        <time>2023-07-03T00:40:45Z</time>
      </trkpt>
      <trkpt lat="39.92800538665838" lon="116.4854723496074">
        <ele>24.5</ele>
        <time>2023-07-03T00:40:57Z</time>
      </trkpt>
      <trkpt lat="39.927947221188674" lon="116.48507686646444">
        <ele>20.599999999999998</ele>
        <time>2023-07-03T00:41:12Z</time>
      </trkpt>
      <trkpt lat="39.92791965066302" lon="116.48488314027938">
        <ele>20.599999999999998</ele>
        <time>2023-07-03T00:41:18Z</time>
      </trkpt>
      <trkpt lat="39.927959311517625" lon="116.48476870450098">
        <ele>20.3</ele>
        <time>2023-07-03T00:41:24Z</time>
      </trkpt>
      <trkpt lat="39.928007108282905" lon="116.484700441601">
        <ele>23.3</ele>
        <time>2023-07-03T00:41:30Z</time>
      </trkpt>
      <trkpt lat="39.928191837356714" lon="116.48461108232155">
        <ele>22.3</ele>
        <time>2023-07-03T00:41:42Z</time>
      </trkpt>
      <trkpt lat="39.92835893724649" lon="116.48430792106325">
        <ele>22.9</ele>
        <time>2023-07-03T00:41:54Z</time>
      </trkpt>
      <trkpt lat="39.92841267784985" lon="116.48422058597438">
        <ele>24.0</ele>
        <time>2023-07-03T00:41:57Z</time>
      </trkpt>
      <trkpt lat="39.92846467573102" lon="116.48422057948376">
        <ele>24.3</ele>
        <time>2023-07-03T00:42:00Z</time>
      </trkpt>
      <trkpt lat="39.92846522943791" lon="116.48406900962428">
        <ele>23.9</ele>
        <time>2023-07-03T00:42:06Z</time>
      </trkpt>
      <trkpt lat="39.92857709674564" lon="116.48368555512211">
        <ele>23.599999999999998</ele>
        <time>2023-07-03T00:42:15Z</time>
      </trkpt>
      <trkpt lat="39.928577170355645" lon="116.48337037202802">
        <ele>27.400000000000002</ele>
        <time>2023-07-03T00:42:30Z</time>
      </trkpt>
      <trkpt lat="39.928622911970265" lon="116.48328303868654">
        <ele>29.499999999999996</ele>
        <time>2023-07-03T00:42:33Z</time>
      </trkpt>
      <trkpt lat="39.92873171003349" lon="116.48321577283787">
        <ele>28.999999999999996</ele>
        <time>2023-07-03T00:42:39Z</time>
      </trkpt>
      <trkpt lat="39.92900263416091" lon="116.48319365618151">
        <ele>26.599999999999998</ele>
        <time>2023-07-03T00:42:54Z</time>
      </trkpt>
      <trkpt lat="39.929076613466606" lon="116.48318762435544">
        <ele>24.8</ele>
        <time>2023-07-03T00:42:57Z</time>
      </trkpt>
      <trkpt lat="39.92921545457058" lon="116.4831354112743">
        <ele>20.099999999999998</ele>
        <time>2023-07-03T00:43:03Z</time>
      </trkpt>
      <trkpt lat="39.92942051401122" lon="116.48315847224008">
        <ele>16.5</ele>
        <time>2023-07-03T00:43:12Z</time>
      </trkpt>
      <trkpt lat="39.92953030622319" lon="116.48308919881829">
        <ele>16.4</ele>
        <time>2023-07-03T00:43:18Z</time>
      </trkpt>
      <trkpt lat="39.929572113025344" lon="116.48302394898593">
        <ele>17.3</ele>
        <time>2023-07-03T00:43:21Z</time>
      </trkpt>
      <trkpt lat="39.929586941579274" lon="116.48296572890148">
        <ele>17.7</ele>
        <time>2023-07-03T00:43:24Z</time>
      </trkpt>
      <trkpt lat="39.92957933534828" lon="116.4827589550272">
        <ele>17.4</ele>
        <time>2023-07-03T00:43:33Z</time>
      </trkpt>
      <trkpt lat="39.92946382508739" lon="116.48258331157687">
        <ele>15.599999999999998</ele>
        <time>2023-07-03T00:43:42Z</time>
      </trkpt>
      <trkpt lat="39.92943455861359" lon="116.48249197326328">
        <ele>14.3</ele>
        <time>2023-07-03T00:43:45Z</time>
      </trkpt>
      <trkpt lat="39.929338315522344" lon="116.48240766970063">
        <ele>10.399999999999999</ele>
        <time>2023-07-03T00:43:51Z</time>
      </trkpt>
      <trkpt lat="39.929258860210204" lon="116.48225109374114">
        <ele>11.099999999999998</ele>
        <time>2023-07-03T00:43:57Z</time>
      </trkpt>
      <trkpt lat="39.92922534746211" lon="116.48207544100055">
        <ele>12.899999999999999</ele>
        <time>2023-07-03T00:44:03Z</time>
      </trkpt>
      <trkpt lat="39.92915787161939" lon="116.48191183785578">
        <ele>15.3</ele>
        <time>2023-07-03T00:44:09Z</time>
      </trkpt>
      <trkpt lat="39.9291066594516" lon="116.4818385704559">
        <ele>15.8</ele>
        <time>2023-07-03T00:44:12Z</time>
      </trkpt>
      <trkpt lat="39.9290325509599" lon="116.4818004372147">
        <ele>16.5</ele>
        <time>2023-07-03T00:44:15Z</time>
      </trkpt>
      <trkpt lat="39.92887548986782" lon="116.48177737059784">
        <ele>20.4</ele>
        <time>2023-07-03T00:44:21Z</time>
      </trkpt>
      <trkpt lat="39.928788546220225" lon="116.48179544895582">
        <ele>22.4</ele>
        <time>2023-07-03T00:44:24Z</time>
      </trkpt>
      <trkpt lat="39.9285550840368" lon="116.48197615326468">
        <ele>27.900000000000002</ele>
        <time>2023-07-03T00:44:36Z</time>
      </trkpt>
      <trkpt lat="39.928249190456704" lon="116.48200831154624">
        <ele>32.300000000000004</ele>
        <time>2023-07-03T00:44:51Z</time>
      </trkpt>
      <trkpt lat="39.92812241293575" lon="116.48208260507218">
        <ele>32.900000000000006</ele>
        <time>2023-07-03T00:44:57Z</time>
      </trkpt>
      <trkpt lat="39.92793909617836" lon="116.48231349143657">
        <ele>34.400000000000006</ele>
        <time>2023-07-03T00:45:09Z</time>
      </trkpt>
      <trkpt lat="39.92781804510118" lon="116.48263571260284">
        <ele>30.7</ele>
        <time>2023-07-03T00:45:21Z</time>
      </trkpt>
      <trkpt lat="39.92773737798672" lon="116.48274814373464">
        <ele>28.7</ele>
        <time>2023-07-03T00:45:27Z</time>
      </trkpt>
      <trkpt lat="39.92768346260389" lon="116.48277625575294">
        <ele>26.999999999999996</ele>
        <time>2023-07-03T00:45:30Z</time>
      </trkpt>
      <trkpt lat="39.92734744688899" lon="116.48276626011801">
        <ele>22.5</ele>
        <time>2023-07-03T00:45:45Z</time>
      </trkpt>
      <trkpt lat="39.92727660285709" lon="116.48281846450915">
        <ele>22.9</ele>
        <time>2023-07-03T00:45:48Z</time>
      </trkpt>
      <trkpt lat="39.92723478710943" lon="116.48288070291527">
        <ele>23.5</ele>
        <time>2023-07-03T00:45:51Z</time>
      </trkpt>
      <trkpt lat="39.92720916513232" lon="116.48300918765037">
        <ele>22.7</ele>
        <time>2023-07-03T00:45:57Z</time>
      </trkpt>
      <trkpt lat="39.927212388900415" lon="116.48308547323767">
        <ele>21.7</ele>
        <time>2023-07-03T00:46:00Z</time>
      </trkpt>
      <trkpt lat="39.927177133115805" lon="116.48333842633329">
        <ele>21.5</ele>
        <time>2023-07-03T00:46:09Z</time>
      </trkpt>
      <trkpt lat="39.927129400479274" lon="116.48342877126292">
        <ele>21.2</ele>
        <time>2023-07-03T00:46:12Z</time>
      </trkpt>
      <trkpt lat="39.92710177330479" lon="116.48355524940064">
        <ele>20.599999999999998</ele>
        <time>2023-07-03T00:46:21Z</time>
      </trkpt>
      <trkpt lat="39.92707429131092" lon="116.48441046648291">
        <ele>11.5</ele>
        <time>2023-07-03T00:46:45Z</time>
      </trkpt>
      <trkpt lat="39.926785362278686" lon="116.48443057805825">
        <ele>20.5</ele>
        <time>2023-07-03T00:47:00Z</time>
      </trkpt>
      <trkpt lat="39.92666228450106" lon="116.48440248769884">
        <ele>20.7</ele>
        <time>2023-07-03T00:47:06Z</time>
      </trkpt>
      <trkpt lat="39.9264743986659" lon="116.48443864707454">
        <ele>14.599999999999998</ele>
        <time>2023-07-03T00:47:15Z</time>
      </trkpt>
      <trkpt lat="39.92625231607233" lon="116.48440755774264">
        <ele>15.2</ele>
        <time>2023-07-03T00:47:24Z</time>
      </trkpt>
      <trkpt lat="39.92611537491926" lon="116.48442564279559">
        <ele>17.5</ele>
        <time>2023-07-03T00:47:30Z</time>
      </trkpt>
      <trkpt lat="39.92587920715201" lon="116.48436544573991">
        <ele>22.0</ele>
        <time>2023-07-03T00:47:42Z</time>
      </trkpt>
      <trkpt lat="39.925590269275496" lon="116.48438254597998">
        <ele>24.5</ele>
        <time>2023-07-03T00:47:54Z</time>
      </trkpt>
      <trkpt lat="39.92527236513186" lon="116.48441069136744">
        <ele>24.099999999999998</ele>
        <time>2023-07-03T00:48:06Z</time>
      </trkpt>
      <trkpt lat="39.92512930594235" lon="116.4843886261601">
        <ele>24.099999999999998</ele>
        <time>2023-07-03T00:48:12Z</time>
      </trkpt>
      <trkpt lat="39.924992376632076" lon="116.48441072630906">
        <ele>24.099999999999998</ele>
        <time>2023-07-03T00:48:18Z</time>
      </trkpt>
      <trkpt lat="39.92478503304883" lon="116.48463057923728">
        <ele>23.2</ele>
        <time>2023-07-03T00:48:33Z</time>
      </trkpt>
      <trkpt lat="39.92476424107207" lon="116.48470084627166">
        <ele>24.5</ele>
        <time>2023-07-03T00:48:36Z</time>
      </trkpt>
      <trkpt lat="39.92458892627972" lon="116.48493073352333">
        <ele>25.2</ele>
        <time>2023-07-03T00:48:51Z</time>
      </trkpt>
      <trkpt lat="39.92464946884205" lon="116.48511542160092">
        <ele>25.099999999999998</ele>
        <time>2023-07-03T00:48:57Z</time>
      </trkpt>
      <trkpt lat="39.924687226035424" lon="116.48537238516676">
        <ele>24.9</ele>
        <time>2023-07-03T00:49:03Z</time>
      </trkpt>
      <trkpt lat="39.92472256854362" lon="116.4854888196731">
        <ele>24.4</ele>
        <time>2023-07-03T00:49:06Z</time>
      </trkpt>
      <trkpt lat="39.924803956716936" lon="116.48562130909865">
        <ele>24.3</ele>
        <time>2023-07-03T00:49:12Z</time>
      </trkpt>
      <trkpt lat="39.92490731443473" lon="116.48574375805177">
        <ele>25.0</ele>
        <time>2023-07-03T00:49:18Z</time>
      </trkpt>
      <trkpt lat="39.925014464841055" lon="116.48613421799853">
        <ele>19.7</ele>
        <time>2023-07-03T00:49:33Z</time>
      </trkpt>
      <trkpt lat="39.92500264650559" lon="116.48619545060015">
        <ele>18.8</ele>
        <time>2023-07-03T00:49:39Z</time>
      </trkpt>
      <trkpt lat="39.9247482363016" lon="116.48639122133966">
        <ele>18.2</ele>
        <time>2023-07-03T00:49:54Z</time>
      </trkpt>
      <trkpt lat="39.924690312975095" lon="116.48641632332543">
        <ele>17.2</ele>
        <time>2023-07-03T00:49:57Z</time>
      </trkpt>
      <trkpt lat="39.92451228166593" lon="116.48640329624608">
        <ele>15.0</ele>
        <time>2023-07-03T00:50:06Z</time>
      </trkpt>
      <trkpt lat="39.92447716424934" lon="116.48636314900905">
        <ele>13.2</ele>
        <time>2023-07-03T00:50:09Z</time>
      </trkpt>
      <trkpt lat="39.92424984084735" lon="116.48625075288665">
        <ele>15.899999999999999</ele>
        <time>2023-07-03T00:50:21Z</time>
      </trkpt>
      <trkpt lat="39.92416387409434" lon="116.48626080150149">
        <ele>16.4</ele>
        <time>2023-07-03T00:50:24Z</time>
      </trkpt>
      <trkpt lat="39.923902366213895" lon="116.48642344810426">
        <ele>19.099999999999998</ele>
        <time>2023-07-03T00:50:36Z</time>
      </trkpt>
      <trkpt lat="39.92366904464141" lon="116.4866493302434">
        <ele>16.099999999999998</ele>
        <time>2023-07-03T00:50:48Z</time>
      </trkpt>
      <trkpt lat="39.92351567844155" lon="116.48686114961755">
        <ele>17.4</ele>
        <time>2023-07-03T00:50:57Z</time>
      </trkpt>
      <trkpt lat="39.92342716998077" lon="116.48702578283326">
        <ele>20.4</ele>
        <time>2023-07-03T00:51:03Z</time>
      </trkpt>
      <trkpt lat="39.923213866254706" lon="116.48725768604935">
        <ele>22.3</ele>
        <time>2023-07-03T00:51:15Z</time>
      </trkpt>
      <trkpt lat="39.92289502826631" lon="116.48730791557202">
        <ele>26.2</ele>
        <time>2023-07-03T00:51:33Z</time>
      </trkpt>
      <trkpt lat="39.9228400930545" lon="116.48732900213234">
        <ele>26.999999999999996</ele>
        <time>2023-07-03T00:51:36Z</time>
      </trkpt>
      <trkpt lat="39.92275684392134" lon="116.48758096546092">
        <ele>25.7</ele>
        <time>2023-07-03T00:51:45Z</time>
      </trkpt>
      <trkpt lat="39.922795500693276" lon="116.48780279997183">
        <ele>27.8</ele>
        <time>2023-07-03T00:51:54Z</time>
      </trkpt>
      <trkpt lat="39.9227691782862" lon="116.48803066561987">
        <ele>27.8</ele>
        <time>2023-07-03T00:52:03Z</time>
      </trkpt>
      <trkpt lat="39.922679658972314" lon="116.48819128475634">
        <ele>27.400000000000002</ele>
        <time>2023-07-03T00:52:09Z</time>
      </trkpt>
      <trkpt lat="39.92266885322974" lon="116.48825653312937">
        <ele>27.099999999999998</ele>
        <time>2023-07-03T00:52:12Z</time>
      </trkpt>
      <trkpt lat="39.92274281355524" lon="116.48858075172639">
        <ele>21.8</ele>
        <time>2023-07-03T00:52:27Z</time>
      </trkpt>
      <trkpt lat="39.922870643782495" lon="116.48886180051353">
        <ele>22.3</ele>
        <time>2023-07-03T00:52:39Z</time>
      </trkpt>
      <trkpt lat="39.922954879081225" lon="116.488942094282">
        <ele>22.8</ele>
        <time>2023-07-03T00:52:45Z</time>
      </trkpt>
      <trkpt lat="39.92310198941901" lon="116.48898122429628">
        <ele>21.599999999999998</ele>
        <time>2023-07-03T00:52:54Z</time>
      </trkpt>
      <trkpt lat="39.9232839013123" lon="116.4889540989462">
        <ele>21.099999999999998</ele>
        <time>2023-07-03T00:53:00Z</time>
      </trkpt>
      <trkpt lat="39.92349277329732" lon="116.48891392079692">
        <ele>23.5</ele>
        <time>2023-07-03T00:53:09Z</time>
      </trkpt>
      <trkpt lat="39.92365385619859" lon="116.48894401483628">
        <ele>24.9</ele>
        <time>2023-07-03T00:53:18Z</time>
      </trkpt>
      <trkpt lat="39.92394283533102" lon="116.48894096743487">
        <ele>26.400000000000002</ele>
        <time>2023-07-03T00:53:30Z</time>
      </trkpt>
      <trkpt lat="39.92425778355453" lon="116.48892787876424">
        <ele>29.099999999999998</ele>
        <time>2023-07-03T00:53:42Z</time>
      </trkpt>
      <trkpt lat="39.92462882201268" lon="116.48894590101389">
        <ele>26.900000000000002</ele>
        <time>2023-07-03T00:54:03Z</time>
      </trkpt>
      <trkpt lat="39.924931755828496" lon="116.48892779482055">
        <ele>26.099999999999998</ele>
        <time>2023-07-03T00:54:18Z</time>
      </trkpt>
      <trkpt lat="39.92506369369504" lon="116.48890870612229">
        <ele>28.8</ele>
        <time>2023-07-03T00:54:24Z</time>
      </trkpt>
      <trkpt lat="39.92512675677" lon="116.48893078194298">
        <ele>30.7</ele>
        <time>2023-07-03T00:54:27Z</time>
      </trkpt>
      <trkpt lat="39.9254126644388" lon="116.48890364363922">
        <ele>35.0</ele>
        <time>2023-07-03T00:54:36Z</time>
      </trkpt>
      <trkpt lat="39.92570550915822" lon="116.48885542460441">
        <ele>39.300000000000004</ele>
        <time>2023-07-03T00:54:45Z</time>
      </trkpt>
      <trkpt lat="39.92584250353934" lon="116.48885540754026">
        <ele>39.1</ele>
        <time>2023-07-03T00:54:51Z</time>
      </trkpt>
      <trkpt lat="39.926150213381526" lon="116.48876201552659">
        <ele>37.6</ele>
        <time>2023-07-03T00:55:09Z</time>
      </trkpt>
      <trkpt lat="39.92623406671198" lon="116.4887138225473">
        <ele>36.0</ele>
        <time>2023-07-03T00:55:12Z</time>
      </trkpt>
      <trkpt lat="39.92635458738563" lon="116.48855420295615">
        <ele>35.400000000000006</ele>
        <time>2023-07-03T00:55:18Z</time>
      </trkpt>
      <trkpt lat="39.92646555688385" lon="116.48820888147945">
        <ele>32.6</ele>
        <time>2023-07-03T00:55:36Z</time>
      </trkpt>
      <trkpt lat="39.92662246697681" lon="116.4881807555145">
        <ele>31.599999999999998</ele>
        <time>2023-07-03T00:55:45Z</time>
      </trkpt>
      <trkpt lat="39.926815623062254" lon="116.48823594047808">
        <ele>28.499999999999996</ele>
        <time>2023-07-03T00:55:57Z</time>
      </trkpt>
      <trkpt lat="39.92688456955275" lon="116.4882188672761">
        <ele>27.400000000000002</ele>
        <time>2023-07-03T00:56:00Z</time>
      </trkpt>
      <trkpt lat="39.927128981204994" lon="116.48802409958556">
        <ele>25.0</ele>
        <time>2023-07-03T00:56:12Z</time>
      </trkpt>
      <trkpt lat="39.92724957988293" lon="116.48789057923426">
        <ele>28.2</ele>
        <time>2023-07-03T00:56:18Z</time>
      </trkpt>
      <trkpt lat="39.92755401026386" lon="116.48770283094755">
        <ele>34.1</ele>
        <time>2023-07-03T00:56:33Z</time>
      </trkpt>
      <trkpt lat="39.92764962805587" lon="116.487575336702">
        <ele>34.7</ele>
        <time>2023-07-03T00:56:39Z</time>
      </trkpt>
      <trkpt lat="39.92772492222167" lon="116.48733843124656">
        <ele>32.5</ele>
        <time>2023-07-03T00:56:48Z</time>
      </trkpt>
      <trkpt lat="39.92770273569006" lon="116.48693791974745">
        <ele>32.1</ele>
        <time>2023-07-03T00:57:00Z</time>
      </trkpt>
      <trkpt lat="39.92767220452562" lon="116.48675824452407">
        <ele>31.400000000000002</ele>
        <time>2023-07-03T00:57:06Z</time>
      </trkpt>
      <trkpt lat="39.92767798424269" lon="116.48668396314393">
        <ele>32.1</ele>
        <time>2023-07-03T00:57:09Z</time>
      </trkpt>
      <trkpt lat="39.927772793061486" lon="116.48662071240885">
        <ele>31.8</ele>
        <time>2023-07-03T00:57:15Z</time>
      </trkpt>
      <trkpt lat="39.927810318900434" lon="116.48646110486807">
        <ele>31.400000000000002</ele>
        <time>2023-07-03T00:57:21Z</time>
      </trkpt>
      <trkpt lat="39.92780265363871" lon="116.48623625678599">
        <ele>32.6</ele>
        <time>2023-07-03T00:57:27Z</time>
      </trkpt>
      <trkpt lat="39.927847274603295" lon="116.48610876999433">
        <ele>32.400000000000006</ele>
        <time>2023-07-03T00:57:33Z</time>
      </trkpt>
      <trkpt lat="39.92796874409909" lon="116.48593108434056">
        <ele>32.6</ele>
        <time>2023-07-03T00:57:42Z</time>
      </trkpt>
      <trkpt lat="39.92798737825034" lon="116.48580761620126">
        <ele>32.7</ele>
        <time>2023-07-03T00:57:45Z</time>
      </trkpt>
      <trkpt lat="39.92796768477915" lon="116.48557273277223">
        <ele>33.400000000000006</ele>
        <time>2023-07-03T00:57:51Z</time>
      </trkpt>
      <trkpt lat="39.92788562076098" lon="116.48521138090308">
        <ele>31.3</ele>
        <time>2023-07-03T00:58:03Z</time>
      </trkpt>
      <trkpt lat="39.927858884138615" lon="116.48496144270048">
        <ele>28.900000000000002</ele>
        <time>2023-07-03T00:58:12Z</time>
      </trkpt>
      <trkpt lat="39.92782940563124" lon="116.48479883407786">
        <ele>28.999999999999996</ele>
        <time>2023-07-03T00:58:18Z</time>
      </trkpt>
      <trkpt lat="39.928046952757875" lon="116.4846482401744">
        <ele>29.599999999999998</ele>
        <time>2023-07-03T00:58:33Z</time>
      </trkpt>
      <trkpt lat="39.92817378778862" lon="116.48459402035883">
        <ele>32.400000000000006</ele>
        <time>2023-07-03T00:58:39Z</time>
      </trkpt>
      <trkpt lat="39.928275443411536" lon="116.48447857333737">
        <ele>33.6</ele>
        <time>2023-07-03T00:58:45Z</time>
      </trkpt>
      <trkpt lat="39.928349798660726" lon="116.48426074479464">
        <ele>33.1</ele>
        <time>2023-07-03T00:58:57Z</time>
      </trkpt>
      <trkpt lat="39.92830865252938" lon="116.48421056121866">
        <ele>33.0</ele>
        <time>2023-07-03T00:59:00Z</time>
      </trkpt>
      <trkpt lat="39.92831933880695" lon="116.48410415988846">
        <ele>33.300000000000004</ele>
        <time>2023-07-03T00:59:06Z</time>
      </trkpt>
      <trkpt lat="39.928460653282784" lon="116.48319272010029">
        <ele>49.800000000000004</ele>
        <time>2023-07-03T00:59:24Z</time>
      </trkpt>
      <trkpt lat="39.92851970687808" lon="116.48321178425374">
        <ele>54.5</ele>
        <time>2023-07-03T00:59:27Z</time>
      </trkpt>
      <trkpt lat="39.928564876009034" lon="116.48326999698408">
        <ele>50.2</ele>
        <time>2023-07-03T00:59:30Z</time>
      </trkpt>
      <trkpt lat="39.92862289723024" lon="116.48327801986133">
        <ele>45.300000000000004</ele>
        <time>2023-07-03T00:59:33Z</time>
      </trkpt>
      <trkpt lat="39.928781681471165" lon="116.48320673271476">
        <ele>37.300000000000004</ele>
        <time>2023-07-03T00:59:42Z</time>
      </trkpt>
      <trkpt lat="39.92912258507083" lon="116.483178584734">
        <ele>33.400000000000006</ele>
        <time>2023-07-03T00:59:57Z</time>
      </trkpt>
      <trkpt lat="39.92936748669729" lon="116.4831484412205">
        <ele>27.7</ele>
        <time>2023-07-03T01:00:09Z</time>
      </trkpt>
      <trkpt lat="39.929479555817565" lon="116.48317352133147">
        <ele>24.3</ele>
        <time>2023-07-03T01:00:15Z</time>
      </trkpt>
      <trkpt lat="39.92958537175522" lon="116.48311227850591">
        <ele>23.3</ele>
        <time>2023-07-03T01:00:21Z</time>
      </trkpt>
      <trkpt lat="39.92961658111455" lon="116.48284326627025">
        <ele>21.9</ele>
        <time>2023-07-03T01:00:33Z</time>
      </trkpt>
      <trkpt lat="39.92958014106996" lon="116.48269270677439">
        <ele>20.2</ele>
        <time>2023-07-03T01:00:39Z</time>
      </trkpt>
      <trkpt lat="39.9294207268242" lon="116.48254918918157">
        <ele>17.099999999999998</ele>
        <time>2023-07-03T01:00:48Z</time>
      </trkpt>
      <trkpt lat="39.92932437783391" lon="116.48242875033112">
        <ele>14.099999999999998</ele>
        <time>2023-07-03T01:00:54Z</time>
      </trkpt>
      <trkpt lat="39.929263810053605" lon="116.48223402929217">
        <ele>13.0</ele>
        <time>2023-07-03T01:01:03Z</time>
      </trkpt>
      <trkpt lat="39.92928941828248" lon="116.48210052682154">
        <ele>12.399999999999999</ele>
        <time>2023-07-03T01:01:09Z</time>
      </trkpt>
      <trkpt lat="39.929282221806936" lon="116.482033276282">
        <ele>12.0</ele>
        <time>2023-07-03T01:01:12Z</time>
      </trkpt>
      <trkpt lat="39.929204852096696" lon="116.48190580947914">
        <ele>12.0</ele>
        <time>2023-07-03T01:01:18Z</time>
      </trkpt>
      <trkpt lat="39.929074646081254" lon="116.48183355570501">
        <ele>12.899999999999999</ele>
        <time>2023-07-03T01:01:24Z</time>
      </trkpt>
      <trkpt lat="39.928906682262145" lon="116.48184361419545">
        <ele>16.9</ele>
        <time>2023-07-03T01:01:30Z</time>
      </trkpt>
      <trkpt lat="39.928639030707984" lon="116.48195907899738">
        <ele>21.2</ele>
        <time>2023-07-03T01:01:42Z</time>
      </trkpt>
      <trkpt lat="39.928440144504115" lon="116.48199523891134">
        <ele>25.599999999999998</ele>
        <time>2023-07-03T01:01:51Z</time>
      </trkpt>
      <trkpt lat="39.928262140013786" lon="116.481991246144">
        <ele>28.2</ele>
        <time>2023-07-03T01:02:00Z</time>
      </trkpt>
      <trkpt lat="39.92806665313803" lon="116.48216391606165">
        <ele>30.099999999999998</ele>
        <time>2023-07-03T01:02:12Z</time>
      </trkpt>
      <trkpt lat="39.92790734146288" lon="116.48239680714157">
        <ele>30.3</ele>
        <time>2023-07-03T01:02:24Z</time>
      </trkpt>
      <trkpt lat="39.92782194785186" lon="116.48260258807909">
        <ele>24.9</ele>
        <time>2023-07-03T01:02:33Z</time>
      </trkpt>
      <trkpt lat="39.92777909671057" lon="116.48265278136962">
        <ele>23.8</ele>
        <time>2023-07-03T01:02:36Z</time>
      </trkpt>
      <trkpt lat="39.927462330350856" lon="116.48272810288996">
        <ele>22.9</ele>
        <time>2023-07-03T01:02:51Z</time>
      </trkpt>
      <trkpt lat="39.927347423342326" lon="116.48275823003988">
        <ele>25.5</ele>
        <time>2023-07-03T01:02:57Z</time>
      </trkpt>
      <trkpt lat="39.927287540588885" lon="116.48279738417045">
        <ele>26.7</ele>
        <time>2023-07-03T01:03:00Z</time>
      </trkpt>
      <trkpt lat="39.92724470131654" lon="116.48285159260239">
        <ele>26.3</ele>
        <time>2023-07-03T01:03:03Z</time>
      </trkpt>
      <trkpt lat="39.92717878811825" lon="116.48322098558408">
        <ele>21.2</ele>
        <time>2023-07-03T01:03:18Z</time>
      </trkpt>
      <trkpt lat="39.92713233842323" lon="116.48340769179617">
        <ele>21.3</ele>
        <time>2023-07-03T01:03:27Z</time>
      </trkpt>
      <trkpt lat="39.92715463542964" lon="116.48350906948401">
        <ele>21.8</ele>
        <time>2023-07-03T01:03:33Z</time>
      </trkpt>
      <trkpt lat="39.92711918574938" lon="116.48369577483513">
        <ele>21.7</ele>
        <time>2023-07-03T01:03:39Z</time>
      </trkpt>
      <trkpt lat="39.92714945020105" lon="116.48378611033087">
        <ele>8.3</ele>
        <time>2023-07-03T01:03:48Z</time>
      </trkpt>
      <trkpt lat="39.92718741751014" lon="116.48411534268693">
        <ele>18.3</ele>
        <time>2023-07-03T01:04:00Z</time>
      </trkpt>
      <trkpt lat="39.927128943096854" lon="116.48429301796558">
        <ele>26.099999999999998</ele>
        <time>2023-07-03T01:04:03Z</time>
      </trkpt>
      <trkpt lat="39.926989158751944" lon="116.48436430343584">
        <ele>21.8</ele>
        <time>2023-07-03T01:04:09Z</time>
      </trkpt>
      <trkpt lat="39.9267101612914" lon="116.48436132693132">
        <ele>21.2</ele>
        <time>2023-07-03T01:04:21Z</time>
      </trkpt>
      <trkpt lat="39.926410288900534" lon="116.48440051159794">
        <ele>20.099999999999998</ele>
        <time>2023-07-03T01:04:33Z</time>
      </trkpt>
      <trkpt lat="39.92608935528183" lon="116.48441861961274">
        <ele>20.5</ele>
        <time>2023-07-03T01:04:48Z</time>
      </trkpt>
      <trkpt lat="39.925892404761534" lon="116.48443269705285">
        <ele>18.9</ele>
        <time>2023-07-03T01:04:57Z</time>
      </trkpt>
      <trkpt lat="39.92562028283099" lon="116.4843875611112">
        <ele>15.8</ele>
        <time>2023-07-03T01:05:09Z</time>
      </trkpt>
      <trkpt lat="39.92548728237328" lon="116.48438557015889">
        <ele>15.0</ele>
        <time>2023-07-03T01:05:15Z</time>
      </trkpt>
      <trkpt lat="39.925427376513966" lon="116.4844166946761">
        <ele>15.2</ele>
        <time>2023-07-03T01:05:18Z</time>
      </trkpt>
      <trkpt lat="39.92515340846587" lon="116.48442375529619">
        <ele>17.599999999999998</ele>
        <time>2023-07-03T01:05:30Z</time>
      </trkpt>
      <trkpt lat="39.92495739285749" lon="116.48441574955285">
        <ele>22.0</ele>
        <time>2023-07-03T01:05:39Z</time>
      </trkpt>
      <trkpt lat="39.92491243315461" lon="116.48442880424732">
        <ele>22.4</ele>
        <time>2023-07-03T01:05:42Z</time>
      </trkpt>
      <trkpt lat="39.924725145009674" lon="116.48466772648048">
        <ele>23.099999999999998</ele>
        <time>2023-07-03T01:05:57Z</time>
      </trkpt>
      <trkpt lat="39.92458708332852" lon="116.48498393409747">
        <ele>19.7</ele>
        <time>2023-07-03T01:06:12Z</time>
      </trkpt>
      <trkpt lat="39.924552585423264" lon="116.48515357738383">
        <ele>19.0</ele>
        <time>2023-07-03T01:06:18Z</time>
      </trkpt>
      <trkpt lat="39.92455679861923" lon="116.48522584915548">
        <ele>18.4</ele>
        <time>2023-07-03T01:06:21Z</time>
      </trkpt>
      <trkpt lat="39.9246804813096" lon="116.48545871140078">
        <ele>14.599999999999998</ele>
        <time>2023-07-03T01:06:33Z</time>
      </trkpt>
      <trkpt lat="39.92479683835445" lon="116.4855811585858">
        <ele>12.099999999999998</ele>
        <time>2023-07-03T01:06:39Z</time>
      </trkpt>
      <trkpt lat="39.92491202956991" lon="116.48598567010929">
        <ele>9.5</ele>
        <time>2023-07-03T01:06:51Z</time>
      </trkpt>
      <trkpt lat="39.92492555462595" lon="116.48616333896312">
        <ele>8.8</ele>
        <time>2023-07-03T01:06:57Z</time>
      </trkpt>
      <trkpt lat="39.924914792699866" lon="116.48624364344391">
        <ele>8.2</ele>
        <time>2023-07-03T01:07:00Z</time>
      </trkpt>
      <trkpt lat="39.924891948121385" lon="116.48629584335555">
        <ele>7.2</ele>
        <time>2023-07-03T01:07:06Z</time>
      </trkpt>
      <trkpt lat="39.9248299061076" lon="116.48628079424492">
        <ele>7.8999999999999995</ele>
        <time>2023-07-03T01:07:12Z</time>
      </trkpt>
      <trkpt lat="39.92467511450738" lon="116.48634907126369">
        <ele>7.8999999999999995</ele>
        <time>2023-07-03T01:07:21Z</time>
      </trkpt>
      <trkpt lat="39.924539155756015" lon="116.4863611336989">
        <ele>9.7</ele>
        <time>2023-07-03T01:07:27Z</time>
      </trkpt>
      <trkpt lat="39.92430495741141" lon="116.4862908975999">
        <ele>10.2</ele>
        <time>2023-07-03T01:07:39Z</time>
      </trkpt>
      <trkpt lat="39.92412299461346" lon="116.486300958187">
        <ele>8.8</ele>
        <time>2023-07-03T01:07:48Z</time>
      </trkpt>
      <trkpt lat="39.92391019650943" lon="116.48636623107309">
        <ele>11.2</ele>
        <time>2023-07-03T01:08:00Z</time>
      </trkpt>
      <trkpt lat="39.92375459520625" lon="116.48649875084261">
        <ele>10.399999999999999</ele>
        <time>2023-07-03T01:08:09Z</time>
      </trkpt>
      <trkpt lat="39.92367497006951" lon="116.48662423470574">
        <ele>9.899999999999999</ele>
        <time>2023-07-03T01:08:15Z</time>
      </trkpt>
      <trkpt lat="39.923442815303495" lon="116.4869063294054">
        <ele>9.100000000000001</ele>
        <time>2023-07-03T01:08:30Z</time>
      </trkpt>
      <trkpt lat="39.923344250764906" lon="116.48705189182195">
        <ele>9.7</ele>
        <time>2023-07-03T01:08:36Z</time>
      </trkpt>
      <trkpt lat="39.92323051435427" lon="116.48713923613477">
        <ele>9.600000000000001</ele>
        <time>2023-07-03T01:08:42Z</time>
      </trkpt>
      <trkpt lat="39.92292684834201" lon="116.48724768386569">
        <ele>13.3</ele>
        <time>2023-07-03T01:08:54Z</time>
      </trkpt>
      <trkpt lat="39.92280701999539" lon="116.48730391135705">
        <ele>14.5</ele>
        <time>2023-07-03T01:09:00Z</time>
      </trkpt>
      <trkpt lat="39.922750614852575" lon="116.4875036738611">
        <ele>13.8</ele>
        <time>2023-07-03T01:09:06Z</time>
      </trkpt>
      <trkpt lat="39.92277009656246" lon="116.4876662865983">
        <ele>14.0</ele>
        <time>2023-07-03T01:09:12Z</time>
      </trkpt>
      <trkpt lat="39.922710383420224" lon="116.48809893132353">
        <ele>14.3</ele>
        <time>2023-07-03T01:09:27Z</time>
      </trkpt>
      <trkpt lat="39.92270683376835" lon="116.4882505055946">
        <ele>17.5</ele>
        <time>2023-07-03T01:09:33Z</time>
      </trkpt>
      <trkpt lat="39.92271903603918" lon="116.48831876252126">
        <ele>19.0</ele>
        <time>2023-07-03T01:09:36Z</time>
      </trkpt>
      <trkpt lat="39.9226902012567" lon="116.48837397516607">
        <ele>20.0</ele>
        <time>2023-07-03T01:09:39Z</time>
      </trkpt>
      <trkpt lat="39.922667646619324" lon="116.48852354438438">
        <ele>21.2</ele>
        <time>2023-07-03T01:09:45Z</time>
      </trkpt>
      <trkpt lat="39.922687179857185" lon="116.48870322252546">
        <ele>20.599999999999998</ele>
        <time>2023-07-03T01:09:51Z</time>
      </trkpt>
      <trkpt lat="39.92271742926881" lon="116.48878753817831">
        <ele>20.3</ele>
        <time>2023-07-03T01:09:54Z</time>
      </trkpt>
      <trkpt lat="39.92276460638164" lon="116.48884776047716">
        <ele>21.8</ele>
        <time>2023-07-03T01:09:57Z</time>
      </trkpt>
      <trkpt lat="39.92309264058012" lon="116.48886378047105">
        <ele>30.999999999999996</ele>
        <time>2023-07-03T01:10:12Z</time>
      </trkpt>
      <trkpt lat="39.92322365606213" lon="116.48887079077545">
        <ele>30.900000000000002</ele>
        <time>2023-07-03T01:10:27Z</time>
      </trkpt>
      <trkpt lat="39.923114759053306" lon="116.48890392984367">
        <ele>30.099999999999998</ele>
        <time>2023-07-03T01:10:33Z</time>
      </trkpt>
      <trkpt lat="39.922839824138286" lon="116.48892203254398">
        <ele>29.499999999999996</ele>
        <time>2023-07-03T01:10:45Z</time>
      </trkpt>
      <trkpt lat="39.922779757971085" lon="116.48889895254955">
        <ele>28.499999999999996</ele>
        <time>2023-07-03T01:10:48Z</time>
      </trkpt>
      <trkpt lat="39.92269929274741" lon="116.48874136551301">
        <ele>27.499999999999996</ele>
        <time>2023-07-03T01:10:54Z</time>
      </trkpt>
      <trkpt lat="39.92269929274741" lon="116.48874136551301">
        <ele>27.499999999999996</ele>
        <time>2023-07-03T01:10:57Z</time>
      </trkpt>
    </trkseg>
  </trk>
</gpx>