<?xml version="1.0" encoding="UTF-8"?>
<gpx xmlns="http://www.topografix.com/GPX/1/1" xmlns:gpxtpx="http://www.garmin.com/xmlschemas/TrackPointExtension/v1" xmlns:xsi="http://www.w3.org/2001/XMLSchema-instance" xsi:schemaLocation="http://www.topografix.com/GPX/1/1 http://www.topografix.com/GPX/1/1/gpx.xsd" version="1.1" creator="gpx.py -- https://github.com/tkrajina/gpxpy">
  <trk>
    <name>gpx from keep</name>
    <type>Run</type>
    <trkseg>
      <trkpt lat="39.9197006864533" lon="116.45585939600586">
        <ele>5.799999999999999</ele>
        <time>2023-02-13T03:39:29Z</time>
      </trkpt>
      <trkpt lat="39.91968419069026" lon="116.45606804827514">
        <ele>5.799999999999999</ele>
        <time>2023-02-13T03:39:32Z</time>
      </trkpt>
      <trkpt lat="39.92010364645045" lon="116.45626360631697">
        <ele>21.299999999999997</ele>
        <time>2023-02-13T03:39:41Z</time>
      </trkpt>
      <trkpt lat="39.920101459549656" lon="116.45618636517541">
        <ele>24.5</ele>
        <time>2023-02-13T03:39:44Z</time>
      </trkpt>
      <trkpt lat="39.92015432874179" lon="116.4561331924576">
        <ele>30.1</ele>
        <time>2023-02-13T03:39:47Z</time>
      </trkpt>
      <trkpt lat="39.92021133850053" lon="116.45613820092467">
        <ele>30.9</ele>
        <time>2023-02-13T03:39:50Z</time>
      </trkpt>
      <trkpt lat="39.920265428459054" lon="116.45617631314897">
        <ele>31.300000000000004</ele>
        <time>2023-02-13T03:39:56Z</time>
      </trkpt>
      <trkpt lat="39.92053546578384" lon="116.4561963417547">
        <ele>24.200000000000003</ele>
        <time>2023-02-13T03:40:11Z</time>
      </trkpt>
      <trkpt lat="39.92058636173432" lon="116.45615420372417">
        <ele>22.299999999999997</ele>
        <time>2023-02-13T03:40:14Z</time>
      </trkpt>
      <trkpt lat="39.92064413622634" lon="116.45606190836995">
        <ele>20.1</ele>
        <time>2023-02-13T03:40:17Z</time>
      </trkpt>
      <trkpt lat="39.920718956262455" lon="116.45598867057261">
        <ele>20.4</ele>
        <time>2023-02-13T03:40:20Z</time>
      </trkpt>
      <trkpt lat="39.92091569398445" lon="116.45588331762508">
        <ele>19.700000000000003</ele>
        <time>2023-02-13T03:40:29Z</time>
      </trkpt>
      <trkpt lat="39.921193866342485" lon="116.4559595199797">
        <ele>2.0</ele>
        <time>2023-02-13T03:40:41Z</time>
      </trkpt>
      <trkpt lat="39.92129374603703" lon="116.45591135737732">
        <ele>5.299999999999999</ele>
        <time>2023-02-13T03:40:44Z</time>
      </trkpt>
      <trkpt lat="39.92140169076229" lon="116.455890278157">
        <ele>8.0</ele>
        <time>2023-02-13T03:40:47Z</time>
      </trkpt>
      <trkpt lat="39.92169864943847" lon="116.45587820320392">
        <ele>9.6</ele>
        <time>2023-02-13T03:40:59Z</time>
      </trkpt>
      <trkpt lat="39.92199363722978" lon="116.4558781659766">
        <ele>8.0</ele>
        <time>2023-02-13T03:41:14Z</time>
      </trkpt>
      <trkpt lat="39.9222816809499" lon="116.45590120146255">
        <ele>5.5</ele>
        <time>2023-02-13T03:41:32Z</time>
      </trkpt>
      <trkpt lat="39.9224556810164" lon="116.45590418887502">
        <ele>4.4</ele>
        <time>2023-02-13T03:41:47Z</time>
      </trkpt>
      <trkpt lat="39.922508630450764" lon="116.45588411972196">
        <ele>3.799999999999999</ele>
        <time>2023-02-13T03:41:50Z</time>
      </trkpt>
      <trkpt lat="39.92262381927496" lon="116.45596435515485">
        <ele>2.5999999999999996</ele>
        <time>2023-02-13T03:41:56Z</time>
      </trkpt>
      <trkpt lat="39.92274588687582" lon="116.45599443354838">
        <ele>2.4000000000000004</ele>
        <time>2023-02-13T03:41:59Z</time>
      </trkpt>
      <trkpt lat="39.92292710717444" lon="116.45608870479114">
        <ele>1.0</ele>
        <time>2023-02-13T03:42:05Z</time>
      </trkpt>
      <trkpt lat="39.923022137199915" lon="116.45610273662999">
        <ele>-1.2000000000000002</ele>
        <time>2023-02-13T03:42:11Z</time>
      </trkpt>
      <trkpt lat="39.92316706818335" lon="116.45607663694467">
        <ele>-4.0</ele>
        <time>2023-02-13T03:42:20Z</time>
      </trkpt>
      <trkpt lat="39.923290912833096" lon="116.45601442731648">
        <ele>-5.4</ele>
        <time>2023-02-13T03:42:26Z</time>
      </trkpt>
      <trkpt lat="39.92340394209057" lon="116.45602845684623">
        <ele>-6.800000000000001</ele>
        <time>2023-02-13T03:42:32Z</time>
      </trkpt>
      <trkpt lat="39.923748789833084" lon="116.45597123506376">
        <ele>-1.6000000000000005</ele>
        <time>2023-02-13T03:42:41Z</time>
      </trkpt>
      <trkpt lat="39.92398178750614" lon="116.45597421503724">
        <ele>-3.6000000000000005</ele>
        <time>2023-02-13T03:42:50Z</time>
      </trkpt>
      <trkpt lat="39.92407373772488" lon="116.45595514403556">
        <ele>-2.8000000000000003</ele>
        <time>2023-02-13T03:42:53Z</time>
      </trkpt>
      <trkpt lat="39.92432180499947" lon="116.45598721277193">
        <ele>-7.0</ele>
        <time>2023-02-13T03:43:05Z</time>
      </trkpt>
      <trkpt lat="39.92440897584688" lon="116.45605942700611">
        <ele>-10.8</ele>
        <time>2023-02-13T03:43:14Z</time>
      </trkpt>
      <trkpt lat="39.92448694598351" lon="116.45604838274265">
        <ele>-6.800000000000001</ele>
        <time>2023-02-13T03:43:17Z</time>
      </trkpt>
      <trkpt lat="39.92454106496468" lon="116.4560985324166">
        <ele>-6.2</ele>
        <time>2023-02-13T03:43:20Z</time>
      </trkpt>
      <trkpt lat="39.92449119557033" lon="116.45615170470279">
        <ele>-1.8000000000000007</ele>
        <time>2023-02-13T03:43:29Z</time>
      </trkpt>
      <trkpt lat="39.92438522419083" lon="116.45616174940716">
        <ele>4.699999999999999</ele>
        <time>2023-02-13T03:43:35Z</time>
      </trkpt>
      <trkpt lat="39.92419575924433" lon="116.45637945407307">
        <ele>10.499999999999998</ele>
        <time>2023-02-13T03:43:47Z</time>
      </trkpt>
      <trkpt lat="39.92413886866038" lon="116.45642359949079">
        <ele>12.299999999999999</ele>
        <time>2023-02-13T03:43:50Z</time>
      </trkpt>
      <trkpt lat="39.92384905348521" lon="116.45649485927352">
        <ele>14.200000000000001</ele>
        <time>2023-02-13T03:44:02Z</time>
      </trkpt>
      <trkpt lat="39.9236041829778" lon="116.45654404432373">
        <ele>14.6</ele>
        <time>2023-02-13T03:44:14Z</time>
      </trkpt>
      <trkpt lat="39.92351618172784" lon="116.4565420491341">
        <ele>14.999999999999998</ele>
        <time>2023-02-13T03:44:17Z</time>
      </trkpt>
      <trkpt lat="39.92323428599495" lon="116.45658020430511">
        <ele>15.200000000000001</ele>
        <time>2023-02-13T03:44:32Z</time>
      </trkpt>
      <trkpt lat="39.92308664354844" lon="116.45672467662666">
        <ele>16.700000000000003</ele>
        <time>2023-02-13T03:44:38Z</time>
      </trkpt>
      <trkpt lat="39.92303669935692" lon="116.45674675230694">
        <ele>18.1</ele>
        <time>2023-02-13T03:44:41Z</time>
      </trkpt>
      <trkpt lat="39.9229306499842" lon="116.45672469630811">
        <ele>20.200000000000003</ele>
        <time>2023-02-13T03:44:47Z</time>
      </trkpt>
      <trkpt lat="39.92282893529155" lon="116.45684007199189">
        <ele>18.799999999999997</ele>
        <time>2023-02-13T03:44:53Z</time>
      </trkpt>
      <trkpt lat="39.922770167774004" lon="116.45693437634417">
        <ele>18.9</ele>
        <time>2023-02-13T03:44:56Z</time>
      </trkpt>
      <trkpt lat="39.92265099215933" lon="116.45726944897113">
        <ele>17.799999999999997</ele>
        <time>2023-02-13T03:45:08Z</time>
      </trkpt>
      <trkpt lat="39.922531573085294" lon="116.45750420730849">
        <ele>12.200000000000001</ele>
        <time>2023-02-13T03:45:17Z</time>
      </trkpt>
      <trkpt lat="39.92249088061751" lon="116.45762860708524">
        <ele>10.499999999999998</ele>
        <time>2023-02-13T03:45:20Z</time>
      </trkpt>
      <trkpt lat="39.9224761356078" lon="116.45773193715974">
        <ele>9.4</ele>
        <time>2023-02-13T03:45:23Z</time>
      </trkpt>
      <trkpt lat="39.922498500720764" lon="116.45788040659119">
        <ele>12.4</ele>
        <time>2023-02-13T03:45:26Z</time>
      </trkpt>
      <trkpt lat="39.922551731321335" lon="116.4579747002145">
        <ele>13.999999999999998</ele>
        <time>2023-02-13T03:45:29Z</time>
      </trkpt>
      <trkpt lat="39.922809115028976" lon="116.45813417646485">
        <ele>10.799999999999999</ele>
        <time>2023-02-13T03:45:41Z</time>
      </trkpt>
      <trkpt lat="39.92289021844601" lon="116.45817730396188">
        <ele>11.1</ele>
        <time>2023-02-13T03:45:44Z</time>
      </trkpt>
      <trkpt lat="39.92293933565852" lon="116.45822545158191">
        <ele>11.4</ele>
        <time>2023-02-13T03:45:47Z</time>
      </trkpt>
      <trkpt lat="39.922974543027934" lon="116.45830971650601">
        <ele>12.1</ele>
        <time>2023-02-13T03:45:53Z</time>
      </trkpt>
      <trkpt lat="39.922947042140294" lon="116.45851036228355">
        <ele>10.200000000000001</ele>
        <time>2023-02-13T03:46:02Z</time>
      </trkpt>
      <trkpt lat="39.922922210233054" lon="116.45857758089213">
        <ele>9.1</ele>
        <time>2023-02-13T03:46:05Z</time>
      </trkpt>
      <trkpt lat="39.9229243773345" lon="116.45864479624856">
        <ele>7.1</ele>
        <time>2023-02-13T03:46:08Z</time>
      </trkpt>
      <trkpt lat="39.92304021786176" lon="116.45898387175794">
        <ele>0.7999999999999998</ele>
        <time>2023-02-13T03:46:20Z</time>
      </trkpt>
      <trkpt lat="39.92303948111921" lon="116.4590892112773">
        <ele>0.39999999999999947</ele>
        <time>2023-02-13T03:46:26Z</time>
      </trkpt>
      <trkpt lat="39.922992942518555" lon="116.45927280959609">
        <ele>-2.3000000000000003</ele>
        <time>2023-02-13T03:46:35Z</time>
      </trkpt>
      <trkpt lat="39.923129644171155" lon="116.45955470425532">
        <ele>-0.8000000000000007</ele>
        <time>2023-02-13T03:46:50Z</time>
      </trkpt>
      <trkpt lat="39.923201252036726" lon="116.45979748265145">
        <ele>3.0</ele>
        <time>2023-02-13T03:46:56Z</time>
      </trkpt>
      <trkpt lat="39.92343491305956" lon="116.4600633176697">
        <ele>3.9000000000000004</ele>
        <time>2023-02-13T03:47:08Z</time>
      </trkpt>
      <trkpt lat="39.92369427519771" lon="116.46021076550903">
        <ele>9.0</ele>
        <time>2023-02-13T03:47:20Z</time>
      </trkpt>
      <trkpt lat="39.923976553095905" lon="116.46032510307386">
        <ele>19.6</ele>
        <time>2023-02-13T03:47:32Z</time>
      </trkpt>
      <trkpt lat="39.92404258087429" lon="116.46033713405569">
        <ele>21.9</ele>
        <time>2023-02-13T03:47:35Z</time>
      </trkpt>
      <trkpt lat="39.92436244321777" lon="116.46028793329506">
        <ele>22.1</ele>
        <time>2023-02-13T03:47:50Z</time>
      </trkpt>
      <trkpt lat="39.92455943512056" lon="116.46028790847123">
        <ele>26.300000000000004</ele>
        <time>2023-02-13T03:47:59Z</time>
      </trkpt>
      <trkpt lat="39.92460137751962" lon="116.4602658311701">
        <ele>26.5</ele>
        <time>2023-02-13T03:48:02Z</time>
      </trkpt>
      <trkpt lat="39.924779433703165" lon="116.46029089056954">
        <ele>21.299999999999997</ele>
        <time>2023-02-13T03:48:14Z</time>
      </trkpt>
      <trkpt lat="39.92490137027711" lon="116.46026779991215">
        <ele>17.9</ele>
        <time>2023-02-13T03:48:20Z</time>
      </trkpt>
      <trkpt lat="39.92504216140984" lon="116.46018752041991">
        <ele>12.700000000000001</ele>
        <time>2023-02-13T03:48:29Z</time>
      </trkpt>
      <trkpt lat="39.9251666797071" lon="116.45999889043334">
        <ele>7.799999999999999</ele>
        <time>2023-02-13T03:48:41Z</time>
      </trkpt>
      <trkpt lat="39.925477487212675" lon="116.45992761956613">
        <ele>10.200000000000001</ele>
        <time>2023-02-13T03:48:56Z</time>
      </trkpt>
      <trkpt lat="39.92569997500769" lon="116.45972794300255">
        <ele>12.700000000000001</ele>
        <time>2023-02-13T03:49:08Z</time>
      </trkpt>
      <trkpt lat="39.92576784851286" lon="116.45967877496038">
        <ele>13.999999999999998</ele>
        <time>2023-02-13T03:49:11Z</time>
      </trkpt>
      <trkpt lat="39.925809574353835" lon="116.45957041845783">
        <ele>16.799999999999997</ele>
        <time>2023-02-13T03:49:14Z</time>
      </trkpt>
      <trkpt lat="39.92597696568637" lon="116.45933062143853">
        <ele>13.700000000000001</ele>
        <time>2023-02-13T03:49:26Z</time>
      </trkpt>
      <trkpt lat="39.92600675582782" lon="116.45924734866502">
        <ele>14.200000000000001</ele>
        <time>2023-02-13T03:49:29Z</time>
      </trkpt>
      <trkpt lat="39.92604979121804" lon="116.4588621016194">
        <ele>10.700000000000001</ele>
        <time>2023-02-13T03:49:44Z</time>
      </trkpt>
      <trkpt lat="39.926047069327986" lon="116.4585721707825">
        <ele>5.0</ele>
        <time>2023-02-13T03:49:56Z</time>
      </trkpt>
      <trkpt lat="39.92609708664718" lon="116.45817689953942">
        <ele>-2.3000000000000003</ele>
        <time>2023-02-13T03:50:08Z</time>
      </trkpt>
      <trkpt lat="39.92611763674788" lon="116.4579953176252">
        <ele>-2.8000000000000003</ele>
        <time>2023-02-13T03:50:17Z</time>
      </trkpt>
      <trkpt lat="39.926096187003594" lon="116.45781273894328">
        <ele>0.6999999999999993</ele>
        <time>2023-02-13T03:50:23Z</time>
      </trkpt>
      <trkpt lat="39.926121760942735" lon="116.45764018732548">
        <ele>3.5999999999999996</ele>
        <time>2023-02-13T03:50:32Z</time>
      </trkpt>
      <trkpt lat="39.92619154835615" lon="116.45755490789273">
        <ele>1.5</ele>
        <time>2023-02-13T03:50:38Z</time>
      </trkpt>
      <trkpt lat="39.92615931797378" lon="116.45746061296674">
        <ele>-2.4000000000000004</ele>
        <time>2023-02-13T03:50:47Z</time>
      </trkpt>
      <trkpt lat="39.92610112089726" lon="116.45737936291364">
        <ele>-3.8000000000000003</ele>
        <time>2023-02-13T03:50:50Z</time>
      </trkpt>
      <trkpt lat="39.92605066319085" lon="116.45719177592234">
        <ele>-7.1000000000000005</ele>
        <time>2023-02-13T03:50:53Z</time>
      </trkpt>
      <trkpt lat="39.92599436116536" lon="116.45706739024568">
        <ele>-5.9</ele>
        <time>2023-02-13T03:50:56Z</time>
      </trkpt>
      <trkpt lat="39.92589610048198" lon="116.4569590609854">
        <ele>-1.7000000000000002</ele>
        <time>2023-02-13T03:50:59Z</time>
      </trkpt>
      <trkpt lat="39.925625622240425" lon="116.45675846350191">
        <ele>11.499999999999998</ele>
        <time>2023-02-13T03:51:08Z</time>
      </trkpt>
      <trkpt lat="39.92535927911407" lon="116.45661304007882">
        <ele>18.0</ele>
        <time>2023-02-13T03:51:20Z</time>
      </trkpt>
      <trkpt lat="39.9251119041607" lon="116.45645457414099">
        <ele>29.5</ele>
        <time>2023-02-13T03:51:32Z</time>
      </trkpt>
      <trkpt lat="39.92487852692623" lon="116.45629510419228">
        <ele>29.5</ele>
        <time>2023-02-13T03:51:47Z</time>
      </trkpt>
      <trkpt lat="39.92477826143622" lon="116.45618376874538">
        <ele>27.300000000000004</ele>
        <time>2023-02-13T03:51:53Z</time>
      </trkpt>
      <trkpt lat="39.92470722794738" lon="116.45616873070333">
        <ele>26.5</ele>
        <time>2023-02-13T03:51:56Z</time>
      </trkpt>
      <trkpt lat="39.92452632033684" lon="116.45620386322862">
        <ele>27.800000000000004</ele>
        <time>2023-02-13T03:52:05Z</time>
      </trkpt>
      <trkpt lat="39.92436938992081" lon="116.4562299645487">
        <ele>26.0</ele>
        <time>2023-02-13T03:52:14Z</time>
      </trkpt>
      <trkpt lat="39.92420565424865" lon="116.45633631779423">
        <ele>22.5</ele>
        <time>2023-02-13T03:52:23Z</time>
      </trkpt>
      <trkpt lat="39.924155777919815" lon="116.45638648110622">
        <ele>21.700000000000003</ele>
        <time>2023-02-13T03:52:26Z</time>
      </trkpt>
      <trkpt lat="39.924023917209276" lon="116.45644167056827">
        <ele>20.700000000000003</ele>
        <time>2023-02-13T03:52:32Z</time>
      </trkpt>
      <trkpt lat="39.923891905599625" lon="116.45643466522475">
        <ele>20.200000000000003</ele>
        <time>2023-02-13T03:52:38Z</time>
      </trkpt>
      <trkpt lat="39.92376402531721" lon="116.45648182911948">
        <ele>18.9</ele>
        <time>2023-02-13T03:52:44Z</time>
      </trkpt>
      <trkpt lat="39.92351615248022" lon="116.45653001137931">
        <ele>16.4</ele>
        <time>2023-02-13T03:52:59Z</time>
      </trkpt>
      <trkpt lat="39.92344914792951" lon="116.45652701039513">
        <ele>17.0</ele>
        <time>2023-02-13T03:53:02Z</time>
      </trkpt>
      <trkpt lat="39.9232194305386" lon="116.4566393919788">
        <ele>19.799999999999997</ele>
        <time>2023-02-13T03:53:11Z</time>
      </trkpt>
      <trkpt lat="39.923101728441296" lon="116.45675978510708">
        <ele>22.799999999999997</ele>
        <time>2023-02-13T03:53:17Z</time>
      </trkpt>
      <trkpt lat="39.923028760778756" lon="116.45677183216898">
        <ele>25.1</ele>
        <time>2023-02-13T03:53:20Z</time>
      </trkpt>
      <trkpt lat="39.922966709574894" lon="116.45674977059944">
        <ele>25.700000000000003</ele>
        <time>2023-02-13T03:53:23Z</time>
      </trkpt>
      <trkpt lat="39.92290374882871" lon="116.45676482585814">
        <ele>25.9</ele>
        <time>2023-02-13T03:53:26Z</time>
      </trkpt>
      <trkpt lat="39.92281402887812" lon="116.4568781938738">
        <ele>27.700000000000003</ele>
        <time>2023-02-13T03:53:32Z</time>
      </trkpt>
    </trkseg>
  </trk>
</gpx>