<?xml version="1.0" encoding="UTF-8"?>
<gpx xmlns="http://www.topografix.com/GPX/1/1" xmlns:gpxtpx="http://www.garmin.com/xmlschemas/TrackPointExtension/v1" xmlns:xsi="http://www.w3.org/2001/XMLSchema-instance" xsi:schemaLocation="http://www.topografix.com/GPX/1/1 http://www.topografix.com/GPX/1/1/gpx.xsd" version="1.1" creator="gpx.py -- https://github.com/tkrajina/gpxpy">
  <trk>
    <name>gpx from keep</name>
    <type>Walk</type>
    <trkseg>
      <trkpt lat="39.901871409356076" lon="116.6838186900179">
        <ele>27.4</ele>
        <time>2023-02-21T12:48:14Z</time>
      </trkpt>
      <trkpt lat="39.90167567685246" lon="116.68367510469527">
        <ele>27.1</ele>
        <time>2023-02-21T12:48:20Z</time>
      </trkpt>
      <trkpt lat="39.90163881517726" lon="116.68359931545211">
        <ele>26.3</ele>
        <time>2023-02-21T12:48:29Z</time>
      </trkpt>
      <trkpt lat="39.90152900904435" lon="116.68349461407949">
        <ele>25.8</ele>
        <time>2023-02-21T12:48:44Z</time>
      </trkpt>
      <trkpt lat="39.90148813692635" lon="116.68342480925489">
        <ele>23.7</ele>
        <time>2023-02-21T12:48:50Z</time>
      </trkpt>
      <trkpt lat="39.901468274747586" lon="116.68334901820974">
        <ele>19.6</ele>
        <time>2023-02-21T12:48:56Z</time>
      </trkpt>
      <trkpt lat="39.90136043822121" lon="116.68326127078599">
        <ele>13.899999999999999</ele>
        <time>2023-02-21T12:49:05Z</time>
      </trkpt>
      <trkpt lat="39.901283726758884" lon="116.68310371009245">
        <ele>9.5</ele>
        <time>2023-02-21T12:49:14Z</time>
      </trkpt>
      <trkpt lat="39.90123902322958" lon="116.68294115944215">
        <ele>4.5</ele>
        <time>2023-02-21T12:49:23Z</time>
      </trkpt>
      <trkpt lat="39.90117523404788" lon="116.68282648071174">
        <ele>1.0</ele>
        <time>2023-02-21T12:49:29Z</time>
      </trkpt>
      <trkpt lat="39.90113096976971" lon="116.68242259139642">
        <ele>-3.3</ele>
        <time>2023-02-21T12:49:50Z</time>
      </trkpt>
      <trkpt lat="39.90105134189288" lon="116.68222015615548">
        <ele>-5.1</ele>
        <time>2023-02-21T12:50:02Z</time>
      </trkpt>
      <trkpt lat="39.90104075874335" lon="116.68199178416242">
        <ele>-3.8</ele>
        <time>2023-02-21T12:50:14Z</time>
      </trkpt>
      <trkpt lat="39.900975080312676" lon="116.68181727173055">
        <ele>-1.2999999999999998</ele>
        <time>2023-02-21T12:50:26Z</time>
      </trkpt>
      <trkpt lat="39.900941389878135" lon="116.68164873931742">
        <ele>0.2999999999999998</ele>
        <time>2023-02-21T12:50:35Z</time>
      </trkpt>
      <trkpt lat="39.90087663545704" lon="116.6815161123228">
        <ele>1.2000000000000002</ele>
        <time>2023-02-21T12:50:44Z</time>
      </trkpt>
      <trkpt lat="39.90083070689129" lon="116.68147822233867">
        <ele>2.0999999999999996</ele>
        <time>2023-02-21T12:50:47Z</time>
      </trkpt>
      <trkpt lat="39.90082488979975" lon="116.68137849770189">
        <ele>1.7999999999999998</ele>
        <time>2023-02-21T12:50:53Z</time>
      </trkpt>
      <trkpt lat="39.900776206413475" lon="116.6812069764437">
        <ele>2.0</ele>
        <time>2023-02-21T12:51:02Z</time>
      </trkpt>
      <trkpt lat="39.900756703400475" lon="116.68093672448477">
        <ele>-2.1</ele>
        <time>2023-02-21T12:51:17Z</time>
      </trkpt>
      <trkpt lat="39.900810999772965" lon="116.68077416671927">
        <ele>-5.3</ele>
        <time>2023-02-21T12:51:29Z</time>
      </trkpt>
      <trkpt lat="39.9007933547585" lon="116.68058170095354">
        <ele>-9.3</ele>
        <time>2023-02-21T12:51:41Z</time>
      </trkpt>
      <trkpt lat="39.90076654515872" lon="116.68047898841871">
        <ele>-9.5</ele>
        <time>2023-02-21T12:51:47Z</time>
      </trkpt>
      <trkpt lat="39.90070184219558" lon="116.68031943809689">
        <ele>-7.9</ele>
        <time>2023-02-21T12:51:56Z</time>
      </trkpt>
      <trkpt lat="39.90066392299399" lon="116.68027656154636">
        <ele>-6.0</ele>
        <time>2023-02-21T12:51:59Z</time>
      </trkpt>
      <trkpt lat="39.90061529886172" lon="116.68007412852121">
        <ele>-3.7</ele>
        <time>2023-02-21T12:52:11Z</time>
      </trkpt>
      <trkpt lat="39.90062151969153" lon="116.67995445959784">
        <ele>-2.9</ele>
        <time>2023-02-21T12:52:17Z</time>
      </trkpt>
      <trkpt lat="39.90056621598213" lon="116.67957950740048">
        <ele>-1.7999999999999998</ele>
        <time>2023-02-21T12:52:35Z</time>
      </trkpt>
      <trkpt lat="39.90056550430895" lon="116.67942393988714">
        <ele>-0.7999999999999998</ele>
        <time>2023-02-21T12:52:44Z</time>
      </trkpt>
      <trkpt lat="39.90057862391766" lon="116.67935911851676">
        <ele>-0.5</ele>
        <time>2023-02-21T12:52:47Z</time>
      </trkpt>
      <trkpt lat="39.90055539525163" lon="116.67894427620868">
        <ele>2.5999999999999996</ele>
        <time>2023-02-21T12:53:08Z</time>
      </trkpt>
      <trkpt lat="39.90054377229447" lon="116.67874184191227">
        <ele>1.0999999999999996</ele>
        <time>2023-02-21T12:53:20Z</time>
      </trkpt>
      <trkpt lat="39.90048145682745" lon="116.67837587094046">
        <ele>1.0</ele>
        <time>2023-02-21T12:53:41Z</time>
      </trkpt>
      <trkpt lat="39.90045613913063" lon="116.67801089409656">
        <ele>1.2000000000000002</ele>
        <time>2023-02-21T12:53:59Z</time>
      </trkpt>
      <trkpt lat="39.9004228435714" lon="116.67763495039993">
        <ele>2.2</ele>
        <time>2023-02-21T12:54:20Z</time>
      </trkpt>
      <trkpt lat="39.900351588399204" lon="116.67723906880943">
        <ele>1.7999999999999998</ele>
        <time>2023-02-21T12:54:41Z</time>
      </trkpt>
      <trkpt lat="39.90032779520289" lon="116.67712937947782">
        <ele>2.4000000000000004</ele>
        <time>2023-02-21T12:54:47Z</time>
      </trkpt>
      <trkpt lat="39.90033298957863" lon="116.67702566988615">
        <ele>1.4000000000000004</ele>
        <time>2023-02-21T12:54:53Z</time>
      </trkpt>
      <trkpt lat="39.90028166249507" lon="116.67666867892092">
        <ele>2.5</ele>
        <time>2023-02-21T12:55:14Z</time>
      </trkpt>
      <trkpt lat="39.9002364601453" lon="116.67624587360918">
        <ele>0.7999999999999998</ele>
        <time>2023-02-21T12:55:38Z</time>
      </trkpt>
      <trkpt lat="39.90018326711943" lon="116.67581908214406">
        <ele>0.0</ele>
        <time>2023-02-21T12:56:02Z</time>
      </trkpt>
      <trkpt lat="39.900131064147146" lon="116.67539827524526">
        <ele>1.9000000000000004</ele>
        <time>2023-02-21T12:56:26Z</time>
      </trkpt>
      <trkpt lat="39.90003577759477" lon="116.67502334554663">
        <ele>8.1</ele>
        <time>2023-02-21T12:56:47Z</time>
      </trkpt>
      <trkpt lat="39.90002791386067" lon="116.67495154934191">
        <ele>8.4</ele>
        <time>2023-02-21T12:56:53Z</time>
      </trkpt>
      <trkpt lat="39.900045016937405" lon="116.67489670218998">
        <ele>8.6</ele>
        <time>2023-02-21T12:56:56Z</time>
      </trkpt>
      <trkpt lat="39.90004543062353" lon="116.67467831939642">
        <ele>8.7</ele>
        <time>2023-02-21T12:57:08Z</time>
      </trkpt>
      <trkpt lat="39.89999614199311" lon="116.67430438325819">
        <ele>5.199999999999999</ele>
        <time>2023-02-21T12:57:29Z</time>
      </trkpt>
      <trkpt lat="39.899974873860565" lon="116.67391947572399">
        <ele>3.6999999999999993</ele>
        <time>2023-02-21T12:57:50Z</time>
      </trkpt>
      <trkpt lat="39.8999263290714" lon="116.67368115702018">
        <ele>4.0</ele>
        <time>2023-02-21T12:58:02Z</time>
      </trkpt>
      <trkpt lat="39.899896133068474" lon="116.67325935683971">
        <ele>1.5999999999999996</ele>
        <time>2023-02-21T12:58:26Z</time>
      </trkpt>
      <trkpt lat="39.89985853171745" lon="116.67305095286214">
        <ele>1.7999999999999998</ele>
        <time>2023-02-21T12:58:38Z</time>
      </trkpt>
      <trkpt lat="39.89985085132373" lon="116.67288342936183">
        <ele>3.0999999999999996</ele>
        <time>2023-02-21T12:58:47Z</time>
      </trkpt>
      <trkpt lat="39.89978144015528" lon="116.67257631018732">
        <ele>3.9000000000000004</ele>
        <time>2023-02-21T12:59:05Z</time>
      </trkpt>
      <trkpt lat="39.89973815778677" lon="116.67220138104483">
        <ele>2.0999999999999996</ele>
        <time>2023-02-21T12:59:26Z</time>
      </trkpt>
      <trkpt lat="39.89973843776573" lon="116.67205479777446">
        <ele>-0.5999999999999996</ele>
        <time>2023-02-21T12:59:35Z</time>
      </trkpt>
      <trkpt lat="39.899693278478004" lon="116.67161605141578">
        <ele>-0.9000000000000004</ele>
        <time>2023-02-21T12:59:59Z</time>
      </trkpt>
      <trkpt lat="39.899672702886605" lon="116.67139468398838">
        <ele>0.5</ele>
        <time>2023-02-21T13:00:11Z</time>
      </trkpt>
      <trkpt lat="39.89958343800045" lon="116.67101278242777">
        <ele>7.5</ele>
        <time>2023-02-21T13:00:32Z</time>
      </trkpt>
      <trkpt lat="39.89958471488097" lon="116.67086819410453">
        <ele>7.9</ele>
        <time>2023-02-21T13:00:41Z</time>
      </trkpt>
      <trkpt lat="39.899566580084034" lon="116.67093899467594">
        <ele>6.699999999999999</ele>
        <time>2023-02-21T13:01:05Z</time>
      </trkpt>
      <trkpt lat="39.89957087788562" lon="116.67078343726767">
        <ele>5.300000000000001</ele>
        <time>2023-02-21T13:01:33Z</time>
      </trkpt>
      <trkpt lat="39.89953322353853" lon="116.67060395331521">
        <ele>2.7</ele>
        <time>2023-02-21T13:01:45Z</time>
      </trkpt>
      <trkpt lat="39.89951954146369" lon="116.6704384267251">
        <ele>2.5</ele>
        <time>2023-02-21T13:01:54Z</time>
      </trkpt>
      <trkpt lat="39.89952865385463" lon="116.67037959328228">
        <ele>2.4000000000000004</ele>
        <time>2023-02-21T13:02:00Z</time>
      </trkpt>
      <trkpt lat="39.89984659173006" lon="116.67040448300132">
        <ele>7.699999999999999</ele>
        <time>2023-02-21T13:02:24Z</time>
      </trkpt>
      <trkpt lat="39.89996953266364" lon="116.67043238825502">
        <ele>9.4</ele>
        <time>2023-02-21T13:02:33Z</time>
      </trkpt>
      <trkpt lat="39.90012154111948" lon="116.67042439223547">
        <ele>10.6</ele>
        <time>2023-02-21T13:02:45Z</time>
      </trkpt>
      <trkpt lat="39.90042041489373" lon="116.67048318768305">
        <ele>17.3</ele>
        <time>2023-02-21T13:03:09Z</time>
      </trkpt>
      <trkpt lat="39.900581386637946" lon="116.67049413656031">
        <ele>20.6</ele>
        <time>2023-02-21T13:03:21Z</time>
      </trkpt>
      <trkpt lat="39.900675521969056" lon="116.67042133240727">
        <ele>16.0</ele>
        <time>2023-02-21T13:03:27Z</time>
      </trkpt>
      <trkpt lat="39.900985508069226" lon="116.67042129415813">
        <ele>12.5</ele>
        <time>2023-02-21T13:03:48Z</time>
      </trkpt>
      <trkpt lat="39.90105552787451" lon="116.67040931962357">
        <ele>12.2</ele>
        <time>2023-02-21T13:03:54Z</time>
      </trkpt>
      <trkpt lat="39.90113148241164" lon="116.67043124772549">
        <ele>12.600000000000001</ele>
        <time>2023-02-21T13:04:00Z</time>
      </trkpt>
      <trkpt lat="39.90147053797795" lon="116.67039431104725">
        <ele>10.3</ele>
        <time>2023-02-21T13:04:24Z</time>
      </trkpt>
      <trkpt lat="39.90159156124674" lon="116.67037933874714">
        <ele>10.0</ele>
        <time>2023-02-21T13:04:33Z</time>
      </trkpt>
      <trkpt lat="39.901643669819606" lon="116.67032149717258">
        <ele>10.3</ele>
        <time>2023-02-21T13:04:39Z</time>
      </trkpt>
      <trkpt lat="39.901665865802336" lon="116.67021878721937">
        <ele>11.399999999999999</ele>
        <time>2023-02-21T13:04:45Z</time>
      </trkpt>
      <trkpt lat="39.90163816352506" lon="116.67006423129567">
        <ele>10.4</ele>
        <time>2023-02-21T13:04:54Z</time>
      </trkpt>
      <trkpt lat="39.90164337948808" lon="116.66995155194888">
        <ele>9.3</ele>
        <time>2023-02-21T13:05:00Z</time>
      </trkpt>
      <trkpt lat="39.90157408692979" lon="116.66958460707394">
        <ele>9.8</ele>
        <time>2023-02-21T13:05:21Z</time>
      </trkpt>
      <trkpt lat="39.90156347802523" lon="116.66938118868804">
        <ele>10.6</ele>
        <time>2023-02-21T13:05:33Z</time>
      </trkpt>
      <trkpt lat="39.90160288040695" lon="116.66917078413812">
        <ele>11.7</ele>
        <time>2023-02-21T13:05:45Z</time>
      </trkpt>
      <trkpt lat="39.9015697230893" lon="116.66873303747316">
        <ele>9.9</ele>
        <time>2023-02-21T13:06:09Z</time>
      </trkpt>
      <trkpt lat="39.90158319597187" lon="116.66848673881825">
        <ele>9.8</ele>
        <time>2023-02-21T13:06:24Z</time>
      </trkpt>
      <trkpt lat="39.90155629495401" lon="116.66843588730019">
        <ele>8.8</ele>
        <time>2023-02-21T13:06:30Z</time>
      </trkpt>
      <trkpt lat="39.90161936307638" lon="116.66839898484088">
        <ele>9.7</ele>
        <time>2023-02-21T13:06:36Z</time>
      </trkpt>
      <trkpt lat="39.901618775380506" lon="116.66818459692206">
        <ele>13.2</ele>
        <time>2023-02-21T13:06:48Z</time>
      </trkpt>
      <trkpt lat="39.90132280779378" lon="116.66817466188071">
        <ele>10.7</ele>
        <time>2023-02-21T13:07:06Z</time>
      </trkpt>
      <trkpt lat="39.90123775023234" lon="116.66820658127571">
        <ele>10.4</ele>
        <time>2023-02-21T13:07:12Z</time>
      </trkpt>
      <trkpt lat="39.901140580077104" lon="116.66829733421845">
        <ele>8.4</ele>
        <time>2023-02-21T13:07:21Z</time>
      </trkpt>
      <trkpt lat="39.90096155741622" lon="116.6683133107478">
        <ele>8.0</ele>
        <time>2023-02-21T13:07:33Z</time>
      </trkpt>
      <trkpt lat="39.90074336011669" lon="116.66842103023622">
        <ele>8.7</ele>
        <time>2023-02-21T13:07:51Z</time>
      </trkpt>
      <trkpt lat="39.9006343324141" lon="116.66843799529154">
        <ele>10.2</ele>
        <time>2023-02-21T13:07:57Z</time>
      </trkpt>
      <trkpt lat="39.90054992403114" lon="116.66865239376193">
        <ele>13.899999999999999</ele>
        <time>2023-02-21T13:08:09Z</time>
      </trkpt>
      <trkpt lat="39.90049316767994" lon="116.66904727383063">
        <ele>11.7</ele>
        <time>2023-02-21T13:08:33Z</time>
      </trkpt>
      <trkpt lat="39.900474666617676" lon="116.66930853066582">
        <ele>4.1</ele>
        <time>2023-02-21T13:08:48Z</time>
      </trkpt>
      <trkpt lat="39.90056594448007" lon="116.66968245269753">
        <ele>3.4000000000000004</ele>
        <time>2023-02-21T13:09:06Z</time>
      </trkpt>
      <trkpt lat="39.90062761824792" lon="116.66985096446632">
        <ele>3.0999999999999996</ele>
        <time>2023-02-21T13:09:18Z</time>
      </trkpt>
      <trkpt lat="39.90068051253729" lon="116.6699048043843">
        <ele>2.9000000000000004</ele>
        <time>2023-02-21T13:09:27Z</time>
      </trkpt>
      <trkpt lat="39.90083059957371" lon="116.66985592520696">
        <ele>2.7</ele>
        <time>2023-02-21T13:09:45Z</time>
      </trkpt>
    </trkseg>
  </trk>
</gpx>