<?xml version="1.0" encoding="UTF-8"?>
<gpx xmlns="http://www.topografix.com/GPX/1/1" xmlns:gpxtpx="http://www.garmin.com/xmlschemas/TrackPointExtension/v1" xmlns:xsi="http://www.w3.org/2001/XMLSchema-instance" xsi:schemaLocation="http://www.topografix.com/GPX/1/1 http://www.topografix.com/GPX/1/1/gpx.xsd" version="1.1" creator="gpx.py -- https://github.com/tkrajina/gpxpy">
  <trk>
    <name>gpx from keep</name>
    <type>Run</type>
    <trkseg>
      <trkpt lat="39.9228157606848" lon="116.48822740461354">
        <ele>26.2</ele>
        <time>2023-05-28T12:45:10Z</time>
      </trkpt>
      <trkpt lat="39.922745671150984" lon="116.48819629553394">
        <ele>28.400000000000002</ele>
        <time>2023-05-28T12:45:13Z</time>
      </trkpt>
      <trkpt lat="39.92259027696783" lon="116.48839807884067">
        <ele>28.499999999999996</ele>
        <time>2023-05-28T12:45:25Z</time>
      </trkpt>
      <trkpt lat="39.92258260240727" lon="116.48850749415075">
        <ele>28.7</ele>
        <time>2023-05-28T12:45:31Z</time>
      </trkpt>
      <trkpt lat="39.92262086334827" lon="116.48859582394617">
        <ele>28.599999999999998</ele>
        <time>2023-05-28T12:45:34Z</time>
      </trkpt>
      <trkpt lat="39.922679087693254" lon="116.48867210565919">
        <ele>28.599999999999998</ele>
        <time>2023-05-28T12:45:37Z</time>
      </trkpt>
      <trkpt lat="39.92295955654212" lon="116.48883368295482">
        <ele>28.499999999999996</ele>
        <time>2023-05-28T12:45:49Z</time>
      </trkpt>
      <trkpt lat="39.92301762875567" lon="116.48885877079799">
        <ele>27.900000000000002</ele>
        <time>2023-05-28T12:45:52Z</time>
      </trkpt>
      <trkpt lat="39.92325958891822" lon="116.48884870263194">
        <ele>25.599999999999998</ele>
        <time>2023-05-28T12:46:01Z</time>
      </trkpt>
      <trkpt lat="39.92359470939728" lon="116.48889383203549">
        <ele>26.2</ele>
        <time>2023-05-28T12:46:16Z</time>
      </trkpt>
      <trkpt lat="39.92389775361314" lon="116.4889128665547">
        <ele>25.2</ele>
        <time>2023-05-28T12:46:25Z</time>
      </trkpt>
      <trkpt lat="39.924207767705006" lon="116.48892186217326">
        <ele>28.499999999999996</ele>
        <time>2023-05-28T12:46:37Z</time>
      </trkpt>
      <trkpt lat="39.92425870889649" lon="116.48890278356482">
        <ele>29.599999999999998</ele>
        <time>2023-05-28T12:46:40Z</time>
      </trkpt>
      <trkpt lat="39.92443568668761" lon="116.48889774250553">
        <ele>30.400000000000002</ele>
        <time>2023-05-28T12:46:49Z</time>
      </trkpt>
      <trkpt lat="39.924592874235785" lon="116.4889629701512">
        <ele>29.499999999999996</ele>
        <time>2023-05-28T12:46:55Z</time>
      </trkpt>
      <trkpt lat="39.9247089321479" lon="116.4889840355721">
        <ele>27.3</ele>
        <time>2023-05-28T12:46:58Z</time>
      </trkpt>
      <trkpt lat="39.9248108831798" lon="116.48896896581986">
        <ele>25.099999999999998</ele>
        <time>2023-05-28T12:47:01Z</time>
      </trkpt>
      <trkpt lat="39.92492067569452" lon="116.48890069350884">
        <ele>20.9</ele>
        <time>2023-05-28T12:47:04Z</time>
      </trkpt>
      <trkpt lat="39.92512056898629" lon="116.4888675431025">
        <ele>18.4</ele>
        <time>2023-05-28T12:47:10Z</time>
      </trkpt>
      <trkpt lat="39.92534969388701" lon="116.48891268571317">
        <ele>16.0</ele>
        <time>2023-05-28T12:47:16Z</time>
      </trkpt>
      <trkpt lat="39.92548466148341" lon="116.4889036346715">
        <ele>15.399999999999999</ele>
        <time>2023-05-28T12:47:19Z</time>
      </trkpt>
      <trkpt lat="39.92559555246895" lon="116.48886848774274">
        <ele>14.0</ele>
        <time>2023-05-28T12:47:22Z</time>
      </trkpt>
      <trkpt lat="39.92576554251052" lon="116.48886746276554">
        <ele>12.3</ele>
        <time>2023-05-28T12:47:28Z</time>
      </trkpt>
      <trkpt lat="39.92586839205256" lon="116.48881826359882">
        <ele>12.3</ele>
        <time>2023-05-28T12:47:34Z</time>
      </trkpt>
      <trkpt lat="39.92594037417927" lon="116.48881323561707">
        <ele>12.599999999999998</ele>
        <time>2023-05-28T12:47:37Z</time>
      </trkpt>
      <trkpt lat="39.92615000749447" lon="116.48869275316308">
        <ele>9.3</ele>
        <time>2023-05-28T12:47:49Z</time>
      </trkpt>
      <trkpt lat="39.926285050344454" lon="116.4883725235186">
        <ele>4.2</ele>
        <time>2023-05-28T12:48:04Z</time>
      </trkpt>
      <trkpt lat="39.926355799923776" lon="116.48828919921331">
        <ele>1.6000000000000005</ele>
        <time>2023-05-28T12:48:13Z</time>
      </trkpt>
      <trkpt lat="39.926462720996625" lon="116.48826409087005">
        <ele>3.3</ele>
        <time>2023-05-28T12:48:19Z</time>
      </trkpt>
      <trkpt lat="39.92654273263038" lon="116.48826909990493">
        <ele>4.3</ele>
        <time>2023-05-28T12:48:22Z</time>
      </trkpt>
      <trkpt lat="39.926889414314054" lon="116.4881666690463">
        <ele>10.100000000000001</ele>
        <time>2023-05-28T12:48:37Z</time>
      </trkpt>
      <trkpt lat="39.9269772646372" lon="116.48811747188624">
        <ele>10.8</ele>
        <time>2023-05-28T12:48:40Z</time>
      </trkpt>
      <trkpt lat="39.927037044579244" lon="116.48804418703759">
        <ele>11.3</ele>
        <time>2023-05-28T12:48:43Z</time>
      </trkpt>
      <trkpt lat="39.92717280653963" lon="116.48796587374767">
        <ele>12.8</ele>
        <time>2023-05-28T12:48:49Z</time>
      </trkpt>
      <trkpt lat="39.927342185754284" lon="116.48775907005327">
        <ele>14.0</ele>
        <time>2023-05-28T12:48:58Z</time>
      </trkpt>
      <trkpt lat="39.927559640665585" lon="116.48757835931062">
        <ele>14.099999999999998</ele>
        <time>2023-05-28T12:49:07Z</time>
      </trkpt>
      <trkpt lat="39.927615325684016" lon="116.48747295365668">
        <ele>14.0</ele>
        <time>2023-05-28T12:49:13Z</time>
      </trkpt>
      <trkpt lat="39.92765027340579" lon="116.4871186093022">
        <ele>13.599999999999998</ele>
        <time>2023-05-28T12:49:28Z</time>
      </trkpt>
      <trkpt lat="39.92768011149583" lon="116.4870644006584">
        <ele>14.3</ele>
        <time>2023-05-28T12:49:31Z</time>
      </trkpt>
      <trkpt lat="39.927668823348725" lon="116.48696703400385">
        <ele>15.399999999999999</ele>
        <time>2023-05-28T12:49:34Z</time>
      </trkpt>
      <trkpt lat="39.927715550735044" lon="116.48687568293315">
        <ele>14.399999999999999</ele>
        <time>2023-05-28T12:49:40Z</time>
      </trkpt>
      <trkpt lat="39.92774915677759" lon="116.4867431780361">
        <ele>13.399999999999999</ele>
        <time>2023-05-28T12:49:46Z</time>
      </trkpt>
      <trkpt lat="39.92774476447579" lon="116.48661067798331">
        <ele>12.2</ele>
        <time>2023-05-28T12:49:49Z</time>
      </trkpt>
      <trkpt lat="39.9277041003519" lon="116.48638583380144">
        <ele>6.8</ele>
        <time>2023-05-28T12:49:58Z</time>
      </trkpt>
      <trkpt lat="39.92772688251559" lon="116.48631255426491">
        <ele>5.000000000000001</ele>
        <time>2023-05-28T12:50:01Z</time>
      </trkpt>
      <trkpt lat="39.92784229559509" lon="116.48611579713679">
        <ele>4.3999999999999995</ele>
        <time>2023-05-28T12:50:07Z</time>
      </trkpt>
      <trkpt lat="39.92791458898142" lon="116.48587789036542">
        <ele>6.7</ele>
        <time>2023-05-28T12:50:13Z</time>
      </trkpt>
      <trkpt lat="39.927927178912526" lon="116.48573936623289">
        <ele>7.500000000000001</ele>
        <time>2023-05-28T12:50:16Z</time>
      </trkpt>
      <trkpt lat="39.92788505354915" lon="116.48535793326543">
        <ele>10.5</ele>
        <time>2023-05-28T12:50:28Z</time>
      </trkpt>
      <trkpt lat="39.92788969172377" lon="116.48523547117155">
        <ele>12.599999999999998</ele>
        <time>2023-05-28T12:50:31Z</time>
      </trkpt>
      <trkpt lat="39.92782949148724" lon="116.48482794366092">
        <ele>22.2</ele>
        <time>2023-05-28T12:50:49Z</time>
      </trkpt>
      <trkpt lat="39.92811194418856" lon="116.48464622450798">
        <ele>22.599999999999998</ele>
        <time>2023-05-28T12:51:07Z</time>
      </trkpt>
      <trkpt lat="39.92826942886634" lon="116.48447355520649">
        <ele>18.9</ele>
        <time>2023-05-28T12:51:16Z</time>
      </trkpt>
      <trkpt lat="39.92831022903119" lon="116.48440629712184">
        <ele>18.599999999999998</ele>
        <time>2023-05-28T12:51:19Z</time>
      </trkpt>
      <trkpt lat="39.928289839538095" lon="116.48427380134754">
        <ele>18.4</ele>
        <time>2023-05-28T12:51:25Z</time>
      </trkpt>
      <trkpt lat="39.928224650041756" lon="116.48420856415622">
        <ele>18.2</ele>
        <time>2023-05-28T12:51:31Z</time>
      </trkpt>
      <trkpt lat="39.9286804468773" lon="116.48312544044975">
        <ele>66.2</ele>
        <time>2023-05-28T12:51:55Z</time>
      </trkpt>
      <trkpt lat="39.92865498731874" lon="116.4833091325857">
        <ele>43.300000000000004</ele>
        <time>2023-05-28T12:51:58Z</time>
      </trkpt>
      <trkpt lat="39.928698764432475" lon="116.48323384471972">
        <ele>34.400000000000006</ele>
        <time>2023-05-28T12:52:04Z</time>
      </trkpt>
      <trkpt lat="39.928782575331496" lon="116.48317059708057">
        <ele>28.400000000000002</ele>
        <time>2023-05-28T12:52:10Z</time>
      </trkpt>
      <trkpt lat="39.92906245195462" lon="116.48313241909032">
        <ele>26.3</ele>
        <time>2023-05-28T12:52:25Z</time>
      </trkpt>
      <trkpt lat="39.92923937403629" lon="116.48310830666232">
        <ele>27.2</ele>
        <time>2023-05-28T12:52:34Z</time>
      </trkpt>
      <trkpt lat="39.92940941426817" lon="116.48312434564748">
        <ele>28.3</ele>
        <time>2023-05-28T12:52:43Z</time>
      </trkpt>
      <trkpt lat="39.929505224746336" lon="116.48306109657474">
        <ele>29.900000000000002</ele>
        <time>2023-05-28T12:52:49Z</time>
      </trkpt>
      <trkpt lat="39.929528938046204" lon="116.48296372862136">
        <ele>30.8</ele>
        <time>2023-05-28T12:52:55Z</time>
      </trkpt>
      <trkpt lat="39.929524322867266" lon="116.48275394309778">
        <ele>33.900000000000006</ele>
        <time>2023-05-28T12:53:04Z</time>
      </trkpt>
      <trkpt lat="39.92947194832051" lon="116.48262546842379">
        <ele>34.800000000000004</ele>
        <time>2023-05-28T12:53:10Z</time>
      </trkpt>
      <trkpt lat="39.929239328368354" lon="116.48241069333633">
        <ele>31.3</ele>
        <time>2023-05-28T12:53:22Z</time>
      </trkpt>
      <trkpt lat="39.929161858278476" lon="116.48224909835038">
        <ele>28.3</ele>
        <time>2023-05-28T12:53:28Z</time>
      </trkpt>
      <trkpt lat="39.929152576594255" lon="116.48215273909915">
        <ele>26.599999999999998</ele>
        <time>2023-05-28T12:53:31Z</time>
      </trkpt>
      <trkpt lat="39.92909705316604" lon="116.48197307429201">
        <ele>28.400000000000002</ele>
        <time>2023-05-28T12:53:37Z</time>
      </trkpt>
      <trkpt lat="39.92899771670837" lon="116.48185665157526">
        <ele>30.599999999999998</ele>
        <time>2023-05-28T12:53:43Z</time>
      </trkpt>
      <trkpt lat="39.928934672319095" lon="116.48184059944712">
        <ele>30.999999999999996</ele>
        <time>2023-05-28T12:53:46Z</time>
      </trkpt>
      <trkpt lat="39.928733841912766" lon="116.48189583082312">
        <ele>28.900000000000002</ele>
        <time>2023-05-28T12:53:58Z</time>
      </trkpt>
      <trkpt lat="39.92846916093889" lon="116.48200125779798">
        <ele>26.400000000000002</ele>
        <time>2023-05-28T12:54:10Z</time>
      </trkpt>
      <trkpt lat="39.92828020974643" lon="116.48201533393569">
        <ele>29.999999999999996</ele>
        <time>2023-05-28T12:54:19Z</time>
      </trkpt>
      <trkpt lat="39.92813937993761" lon="116.48207156167085">
        <ele>28.2</ele>
        <time>2023-05-28T12:54:28Z</time>
      </trkpt>
      <trkpt lat="39.92808251148889" lon="116.48211573390988">
        <ele>28.8</ele>
        <time>2023-05-28T12:54:31Z</time>
      </trkpt>
      <trkpt lat="39.92791734105495" lon="116.48239680589242">
        <ele>31.099999999999998</ele>
        <time>2023-05-28T12:54:43Z</time>
      </trkpt>
      <trkpt lat="39.927824171377814" lon="116.4826788734778">
        <ele>28.8</ele>
        <time>2023-05-28T12:54:55Z</time>
      </trkpt>
      <trkpt lat="39.92773440459835" lon="116.48275717794654">
        <ele>28.8</ele>
        <time>2023-05-28T12:55:01Z</time>
      </trkpt>
      <trkpt lat="39.92748932924831" lon="116.48272809951781">
        <ele>28.3</ele>
        <time>2023-05-28T12:55:13Z</time>
      </trkpt>
      <trkpt lat="39.927278470311485" lon="116.48277329505443">
        <ele>32.400000000000006</ele>
        <time>2023-05-28T12:55:22Z</time>
      </trkpt>
      <trkpt lat="39.927234631068075" lon="116.48282750359793">
        <ele>32.7</ele>
        <time>2023-05-28T12:55:25Z</time>
      </trkpt>
      <trkpt lat="39.92719033087573" lon="116.48306540072615">
        <ele>30.3</ele>
        <time>2023-05-28T12:55:37Z</time>
      </trkpt>
      <trkpt lat="39.927200501355614" lon="116.48312361773881">
        <ele>29.499999999999996</ele>
        <time>2023-05-28T12:55:40Z</time>
      </trkpt>
      <trkpt lat="39.927173744111364" lon="116.48320592974386">
        <ele>29.099999999999998</ele>
        <time>2023-05-28T12:55:43Z</time>
      </trkpt>
      <trkpt lat="39.927169042043" lon="116.48330731060558">
        <ele>28.900000000000002</ele>
        <time>2023-05-28T12:55:46Z</time>
      </trkpt>
      <trkpt lat="39.92711716210485" lon="116.48334746771496">
        <ele>30.599999999999998</ele>
        <time>2023-05-28T12:55:49Z</time>
      </trkpt>
      <trkpt lat="39.927094098276605" lon="116.48434521860945">
        <ele>23.4</ele>
        <time>2023-05-28T12:56:19Z</time>
      </trkpt>
      <trkpt lat="39.92704038438521" lon="116.48444158776508">
        <ele>26.3</ele>
        <time>2023-05-28T12:56:22Z</time>
      </trkpt>
      <trkpt lat="39.92671043928925" lon="116.48445568180759">
        <ele>25.7</ele>
        <time>2023-05-28T12:56:40Z</time>
      </trkpt>
      <trkpt lat="39.92639247596696" lon="116.4844637516986">
        <ele>30.3</ele>
        <time>2023-05-28T12:56:52Z</time>
      </trkpt>
      <trkpt lat="39.92610748468215" lon="116.48446278348939">
        <ele>29.099999999999998</ele>
        <time>2023-05-28T12:57:04Z</time>
      </trkpt>
      <trkpt lat="39.92603447584205" lon="116.48445877749657">
        <ele>28.7</ele>
        <time>2023-05-28T12:57:07Z</time>
      </trkpt>
      <trkpt lat="39.92587225179614" lon="116.48438050323743">
        <ele>25.4</ele>
        <time>2023-05-28T12:57:19Z</time>
      </trkpt>
      <trkpt lat="39.92566018656197" lon="116.48435543532246">
        <ele>24.4</ele>
        <time>2023-05-28T12:57:28Z</time>
      </trkpt>
      <trkpt lat="39.92541435043042" lon="116.48440766232126">
        <ele>27.3</ele>
        <time>2023-05-28T12:57:37Z</time>
      </trkpt>
      <trkpt lat="39.92512433572079" lon="116.48439866453472">
        <ele>28.999999999999996</ele>
        <time>2023-05-28T12:57:49Z</time>
      </trkpt>
      <trkpt lat="39.92499037671425" lon="116.48441072655864">
        <ele>29.2</ele>
        <time>2023-05-28T12:57:55Z</time>
      </trkpt>
      <trkpt lat="39.92490451334105" lon="116.48445590718332">
        <ele>28.7</ele>
        <time>2023-05-28T12:58:01Z</time>
      </trkpt>
      <trkpt lat="39.92473735169615" lon="116.48473798941863">
        <ele>25.4</ele>
        <time>2023-05-28T12:58:13Z</time>
      </trkpt>
      <trkpt lat="39.924689475035386" lon="116.48477915031003">
        <ele>25.2</ele>
        <time>2023-05-28T12:58:16Z</time>
      </trkpt>
      <trkpt lat="39.924599964326575" lon="116.48494378128512">
        <ele>22.2</ele>
        <time>2023-05-28T12:58:25Z</time>
      </trkpt>
      <trkpt lat="39.924594639995505" lon="116.4851726439897">
        <ele>20.4</ele>
        <time>2023-05-28T12:58:34Z</time>
      </trkpt>
      <trkpt lat="39.92462207752053" lon="116.48532120035472">
        <ele>21.599999999999998</ele>
        <time>2023-05-28T12:58:40Z</time>
      </trkpt>
      <trkpt lat="39.92472252406232" lon="116.48547376291671">
        <ele>21.8</ele>
        <time>2023-05-28T12:58:46Z</time>
      </trkpt>
      <trkpt lat="39.9248348397585" lon="116.48558215763069">
        <ele>22.8</ele>
        <time>2023-05-28T12:58:52Z</time>
      </trkpt>
      <trkpt lat="39.92489526151882" lon="116.48572569140724">
        <ele>22.3</ele>
        <time>2023-05-28T12:58:58Z</time>
      </trkpt>
      <trkpt lat="39.92491976207116" lon="116.48589532827503">
        <ele>21.5</ele>
        <time>2023-05-28T12:59:04Z</time>
      </trkpt>
      <trkpt lat="39.92490932067265" lon="116.48608404168034">
        <ele>20.9</ele>
        <time>2023-05-28T12:59:13Z</time>
      </trkpt>
      <trkpt lat="39.92482772795529" lon="116.48622056714393">
        <ele>20.4</ele>
        <time>2023-05-28T12:59:22Z</time>
      </trkpt>
      <trkpt lat="39.92472509759541" lon="116.48634404608046">
        <ele>21.099999999999998</ele>
        <time>2023-05-28T12:59:34Z</time>
      </trkpt>
      <trkpt lat="39.92453528369127" lon="116.48640429716858">
        <ele>24.4</ele>
        <time>2023-05-28T12:59:43Z</time>
      </trkpt>
      <trkpt lat="39.92439716754125" lon="116.48636315898368">
        <ele>26.7</ele>
        <time>2023-05-28T12:59:49Z</time>
      </trkpt>
      <trkpt lat="39.92428488396588" lon="116.48626580536047">
        <ele>29.099999999999998</ele>
        <time>2023-05-28T12:59:58Z</time>
      </trkpt>
      <trkpt lat="39.92420689311843" lon="116.48626782266456">
        <ele>30.2</ele>
        <time>2023-05-28T13:00:04Z</time>
      </trkpt>
      <trkpt lat="39.92397023266484" lon="116.48637927286134">
        <ele>31.499999999999996</ele>
        <time>2023-05-28T13:00:13Z</time>
      </trkpt>
      <trkpt lat="39.92380261997715" lon="116.48650777897515">
        <ele>31.900000000000002</ele>
        <time>2023-05-28T13:00:19Z</time>
      </trkpt>
      <trkpt lat="39.923694007934394" lon="116.48663728162727">
        <ele>31.8</ele>
        <time>2023-05-28T13:00:25Z</time>
      </trkpt>
      <trkpt lat="39.92347495379535" lon="116.48695350370409">
        <ele>32.300000000000004</ele>
        <time>2023-05-28T13:00:37Z</time>
      </trkpt>
      <trkpt lat="39.923297746704506" lon="116.48721852757143">
        <ele>32.300000000000004</ele>
        <time>2023-05-28T13:00:52Z</time>
      </trkpt>
      <trkpt lat="39.92311894459365" lon="116.48728279277087">
        <ele>31.8</ele>
        <time>2023-05-28T13:01:01Z</time>
      </trkpt>
      <trkpt lat="39.92285392577346" lon="116.48727278784358">
        <ele>29.499999999999996</ele>
        <time>2023-05-28T13:01:16Z</time>
      </trkpt>
      <trkpt lat="39.92279510979925" lon="116.4873340267183">
        <ele>26.0</ele>
        <time>2023-05-28T13:01:19Z</time>
      </trkpt>
      <trkpt lat="39.92272400314521" lon="116.48763417081712">
        <ele>18.7</ele>
        <time>2023-05-28T13:01:31Z</time>
      </trkpt>
      <trkpt lat="39.92272545293598" lon="116.48778574412745">
        <ele>18.3</ele>
        <time>2023-05-28T13:01:37Z</time>
      </trkpt>
      <trkpt lat="39.92267953971925" lon="116.48815113276422">
        <ele>15.899999999999999</ele>
        <time>2023-05-28T13:01:52Z</time>
      </trkpt>
      <trkpt lat="39.92265475243239" lon="116.48822240566959">
        <ele>15.2</ele>
        <time>2023-05-28T13:01:55Z</time>
      </trkpt>
      <trkpt lat="39.92264215850759" lon="116.48835892413508">
        <ele>13.099999999999998</ele>
        <time>2023-05-28T13:02:01Z</time>
      </trkpt>
      <trkpt lat="39.922672616583114" lon="116.48851350574833">
        <ele>12.7</ele>
        <time>2023-05-28T13:02:07Z</time>
      </trkpt>
      <trkpt lat="39.92277731339456" lon="116.48874938621651">
        <ele>13.099999999999998</ele>
        <time>2023-05-28T13:02:19Z</time>
      </trkpt>
      <trkpt lat="39.9228144670375" lon="116.48880157933196">
        <ele>13.8</ele>
        <time>2023-05-28T13:02:22Z</time>
      </trkpt>
      <trkpt lat="39.9231297703724" lon="116.48890794318717">
        <ele>15.399999999999999</ele>
        <time>2023-05-28T13:02:40Z</time>
      </trkpt>
      <trkpt lat="39.92331761636826" lon="116.48885873343555">
        <ele>19.7</ele>
        <time>2023-05-28T13:02:49Z</time>
      </trkpt>
      <trkpt lat="39.9235927035106" lon="116.48889182467882">
        <ele>24.4</ele>
        <time>2023-05-28T13:03:04Z</time>
      </trkpt>
      <trkpt lat="39.92367363749498" lon="116.48887073473139">
        <ele>25.9</ele>
        <time>2023-05-28T13:03:10Z</time>
      </trkpt>
      <trkpt lat="39.92398478882917" lon="116.48892590515842">
        <ele>28.099999999999998</ele>
        <time>2023-05-28T13:03:28Z</time>
      </trkpt>
      <trkpt lat="39.92430276379359" lon="116.48892185034157">
        <ele>29.099999999999998</ele>
        <time>2023-05-28T13:03:40Z</time>
      </trkpt>
      <trkpt lat="39.924580749368424" lon="116.48892081191502">
        <ele>26.400000000000002</ele>
        <time>2023-05-28T13:03:49Z</time>
      </trkpt>
      <trkpt lat="39.92487489547329" lon="116.4889739768652">
        <ele>24.7</ele>
        <time>2023-05-28T13:03:58Z</time>
      </trkpt>
      <trkpt lat="39.92506594433797" lon="116.48899302533967">
        <ele>23.0</ele>
        <time>2023-05-28T13:04:04Z</time>
      </trkpt>
      <trkpt lat="39.92528067582767" lon="116.48890566768596">
        <ele>22.2</ele>
        <time>2023-05-28T13:04:13Z</time>
      </trkpt>
      <trkpt lat="39.92536567233756" lon="116.48890565709914">
        <ele>21.9</ele>
        <time>2023-05-28T13:04:16Z</time>
      </trkpt>
      <trkpt lat="39.92549452676915" lon="116.48885846229403">
        <ele>21.5</ele>
        <time>2023-05-28T13:04:22Z</time>
      </trkpt>
      <trkpt lat="39.92577743756444" lon="116.48883232817188">
        <ele>20.2</ele>
        <time>2023-05-28T13:04:34Z</time>
      </trkpt>
      <trkpt lat="39.9260634825417" lon="116.48885136480176">
        <ele>19.5</ele>
        <time>2023-05-28T13:04:46Z</time>
      </trkpt>
      <trkpt lat="39.9261443688023" lon="116.48881421400962">
        <ele>20.0</ele>
        <time>2023-05-28T13:04:49Z</time>
      </trkpt>
      <trkpt lat="39.92621905240748" lon="116.48870880540423">
        <ele>21.2</ele>
        <time>2023-05-28T13:04:52Z</time>
      </trkpt>
      <trkpt lat="39.926361056178536" lon="116.48837552545287">
        <ele>22.7</ele>
        <time>2023-05-28T13:05:04Z</time>
      </trkpt>
      <trkpt lat="39.926446879692016" lon="116.48831729429253">
        <ele>19.2</ele>
        <time>2023-05-28T13:05:10Z</time>
      </trkpt>
      <trkpt lat="39.926505656620115" lon="116.48824300570452">
        <ele>21.599999999999998</ele>
        <time>2023-05-28T13:05:16Z</time>
      </trkpt>
      <trkpt lat="39.92665455511043" lon="116.48821086553137">
        <ele>24.0</ele>
        <time>2023-05-28T13:05:28Z</time>
      </trkpt>
      <trkpt lat="39.92670259786943" lon="116.48822591655434">
        <ele>23.9</ele>
        <time>2023-05-28T13:05:31Z</time>
      </trkpt>
      <trkpt lat="39.926769541460295" lon="116.48820783980224">
        <ele>24.0</ele>
        <time>2023-05-28T13:05:34Z</time>
      </trkpt>
      <trkpt lat="39.927063995784685" lon="116.48802812288255">
        <ele>24.099999999999998</ele>
        <time>2023-05-28T13:05:43Z</time>
      </trkpt>
      <trkpt lat="39.92722565536385" lon="116.48791567719475">
        <ele>23.9</ele>
        <time>2023-05-28T13:05:49Z</time>
      </trkpt>
      <trkpt lat="39.92735453983368" lon="116.4878785205651">
        <ele>22.2</ele>
        <time>2023-05-28T13:05:55Z</time>
      </trkpt>
      <trkpt lat="39.92754793901485" lon="116.48767874054933">
        <ele>23.8</ele>
        <time>2023-05-28T13:06:04Z</time>
      </trkpt>
      <trkpt lat="39.92760669235721" lon="116.48759642180278">
        <ele>23.7</ele>
        <time>2023-05-28T13:06:07Z</time>
      </trkpt>
      <trkpt lat="39.92770706288309" lon="116.4873856119036">
        <ele>26.3</ele>
        <time>2023-05-28T13:06:13Z</time>
      </trkpt>
      <trkpt lat="39.927728788097475" lon="116.48729325993794">
        <ele>28.3</ele>
        <time>2023-05-28T13:06:16Z</time>
      </trkpt>
      <trkpt lat="39.92768992959296" lon="116.48700316796636">
        <ele>29.499999999999996</ele>
        <time>2023-05-28T13:06:25Z</time>
      </trkpt>
      <trkpt lat="39.92766048754477" lon="116.48685360633995">
        <ele>28.599999999999998</ele>
        <time>2023-05-28T13:06:31Z</time>
      </trkpt>
      <trkpt lat="39.92762528376286" lon="116.48678434899233">
        <ele>29.8</ele>
        <time>2023-05-28T13:06:34Z</time>
      </trkpt>
      <trkpt lat="39.92762508750084" lon="116.48671809868692">
        <ele>31.3</ele>
        <time>2023-05-28T13:06:37Z</time>
      </trkpt>
      <trkpt lat="39.927683820477455" lon="116.48662875383984">
        <ele>33.300000000000004</ele>
        <time>2023-05-28T13:06:43Z</time>
      </trkpt>
      <trkpt lat="39.927734714346904" lon="116.4865936147731">
        <ele>33.300000000000004</ele>
        <time>2023-05-28T13:06:46Z</time>
      </trkpt>
      <trkpt lat="39.92777326988906" lon="116.48644404504078">
        <ele>32.7</ele>
        <time>2023-05-28T13:06:52Z</time>
      </trkpt>
      <trkpt lat="39.92775072111308" lon="116.48625834663564">
        <ele>31.999999999999996</ele>
        <time>2023-05-28T13:06:58Z</time>
      </trkpt>
      <trkpt lat="39.92775741785733" lon="116.4861559592802">
        <ele>30.8</ele>
        <time>2023-05-28T13:07:01Z</time>
      </trkpt>
      <trkpt lat="39.927780238732424" lon="116.48609572910182">
        <ele>29.999999999999996</ele>
        <time>2023-05-28T13:07:04Z</time>
      </trkpt>
      <trkpt lat="39.92795170323436" lon="116.48591703344113">
        <ele>27.599999999999998</ele>
        <time>2023-05-28T13:07:16Z</time>
      </trkpt>
      <trkpt lat="39.92795518073745" lon="116.48574036652612">
        <ele>28.8</ele>
        <time>2023-05-28T13:07:22Z</time>
      </trkpt>
      <trkpt lat="39.92791663643774" lon="116.48555567479687">
        <ele>29.499999999999996</ele>
        <time>2023-05-28T13:07:28Z</time>
      </trkpt>
      <trkpt lat="39.92791542294913" lon="116.4854834024579">
        <ele>30.599999999999998</ele>
        <time>2023-05-28T13:07:31Z</time>
      </trkpt>
      <trkpt lat="39.92786290622835" lon="116.48530774686925">
        <ele>29.8</ele>
        <time>2023-05-28T13:07:37Z</time>
      </trkpt>
      <trkpt lat="39.927824134372614" lon="116.48504576460915">
        <ele>29.999999999999996</ele>
        <time>2023-05-28T13:07:46Z</time>
      </trkpt>
      <trkpt lat="39.9277597193759" lon="116.48490423961118">
        <ele>29.499999999999996</ele>
        <time>2023-05-28T13:07:52Z</time>
      </trkpt>
      <trkpt lat="39.92776548817762" lon="116.48482594408942">
        <ele>27.999999999999996</ele>
        <time>2023-05-28T13:07:55Z</time>
      </trkpt>
      <trkpt lat="39.92789005682293" lon="116.48468138442485">
        <ele>24.2</ele>
        <time>2023-05-28T13:08:07Z</time>
      </trkpt>
      <trkpt lat="39.92818982856127" lon="116.48460807123995">
        <ele>22.2</ele>
        <time>2023-05-28T13:08:22Z</time>
      </trkpt>
      <trkpt lat="39.928307619599785" lon="116.48453879591686">
        <ele>20.8</ele>
        <time>2023-05-28T13:08:28Z</time>
      </trkpt>
      <trkpt lat="39.92836021220644" lon="116.48440127200473">
        <ele>19.8</ele>
        <time>2023-05-28T13:08:34Z</time>
      </trkpt>
      <trkpt lat="39.92836002886499" lon="116.48433903795221">
        <ele>19.599999999999998</ele>
        <time>2023-05-28T13:08:37Z</time>
      </trkpt>
      <trkpt lat="39.92845465249132" lon="116.48421255054227">
        <ele>17.7</ele>
        <time>2023-05-28T13:08:46Z</time>
      </trkpt>
      <trkpt lat="39.92845942175502" lon="116.4841342555984">
        <ele>17.099999999999998</ele>
        <time>2023-05-28T13:08:49Z</time>
      </trkpt>
      <trkpt lat="39.928484640349986" lon="116.48406891975736">
        <ele>16.7</ele>
        <time>2023-05-28T13:08:52Z</time>
      </trkpt>
      <trkpt lat="39.92845942036494" lon="116.48379397695">
        <ele>15.8</ele>
        <time>2023-05-28T13:08:58Z</time>
      </trkpt>
      <trkpt lat="39.92842196139784" lon="116.48363739357735">
        <ele>15.3</ele>
        <time>2023-05-28T13:09:01Z</time>
      </trkpt>
      <trkpt lat="39.92842952145373" lon="116.48348783118499">
        <ele>15.3</ele>
        <time>2023-05-28T13:09:04Z</time>
      </trkpt>
      <trkpt lat="39.92847437508978" lon="116.48343864099317">
        <ele>15.3</ele>
        <time>2023-05-28T13:09:07Z</time>
      </trkpt>
      <trkpt lat="39.928552368962805" lon="116.48343762748738">
        <ele>15.7</ele>
        <time>2023-05-28T13:09:10Z</time>
      </trkpt>
      <trkpt lat="39.92860403362069" lon="116.48332419543493">
        <ele>16.599999999999998</ele>
        <time>2023-05-28T13:09:13Z</time>
      </trkpt>
      <trkpt lat="39.928719577896615" lon="116.48317060494786">
        <ele>24.5</ele>
        <time>2023-05-28T13:09:19Z</time>
      </trkpt>
      <trkpt lat="39.92899546941447" lon="116.4831374462755">
        <ele>24.099999999999998</ele>
        <time>2023-05-28T13:09:31Z</time>
      </trkpt>
      <trkpt lat="39.92927440207805" lon="116.48311833992568">
        <ele>28.499999999999996</ele>
        <time>2023-05-28T13:09:43Z</time>
      </trkpt>
      <trkpt lat="39.92938351551554" lon="116.48315847686071">
        <ele>30.599999999999998</ele>
        <time>2023-05-28T13:09:49Z</time>
      </trkpt>
      <trkpt lat="39.929430510657745" lon="116.48315746722739">
        <ele>30.7</ele>
        <time>2023-05-28T13:09:52Z</time>
      </trkpt>
      <trkpt lat="39.92947937311714" lon="116.4831112879803">
        <ele>31.3</ele>
        <time>2023-05-28T13:09:55Z</time>
      </trkpt>
      <trkpt lat="39.92952402366332" lon="116.48299283834645">
        <ele>32.300000000000004</ele>
        <time>2023-05-28T13:10:01Z</time>
      </trkpt>
      <trkpt lat="39.92951442334976" lon="116.48278807218604">
        <ele>31.2</ele>
        <time>2023-05-28T13:10:10Z</time>
      </trkpt>
      <trkpt lat="39.9294922270456" lon="116.48272082302697">
        <ele>30.900000000000002</ele>
        <time>2023-05-28T13:10:13Z</time>
      </trkpt>
      <trkpt lat="39.92931572815206" lon="116.4825481985399">
        <ele>31.999999999999996</ele>
        <time>2023-05-28T13:10:22Z</time>
      </trkpt>
      <trkpt lat="39.929189927666094" lon="116.48227318496203">
        <ele>25.099999999999998</ele>
        <time>2023-05-28T13:10:34Z</time>
      </trkpt>
      <trkpt lat="39.92919868635737" lon="116.48219087598888">
        <ele>24.3</ele>
        <time>2023-05-28T13:10:40Z</time>
      </trkpt>
      <trkpt lat="39.92913525715021" lon="116.48204333216954">
        <ele>22.3</ele>
        <time>2023-05-28T13:10:46Z</time>
      </trkpt>
      <trkpt lat="39.929024706805855" lon="116.48185363695141">
        <ele>23.8</ele>
        <time>2023-05-28T13:10:52Z</time>
      </trkpt>
      <trkpt lat="39.92897354749251" lon="116.48179843708799">
        <ele>24.7</ele>
        <time>2023-05-28T13:10:55Z</time>
      </trkpt>
      <trkpt lat="39.92889746256813" lon="116.48176833410666">
        <ele>27.2</ele>
        <time>2023-05-28T13:11:01Z</time>
      </trkpt>
      <trkpt lat="39.928603914714955" lon="116.48191893333066">
        <ele>24.0</ele>
        <time>2023-05-28T13:11:16Z</time>
      </trkpt>
      <trkpt lat="39.9284501323527" lon="116.4819912226556">
        <ele>26.7</ele>
        <time>2023-05-28T13:11:22Z</time>
      </trkpt>
      <trkpt lat="39.92825221088768" lon="116.48201533743391">
        <ele>30.499999999999996</ele>
        <time>2023-05-28T13:11:31Z</time>
      </trkpt>
      <trkpt lat="39.92810049019479" lon="116.48210870539094">
        <ele>32.7</ele>
        <time>2023-05-28T13:11:40Z</time>
      </trkpt>
      <trkpt lat="39.927891450898635" lon="116.48243394811803">
        <ele>29.3</ele>
        <time>2023-05-28T13:11:55Z</time>
      </trkpt>
      <trkpt lat="39.927797178364635" lon="116.48268088436794">
        <ele>25.9</ele>
        <time>2023-05-28T13:12:04Z</time>
      </trkpt>
      <trkpt lat="39.927754283115256" lon="116.48271602130812">
        <ele>25.5</ele>
        <time>2023-05-28T13:12:07Z</time>
      </trkpt>
      <trkpt lat="39.92743445216579" lon="116.48276926053192">
        <ele>28.8</ele>
        <time>2023-05-28T13:12:26Z</time>
      </trkpt>
      <trkpt lat="39.92729856368906" lon="116.48280541287801">
        <ele>29.499999999999996</ele>
        <time>2023-05-28T13:12:32Z</time>
      </trkpt>
      <trkpt lat="39.927240683815214" lon="116.48284557053805">
        <ele>28.3</ele>
        <time>2023-05-28T13:12:35Z</time>
      </trkpt>
      <trkpt lat="39.92718798043649" lon="116.48294595326965">
        <ele>27.599999999999998</ele>
        <time>2023-05-28T13:12:41Z</time>
      </trkpt>
      <trkpt lat="39.92722712812418" lon="116.48333741632474">
        <ele>25.3</ele>
        <time>2023-05-28T13:12:56Z</time>
      </trkpt>
      <trkpt lat="39.92716689457248" lon="116.48359739953322">
        <ele>25.3</ele>
        <time>2023-05-28T13:13:05Z</time>
      </trkpt>
      <trkpt lat="39.92728946514716" lon="116.48379311924239">
        <ele>31.2</ele>
        <time>2023-05-28T13:13:26Z</time>
      </trkpt>
      <trkpt lat="39.926997303331056" lon="116.48441348741864">
        <ele>32.800000000000004</ele>
        <time>2023-05-28T13:13:35Z</time>
      </trkpt>
      <trkpt lat="39.92671429716051" lon="116.48440750008548">
        <ele>28.099999999999998</ele>
        <time>2023-05-28T13:13:47Z</time>
      </trkpt>
      <trkpt lat="39.92641528869583" lon="116.48440051097396">
        <ele>28.900000000000002</ele>
        <time>2023-05-28T13:13:59Z</time>
      </trkpt>
      <trkpt lat="39.926149382399004" lon="116.48442864987874">
        <ele>29.400000000000002</ele>
        <time>2023-05-28T13:14:11Z</time>
      </trkpt>
      <trkpt lat="39.925944346436715" lon="116.48441361883162">
        <ele>28.999999999999996</ele>
        <time>2023-05-28T13:14:20Z</time>
      </trkpt>
      <trkpt lat="39.925830422091536" lon="116.4844377236674">
        <ele>29.099999999999998</ele>
        <time>2023-05-28T13:14:26Z</time>
      </trkpt>
      <trkpt lat="39.92554039849464" lon="116.48442571455242">
        <ele>30.599999999999998</ele>
        <time>2023-05-28T13:14:38Z</time>
      </trkpt>
      <trkpt lat="39.925277270292476" lon="116.48437856994086">
        <ele>32.6</ele>
        <time>2023-05-28T13:14:50Z</time>
      </trkpt>
      <trkpt lat="39.925187303560314" lon="116.48438861892211">
        <ele>31.7</ele>
        <time>2023-05-28T13:14:53Z</time>
      </trkpt>
      <trkpt lat="39.925052424444715" lon="116.48442778300138">
        <ele>29.7</ele>
        <time>2023-05-28T13:14:59Z</time>
      </trkpt>
      <trkpt lat="39.924989427033005" lon="116.48442779086315">
        <ele>29.8</ele>
        <time>2023-05-28T13:15:02Z</time>
      </trkpt>
      <trkpt lat="39.92488260298267" lon="116.48448602320005">
        <ele>28.499999999999996</ele>
        <time>2023-05-28T13:15:08Z</time>
      </trkpt>
      <trkpt lat="39.924759069628145" lon="116.4846426278067">
        <ele>26.8</ele>
        <time>2023-05-28T13:15:17Z</time>
      </trkpt>
      <trkpt lat="39.92470745949388" lon="116.4847741291729">
        <ele>25.8</ele>
        <time>2023-05-28T13:15:23Z</time>
      </trkpt>
      <trkpt lat="39.924639620365596" lon="116.48516661568773">
        <ele>24.4</ele>
        <time>2023-05-28T13:15:41Z</time>
      </trkpt>
      <trkpt lat="39.924629848962724" lon="116.48524390812312">
        <ele>26.0</ele>
        <time>2023-05-28T13:15:44Z</time>
      </trkpt>
      <trkpt lat="39.92469428207725" lon="116.48539145617085">
        <ele>29.2</ele>
        <time>2023-05-28T13:15:53Z</time>
      </trkpt>
      <trkpt lat="39.924889009585826" lon="116.48564037040954">
        <ele>24.099999999999998</ele>
        <time>2023-05-28T13:16:08Z</time>
      </trkpt>
      <trkpt lat="39.92502778434786" lon="116.48590434888743">
        <ele>28.3</ele>
        <time>2023-05-28T13:16:17Z</time>
      </trkpt>
      <trkpt lat="39.92505526419285" lon="116.48606695907786">
        <ele>28.3</ele>
        <time>2023-05-28T13:16:23Z</time>
      </trkpt>
      <trkpt lat="39.92501480938445" lon="116.4862506574988">
        <ele>28.7</ele>
        <time>2023-05-28T13:16:29Z</time>
      </trkpt>
      <trkpt lat="39.92496100470423" lon="116.48631591054288">
        <ele>29.099999999999998</ele>
        <time>2023-05-28T13:16:32Z</time>
      </trkpt>
      <trkpt lat="39.92484711932054" lon="116.48635306497714">
        <ele>28.499999999999996</ele>
        <time>2023-05-28T13:16:38Z</time>
      </trkpt>
      <trkpt lat="39.92466747439764" lon="116.48647053087579">
        <ele>27.599999999999998</ele>
        <time>2023-05-28T13:16:50Z</time>
      </trkpt>
      <trkpt lat="39.924455251324574" lon="116.48639226166163">
        <ele>25.9</ele>
        <time>2023-05-28T13:17:02Z</time>
      </trkpt>
      <trkpt lat="39.92435496129508" lon="116.48629289894443">
        <ele>26.7</ele>
        <time>2023-05-28T13:17:08Z</time>
      </trkpt>
      <trkpt lat="39.92428987781873" lon="116.48626379715856">
        <ele>26.3</ele>
        <time>2023-05-28T13:17:11Z</time>
      </trkpt>
      <trkpt lat="39.92400913300572" lon="116.48634614293334">
        <ele>29.900000000000002</ele>
        <time>2023-05-28T13:17:20Z</time>
      </trkpt>
      <trkpt lat="39.9237727282166" lon="116.48654391918757">
        <ele>29.3</ele>
        <time>2023-05-28T13:17:35Z</time>
      </trkpt>
      <trkpt lat="39.92354766819868" lon="116.48685813424991">
        <ele>30.599999999999998</ele>
        <time>2023-05-28T13:17:50Z</time>
      </trkpt>
      <trkpt lat="39.923347551188634" lon="116.4871532746768">
        <ele>32.2</ele>
        <time>2023-05-28T13:18:05Z</time>
      </trkpt>
      <trkpt lat="39.92325483479656" lon="116.48724764298774">
        <ele>33.900000000000006</ele>
        <time>2023-05-28T13:18:11Z</time>
      </trkpt>
      <trkpt lat="39.9230750684613" lon="116.48732395386807">
        <ele>33.900000000000006</ele>
        <time>2023-05-28T13:18:20Z</time>
      </trkpt>
      <trkpt lat="39.92282901610933" lon="116.4873029048199">
        <ele>31.7</ele>
        <time>2023-05-28T13:18:32Z</time>
      </trkpt>
      <trkpt lat="39.92277009594755" lon="116.48732901085589">
        <ele>31.8</ele>
        <time>2023-05-28T13:18:35Z</time>
      </trkpt>
      <trkpt lat="39.922745302406014" lon="116.4873982758793">
        <ele>30.8</ele>
        <time>2023-05-28T13:18:38Z</time>
      </trkpt>
      <trkpt lat="39.922715161391814" lon="116.48768737319718">
        <ele>26.3</ele>
        <time>2023-05-28T13:18:47Z</time>
      </trkpt>
      <trkpt lat="39.92271944126641" lon="116.4877817296832">
        <ele>25.3</ele>
        <time>2023-05-28T13:18:50Z</time>
      </trkpt>
      <trkpt lat="39.92274469349975" lon="116.48786704941159">
        <ele>24.5</ele>
        <time>2023-05-28T13:18:53Z</time>
      </trkpt>
      <trkpt lat="39.92273723326134" lon="116.48804873799207">
        <ele>26.599999999999998</ele>
        <time>2023-05-28T13:18:59Z</time>
      </trkpt>
      <trkpt lat="39.922669064944785" lon="116.48832780295405">
        <ele>26.599999999999998</ele>
        <time>2023-05-28T13:19:08Z</time>
      </trkpt>
      <trkpt lat="39.92268493826912" lon="116.48862191481903">
        <ele>29.2</ele>
        <time>2023-05-28T13:19:20Z</time>
      </trkpt>
      <trkpt lat="39.92270218818835" lon="116.48870623206354">
        <ele>30.099999999999998</ele>
        <time>2023-05-28T13:19:23Z</time>
      </trkpt>
      <trkpt lat="39.92270218818835" lon="116.48870623206354">
        <ele>30.099999999999998</ele>
        <time>2023-05-28T13:19:26Z</time>
      </trkpt>
    </trkseg>
  </trk>
</gpx>