<?xml version="1.0" encoding="UTF-8"?>
<gpx xmlns="http://www.topografix.com/GPX/1/1" xmlns:gpxtpx="http://www.garmin.com/xmlschemas/TrackPointExtension/v1" xmlns:xsi="http://www.w3.org/2001/XMLSchema-instance" xsi:schemaLocation="http://www.topografix.com/GPX/1/1 http://www.topografix.com/GPX/1/1/gpx.xsd" version="1.1" creator="gpx.py -- https://github.com/tkrajina/gpxpy">
  <trk>
    <name>gpx from keep</name>
    <type>Run</type>
    <trkseg>
      <trkpt lat="39.924492037883475" lon="116.45608650103489">
        <ele>16.9</ele>
        <time>2023-03-28T03:17:11Z</time>
      </trkpt>
      <trkpt lat="39.92435119404572" lon="116.45614871297275">
        <ele>16.799999999999997</ele>
        <time>2023-03-28T03:17:14Z</time>
      </trkpt>
      <trkpt lat="39.924123961793256" lon="116.4564617208154">
        <ele>17.5</ele>
        <time>2023-03-28T03:17:26Z</time>
      </trkpt>
      <trkpt lat="39.924019180519444" lon="116.45655001084069">
        <ele>18.0</ele>
        <time>2023-03-28T03:17:32Z</time>
      </trkpt>
      <trkpt lat="39.92380117730323" lon="116.45654502261378">
        <ele>20.5</ele>
        <time>2023-03-28T03:17:41Z</time>
      </trkpt>
      <trkpt lat="39.923721126977604" lon="116.45652296349208">
        <ele>22.700000000000003</ele>
        <time>2023-03-28T03:17:44Z</time>
      </trkpt>
      <trkpt lat="39.923416324830875" lon="116.45659924115641">
        <ele>29.6</ele>
        <time>2023-03-28T03:17:59Z</time>
      </trkpt>
      <trkpt lat="39.9233313722427" lon="116.45661730855903">
        <ele>31.4</ele>
        <time>2023-03-28T03:18:02Z</time>
      </trkpt>
      <trkpt lat="39.92306870536699" lon="116.4567497577309">
        <ele>38.2</ele>
        <time>2023-03-28T03:18:11Z</time>
      </trkpt>
      <trkpt lat="39.92290466327089" lon="116.4567297153532">
        <ele>38.7</ele>
        <time>2023-03-28T03:18:20Z</time>
      </trkpt>
      <trkpt lat="39.922838756399" lon="116.45676684036724">
        <ele>38.7</ele>
        <time>2023-03-28T03:18:23Z</time>
      </trkpt>
      <trkpt lat="39.922731186525304" lon="116.45694140338681">
        <ele>38.5</ele>
        <time>2023-03-28T03:18:29Z</time>
      </trkpt>
      <trkpt lat="39.92267894921927" lon="116.45725239152047">
        <ele>30.6</ele>
        <time>2023-03-28T03:18:41Z</time>
      </trkpt>
      <trkpt lat="39.922657049071894" lon="116.45769981233353">
        <ele>23.0</ele>
        <time>2023-03-28T03:18:59Z</time>
      </trkpt>
      <trkpt lat="39.922706563921885" lon="116.45790947297618">
        <ele>22.5</ele>
        <time>2023-03-28T03:19:05Z</time>
      </trkpt>
      <trkpt lat="39.92276671253172" lon="116.45797066031663">
        <ele>25.4</ele>
        <time>2023-03-28T03:19:08Z</time>
      </trkpt>
      <trkpt lat="39.92297902115293" lon="116.45809904298422">
        <ele>30.200000000000003</ele>
        <time>2023-03-28T03:19:20Z</time>
      </trkpt>
      <trkpt lat="39.92301412146276" lon="116.45814016982621">
        <ele>30.1</ele>
        <time>2023-03-28T03:19:23Z</time>
      </trkpt>
      <trkpt lat="39.923072022028386" lon="116.45850432723597">
        <ele>32.300000000000004</ele>
        <time>2023-03-28T03:19:44Z</time>
      </trkpt>
      <trkpt lat="39.92312179395525" lon="116.4588153191602">
        <ele>32.7</ele>
        <time>2023-03-28T03:20:08Z</time>
      </trkpt>
      <trkpt lat="39.923115989350656" lon="116.45889357156254">
        <ele>31.700000000000003</ele>
        <time>2023-03-28T03:20:17Z</time>
      </trkpt>
      <trkpt lat="39.923142176076404" lon="116.45896881044496">
        <ele>32.2</ele>
        <time>2023-03-28T03:20:23Z</time>
      </trkpt>
      <trkpt lat="39.923227536079665" lon="116.45911426844107">
        <ele>35.1</ele>
        <time>2023-03-28T03:20:35Z</time>
      </trkpt>
      <trkpt lat="39.923228774507365" lon="116.45920957578292">
        <ele>35.6</ele>
        <time>2023-03-28T03:20:41Z</time>
      </trkpt>
      <trkpt lat="39.92320398911143" lon="116.459294854292">
        <ele>32.1</ele>
        <time>2023-03-28T03:20:47Z</time>
      </trkpt>
      <trkpt lat="39.92324225667168" lon="116.45940219647075">
        <ele>27.300000000000004</ele>
        <time>2023-03-28T03:20:53Z</time>
      </trkpt>
      <trkpt lat="39.923334479485185" lon="116.45949247701189">
        <ele>25.6</ele>
        <time>2023-03-28T03:20:56Z</time>
      </trkpt>
      <trkpt lat="39.92339675418744" lon="116.45960282661815">
        <ele>24.700000000000003</ele>
        <time>2023-03-28T03:20:59Z</time>
      </trkpt>
      <trkpt lat="39.92341662254569" lon="116.45994794454674">
        <ele>27.5</ele>
        <time>2023-03-28T03:21:08Z</time>
      </trkpt>
      <trkpt lat="39.92369626242542" lon="116.46020574890271">
        <ele>24.0</ele>
        <time>2023-03-28T03:21:23Z</time>
      </trkpt>
      <trkpt lat="39.923829541360156" lon="116.46031809867482">
        <ele>18.9</ele>
        <time>2023-03-28T03:21:29Z</time>
      </trkpt>
      <trkpt lat="39.92398257826068" lon="116.46033513506595">
        <ele>14.700000000000001</ele>
        <time>2023-03-28T03:21:38Z</time>
      </trkpt>
      <trkpt lat="39.92430934889323" lon="116.46024981560518">
        <ele>18.700000000000003</ele>
        <time>2023-03-28T03:21:50Z</time>
      </trkpt>
      <trkpt lat="39.92464134286503" lon="116.4602527835864">
        <ele>17.5</ele>
        <time>2023-03-28T03:22:02Z</time>
      </trkpt>
      <trkpt lat="39.92470431488681" lon="116.46024274292576">
        <ele>17.5</ele>
        <time>2023-03-28T03:22:05Z</time>
      </trkpt>
      <trkpt lat="39.9248924595467" lon="116.46030291561571">
        <ele>20.200000000000003</ele>
        <time>2023-03-28T03:22:14Z</time>
      </trkpt>
      <trkpt lat="39.92509231672978" lon="116.4602497169375">
        <ele>24.6</ele>
        <time>2023-03-28T03:22:23Z</time>
      </trkpt>
      <trkpt lat="39.92517509506126" lon="116.46016342518263">
        <ele>25.700000000000003</ele>
        <time>2023-03-28T03:22:29Z</time>
      </trkpt>
      <trkpt lat="39.92518470936032" lon="116.46001092733691">
        <ele>26.6</ele>
        <time>2023-03-28T03:22:35Z</time>
      </trkpt>
      <trkpt lat="39.925204498408355" lon="116.45992765397254">
        <ele>25.9</ele>
        <time>2023-03-28T03:22:38Z</time>
      </trkpt>
      <trkpt lat="39.92524636260049" lon="116.45987447584857">
        <ele>24.5</ele>
        <time>2023-03-28T03:22:41Z</time>
      </trkpt>
      <trkpt lat="39.925341361233315" lon="116.45987546713553">
        <ele>24.0</ele>
        <time>2023-03-28T03:22:47Z</time>
      </trkpt>
      <trkpt lat="39.92541125721496" lon="116.45983532793421">
        <ele>24.1</ele>
        <time>2023-03-28T03:22:50Z</time>
      </trkpt>
      <trkpt lat="39.925487226290834" lon="116.45982428251044">
        <ele>24.9</ele>
        <time>2023-03-28T03:22:53Z</time>
      </trkpt>
      <trkpt lat="39.92559685551949" lon="116.45967879651393">
        <ele>25.5</ele>
        <time>2023-03-28T03:23:02Z</time>
      </trkpt>
      <trkpt lat="39.92578237889238" lon="116.45949216845003">
        <ele>21.799999999999997</ele>
        <time>2023-03-28T03:23:11Z</time>
      </trkpt>
      <trkpt lat="39.92591907873558" lon="116.45937477144079">
        <ele>18.6</ele>
        <time>2023-03-28T03:23:17Z</time>
      </trkpt>
      <trkpt lat="39.925980812173854" lon="116.45926942321938">
        <ele>17.1</ele>
        <time>2023-03-28T03:23:20Z</time>
      </trkpt>
      <trkpt lat="39.92600981287331" lon="116.45887013247687">
        <ele>18.9</ele>
        <time>2023-03-28T03:23:29Z</time>
      </trkpt>
      <trkpt lat="39.92601747497949" lon="116.45873469614334">
        <ele>19.5</ele>
        <time>2023-03-28T03:23:32Z</time>
      </trkpt>
      <trkpt lat="39.926002165970544" lon="116.45861029872259">
        <ele>18.6</ele>
        <time>2023-03-28T03:23:35Z</time>
      </trkpt>
      <trkpt lat="39.925997314357446" lon="116.45826720060074">
        <ele>14.999999999999998</ele>
        <time>2023-03-28T03:23:47Z</time>
      </trkpt>
      <trkpt lat="39.926036910370925" lon="116.45810467654584">
        <ele>11.4</ele>
        <time>2023-03-28T03:23:53Z</time>
      </trkpt>
      <trkpt lat="39.9260264125798" lon="116.4579030351007">
        <ele>9.1</ele>
        <time>2023-03-28T03:23:59Z</time>
      </trkpt>
      <trkpt lat="39.92606571880618" lon="116.45762213706429">
        <ele>12.4</ele>
        <time>2023-03-28T03:24:08Z</time>
      </trkpt>
      <trkpt lat="39.92605928265434" lon="116.45744457472495">
        <ele>13.299999999999999</ele>
        <time>2023-03-28T03:24:14Z</time>
      </trkpt>
      <trkpt lat="39.925987582284506" lon="116.45715767612947">
        <ele>17.5</ele>
        <time>2023-03-28T03:24:23Z</time>
      </trkpt>
      <trkpt lat="39.92590107088704" lon="116.45694702242166">
        <ele>19.9</ele>
        <time>2023-03-28T03:24:29Z</time>
      </trkpt>
      <trkpt lat="39.925845852843466" lon="116.45685674502631">
        <ele>22.6</ele>
        <time>2023-03-28T03:24:32Z</time>
      </trkpt>
      <trkpt lat="39.92577676272495" lon="116.45681863376586">
        <ele>25.0</ele>
        <time>2023-03-28T03:24:35Z</time>
      </trkpt>
      <trkpt lat="39.92561664949114" lon="116.45676949933592">
        <ele>27.6</ele>
        <time>2023-03-28T03:24:41Z</time>
      </trkpt>
      <trkpt lat="39.92538427077064" lon="116.4566100274773">
        <ele>28.1</ele>
        <time>2023-03-28T03:24:56Z</time>
      </trkpt>
      <trkpt lat="39.92525222008444" lon="116.45658697171694">
        <ele>25.9</ele>
        <time>2023-03-28T03:25:02Z</time>
      </trkpt>
      <trkpt lat="39.925105031105346" lon="116.45650673853012">
        <ele>25.299999999999997</ele>
        <time>2023-03-28T03:25:08Z</time>
      </trkpt>
      <trkpt lat="39.924906674084454" lon="116.4563562921267">
        <ele>22.700000000000003</ele>
        <time>2023-03-28T03:25:20Z</time>
      </trkpt>
      <trkpt lat="39.9248506204515" lon="116.45633322698498">
        <ele>21.700000000000003</ele>
        <time>2023-03-28T03:25:23Z</time>
      </trkpt>
      <trkpt lat="39.92475135965554" lon="116.45622389753098">
        <ele>21.4</ele>
        <time>2023-03-28T03:25:29Z</time>
      </trkpt>
      <trkpt lat="39.92467928006556" lon="116.45618980004191">
        <ele>21.9</ele>
        <time>2023-03-28T03:25:32Z</time>
      </trkpt>
      <trkpt lat="39.92461629479053" lon="116.45619482366247">
        <ele>22.799999999999997</ele>
        <time>2023-03-28T03:25:35Z</time>
      </trkpt>
      <trkpt lat="39.92450342570255" lon="116.45624700094544">
        <ele>22.0</ele>
        <time>2023-03-28T03:25:41Z</time>
      </trkpt>
      <trkpt lat="39.92437840169381" lon="116.45623497909028">
        <ele>23.0</ele>
        <time>2023-03-28T03:25:47Z</time>
      </trkpt>
      <trkpt lat="39.924131041881765" lon="116.45649482369107">
        <ele>28.300000000000004</ele>
        <time>2023-03-28T03:26:02Z</time>
      </trkpt>
      <trkpt lat="39.92387115004761" lon="116.45653498231758">
        <ele>29.4</ele>
        <time>2023-03-28T03:26:14Z</time>
      </trkpt>
      <trkpt lat="39.92370416910955" lon="116.45654001912042">
        <ele>25.9</ele>
        <time>2023-03-28T03:26:20Z</time>
      </trkpt>
      <trkpt lat="39.92343337779766" lon="116.45662130828642">
        <ele>20.799999999999997</ele>
        <time>2023-03-28T03:26:32Z</time>
      </trkpt>
      <trkpt lat="39.92337243155238" lon="116.45664238212481">
        <ele>20.4</ele>
        <time>2023-03-28T03:26:35Z</time>
      </trkpt>
      <trkpt lat="39.923263433605094" lon="116.45664139272722">
        <ele>20.200000000000003</ele>
        <time>2023-03-28T03:26:41Z</time>
      </trkpt>
      <trkpt lat="39.923065637086694" lon="116.45672166981758">
        <ele>22.5</ele>
        <time>2023-03-28T03:26:50Z</time>
      </trkpt>
      <trkpt lat="39.92295362216734" lon="116.45671365872678">
        <ele>25.200000000000003</ele>
        <time>2023-03-28T03:26:56Z</time>
      </trkpt>
      <trkpt lat="39.922885698257396" lon="116.45674376189658">
        <ele>25.9</ele>
        <time>2023-03-28T03:26:59Z</time>
      </trkpt>
      <trkpt lat="39.9228269451582" lon="116.45684408487229">
        <ele>26.5</ele>
        <time>2023-03-28T03:27:02Z</time>
      </trkpt>
      <trkpt lat="39.92273169159008" lon="116.4571480551989">
        <ele>26.800000000000004</ele>
        <time>2023-03-28T03:27:11Z</time>
      </trkpt>
      <trkpt lat="39.922667077549804" lon="116.45730455799412">
        <ele>28.200000000000003</ele>
        <time>2023-03-28T03:27:17Z</time>
      </trkpt>
      <trkpt lat="39.92263151966651" lon="116.45748413109975">
        <ele>28.6</ele>
        <time>2023-03-28T03:27:23Z</time>
      </trkpt>
      <trkpt lat="39.92263188466622" lon="116.45763260204042">
        <ele>28.300000000000004</ele>
        <time>2023-03-28T03:27:29Z</time>
      </trkpt>
      <trkpt lat="39.922616060646" lon="116.45770383025231">
        <ele>27.4</ele>
        <time>2023-03-28T03:27:32Z</time>
      </trkpt>
      <trkpt lat="39.9226272974667" lon="116.45780013498226">
        <ele>26.700000000000003</ele>
        <time>2023-03-28T03:27:35Z</time>
      </trkpt>
      <trkpt lat="39.92274175073225" lon="116.45798571141682">
        <ele>28.800000000000004</ele>
        <time>2023-03-28T03:27:44Z</time>
      </trkpt>
      <trkpt lat="39.92293090158635" lon="116.45804989224645">
        <ele>27.1</ele>
        <time>2023-03-28T03:27:53Z</time>
      </trkpt>
      <trkpt lat="39.922995045306514" lon="116.45810907297482">
        <ele>25.799999999999997</ele>
        <time>2023-03-28T03:27:56Z</time>
      </trkpt>
      <trkpt lat="39.923044522731345" lon="116.45830268522555">
        <ele>25.4</ele>
        <time>2023-03-28T03:28:05Z</time>
      </trkpt>
      <trkpt lat="39.92307971036702" lon="116.45837892468818">
        <ele>27.6</ele>
        <time>2023-03-28T03:28:08Z</time>
      </trkpt>
      <trkpt lat="39.923117202188" lon="116.45857755630657">
        <ele>28.300000000000004</ele>
        <time>2023-03-28T03:28:14Z</time>
      </trkpt>
      <trkpt lat="39.92308483799955" lon="116.45883237865321">
        <ele>25.6</ele>
        <time>2023-03-28T03:28:23Z</time>
      </trkpt>
      <trkpt lat="39.92314721595353" lon="116.45898486149991">
        <ele>21.799999999999997</ele>
        <time>2023-03-28T03:28:29Z</time>
      </trkpt>
      <trkpt lat="39.92317481440943" lon="116.45922463116477">
        <ele>20.0</ele>
        <time>2023-03-28T03:28:38Z</time>
      </trkpt>
      <trkpt lat="39.92313458851568" lon="116.45953263214416">
        <ele>19.1</ele>
        <time>2023-03-28T03:28:50Z</time>
      </trkpt>
      <trkpt lat="39.92335545300381" lon="116.45987973046697">
        <ele>25.5</ele>
        <time>2023-03-28T03:29:05Z</time>
      </trkpt>
      <trkpt lat="39.92344975030811" lon="116.45999910681275">
        <ele>25.0</ele>
        <time>2023-03-28T03:29:11Z</time>
      </trkpt>
      <trkpt lat="39.923617979021614" lon="116.46009238934127">
        <ele>25.9</ele>
        <time>2023-03-28T03:29:20Z</time>
      </trkpt>
      <trkpt lat="39.92380434428245" lon="116.46023984651913">
        <ele>21.6</ele>
        <time>2023-03-28T03:29:29Z</time>
      </trkpt>
      <trkpt lat="39.923882432485435" lon="116.4602759544996">
        <ele>20.299999999999997</ele>
        <time>2023-03-28T03:29:32Z</time>
      </trkpt>
      <trkpt lat="39.92413647029318" lon="116.46029498468789">
        <ele>21.799999999999997</ele>
        <time>2023-03-28T03:29:44Z</time>
      </trkpt>
      <trkpt lat="39.92432224935489" lon="116.46021068637454">
        <ele>24.799999999999997</ele>
        <time>2023-03-28T03:29:53Z</time>
      </trkpt>
      <trkpt lat="39.92446725608457" lon="116.46021568445802">
        <ele>25.0</ele>
        <time>2023-03-28T03:29:59Z</time>
      </trkpt>
      <trkpt lat="39.92469735833922" lon="116.46025979943697">
        <ele>24.799999999999997</ele>
        <time>2023-03-28T03:30:11Z</time>
      </trkpt>
      <trkpt lat="39.92489438326255" lon="116.46027281715887">
        <ele>24.1</ele>
        <time>2023-03-28T03:30:20Z</time>
      </trkpt>
      <trkpt lat="39.92508223082693" lon="116.4602156069592">
        <ele>20.799999999999997</ele>
        <time>2023-03-28T03:30:29Z</time>
      </trkpt>
      <trkpt lat="39.925152961549955" lon="116.46011025471816">
        <ele>18.799999999999997</ele>
        <time>2023-03-28T03:30:35Z</time>
      </trkpt>
      <trkpt lat="39.925169596026414" lon="116.45996578235639">
        <ele>20.200000000000003</ele>
        <time>2023-03-28T03:30:41Z</time>
      </trkpt>
      <trkpt lat="39.92519741772966" lon="116.4598955504932">
        <ele>20.200000000000003</ele>
        <time>2023-03-28T03:30:44Z</time>
      </trkpt>
      <trkpt lat="39.92526132152137" lon="116.45985842180082">
        <ele>20.299999999999997</ele>
        <time>2023-03-28T03:30:47Z</time>
      </trkpt>
      <trkpt lat="39.92537932679729" lon="116.45986241996737">
        <ele>21.700000000000003</ele>
        <time>2023-03-28T03:30:53Z</time>
      </trkpt>
      <trkpt lat="39.925479249370746" lon="116.4598333128462">
        <ele>23.1</ele>
        <time>2023-03-28T03:30:59Z</time>
      </trkpt>
      <trkpt lat="39.9255391255923" lon="116.45978514890137">
        <ele>23.299999999999997</ele>
        <time>2023-03-28T03:31:02Z</time>
      </trkpt>
      <trkpt lat="39.92577240701322" lon="116.45950320543584">
        <ele>23.9</ele>
        <time>2023-03-28T03:31:17Z</time>
      </trkpt>
      <trkpt lat="39.925806244437126" lon="116.4594389933499">
        <ele>24.4</ele>
        <time>2023-03-28T03:31:20Z</time>
      </trkpt>
      <trkpt lat="39.92587107566951" lon="116.45937277100431">
        <ele>24.6</ele>
        <time>2023-03-28T03:31:23Z</time>
      </trkpt>
      <trkpt lat="39.92591687763018" lon="116.45929451230316">
        <ele>23.9</ele>
        <time>2023-03-28T03:31:26Z</time>
      </trkpt>
      <trkpt lat="39.925998950992785" lon="116.45892531139414">
        <ele>18.4</ele>
        <time>2023-03-28T03:31:41Z</time>
      </trkpt>
      <trkpt lat="39.92601473260803" lon="116.45883802860286">
        <ele>18.4</ele>
        <time>2023-03-28T03:31:44Z</time>
      </trkpt>
      <trkpt lat="39.926015190392356" lon="116.45862032926668">
        <ele>17.1</ele>
        <time>2023-03-28T03:31:50Z</time>
      </trkpt>
      <trkpt lat="39.92603195274367" lon="116.45852502151818">
        <ele>15.799999999999999</ele>
        <time>2023-03-28T03:31:53Z</time>
      </trkpt>
      <trkpt lat="39.92602426851085" lon="116.45824913948363">
        <ele>13.9</ele>
        <time>2023-03-28T03:32:02Z</time>
      </trkpt>
      <trkpt lat="39.92605924788557" lon="116.45783682020371">
        <ele>10.499999999999998</ele>
        <time>2023-03-28T03:32:17Z</time>
      </trkpt>
      <trkpt lat="39.92611632219704" lon="116.45746162156992">
        <ele>6.699999999999999</ele>
        <time>2023-03-28T03:32:32Z</time>
      </trkpt>
      <trkpt lat="39.92614212660303" lon="116.45738236726957">
        <ele>5.799999999999999</ele>
        <time>2023-03-28T03:32:35Z</time>
      </trkpt>
      <trkpt lat="39.92614689270274" lon="116.4572870650671">
        <ele>4.699999999999999</ele>
        <time>2023-03-28T03:32:38Z</time>
      </trkpt>
      <trkpt lat="39.92604522913921" lon="116.45701421611062">
        <ele>7.0</ele>
        <time>2023-03-28T03:32:44Z</time>
      </trkpt>
      <trkpt lat="39.92588167529869" lon="116.45678451322229">
        <ele>9.6</ele>
        <time>2023-03-28T03:32:50Z</time>
      </trkpt>
      <trkpt lat="39.92580456848315" lon="116.45673938099254">
        <ele>11.1</ele>
        <time>2023-03-28T03:32:53Z</time>
      </trkpt>
      <trkpt lat="39.92559746705237" lon="116.45669426523814">
        <ele>14.200000000000001</ele>
        <time>2023-03-28T03:33:02Z</time>
      </trkpt>
      <trkpt lat="39.92524608624196" lon="116.45653179938108">
        <ele>19.1</ele>
        <time>2023-03-28T03:33:17Z</time>
      </trkpt>
      <trkpt lat="39.92509081981588" lon="116.45641946679324">
        <ele>22.1</ele>
        <time>2023-03-28T03:33:23Z</time>
      </trkpt>
      <trkpt lat="39.92487056128298" lon="116.45630914913345">
        <ele>22.9</ele>
        <time>2023-03-28T03:33:32Z</time>
      </trkpt>
      <trkpt lat="39.92481342025637" lon="116.4562499712336">
        <ele>23.9</ele>
        <time>2023-03-28T03:33:35Z</time>
      </trkpt>
      <trkpt lat="39.924744323521104" lon="116.45620885139076">
        <ele>24.1</ele>
        <time>2023-03-28T03:33:38Z</time>
      </trkpt>
      <trkpt lat="39.92466032697103" lon="116.45620886199119">
        <ele>25.4</ele>
        <time>2023-03-28T03:33:41Z</time>
      </trkpt>
      <trkpt lat="39.92460141438917" lon="116.45624397917071">
        <ele>27.1</ele>
        <time>2023-03-28T03:33:44Z</time>
      </trkpt>
      <trkpt lat="39.924526436902866" lon="116.4562520137234">
        <ele>28.0</ele>
        <time>2023-03-28T03:33:47Z</time>
      </trkpt>
      <trkpt lat="39.92437636534935" lon="116.4562199323134">
        <ele>26.9</ele>
        <time>2023-03-28T03:33:53Z</time>
      </trkpt>
      <trkpt lat="39.924303402348336" lon="116.45623398541917">
        <ele>26.800000000000004</ele>
        <time>2023-03-28T03:33:56Z</time>
      </trkpt>
      <trkpt lat="39.924235550914204" lon="116.45629418219535">
        <ele>27.300000000000004</ele>
        <time>2023-03-28T03:33:59Z</time>
      </trkpt>
      <trkpt lat="39.92411698643437" lon="116.45647175313667">
        <ele>29.700000000000003</ele>
        <time>2023-03-28T03:34:05Z</time>
      </trkpt>
      <trkpt lat="39.92406909316036" lon="116.45651489441725">
        <ele>31.4</ele>
        <time>2023-03-28T03:34:08Z</time>
      </trkpt>
      <trkpt lat="39.92376420320354" lon="116.45655505874969">
        <ele>26.5</ele>
        <time>2023-03-28T03:34:20Z</time>
      </trkpt>
      <trkpt lat="39.923477395503454" lon="116.45662932793007">
        <ele>23.200000000000003</ele>
        <time>2023-03-28T03:34:32Z</time>
      </trkpt>
      <trkpt lat="39.923267511544836" lon="116.45667349303925">
        <ele>21.5</ele>
        <time>2023-03-28T03:34:41Z</time>
      </trkpt>
      <trkpt lat="39.923206479885444" lon="116.45665945662367">
        <ele>19.5</ele>
        <time>2023-03-28T03:34:44Z</time>
      </trkpt>
      <trkpt lat="39.922964494748754" lon="116.45666149345722">
        <ele>17.1</ele>
        <time>2023-03-28T03:34:56Z</time>
      </trkpt>
      <trkpt lat="39.922843780632924" lon="116.45677687128189">
        <ele>13.9</ele>
        <time>2023-03-28T03:35:02Z</time>
      </trkpt>
      <trkpt lat="39.92277429742709" lon="116.45698754338312">
        <ele>15.6</ele>
        <time>2023-03-28T03:35:08Z</time>
      </trkpt>
      <trkpt lat="39.922668851349535" lon="116.45721226595393">
        <ele>19.200000000000003</ele>
        <time>2023-03-28T03:35:14Z</time>
      </trkpt>
      <trkpt lat="39.92265452118084" lon="116.45748513137829">
        <ele>22.700000000000003</ele>
        <time>2023-03-28T03:35:23Z</time>
      </trkpt>
      <trkpt lat="39.922665673558846" lon="116.45754732718648">
        <ele>23.299999999999997</ele>
        <time>2023-03-28T03:35:26Z</time>
      </trkpt>
      <trkpt lat="39.922646123643595" lon="116.45772990934411">
        <ele>21.1</ele>
        <time>2023-03-28T03:35:32Z</time>
      </trkpt>
      <trkpt lat="39.922686554843985" lon="116.45790546272205">
        <ele>23.200000000000003</ele>
        <time>2023-03-28T03:35:38Z</time>
      </trkpt>
      <trkpt lat="39.922808866947115" lon="116.45803385645202">
        <ele>25.5</ele>
        <time>2023-03-28T03:35:44Z</time>
      </trkpt>
      <trkpt lat="39.92294906209409" lon="116.45811509798203">
        <ele>26.300000000000004</ele>
        <time>2023-03-28T03:35:50Z</time>
      </trkpt>
      <trkpt lat="39.92304234383275" lon="116.4582304546193">
        <ele>28.800000000000004</ele>
        <time>2023-03-28T03:35:56Z</time>
      </trkpt>
      <trkpt lat="39.92302191196234" lon="116.45845918892499">
        <ele>30.200000000000003</ele>
        <time>2023-03-28T03:36:05Z</time>
      </trkpt>
      <trkpt lat="39.9230723238053" lon="116.45862571643092">
        <ele>29.200000000000003</ele>
        <time>2023-03-28T03:36:12Z</time>
      </trkpt>
      <trkpt lat="39.92310091989723" lon="116.45886548309558">
        <ele>26.6</ele>
        <time>2023-03-28T03:36:21Z</time>
      </trkpt>
      <trkpt lat="39.92318228968506" lon="116.45901495402077">
        <ele>23.5</ele>
        <time>2023-03-28T03:36:27Z</time>
      </trkpt>
      <trkpt lat="39.92319745704524" lon="116.45908216872253">
        <ele>23.1</ele>
        <time>2023-03-28T03:36:30Z</time>
      </trkpt>
      <trkpt lat="39.92318972086954" lon="116.4591875094691">
        <ele>22.200000000000003</ele>
        <time>2023-03-28T03:36:33Z</time>
      </trkpt>
      <trkpt lat="39.92320094147838" lon="116.45927579309871">
        <ele>22.200000000000003</ele>
        <time>2023-03-28T03:36:36Z</time>
      </trkpt>
      <trkpt lat="39.923184150872515" lon="116.45935906429969">
        <ele>22.5</ele>
        <time>2023-03-28T03:36:39Z</time>
      </trkpt>
      <trkpt lat="39.92319135946193" lon="116.4594423327043">
        <ele>23.1</ele>
        <time>2023-03-28T03:36:42Z</time>
      </trkpt>
      <trkpt lat="39.92322453944611" lon="116.45951456232821">
        <ele>23.299999999999997</ele>
        <time>2023-03-28T03:36:45Z</time>
      </trkpt>
      <trkpt lat="39.92323483149232" lon="116.45963093807914">
        <ele>23.700000000000003</ele>
        <time>2023-03-28T03:36:48Z</time>
      </trkpt>
      <trkpt lat="39.92327714783771" lon="116.45975734280086">
        <ele>26.200000000000003</ele>
        <time>2023-03-28T03:36:51Z</time>
      </trkpt>
      <trkpt lat="39.92340760519931" lon="116.45994092284495">
        <ele>25.1</ele>
        <time>2023-03-28T03:37:00Z</time>
      </trkpt>
      <trkpt lat="39.923522868889776" lon="116.46004725432617">
        <ele>22.4</ele>
        <time>2023-03-28T03:37:06Z</time>
      </trkpt>
      <trkpt lat="39.92381234649189" lon="116.46024084878299">
        <ele>23.4</ele>
        <time>2023-03-28T03:37:18Z</time>
      </trkpt>
      <trkpt lat="39.9240516364201" lon="116.46035920498036">
        <ele>25.299999999999997</ele>
        <time>2023-03-28T03:37:30Z</time>
      </trkpt>
      <trkpt lat="39.92409763452747" lon="116.46035919918418">
        <ele>26.800000000000004</ele>
        <time>2023-03-28T03:37:33Z</time>
      </trkpt>
    </trkseg>
  </trk>
</gpx>