<?xml version="1.0" encoding="UTF-8"?>
<gpx xmlns="http://www.topografix.com/GPX/1/1" xmlns:gpxtpx="http://www.garmin.com/xmlschemas/TrackPointExtension/v1" xmlns:xsi="http://www.w3.org/2001/XMLSchema-instance" xsi:schemaLocation="http://www.topografix.com/GPX/1/1 http://www.topografix.com/GPX/1/1/gpx.xsd" version="1.1" creator="gpx.py -- https://github.com/tkrajina/gpxpy">
  <trk>
    <name>gpx from keep</name>
    <type>Run</type>
    <trkseg>
      <trkpt lat="39.92040395481779" lon="116.45598269156149">
        <ele>42.1</ele>
        <time>2023-02-14T03:43:25Z</time>
      </trkpt>
      <trkpt lat="39.920448829496095" lon="116.45593152648802">
        <ele>41.7</ele>
        <time>2023-02-14T03:43:31Z</time>
      </trkpt>
      <trkpt lat="39.920521814364214" lon="116.4559265016546">
        <ele>41.800000000000004</ele>
        <time>2023-02-14T03:43:34Z</time>
      </trkpt>
      <trkpt lat="39.92056374487836" lon="116.45589840888853">
        <ele>42.4</ele>
        <time>2023-02-14T03:43:37Z</time>
      </trkpt>
      <trkpt lat="39.9209057790642" lon="116.45591842820585">
        <ele>42.9</ele>
        <time>2023-02-14T03:43:49Z</time>
      </trkpt>
      <trkpt lat="39.921175811420504" lon="116.45593645037364">
        <ele>41.4</ele>
        <time>2023-02-14T03:43:55Z</time>
      </trkpt>
      <trkpt lat="39.92140179479278" lon="116.45593341248109">
        <ele>39.800000000000004</ele>
        <time>2023-02-14T03:44:01Z</time>
      </trkpt>
      <trkpt lat="39.921623623526024" lon="116.45586617519963">
        <ele>36.2</ele>
        <time>2023-02-14T03:44:10Z</time>
      </trkpt>
      <trkpt lat="39.921753731821184" lon="116.45591330557713">
        <ele>30.700000000000003</ele>
        <time>2023-02-14T03:44:16Z</time>
      </trkpt>
      <trkpt lat="39.92178887558617" lon="116.4559734886586">
        <ele>27.200000000000003</ele>
        <time>2023-02-14T03:44:22Z</time>
      </trkpt>
      <trkpt lat="39.92188669728634" lon="116.45590125130941">
        <ele>23.0</ele>
        <time>2023-02-14T03:44:58Z</time>
      </trkpt>
      <trkpt lat="39.92199060591796" lon="116.45586512576403">
        <ele>23.700000000000003</ele>
        <time>2023-02-14T03:45:01Z</time>
      </trkpt>
      <trkpt lat="39.922298588345974" lon="116.45586308065121">
        <ele>28.5</ele>
        <time>2023-02-14T03:45:13Z</time>
      </trkpt>
      <trkpt lat="39.922375621435414" lon="116.45587811776966">
        <ele>29.200000000000003</ele>
        <time>2023-02-14T03:45:16Z</time>
      </trkpt>
      <trkpt lat="39.92251054815558" lon="116.45585001331283">
        <ele>30.1</ele>
        <time>2023-02-14T03:45:22Z</time>
      </trkpt>
      <trkpt lat="39.92274860844749" lon="116.45587907382038">
        <ele>33.0</ele>
        <time>2023-02-14T03:45:31Z</time>
      </trkpt>
      <trkpt lat="39.922875680608115" lon="116.45591115773816">
        <ele>38.9</ele>
        <time>2023-02-14T03:45:37Z</time>
      </trkpt>
      <trkpt lat="39.923136544076755" lon="116.4558589624075">
        <ele>50.0</ele>
        <time>2023-02-14T03:45:46Z</time>
      </trkpt>
      <trkpt lat="39.92323358360187" lon="116.45587700636771">
        <ele>52.2</ele>
        <time>2023-02-14T03:45:49Z</time>
      </trkpt>
      <trkpt lat="39.923376744639775" lon="116.45594620387007">
        <ele>52.5</ele>
        <time>2023-02-14T03:45:55Z</time>
      </trkpt>
      <trkpt lat="39.92343376407482" lon="116.4559552248045">
        <ele>52.1</ele>
        <time>2023-02-14T03:45:58Z</time>
      </trkpt>
      <trkpt lat="39.92350391616702" lon="116.45601941607502">
        <ele>46.9</ele>
        <time>2023-02-14T03:46:01Z</time>
      </trkpt>
      <trkpt lat="39.92380199354451" lon="116.45605649422123">
        <ele>44.5</ele>
        <time>2023-02-14T03:46:16Z</time>
      </trkpt>
      <trkpt lat="39.923941849689385" lon="116.45599929825117">
        <ele>46.1</ele>
        <time>2023-02-14T03:46:22Z</time>
      </trkpt>
      <trkpt lat="39.924246851674866" lon="116.45600527852298">
        <ele>43.2</ele>
        <time>2023-02-14T03:46:34Z</time>
      </trkpt>
      <trkpt lat="39.924521663640675" lon="116.45593201561842">
        <ele>43.7</ele>
        <time>2023-02-14T03:46:46Z</time>
      </trkpt>
      <trkpt lat="39.92459073099528" lon="116.45596109754153">
        <ele>41.1</ele>
        <time>2023-02-14T03:46:49Z</time>
      </trkpt>
      <trkpt lat="39.92463084558152" lon="116.45600924257062">
        <ele>39.7</ele>
        <time>2023-02-14T03:46:52Z</time>
      </trkpt>
      <trkpt lat="39.92459311860463" lon="116.45612159786934">
        <ele>37.2</ele>
        <time>2023-02-14T03:46:58Z</time>
      </trkpt>
      <trkpt lat="39.924531249738365" lon="116.45617477171376">
        <ele>36.300000000000004</ele>
        <time>2023-02-14T03:47:01Z</time>
      </trkpt>
      <trkpt lat="39.92429731761057" lon="116.45619887645535">
        <ele>31.1</ele>
        <time>2023-02-14T03:47:13Z</time>
      </trkpt>
      <trkpt lat="39.92406579378731" lon="116.45639150816797">
        <ele>22.5</ele>
        <time>2023-02-14T03:47:25Z</time>
      </trkpt>
      <trkpt lat="39.92395898319315" lon="116.45646776049753">
        <ele>20.5</ele>
        <time>2023-02-14T03:47:31Z</time>
      </trkpt>
      <trkpt lat="39.92373101449753" lon="116.45647681756222">
        <ele>21.299999999999997</ele>
        <time>2023-02-14T03:47:40Z</time>
      </trkpt>
      <trkpt lat="39.92357630604356" lon="116.45659420522703">
        <ele>22.4</ele>
        <time>2023-02-14T03:47:49Z</time>
      </trkpt>
      <trkpt lat="39.92346136688516" lon="116.45661729215692">
        <ele>21.5</ele>
        <time>2023-02-14T03:47:55Z</time>
      </trkpt>
      <trkpt lat="39.92335724191118" lon="116.45656413842596">
        <ele>19.4</ele>
        <time>2023-02-14T03:48:01Z</time>
      </trkpt>
      <trkpt lat="39.92316126218253" lon="116.45656917889214">
        <ele>18.700000000000003</ele>
        <time>2023-02-14T03:48:07Z</time>
      </trkpt>
      <trkpt lat="39.9230313724156" lon="116.45661233066471">
        <ele>22.6</ele>
        <time>2023-02-14T03:48:13Z</time>
      </trkpt>
      <trkpt lat="39.92292330857723" lon="116.45658425613536">
        <ele>29.300000000000004</ele>
        <time>2023-02-14T03:48:19Z</time>
      </trkpt>
      <trkpt lat="39.92285449196548" lon="116.45665849788364">
        <ele>34.5</ele>
        <time>2023-02-14T03:48:25Z</time>
      </trkpt>
      <trkpt lat="39.92276908947316" lon="116.45690227535988">
        <ele>35.9</ele>
        <time>2023-02-14T03:48:31Z</time>
      </trkpt>
      <trkpt lat="39.9226356391037" lon="116.45712499445956">
        <ele>33.5</ele>
        <time>2023-02-14T03:48:37Z</time>
      </trkpt>
      <trkpt lat="39.92256156691671" lon="116.45750219716447">
        <ele>29.1</ele>
        <time>2023-02-14T03:48:46Z</time>
      </trkpt>
      <trkpt lat="39.922528822287" lon="116.45760552905934">
        <ele>28.0</ele>
        <time>2023-02-14T03:48:49Z</time>
      </trkpt>
      <trkpt lat="39.92251708449839" lon="116.45771186823545">
        <ele>25.200000000000003</ele>
        <time>2023-02-14T03:48:52Z</time>
      </trkpt>
      <trkpt lat="39.92259939508953" lon="116.45783926296447">
        <ele>25.5</ele>
        <time>2023-02-14T03:48:58Z</time>
      </trkpt>
      <trkpt lat="39.92286774800912" lon="116.45798669872431">
        <ele>27.300000000000004</ele>
        <time>2023-02-14T03:49:07Z</time>
      </trkpt>
      <trkpt lat="39.92297987972634" lon="116.45804186047673">
        <ele>26.700000000000003</ele>
        <time>2023-02-14T03:49:13Z</time>
      </trkpt>
      <trkpt lat="39.923022051637226" lon="116.45811207917325">
        <ele>25.700000000000003</ele>
        <time>2023-02-14T03:49:16Z</time>
      </trkpt>
      <trkpt lat="39.9229949703796" lon="116.45848226623508">
        <ele>18.5</ele>
        <time>2023-02-14T03:49:28Z</time>
      </trkpt>
      <trkpt lat="39.922961573092685" lon="116.45872404600394">
        <ele>17.9</ele>
        <time>2023-02-14T03:49:37Z</time>
      </trkpt>
      <trkpt lat="39.922980774764994" lon="116.45880530468852">
        <ele>17.1</ele>
        <time>2023-02-14T03:49:40Z</time>
      </trkpt>
      <trkpt lat="39.92306218689134" lon="116.45897183022028">
        <ele>17.299999999999997</ele>
        <time>2023-02-14T03:49:46Z</time>
      </trkpt>
      <trkpt lat="39.92310103106904" lon="116.45930991589235">
        <ele>19.6</ele>
        <time>2023-02-14T03:49:58Z</time>
      </trkpt>
      <trkpt lat="39.923206436905446" lon="116.45947343144931">
        <ele>21.4</ele>
        <time>2023-02-14T03:50:07Z</time>
      </trkpt>
      <trkpt lat="39.92326158327841" lon="116.45953261613744">
        <ele>21.9</ele>
        <time>2023-02-14T03:50:10Z</time>
      </trkpt>
      <trkpt lat="39.92333213799205" lon="116.459754326101">
        <ele>21.6</ele>
        <time>2023-02-14T03:50:16Z</time>
      </trkpt>
      <trkpt lat="39.92346766854027" lon="116.45996700011118">
        <ele>14.799999999999999</ele>
        <time>2023-02-14T03:50:25Z</time>
      </trkpt>
      <trkpt lat="39.923611877892206" lon="116.46005225943938">
        <ele>14.700000000000001</ele>
        <time>2023-02-14T03:50:31Z</time>
      </trkpt>
      <trkpt lat="39.92373624047564" lon="116.46019771769716">
        <ele>13.499999999999998</ele>
        <time>2023-02-14T03:50:37Z</time>
      </trkpt>
      <trkpt lat="39.92399457014305" lon="116.46033212372912">
        <ele>16.5</ele>
        <time>2023-02-14T03:50:46Z</time>
      </trkpt>
      <trkpt lat="39.924146510529205" lon="116.46031103581093">
        <ele>21.700000000000003</ele>
        <time>2023-02-14T03:50:52Z</time>
      </trkpt>
      <trkpt lat="39.92429733161381" lon="116.46024279421246">
        <ele>25.0</ele>
        <time>2023-02-14T03:50:58Z</time>
      </trkpt>
      <trkpt lat="39.92459948428357" lon="116.4603079689069">
        <ele>34.6</ele>
        <time>2023-02-14T03:51:10Z</time>
      </trkpt>
      <trkpt lat="39.92486766135139" lon="116.46038217751122">
        <ele>37.4</ele>
        <time>2023-02-14T03:51:22Z</time>
      </trkpt>
      <trkpt lat="39.92503946621508" lon="116.46030791346236">
        <ele>39.4</ele>
        <time>2023-02-14T03:51:31Z</time>
      </trkpt>
      <trkpt lat="39.92509231926886" lon="116.46025072020979">
        <ele>39.7</ele>
        <time>2023-02-14T03:51:34Z</time>
      </trkpt>
      <trkpt lat="39.925117856521915" lon="116.46006812191185">
        <ele>39.9</ele>
        <time>2023-02-14T03:51:40Z</time>
      </trkpt>
      <trkpt lat="39.92516163939587" lon="116.4599828388414">
        <ele>38.300000000000004</ele>
        <time>2023-02-14T03:51:43Z</time>
      </trkpt>
      <trkpt lat="39.9252145283673" lon="116.45993969185648">
        <ele>35.2</ele>
        <time>2023-02-14T03:51:46Z</time>
      </trkpt>
      <trkpt lat="39.92546240180231" lon="116.45989351057315">
        <ele>30.200000000000003</ele>
        <time>2023-02-14T03:51:58Z</time>
      </trkpt>
      <trkpt lat="39.92551732872625" lon="116.45986541235389">
        <ele>30.4</ele>
        <time>2023-02-14T03:52:01Z</time>
      </trkpt>
      <trkpt lat="39.925702666993466" lon="116.45960554572045">
        <ele>30.4</ele>
        <time>2023-02-14T03:52:13Z</time>
      </trkpt>
      <trkpt lat="39.92573952680396" lon="116.45955036228496">
        <ele>30.0</ele>
        <time>2023-02-14T03:52:16Z</time>
      </trkpt>
      <trkpt lat="39.92582602217011" lon="116.45935070532515">
        <ele>32.2</ele>
        <time>2023-02-14T03:52:25Z</time>
      </trkpt>
      <trkpt lat="39.92588181622775" lon="116.45926943569975">
        <ele>33.4</ele>
        <time>2023-02-14T03:52:28Z</time>
      </trkpt>
      <trkpt lat="39.92591043587029" lon="116.45911794315202">
        <ele>36.0</ele>
        <time>2023-02-14T03:52:34Z</time>
      </trkpt>
      <trkpt lat="39.92591934160736" lon="116.4586795313219">
        <ele>38.300000000000004</ele>
        <time>2023-02-14T03:52:49Z</time>
      </trkpt>
      <trkpt lat="39.92595199840287" lon="116.45854208627074">
        <ele>38.2</ele>
        <time>2023-02-14T03:52:52Z</time>
      </trkpt>
      <trkpt lat="39.92594571955925" lon="116.4584297270643">
        <ele>37.7</ele>
        <time>2023-02-14T03:52:55Z</time>
      </trkpt>
      <trkpt lat="39.92598383315017" lon="116.45807258081588">
        <ele>35.9</ele>
        <time>2023-02-14T03:53:04Z</time>
      </trkpt>
      <trkpt lat="39.92599218878751" lon="116.45781174886996">
        <ele>32.7</ele>
        <time>2023-02-14T03:53:13Z</time>
      </trkpt>
      <trkpt lat="39.925950767942666" lon="116.45764020889524">
        <ele>35.0</ele>
        <time>2023-02-14T03:53:19Z</time>
      </trkpt>
      <trkpt lat="39.92593575387375" lon="116.4572269013826">
        <ele>33.6</ele>
        <time>2023-02-14T03:53:31Z</time>
      </trkpt>
      <trkpt lat="39.92593156002899" lon="116.45714765151368">
        <ele>33.800000000000004</ele>
        <time>2023-02-14T03:53:34Z</time>
      </trkpt>
      <trkpt lat="39.925910430830235" lon="116.4570944863137">
        <ele>34.300000000000004</ele>
        <time>2023-02-14T03:53:37Z</time>
      </trkpt>
      <trkpt lat="39.925789178357434" lon="116.45698916933975">
        <ele>37.2</ele>
        <time>2023-02-14T03:53:49Z</time>
      </trkpt>
      <trkpt lat="39.925746986600224" lon="116.4569099249241">
        <ele>36.800000000000004</ele>
        <time>2023-02-14T03:53:52Z</time>
      </trkpt>
      <trkpt lat="39.92572853739543" lon="116.45672534643599">
        <ele>34.300000000000004</ele>
        <time>2023-02-14T03:53:58Z</time>
      </trkpt>
      <trkpt lat="39.9257063283292" lon="116.45663907818138">
        <ele>35.1</ele>
        <time>2023-02-14T03:54:04Z</time>
      </trkpt>
      <trkpt lat="39.92563424100938" lon="116.45660197074122">
        <ele>34.9</ele>
        <time>2023-02-14T03:54:07Z</time>
      </trkpt>
      <trkpt lat="39.925300928065326" lon="116.4564675911591">
        <ele>35.1</ele>
        <time>2023-02-14T03:54:19Z</time>
      </trkpt>
      <trkpt lat="39.924995641247726" lon="116.45634424321938">
        <ele>35.1</ele>
        <time>2023-02-14T03:54:31Z</time>
      </trkpt>
      <trkpt lat="39.924746240906764" lon="116.45617474458147">
        <ele>28.800000000000004</ele>
        <time>2023-02-14T03:54:43Z</time>
      </trkpt>
      <trkpt lat="39.92468922383321" lon="116.45616672670856">
        <ele>28.6</ele>
        <time>2023-02-14T03:54:46Z</time>
      </trkpt>
      <trkpt lat="39.92446736160923" lon="116.4562199208298">
        <ele>29.800000000000004</ele>
        <time>2023-02-14T03:54:55Z</time>
      </trkpt>
      <trkpt lat="39.924349342178395" lon="116.4562099043723">
        <ele>28.800000000000004</ele>
        <time>2023-02-14T03:55:01Z</time>
      </trkpt>
      <trkpt lat="39.924241480199036" lon="116.45626509046112">
        <ele>29.4</ele>
        <time>2023-02-14T03:55:07Z</time>
      </trkpt>
      <trkpt lat="39.924186608835264" lon="116.4563172605542">
        <ele>30.200000000000003</ele>
        <time>2023-02-14T03:55:10Z</time>
      </trkpt>
      <trkpt lat="39.92409199233372" lon="116.4564737625792">
        <ele>30.1</ele>
        <time>2023-02-14T03:55:16Z</time>
      </trkpt>
      <trkpt lat="39.92403907002902" lon="116.45650486674931">
        <ele>29.0</ele>
        <time>2023-02-14T03:55:19Z</time>
      </trkpt>
      <trkpt lat="39.92374115539932" lon="116.45653499872046">
        <ele>27.1</ele>
        <time>2023-02-14T03:55:31Z</time>
      </trkpt>
      <trkpt lat="39.92357030141284" lon="116.45659219968753">
        <ele>28.9</ele>
        <time>2023-02-14T03:55:37Z</time>
      </trkpt>
      <trkpt lat="39.92340726667141" lon="116.45657516673894">
        <ele>29.6</ele>
        <time>2023-02-14T03:55:43Z</time>
      </trkpt>
      <trkpt lat="39.92310147689315" lon="116.45665646041961">
        <ele>32.300000000000004</ele>
        <time>2023-02-14T03:55:58Z</time>
      </trkpt>
      <trkpt lat="39.92302149971992" lon="116.45666449571786">
        <ele>33.6</ele>
        <time>2023-02-14T03:56:01Z</time>
      </trkpt>
      <trkpt lat="39.92294744663821" lon="116.45664143259613">
        <ele>34.4</ele>
        <time>2023-02-14T03:56:04Z</time>
      </trkpt>
      <trkpt lat="39.92286251116262" lon="116.45666652207976">
        <ele>36.9</ele>
        <time>2023-02-14T03:56:10Z</time>
      </trkpt>
      <trkpt lat="39.922720471236765" lon="116.45705777163064">
        <ele>42.4</ele>
        <time>2023-02-14T03:56:22Z</time>
      </trkpt>
      <trkpt lat="39.922632086372595" lon="116.45730757192867">
        <ele>39.2</ele>
        <time>2023-02-14T03:56:31Z</time>
      </trkpt>
      <trkpt lat="39.92258672121232" lon="116.45756539442559">
        <ele>34.0</ele>
        <time>2023-02-14T03:56:40Z</time>
      </trkpt>
      <trkpt lat="39.922546972114986" lon="116.45766672105698">
        <ele>31.700000000000003</ele>
        <time>2023-02-14T03:56:43Z</time>
      </trkpt>
      <trkpt lat="39.922544162453235" lon="116.4577439668427">
        <ele>26.6</ele>
        <time>2023-02-14T03:56:46Z</time>
      </trkpt>
      <trkpt lat="39.922702682966566" lon="116.45795762683916">
        <ele>18.299999999999997</ele>
        <time>2023-02-14T03:56:55Z</time>
      </trkpt>
      <trkpt lat="39.922941950735506" lon="116.45806995484556">
        <ele>13.999999999999998</ele>
        <time>2023-02-14T03:57:04Z</time>
      </trkpt>
      <trkpt lat="39.92297111578991" lon="116.45813716564248">
        <ele>11.799999999999999</ele>
        <time>2023-02-14T03:57:07Z</time>
      </trkpt>
      <trkpt lat="39.92302158585985" lon="116.45832776832621">
        <ele>10.9</ele>
        <time>2023-02-14T03:57:16Z</time>
      </trkpt>
    </trkseg>
  </trk>
</gpx>