<?xml version="1.0" encoding="UTF-8"?>
<gpx xmlns="http://www.topografix.com/GPX/1/1" xmlns:gpxtpx="http://www.garmin.com/xmlschemas/TrackPointExtension/v1" xmlns:xsi="http://www.w3.org/2001/XMLSchema-instance" xsi:schemaLocation="http://www.topografix.com/GPX/1/1 http://www.topografix.com/GPX/1/1/gpx.xsd" version="1.1" creator="gpx.py -- https://github.com/tkrajina/gpxpy">
  <trk>
    <name>gpx from keep</name>
    <type>Run</type>
    <trkseg>
      <trkpt lat="39.92340049090601" lon="116.49888271349177">
        <ele>41.3</ele>
        <time>2023-07-18T22:09:58Z</time>
      </trkpt>
      <trkpt lat="39.92342688963806" lon="116.49868094876365">
        <ele>41.0</ele>
        <time>2023-07-18T22:10:07Z</time>
      </trkpt>
      <trkpt lat="39.923395117354964" lon="116.49842097112693">
        <ele>41.199999999999996</ele>
        <time>2023-07-18T22:10:16Z</time>
      </trkpt>
      <trkpt lat="39.9233709181942" lon="116.49835372013578">
        <ele>41.599999999999994</ele>
        <time>2023-07-18T22:10:19Z</time>
      </trkpt>
      <trkpt lat="39.923367532906035" lon="116.49822423144478">
        <ele>42.099999999999994</ele>
        <time>2023-07-18T22:10:25Z</time>
      </trkpt>
      <trkpt lat="39.92341500798557" lon="116.49804856186731">
        <ele>43.0</ele>
        <time>2023-07-18T22:10:31Z</time>
      </trkpt>
      <trkpt lat="39.92337038512878" lon="116.49783877452721">
        <ele>44.8</ele>
        <time>2023-07-18T22:10:40Z</time>
      </trkpt>
      <trkpt lat="39.92339805514094" lon="116.4977283536884">
        <ele>45.3</ele>
        <time>2023-07-18T22:10:43Z</time>
      </trkpt>
      <trkpt lat="39.923387706921154" lon="116.49727564290153">
        <ele>47.9</ele>
        <time>2023-07-18T22:10:58Z</time>
      </trkpt>
      <trkpt lat="39.92338514467328" lon="116.49708692922111">
        <ele>48.4</ele>
        <time>2023-07-18T22:11:04Z</time>
      </trkpt>
      <trkpt lat="39.92335990638792" lon="116.49700662847007">
        <ele>48.699999999999996</ele>
        <time>2023-07-18T22:11:07Z</time>
      </trkpt>
      <trkpt lat="39.92336263102924" lon="116.49691427862726">
        <ele>49.0</ele>
        <time>2023-07-18T22:11:10Z</time>
      </trkpt>
      <trkpt lat="39.923294588959585" lon="116.49689923008383">
        <ele>49.3</ele>
        <time>2023-07-18T22:11:13Z</time>
      </trkpt>
      <trkpt lat="39.92329237063203" lon="116.49682595300071">
        <ele>49.5</ele>
        <time>2023-07-18T22:11:16Z</time>
      </trkpt>
      <trkpt lat="39.923320183967036" lon="116.49676371396397">
        <ele>49.9</ele>
        <time>2023-07-18T22:11:19Z</time>
      </trkpt>
      <trkpt lat="39.92331886383519" lon="116.49665630751228">
        <ele>50.9</ele>
        <time>2023-07-18T22:11:25Z</time>
      </trkpt>
      <trkpt lat="39.923344713139386" lon="116.49660611427842">
        <ele>51.4</ele>
        <time>2023-07-18T22:11:28Z</time>
      </trkpt>
      <trkpt lat="39.923364140707214" lon="116.49641438586774">
        <ele>52.8</ele>
        <time>2023-07-18T22:11:37Z</time>
      </trkpt>
      <trkpt lat="39.923356751902304" lon="116.49628389255946">
        <ele>53.8</ele>
        <time>2023-07-18T22:11:40Z</time>
      </trkpt>
      <trkpt lat="39.92338424487653" lon="116.49611424654836">
        <ele>55.1</ele>
        <time>2023-07-18T22:11:46Z</time>
      </trkpt>
      <trkpt lat="39.92337896668309" lon="116.49602089353601">
        <ele>55.900000000000006</ele>
        <time>2023-07-18T22:11:49Z</time>
      </trkpt>
      <trkpt lat="39.92325288207576" lon="116.49599079509743">
        <ele>55.5</ele>
        <time>2023-07-18T22:11:55Z</time>
      </trkpt>
      <trkpt lat="39.92318260355379" lon="116.49589644630906">
        <ele>54.7</ele>
        <time>2023-07-18T22:11:58Z</time>
      </trkpt>
      <trkpt lat="39.9230194456245" lon="116.495841257369">
        <ele>53.300000000000004</ele>
        <time>2023-07-18T22:12:07Z</time>
      </trkpt>
      <trkpt lat="39.92295056224351" lon="116.49587941046049">
        <ele>53.7</ele>
        <time>2023-07-18T22:12:10Z</time>
      </trkpt>
      <trkpt lat="39.92281752283308" lon="116.49586436992557">
        <ele>52.400000000000006</ele>
        <time>2023-07-18T22:12:19Z</time>
      </trkpt>
      <trkpt lat="39.922604714265404" lon="116.4959256283622">
        <ele>50.5</ele>
        <time>2023-07-18T22:12:34Z</time>
      </trkpt>
      <trkpt lat="39.9222475224657" lon="116.49585641027062">
        <ele>43.400000000000006</ele>
        <time>2023-07-18T22:12:49Z</time>
      </trkpt>
      <trkpt lat="39.922122207287224" lon="116.49574901882285">
        <ele>25.099999999999998</ele>
        <time>2023-07-18T22:12:58Z</time>
      </trkpt>
      <trkpt lat="39.922093944964715" lon="116.49566068756657">
        <ele>20.5</ele>
        <time>2023-07-18T22:13:01Z</time>
      </trkpt>
      <trkpt lat="39.92207026919908" lon="116.49543383064622">
        <ele>15.599999999999998</ele>
        <time>2023-07-18T22:13:10Z</time>
      </trkpt>
      <trkpt lat="39.922085543840964" lon="116.49519090783099">
        <ele>8.600000000000001</ele>
        <time>2023-07-18T22:13:19Z</time>
      </trkpt>
      <trkpt lat="39.92213696069024" lon="116.49499616306123">
        <ele>6.3999999999999995</ele>
        <time>2023-07-18T22:13:25Z</time>
      </trkpt>
      <trkpt lat="39.922141945122995" lon="116.49465587192847">
        <ele>-1.7999999999999998</ele>
        <time>2023-07-18T22:13:40Z</time>
      </trkpt>
      <trkpt lat="39.92216252193201" lon="116.49451433252631">
        <ele>-5.6</ele>
        <time>2023-07-18T22:13:46Z</time>
      </trkpt>
      <trkpt lat="39.92212265491869" lon="116.49422323319176">
        <ele>-10.7</ele>
        <time>2023-07-18T22:13:58Z</time>
      </trkpt>
      <trkpt lat="39.922160057275335" lon="116.49402347067898">
        <ele>-12.8</ele>
        <time>2023-07-18T22:14:04Z</time>
      </trkpt>
      <trkpt lat="39.922157922091436" lon="116.49364302739183">
        <ele>-6.3999999999999995</ele>
        <time>2023-07-18T22:14:16Z</time>
      </trkpt>
      <trkpt lat="39.92215958354373" lon="116.4935295967469">
        <ele>-3.1999999999999997</ele>
        <time>2023-07-18T22:14:19Z</time>
      </trkpt>
      <trkpt lat="39.922182238140884" lon="116.49341415585876">
        <ele>1.5</ele>
        <time>2023-07-18T22:14:22Z</time>
      </trkpt>
      <trkpt lat="39.92217097502121" lon="116.4933258220286">
        <ele>4.7</ele>
        <time>2023-07-18T22:14:25Z</time>
      </trkpt>
      <trkpt lat="39.92217972605309" lon="116.49324250475104">
        <ele>7.3999999999999995</ele>
        <time>2023-07-18T22:14:28Z</time>
      </trkpt>
      <trkpt lat="39.92209386701349" lon="116.4929534182419">
        <ele>16.4</ele>
        <time>2023-07-18T22:14:37Z</time>
      </trkpt>
      <trkpt lat="39.92208079240809" lon="116.49259305213813">
        <ele>20.7</ele>
        <time>2023-07-18T22:14:49Z</time>
      </trkpt>
      <trkpt lat="39.922075505146395" lon="116.49249668704603">
        <ele>21.099999999999998</ele>
        <time>2023-07-18T22:14:52Z</time>
      </trkpt>
      <trkpt lat="39.922029959055365" lon="116.49231299549899">
        <ele>24.8</ele>
        <time>2023-07-18T22:14:58Z</time>
      </trkpt>
      <trkpt lat="39.92201084308087" lon="116.49193857680723">
        <ele>25.5</ele>
        <time>2023-07-18T22:15:13Z</time>
      </trkpt>
      <trkpt lat="39.92198469770479" lon="116.49155412097038">
        <ele>21.4</ele>
        <time>2023-07-18T22:15:28Z</time>
      </trkpt>
      <trkpt lat="39.922020166507" lon="116.49137644229663">
        <ele>15.2</ele>
        <time>2023-07-18T22:15:37Z</time>
      </trkpt>
      <trkpt lat="39.92199464388853" lon="116.49120077886431">
        <ele>12.3</ele>
        <time>2023-07-18T22:15:43Z</time>
      </trkpt>
      <trkpt lat="39.92201080249571" lon="116.49091870656032">
        <ele>7.500000000000001</ele>
        <time>2023-07-18T22:15:55Z</time>
      </trkpt>
      <trkpt lat="39.92199052020653" lon="116.49048807533464">
        <ele>11.7</ele>
        <time>2023-07-18T22:16:07Z</time>
      </trkpt>
      <trkpt lat="39.92196535821968" lon="116.49009759737979">
        <ele>17.9</ele>
        <time>2023-07-18T22:16:19Z</time>
      </trkpt>
      <trkpt lat="39.92200024204061" lon="116.48972317322655">
        <ele>23.2</ele>
        <time>2023-07-18T22:16:31Z</time>
      </trkpt>
      <trkpt lat="39.92201274557718" lon="116.48955653992415">
        <ele>24.9</ele>
        <time>2023-07-18T22:16:40Z</time>
      </trkpt>
      <trkpt lat="39.921994465123134" lon="116.4891259099642">
        <ele>24.099999999999998</ele>
        <time>2023-07-18T22:16:55Z</time>
      </trkpt>
      <trkpt lat="39.921970173725754" lon="116.48869126620018">
        <ele>15.8</ele>
        <time>2023-07-18T22:17:13Z</time>
      </trkpt>
      <trkpt lat="39.921959879591" lon="116.48825561764886">
        <ele>19.4</ele>
        <time>2023-07-18T22:17:25Z</time>
      </trkpt>
      <trkpt lat="39.92193530818174" lon="116.48806289109493">
        <ele>23.9</ele>
        <time>2023-07-18T22:17:31Z</time>
      </trkpt>
      <trkpt lat="39.9220168696407" lon="116.48791632623751">
        <ele>26.0</ele>
        <time>2023-07-18T22:17:37Z</time>
      </trkpt>
      <trkpt lat="39.92215087303172" lon="116.48791932093867">
        <ele>26.0</ele>
        <time>2023-07-18T22:17:46Z</time>
      </trkpt>
      <trkpt lat="39.92241237054205" lon="116.48775366159427">
        <ele>26.999999999999996</ele>
        <time>2023-07-18T22:18:01Z</time>
      </trkpt>
      <trkpt lat="39.92256442384044" lon="116.48777371861237">
        <ele>28.499999999999996</ele>
        <time>2023-07-18T22:18:10Z</time>
      </trkpt>
      <trkpt lat="39.922700701278345" lon="116.48786906249039">
        <ele>29.2</ele>
        <time>2023-07-18T22:18:16Z</time>
      </trkpt>
      <trkpt lat="39.9227599938679" lon="116.4879684312027">
        <ele>28.8</ele>
        <time>2023-07-18T22:18:22Z</time>
      </trkpt>
      <trkpt lat="39.92276933626719" lon="116.48808386698171">
        <ele>28.400000000000002</ele>
        <time>2023-07-18T22:18:28Z</time>
      </trkpt>
      <trkpt lat="39.92269569110676" lon="116.48820232456227">
        <ele>24.5</ele>
        <time>2023-07-18T22:18:34Z</time>
      </trkpt>
      <trkpt lat="39.92269960651806" lon="116.48851049098138">
        <ele>22.0</ele>
        <time>2023-07-18T22:18:46Z</time>
      </trkpt>
      <trkpt lat="39.922795449917714" lon="116.48879555888347">
        <ele>23.9</ele>
        <time>2023-07-18T22:18:55Z</time>
      </trkpt>
      <trkpt lat="39.92288972357907" lon="116.48888890082202">
        <ele>23.0</ele>
        <time>2023-07-18T22:19:01Z</time>
      </trkpt>
      <trkpt lat="39.923160822816584" lon="116.48892600777943">
        <ele>21.3</ele>
        <time>2023-07-18T22:19:16Z</time>
      </trkpt>
      <trkpt lat="39.92344477527771" lon="116.48891392677484">
        <ele>21.9</ele>
        <time>2023-07-18T22:19:34Z</time>
      </trkpt>
      <trkpt lat="39.92350264454787" lon="116.48887075602828">
        <ele>21.7</ele>
        <time>2023-07-18T22:19:37Z</time>
      </trkpt>
      <trkpt lat="39.92368452661826" lon="116.48883359266067">
        <ele>21.2</ele>
        <time>2023-07-18T22:19:46Z</time>
      </trkpt>
      <trkpt lat="39.92387447103697" lon="116.4888175081548">
        <ele>21.599999999999998</ele>
        <time>2023-07-18T22:19:52Z</time>
      </trkpt>
      <trkpt lat="39.92406966594199" lon="116.48888574245436">
        <ele>21.3</ele>
        <time>2023-07-18T22:20:01Z</time>
      </trkpt>
      <trkpt lat="39.924320658590595" lon="116.4888867149963">
        <ele>19.099999999999998</ele>
        <time>2023-07-18T22:20:13Z</time>
      </trkpt>
      <trkpt lat="39.92444557883318" lon="116.48886160435676">
        <ele>17.599999999999998</ele>
        <time>2023-07-18T22:20:19Z</time>
      </trkpt>
      <trkpt lat="39.92462255065987" lon="116.48885455569204">
        <ele>17.5</ele>
        <time>2023-07-18T22:20:28Z</time>
      </trkpt>
      <trkpt lat="39.924729459712864" lon="116.48882543208595">
        <ele>17.0</ele>
        <time>2023-07-18T22:20:31Z</time>
      </trkpt>
      <trkpt lat="39.92504047080349" lon="116.48883342377174">
        <ele>22.0</ele>
        <time>2023-07-18T22:20:49Z</time>
      </trkpt>
      <trkpt lat="39.92537250193294" lon="116.4888484394614">
        <ele>25.8</ele>
        <time>2023-07-18T22:21:07Z</time>
      </trkpt>
      <trkpt lat="39.925509496309395" lon="116.48884842239744">
        <ele>27.400000000000002</ele>
        <time>2023-07-18T22:21:13Z</time>
      </trkpt>
      <trkpt lat="39.92562056636562" lon="116.48887350364338">
        <ele>28.099999999999998</ele>
        <time>2023-07-18T22:21:22Z</time>
      </trkpt>
      <trkpt lat="39.92595824213892" lon="116.48876906606014">
        <ele>26.599999999999998</ele>
        <time>2023-07-18T22:21:37Z</time>
      </trkpt>
      <trkpt lat="39.92616196523114" lon="116.48867869843743">
        <ele>26.599999999999998</ele>
        <time>2023-07-18T22:21:43Z</time>
      </trkpt>
      <trkpt lat="39.92630961011053" lon="116.48856123517385">
        <ele>27.599999999999998</ele>
        <time>2023-07-18T22:21:49Z</time>
      </trkpt>
      <trkpt lat="39.92632945119149" lon="116.48850803119792">
        <ele>27.900000000000002</ele>
        <time>2023-07-18T22:21:52Z</time>
      </trkpt>
      <trkpt lat="39.92633686034058" lon="116.4883092775921">
        <ele>24.8</ele>
        <time>2023-07-18T22:22:01Z</time>
      </trkpt>
      <trkpt lat="39.92639953573441" lon="116.48820085930139">
        <ele>23.2</ele>
        <time>2023-07-18T22:22:07Z</time>
      </trkpt>
      <trkpt lat="39.92645241430945" lon="116.48816070069574">
        <ele>22.7</ele>
        <time>2023-07-18T22:22:13Z</time>
      </trkpt>
      <trkpt lat="39.92654240168108" lon="116.48815767808212">
        <ele>23.0</ele>
        <time>2023-07-18T22:22:19Z</time>
      </trkpt>
      <trkpt lat="39.926654638594684" lon="116.48823897193877">
        <ele>20.0</ele>
        <time>2023-07-18T22:22:31Z</time>
      </trkpt>
      <trkpt lat="39.926807522016766" lon="116.4882018122665">
        <ele>19.8</ele>
        <time>2023-07-18T22:22:37Z</time>
      </trkpt>
      <trkpt lat="39.92708905735687" lon="116.48804919955536">
        <ele>18.3</ele>
        <time>2023-07-18T22:22:46Z</time>
      </trkpt>
      <trkpt lat="39.92730944631868" lon="116.48784640461788">
        <ele>17.7</ele>
        <time>2023-07-18T22:22:58Z</time>
      </trkpt>
      <trkpt lat="39.927536796485036" lon="116.48763055963714">
        <ele>21.9</ele>
        <time>2023-07-18T22:23:10Z</time>
      </trkpt>
      <trkpt lat="39.927575663839036" lon="116.48758638769402">
        <ele>22.099999999999998</ele>
        <time>2023-07-18T22:23:13Z</time>
      </trkpt>
      <trkpt lat="39.92764712487942" lon="116.4874056953065">
        <ele>22.4</ele>
        <time>2023-07-18T22:23:22Z</time>
      </trkpt>
      <trkpt lat="39.927717240912905" lon="116.48710856300352">
        <ele>19.3</ele>
        <time>2023-07-18T22:23:37Z</time>
      </trkpt>
      <trkpt lat="39.92770461662238" lon="116.48689776775771">
        <ele>15.099999999999998</ele>
        <time>2023-07-18T22:23:49Z</time>
      </trkpt>
      <trkpt lat="39.927725107206534" lon="116.48672611655745">
        <ele>14.099999999999998</ele>
        <time>2023-07-18T22:23:55Z</time>
      </trkpt>
      <trkpt lat="39.92777970953754" lon="116.48659260537057">
        <ele>11.5</ele>
        <time>2023-07-18T22:24:01Z</time>
      </trkpt>
      <trkpt lat="39.92778895129017" lon="116.48633663748899">
        <ele>10.399999999999999</ele>
        <time>2023-07-18T22:24:10Z</time>
      </trkpt>
      <trkpt lat="39.92787211026183" lon="116.48605355852531">
        <ele>11.399999999999999</ele>
        <time>2023-07-18T22:24:19Z</time>
      </trkpt>
      <trkpt lat="39.927960376384085" lon="116.48580661578272">
        <ele>14.099999999999998</ele>
        <time>2023-07-18T22:24:31Z</time>
      </trkpt>
      <trkpt lat="39.92795764366297" lon="116.48555868103581">
        <ele>14.599999999999998</ele>
        <time>2023-07-18T22:24:40Z</time>
      </trkpt>
      <trkpt lat="39.92793444589768" lon="116.48549143035953">
        <ele>15.099999999999998</ele>
        <time>2023-07-18T22:24:43Z</time>
      </trkpt>
      <trkpt lat="39.92789739802969" lon="116.48513609578622">
        <ele>16.8</ele>
        <time>2023-07-18T22:24:55Z</time>
      </trkpt>
      <trkpt lat="39.927862611534216" lon="116.4848690944826">
        <ele>17.5</ele>
        <time>2023-07-18T22:25:04Z</time>
      </trkpt>
      <trkpt lat="39.92787721718004" lon="116.48473559005203">
        <ele>17.4</ele>
        <time>2023-07-18T22:25:10Z</time>
      </trkpt>
      <trkpt lat="39.92794697459262" lon="116.48465427531823">
        <ele>18.0</ele>
        <time>2023-07-18T22:25:16Z</time>
      </trkpt>
      <trkpt lat="39.928084847637685" lon="116.484613103229">
        <ele>19.0</ele>
        <time>2023-07-18T22:25:25Z</time>
      </trkpt>
      <trkpt lat="39.92817167839718" lon="116.48455688086769">
        <ele>21.0</ele>
        <time>2023-07-18T22:25:28Z</time>
      </trkpt>
      <trkpt lat="39.92824940010265" lon="116.48446351994383">
        <ele>22.2</ele>
        <time>2023-07-18T22:25:31Z</time>
      </trkpt>
      <trkpt lat="39.92829211738916" lon="116.48436815591141">
        <ele>22.7</ele>
        <time>2023-07-18T22:25:34Z</time>
      </trkpt>
      <trkpt lat="39.92835226358994" lon="116.48407906145424">
        <ele>22.7</ele>
        <time>2023-07-18T22:25:43Z</time>
      </trkpt>
      <trkpt lat="39.928397128799304" lon="116.48403388608405">
        <ele>22.5</ele>
        <time>2023-07-18T22:25:46Z</time>
      </trkpt>
      <trkpt lat="39.92846911200613" lon="116.48377782922964">
        <ele>22.5</ele>
        <time>2023-07-18T22:25:55Z</time>
      </trkpt>
      <trkpt lat="39.928420274343516" lon="116.48374379333521">
        <ele>22.5</ele>
        <time>2023-07-18T22:25:58Z</time>
      </trkpt>
      <trkpt lat="39.92838895093822" lon="116.48363338262372">
        <ele>22.5</ele>
        <time>2023-07-18T22:26:01Z</time>
      </trkpt>
      <trkpt lat="39.928506665818084" lon="116.48353800993459">
        <ele>22.8</ele>
        <time>2023-07-18T22:26:10Z</time>
      </trkpt>
      <trkpt lat="39.928569040943074" lon="116.48332620733628">
        <ele>24.8</ele>
        <time>2023-07-18T22:26:16Z</time>
      </trkpt>
      <trkpt lat="39.9286796856244" lon="116.48320674545208">
        <ele>25.8</ele>
        <time>2023-07-18T22:26:22Z</time>
      </trkpt>
      <trkpt lat="39.92888056250099" lon="116.48316757355063">
        <ele>22.3</ele>
        <time>2023-07-18T22:26:34Z</time>
      </trkpt>
      <trkpt lat="39.92902058037962" lon="116.48317558617954">
        <ele>20.599999999999998</ele>
        <time>2023-07-18T22:26:43Z</time>
      </trkpt>
      <trkpt lat="39.92921247826664" lon="116.48314344175843">
        <ele>19.8</ele>
        <time>2023-07-18T22:26:52Z</time>
      </trkpt>
      <trkpt lat="39.92930959220044" lon="116.48318358020201">
        <ele>20.0</ele>
        <time>2023-07-18T22:27:01Z</time>
      </trkpt>
      <trkpt lat="39.92959041869736" lon="116.48312833809773">
        <ele>22.2</ele>
        <time>2023-07-18T22:27:13Z</time>
      </trkpt>
      <trkpt lat="39.929844370071784" lon="116.48311525745082">
        <ele>28.7</ele>
        <time>2023-07-18T22:27:25Z</time>
      </trkpt>
      <trkpt lat="39.929953468779274" lon="116.48315037556623">
        <ele>31.599999999999998</ele>
        <time>2023-07-18T22:27:31Z</time>
      </trkpt>
      <trkpt lat="39.930069210673174" lon="116.48306403742615">
        <ele>31.499999999999996</ele>
        <time>2023-07-18T22:27:37Z</time>
      </trkpt>
      <trkpt lat="39.93017074116514" lon="116.48290543026131">
        <ele>30.999999999999996</ele>
        <time>2023-07-18T22:27:43Z</time>
      </trkpt>
      <trkpt lat="39.93021223017454" lon="116.48273177444851">
        <ele>30.2</ele>
        <time>2023-07-18T22:27:49Z</time>
      </trkpt>
      <trkpt lat="39.93026501330505" lon="116.48231721588117">
        <ele>26.3</ele>
        <time>2023-07-18T22:28:07Z</time>
      </trkpt>
      <trkpt lat="39.93028694316716" lon="116.48195184682723">
        <ele>24.3</ele>
        <time>2023-07-18T22:28:22Z</time>
      </trkpt>
      <trkpt lat="39.93029222987072" lon="116.48170793486261">
        <ele>22.3</ele>
        <time>2023-07-18T22:28:31Z</time>
      </trkpt>
      <trkpt lat="39.9302603838732" lon="116.48141785591103">
        <ele>21.8</ele>
        <time>2023-07-18T22:28:40Z</time>
      </trkpt>
      <trkpt lat="39.930250218849224" lon="116.48101836742316">
        <ele>23.7</ele>
        <time>2023-07-18T22:28:55Z</time>
      </trkpt>
      <trkpt lat="39.930264083759894" lon="116.48062891522021">
        <ele>18.9</ele>
        <time>2023-07-18T22:29:13Z</time>
      </trkpt>
      <trkpt lat="39.93021958899755" lon="116.48045828586227">
        <ele>18.9</ele>
        <time>2023-07-18T22:29:19Z</time>
      </trkpt>
      <trkpt lat="39.930215494935844" lon="116.4800818871259">
        <ele>20.9</ele>
        <time>2023-07-18T22:29:31Z</time>
      </trkpt>
      <trkpt lat="39.93019894472319" lon="116.47989218467293">
        <ele>25.3</ele>
        <time>2023-07-18T22:29:37Z</time>
      </trkpt>
      <trkpt lat="39.930209548145" lon="116.4797556766836">
        <ele>27.2</ele>
        <time>2023-07-18T22:29:43Z</time>
      </trkpt>
      <trkpt lat="39.930186513133634" lon="116.4793983544891">
        <ele>30.7</ele>
        <time>2023-07-18T22:29:58Z</time>
      </trkpt>
      <trkpt lat="39.930189309500314" lon="116.4793280937962">
        <ele>29.999999999999996</ele>
        <time>2023-07-18T22:30:01Z</time>
      </trkpt>
      <trkpt lat="39.93028461991631" lon="116.4790912046498">
        <ele>23.0</ele>
        <time>2023-07-18T22:30:13Z</time>
      </trkpt>
      <trkpt lat="39.93034941693066" lon="116.47902194021538">
        <ele>18.9</ele>
        <time>2023-07-18T22:30:16Z</time>
      </trkpt>
      <trkpt lat="39.93039934813252" lon="116.47899884854081">
        <ele>20.3</ele>
        <time>2023-07-18T22:30:22Z</time>
      </trkpt>
      <trkpt lat="39.93048446371406" lon="116.4790399901811">
        <ele>19.9</ele>
        <time>2023-07-18T22:30:28Z</time>
      </trkpt>
      <trkpt lat="39.930550382650225" lon="116.47901288164294">
        <ele>19.2</ele>
        <time>2023-07-18T22:30:34Z</time>
      </trkpt>
      <trkpt lat="39.9305852012644" lon="116.47895064702827">
        <ele>19.099999999999998</ele>
        <time>2023-07-18T22:30:37Z</time>
      </trkpt>
      <trkpt lat="39.930652213059616" lon="116.47895565721116">
        <ele>18.8</ele>
        <time>2023-07-18T22:30:43Z</time>
      </trkpt>
      <trkpt lat="39.930779341433436" lon="116.4790018121406">
        <ele>21.599999999999998</ele>
        <time>2023-07-18T22:30:52Z</time>
      </trkpt>
      <trkpt lat="39.93092931213169" lon="116.4789937636642">
        <ele>25.099999999999998</ele>
        <time>2023-07-18T22:31:01Z</time>
      </trkpt>
      <trkpt lat="39.93110305258284" lon="116.47890641885871">
        <ele>27.8</ele>
        <time>2023-07-18T22:31:07Z</time>
      </trkpt>
      <trkpt lat="39.93133689513358" lon="116.47885520026523">
        <ele>31.999999999999996</ele>
        <time>2023-07-18T22:31:16Z</time>
      </trkpt>
      <trkpt lat="39.9314170950045" lon="116.4789254501109">
        <ele>34.300000000000004</ele>
        <time>2023-07-18T22:31:19Z</time>
      </trkpt>
      <trkpt lat="39.93150410599339" lon="116.47893045778947">
        <ele>36.7</ele>
        <time>2023-07-18T22:31:22Z</time>
      </trkpt>
      <trkpt lat="39.93170192968333" lon="116.47887221769726">
        <ele>38.900000000000006</ele>
        <time>2023-07-18T22:31:28Z</time>
      </trkpt>
      <trkpt lat="39.931949058972116" lon="116.47892036498402">
        <ele>40.900000000000006</ele>
        <time>2023-07-18T22:31:37Z</time>
      </trkpt>
      <trkpt lat="39.93201897779422" lon="116.47889325598835">
        <ele>41.0</ele>
        <time>2023-07-18T22:31:40Z</time>
      </trkpt>
      <trkpt lat="39.932309876089214" lon="116.47886210450277">
        <ele>42.5</ele>
        <time>2023-07-18T22:31:49Z</time>
      </trkpt>
      <trkpt lat="39.93242976970622" lon="116.47882695958106">
        <ele>43.6</ele>
        <time>2023-07-18T22:31:52Z</time>
      </trkpt>
      <trkpt lat="39.93250958375039" lon="116.47876371578337">
        <ele>44.6</ele>
        <time>2023-07-18T22:31:55Z</time>
      </trkpt>
      <trkpt lat="39.9326051537095" lon="116.47861615849082">
        <ele>45.0</ele>
        <time>2023-07-18T22:32:01Z</time>
      </trkpt>
      <trkpt lat="39.93267749031275" lon="116.47838730424371">
        <ele>44.800000000000004</ele>
        <time>2023-07-18T22:32:10Z</time>
      </trkpt>
      <trkpt lat="39.93268893128294" lon="116.47819358796792">
        <ele>40.0</ele>
        <time>2023-07-18T22:32:16Z</time>
      </trkpt>
      <trkpt lat="39.93267947475016" lon="116.47803500436186">
        <ele>37.7</ele>
        <time>2023-07-18T22:32:19Z</time>
      </trkpt>
      <trkpt lat="39.9326942236585" lon="116.47760040186425">
        <ele>24.9</ele>
        <time>2023-07-18T22:32:34Z</time>
      </trkpt>
      <trkpt lat="39.93267295914443" lon="116.47750806481174">
        <ele>23.599999999999998</ele>
        <time>2023-07-18T22:32:37Z</time>
      </trkpt>
      <trkpt lat="39.932689168819586" lon="116.47723305181985">
        <ele>21.7</ele>
        <time>2023-07-18T22:32:46Z</time>
      </trkpt>
      <trkpt lat="39.9327871461586" lon="116.47687773521035">
        <ele>17.2</ele>
        <time>2023-07-18T22:32:58Z</time>
      </trkpt>
      <trkpt lat="39.93280686653013" lon="116.47678037569501">
        <ele>17.099999999999998</ele>
        <time>2023-07-18T22:33:01Z</time>
      </trkpt>
      <trkpt lat="39.93279868870669" lon="116.47671814858622">
        <ele>17.099999999999998</ele>
        <time>2023-07-18T22:33:07Z</time>
      </trkpt>
      <trkpt lat="39.93283639708298" lon="116.4766167723643">
        <ele>19.4</ele>
        <time>2023-07-18T22:33:13Z</time>
      </trkpt>
      <trkpt lat="39.93302945678313" lon="116.47629055392696">
        <ele>30.400000000000002</ele>
        <time>2023-07-18T22:33:25Z</time>
      </trkpt>
      <trkpt lat="39.93308649175329" lon="116.47630359451809">
        <ele>32.7</ele>
        <time>2023-07-18T22:33:31Z</time>
      </trkpt>
      <trkpt lat="39.933176734737884" lon="116.47638989907753">
        <ele>34.7</ele>
        <time>2023-07-18T22:33:37Z</time>
      </trkpt>
      <trkpt lat="39.933261385679465" lon="116.47661872648816">
        <ele>35.6</ele>
        <time>2023-07-18T22:33:46Z</time>
      </trkpt>
      <trkpt lat="39.9334089773276" lon="116.47682747326753">
        <ele>37.2</ele>
        <time>2023-07-18T22:33:55Z</time>
      </trkpt>
      <trkpt lat="39.93350171280638" lon="116.47708540818608">
        <ele>41.2</ele>
        <time>2023-07-18T22:34:07Z</time>
      </trkpt>
      <trkpt lat="39.93373836848027" lon="116.47731723024472">
        <ele>41.300000000000004</ele>
        <time>2023-07-18T22:34:22Z</time>
      </trkpt>
      <trkpt lat="39.93379640359973" lon="116.47733027093406">
        <ele>41.2</ele>
        <time>2023-07-18T22:34:25Z</time>
      </trkpt>
      <trkpt lat="39.934048298371984" lon="116.47729711766091">
        <ele>40.400000000000006</ele>
        <time>2023-07-18T22:34:34Z</time>
      </trkpt>
      <trkpt lat="39.93418835035543" lon="116.47731717389753">
        <ele>37.400000000000006</ele>
        <time>2023-07-18T22:34:40Z</time>
      </trkpt>
      <trkpt lat="39.93451426232833" lon="116.47729103717997">
        <ele>34.2</ele>
        <time>2023-07-18T22:34:55Z</time>
      </trkpt>
      <trkpt lat="39.93482696172429" lon="116.47719062925289">
        <ele>31.900000000000002</ele>
        <time>2023-07-18T22:35:13Z</time>
      </trkpt>
      <trkpt lat="39.935146689764586" lon="116.47710025745693">
        <ele>32.6</ele>
        <time>2023-07-18T22:35:28Z</time>
      </trkpt>
      <trkpt lat="39.935221692506744" lon="116.47710225543457">
        <ele>32.5</ele>
        <time>2023-07-18T22:35:31Z</time>
      </trkpt>
      <trkpt lat="39.93528976173428" lon="116.4771273390517">
        <ele>32.900000000000006</ele>
        <time>2023-07-18T22:35:34Z</time>
      </trkpt>
      <trkpt lat="39.93543317064656" lon="116.47727185202787">
        <ele>34.300000000000004</ele>
        <time>2023-07-18T22:35:43Z</time>
      </trkpt>
      <trkpt lat="39.935679665071575" lon="116.47744746684495">
        <ele>33.300000000000004</ele>
        <time>2023-07-18T22:35:55Z</time>
      </trkpt>
      <trkpt lat="39.935824915884155" lon="116.47753677722136">
        <ele>34.300000000000004</ele>
        <time>2023-07-18T22:36:04Z</time>
      </trkpt>
      <trkpt lat="39.93588693935289" lon="116.47754580268752">
        <ele>34.300000000000004</ele>
        <time>2023-07-18T22:36:07Z</time>
      </trkpt>
      <trkpt lat="39.936201770980716" lon="116.47749156388616">
        <ele>34.300000000000004</ele>
        <time>2023-07-18T22:36:22Z</time>
      </trkpt>
      <trkpt lat="39.93641268754907" lon="116.47746544149356">
        <ele>33.900000000000006</ele>
        <time>2023-07-18T22:36:31Z</time>
      </trkpt>
      <trkpt lat="39.93668185266097" lon="116.47752663298978">
        <ele>31.099999999999998</ele>
        <time>2023-07-18T22:36:46Z</time>
      </trkpt>
      <trkpt lat="39.93677997852588" lon="116.47757178687333">
        <ele>30.2</ele>
        <time>2023-07-18T22:36:52Z</time>
      </trkpt>
      <trkpt lat="39.936924949637685" lon="116.47756373917555">
        <ele>28.3</ele>
        <time>2023-07-18T22:36:58Z</time>
      </trkpt>
      <trkpt lat="39.93723219988186" lon="116.47765503682375">
        <ele>29.900000000000002</ele>
        <time>2023-07-18T22:37:13Z</time>
      </trkpt>
      <trkpt lat="39.93744147148841" lon="116.4777523690481">
        <ele>31.8</ele>
        <time>2023-07-18T22:37:22Z</time>
      </trkpt>
      <trkpt lat="39.93765492505119" lon="116.477912933866">
        <ele>33.6</ele>
        <time>2023-07-18T22:37:31Z</time>
      </trkpt>
      <trkpt lat="39.93773428313203" lon="116.47803838635032">
        <ele>33.300000000000004</ele>
        <time>2023-07-18T22:37:37Z</time>
      </trkpt>
      <trkpt lat="39.937833548067005" lon="116.47813171811856">
        <ele>32.300000000000004</ele>
        <time>2023-07-18T22:37:43Z</time>
      </trkpt>
      <trkpt lat="39.93787180976964" lon="116.47822305025016">
        <ele>30.499999999999996</ele>
        <time>2023-07-18T22:37:49Z</time>
      </trkpt>
      <trkpt lat="39.937926966711615" lon="116.47827824703977">
        <ele>28.999999999999996</ele>
        <time>2023-07-18T22:37:52Z</time>
      </trkpt>
      <trkpt lat="39.937999065123634" lon="116.47831336766149">
        <ele>28.2</ele>
        <time>2023-07-18T22:37:55Z</time>
      </trkpt>
      <trkpt lat="39.93811334716237" lon="116.47841272017274">
        <ele>27.099999999999998</ele>
        <time>2023-07-18T22:38:01Z</time>
      </trkpt>
      <trkpt lat="39.93829654256409" lon="116.47848295669448">
        <ele>26.7</ele>
        <time>2023-07-18T22:38:10Z</time>
      </trkpt>
      <trkpt lat="39.93861391233304" lon="116.4786154064231">
        <ele>25.9</ele>
        <time>2023-07-18T22:38:25Z</time>
      </trkpt>
      <trkpt lat="39.93879217479951" lon="116.47870872910882">
        <ele>25.9</ele>
        <time>2023-07-18T22:38:37Z</time>
      </trkpt>
      <trkpt lat="39.93897221689634" lon="116.47872576965047">
        <ele>27.499999999999996</ele>
        <time>2023-07-18T22:38:46Z</time>
      </trkpt>
      <trkpt lat="39.93905436441209" lon="116.47877795233983">
        <ele>27.8</ele>
        <time>2023-07-18T22:38:52Z</time>
      </trkpt>
      <trkpt lat="39.93938716262598" lon="116.47871266947224">
        <ele>28.7</ele>
        <time>2023-07-18T22:39:10Z</time>
      </trkpt>
      <trkpt lat="39.93966664714819" lon="116.47853798908743">
        <ele>28.3</ele>
        <time>2023-07-18T22:39:19Z</time>
      </trkpt>
      <trkpt lat="39.939933944392216" lon="116.4782980698547">
        <ele>29.2</ele>
        <time>2023-07-18T22:39:28Z</time>
      </trkpt>
      <trkpt lat="39.940036509201924" lon="116.47814850522933">
        <ele>29.3</ele>
        <time>2023-07-18T22:39:34Z</time>
      </trkpt>
      <trkpt lat="39.940151842603576" lon="116.47791864340111">
        <ele>28.599999999999998</ele>
        <time>2023-07-18T22:39:43Z</time>
      </trkpt>
      <trkpt lat="39.94020163839721" lon="116.47784837829937">
        <ele>27.8</ele>
        <time>2023-07-18T22:39:46Z</time>
      </trkpt>
      <trkpt lat="39.94027154607474" lon="116.47781725492841">
        <ele>27.999999999999996</ele>
        <time>2023-07-18T22:39:52Z</time>
      </trkpt>
      <trkpt lat="39.940316717575726" lon="116.47787747112379">
        <ele>29.2</ele>
        <time>2023-07-18T22:39:58Z</time>
      </trkpt>
      <trkpt lat="39.940489089243634" lon="116.47800893410974">
        <ele>29.400000000000002</ele>
        <time>2023-07-18T22:40:10Z</time>
      </trkpt>
      <trkpt lat="39.94059950120768" lon="116.47815345324673">
        <ele>29.599999999999998</ele>
        <time>2023-07-18T22:40:19Z</time>
      </trkpt>
      <trkpt lat="39.940636304318154" lon="116.47843247844065">
        <ele>27.400000000000002</ele>
        <time>2023-07-18T22:40:28Z</time>
      </trkpt>
      <trkpt lat="39.94077834781712" lon="116.47879580334558">
        <ele>23.2</ele>
        <time>2023-07-18T22:40:43Z</time>
      </trkpt>
      <trkpt lat="39.9408116395049" lon="116.47889717413712">
        <ele>24.2</ele>
        <time>2023-07-18T22:40:46Z</time>
      </trkpt>
      <trkpt lat="39.94086185807285" lon="116.47897345009547">
        <ele>24.7</ele>
        <time>2023-07-18T22:40:49Z</time>
      </trkpt>
      <trkpt lat="39.940980169824726" lon="116.47908284022914">
        <ele>25.3</ele>
        <time>2023-07-18T22:40:55Z</time>
      </trkpt>
      <trkpt lat="39.941164095317596" lon="116.47940501072483">
        <ele>26.400000000000002</ele>
        <time>2023-07-18T22:41:10Z</time>
      </trkpt>
      <trkpt lat="39.941268373287535" lon="116.47950235861552">
        <ele>25.599999999999998</ele>
        <time>2023-07-18T22:41:16Z</time>
      </trkpt>
      <trkpt lat="39.94138899420816" lon="116.47971814400641">
        <ele>21.4</ele>
        <time>2023-07-18T22:41:32Z</time>
      </trkpt>
      <trkpt lat="39.941459760462834" lon="116.47998311893005">
        <ele>21.7</ele>
        <time>2023-07-18T22:41:41Z</time>
      </trkpt>
      <trkpt lat="39.94159228584688" lon="116.4801657811005">
        <ele>21.7</ele>
        <time>2023-07-18T22:41:50Z</time>
      </trkpt>
      <trkpt lat="39.94162971032504" lon="116.4803123212256">
        <ele>22.7</ele>
        <time>2023-07-18T22:41:56Z</time>
      </trkpt>
      <trkpt lat="39.94171413317126" lon="116.48045885574741">
        <ele>25.0</ele>
        <time>2023-07-18T22:42:02Z</time>
      </trkpt>
      <trkpt lat="39.94183844073019" lon="116.4805662398496">
        <ele>25.9</ele>
        <time>2023-07-18T22:42:08Z</time>
      </trkpt>
      <trkpt lat="39.94198749614407" lon="116.48058729965751">
        <ele>26.3</ele>
        <time>2023-07-18T22:42:17Z</time>
      </trkpt>
      <trkpt lat="39.94203945901865" lon="116.48057524832589">
        <ele>27.099999999999998</ele>
        <time>2023-07-18T22:42:20Z</time>
      </trkpt>
      <trkpt lat="39.94234343231349" lon="116.4805701916212">
        <ele>28.499999999999996</ele>
        <time>2023-07-18T22:42:29Z</time>
      </trkpt>
      <trkpt lat="39.94265444330951" lon="116.480578182602">
        <ele>34.2</ele>
        <time>2023-07-18T22:42:41Z</time>
      </trkpt>
      <trkpt lat="39.94276347402955" lon="116.48059021379494">
        <ele>37.1</ele>
        <time>2023-07-18T22:42:47Z</time>
      </trkpt>
      <trkpt lat="39.94283938044917" lon="116.48055908848593">
        <ele>38.7</ele>
        <time>2023-07-18T22:42:50Z</time>
      </trkpt>
      <trkpt lat="39.94296208058889" lon="116.48045769589292">
        <ele>39.800000000000004</ele>
        <time>2023-07-18T22:42:56Z</time>
      </trkpt>
      <trkpt lat="39.94304505100954" lon="116.48044865190342">
        <ele>40.7</ele>
        <time>2023-07-18T22:43:02Z</time>
      </trkpt>
      <trkpt lat="39.94310209254166" lon="116.48046370078359">
        <ele>40.800000000000004</ele>
        <time>2023-07-18T22:43:05Z</time>
      </trkpt>
      <trkpt lat="39.943144198918866" lon="116.48050083370202">
        <ele>41.1</ele>
        <time>2023-07-18T22:43:08Z</time>
      </trkpt>
      <trkpt lat="39.94316742582915" lon="116.48057912216477">
        <ele>41.0</ele>
        <time>2023-07-18T22:43:11Z</time>
      </trkpt>
      <trkpt lat="39.94316713313509" lon="116.48082202667834">
        <ele>39.400000000000006</ele>
        <time>2023-07-18T22:43:20Z</time>
      </trkpt>
      <trkpt lat="39.943200637820226" lon="116.4809956695223">
        <ele>35.7</ele>
        <time>2023-07-18T22:43:26Z</time>
      </trkpt>
      <trkpt lat="39.94322880204074" lon="116.48139515593319">
        <ele>29.2</ele>
        <time>2023-07-18T22:43:41Z</time>
      </trkpt>
      <trkpt lat="39.943234549316465" lon="116.48165111080617">
        <ele>26.0</ele>
        <time>2023-07-18T22:43:50Z</time>
      </trkpt>
      <trkpt lat="39.94325675668035" lon="116.4817223742302">
        <ele>25.2</ele>
        <time>2023-07-18T22:43:53Z</time>
      </trkpt>
      <trkpt lat="39.94329689589997" lon="116.48177054921084">
        <ele>25.599999999999998</ele>
        <time>2023-07-18T22:43:56Z</time>
      </trkpt>
      <trkpt lat="39.943568820547306" lon="116.48174843270657">
        <ele>24.5</ele>
        <time>2023-07-18T22:44:11Z</time>
      </trkpt>
      <trkpt lat="39.9436367503756" lon="116.48172533796487">
        <ele>24.2</ele>
        <time>2023-07-18T22:44:17Z</time>
      </trkpt>
      <trkpt lat="39.94372951791115" lon="116.48164703391751">
        <ele>25.0</ele>
        <time>2023-07-18T22:44:23Z</time>
      </trkpt>
      <trkpt lat="39.943851457347066" lon="116.48162794744268">
        <ele>26.0</ele>
        <time>2023-07-18T22:44:29Z</time>
      </trkpt>
      <trkpt lat="39.943907484446" lon="116.48163797792388">
        <ele>25.099999999999998</ele>
        <time>2023-07-18T22:44:35Z</time>
      </trkpt>
      <trkpt lat="39.94410981391046" lon="116.48141110569176">
        <ele>25.099999999999998</ele>
        <time>2023-07-18T22:44:41Z</time>
      </trkpt>
      <trkpt lat="39.9441847259621" lon="116.48138198768935">
        <ele>24.599999999999998</ele>
        <time>2023-07-18T22:44:44Z</time>
      </trkpt>
      <trkpt lat="39.94440393116891" lon="116.48145523375223">
        <ele>26.400000000000002</ele>
        <time>2023-07-18T22:44:53Z</time>
      </trkpt>
      <trkpt lat="39.94450021460279" lon="116.48155358894373">
        <ele>24.3</ele>
        <time>2023-07-18T22:44:59Z</time>
      </trkpt>
      <trkpt lat="39.94454870241378" lon="116.48172120893175">
        <ele>24.5</ele>
        <time>2023-07-18T22:45:05Z</time>
      </trkpt>
      <trkpt lat="39.94463994523201" lon="116.48180551254379">
        <ele>27.499999999999996</ele>
        <time>2023-07-18T22:45:11Z</time>
      </trkpt>
      <trkpt lat="39.944975378036254" lon="116.48195804084537">
        <ele>26.2</ele>
        <time>2023-07-18T22:45:35Z</time>
      </trkpt>
      <trkpt lat="39.945270322294746" lon="116.4819429476804">
        <ele>25.9</ele>
        <time>2023-07-18T22:45:44Z</time>
      </trkpt>
      <trkpt lat="39.94558027476937" lon="116.48193086389689">
        <ele>26.900000000000002</ele>
        <time>2023-07-18T22:45:56Z</time>
      </trkpt>
      <trkpt lat="39.94586397881887" lon="116.48183346451032">
        <ele>29.900000000000002</ele>
        <time>2023-07-18T22:46:08Z</time>
      </trkpt>
      <trkpt lat="39.945986833100385" lon="116.48178526910664">
        <ele>32.1</ele>
        <time>2023-07-18T22:46:14Z</time>
      </trkpt>
      <trkpt lat="39.946082582878816" lon="116.48170094212405">
        <ele>32.300000000000004</ele>
        <time>2023-07-18T22:46:23Z</time>
      </trkpt>
      <trkpt lat="39.94633509488966" lon="116.48153729950761">
        <ele>33.7</ele>
        <time>2023-07-18T22:46:38Z</time>
      </trkpt>
      <trkpt lat="39.94663051465357" lon="116.48134253571305">
        <ele>35.900000000000006</ele>
        <time>2023-07-18T22:46:56Z</time>
      </trkpt>
      <trkpt lat="39.94678234459777" lon="116.48128630699293">
        <ele>37.5</ele>
        <time>2023-07-18T22:47:05Z</time>
      </trkpt>
      <trkpt lat="39.94705668083159" lon="116.48106243787448">
        <ele>36.5</ele>
        <time>2023-07-18T22:47:23Z</time>
      </trkpt>
      <trkpt lat="39.94731944217761" lon="116.4809841131508">
        <ele>37.900000000000006</ele>
        <time>2023-07-18T22:47:38Z</time>
      </trkpt>
      <trkpt lat="39.947573949490135" lon="116.48081846417298">
        <ele>34.2</ele>
        <time>2023-07-18T22:47:50Z</time>
      </trkpt>
      <trkpt lat="39.94782954472676" lon="116.48068292751246">
        <ele>31.099999999999998</ele>
        <time>2023-07-18T22:48:02Z</time>
      </trkpt>
      <trkpt lat="39.948077020733244" lon="116.48050623893292">
        <ele>30.3</ele>
        <time>2023-07-18T22:48:20Z</time>
      </trkpt>
      <trkpt lat="39.948317208486124" lon="116.48023018214181">
        <ele>29.3</ele>
        <time>2023-07-18T22:48:32Z</time>
      </trkpt>
      <trkpt lat="39.94848446993083" lon="116.4799782249357">
        <ele>29.400000000000002</ele>
        <time>2023-07-18T22:48:41Z</time>
      </trkpt>
      <trkpt lat="39.948527141875225" lon="116.47986580208392">
        <ele>27.599999999999998</ele>
        <time>2023-07-18T22:48:44Z</time>
      </trkpt>
      <trkpt lat="39.948600137489876" lon="116.47952051164772">
        <ele>22.2</ele>
        <time>2023-07-18T22:48:56Z</time>
      </trkpt>
      <trkpt lat="39.948619101788324" lon="116.47916318499142">
        <ele>20.4</ele>
        <time>2023-07-18T22:49:11Z</time>
      </trkpt>
      <trkpt lat="39.948636357821776" lon="116.47890623164156">
        <ele>20.9</ele>
        <time>2023-07-18T22:49:23Z</time>
      </trkpt>
      <trkpt lat="39.948612946807266" lon="116.47876370736593">
        <ele>22.0</ele>
        <time>2023-07-18T22:49:29Z</time>
      </trkpt>
      <trkpt lat="39.94867707190432" lon="116.47846158277734">
        <ele>20.599999999999998</ele>
        <time>2023-07-18T22:49:44Z</time>
      </trkpt>
      <trkpt lat="39.9488401537443" lon="116.47814539529993">
        <ele>24.2</ele>
        <time>2023-07-18T22:50:02Z</time>
      </trkpt>
      <trkpt lat="39.94897678690418" lon="116.47801991548391">
        <ele>24.3</ele>
        <time>2023-07-18T22:50:11Z</time>
      </trkpt>
      <trkpt lat="39.94909183149365" lon="116.4780369639861">
        <ele>26.3</ele>
        <time>2023-07-18T22:50:23Z</time>
      </trkpt>
      <trkpt lat="39.949276720113964" lon="116.478000807602">
        <ele>28.499999999999996</ele>
        <time>2023-07-18T22:50:35Z</time>
      </trkpt>
      <trkpt lat="39.94955899515672" lon="116.47810013865562">
        <ele>30.099999999999998</ele>
        <time>2023-07-18T22:50:50Z</time>
      </trkpt>
      <trkpt lat="39.949889632276616" lon="116.4779786494165">
        <ele>28.2</ele>
        <time>2023-07-18T22:51:02Z</time>
      </trkpt>
      <trkpt lat="39.95003639530425" lon="116.47789833507333">
        <ele>28.900000000000002</ele>
        <time>2023-07-18T22:51:08Z</time>
      </trkpt>
      <trkpt lat="39.950135007276266" lon="116.47776483090813">
        <ele>30.599999999999998</ele>
        <time>2023-07-18T22:51:14Z</time>
      </trkpt>
      <trkpt lat="39.95015482750568" lon="116.47770259925348">
        <ele>30.8</ele>
        <time>2023-07-18T22:51:17Z</time>
      </trkpt>
      <trkpt lat="39.950214781838525" lon="116.47768753630608">
        <ele>30.099999999999998</ele>
        <time>2023-07-18T22:51:23Z</time>
      </trkpt>
      <trkpt lat="39.95031493952847" lon="116.4777437307355">
        <ele>29.2</ele>
        <time>2023-07-18T22:51:29Z</time>
      </trkpt>
      <trkpt lat="39.95039351119823" lon="116.47794345679876">
        <ele>28.499999999999996</ele>
        <time>2023-07-18T22:51:38Z</time>
      </trkpt>
      <trkpt lat="39.95039686659065" lon="116.47806691154102">
        <ele>28.2</ele>
        <time>2023-07-18T22:51:44Z</time>
      </trkpt>
      <trkpt lat="39.95037406991194" lon="116.47813717353559">
        <ele>28.7</ele>
        <time>2023-07-18T22:51:47Z</time>
      </trkpt>
      <trkpt lat="39.950152778947405" lon="116.47838009770425">
        <ele>25.7</ele>
        <time>2023-07-18T22:52:02Z</time>
      </trkpt>
      <trkpt lat="39.950024447377594" lon="116.47860996287429">
        <ele>27.999999999999996</ele>
        <time>2023-07-18T22:52:14Z</time>
      </trkpt>
      <trkpt lat="39.9500391050101" lon="116.47883780347988">
        <ele>28.900000000000002</ele>
        <time>2023-07-18T22:52:23Z</time>
      </trkpt>
      <trkpt lat="39.950149119679274" lon="116.47919009379707">
        <ele>27.999999999999996</ele>
        <time>2023-07-18T22:52:38Z</time>
      </trkpt>
      <trkpt lat="39.95025671999536" lon="116.47939885394449">
        <ele>26.2</ele>
        <time>2023-07-18T22:52:47Z</time>
      </trkpt>
      <trkpt lat="39.950444320575436" lon="116.47960860840308">
        <ele>25.9</ele>
        <time>2023-07-18T22:52:59Z</time>
      </trkpt>
      <trkpt lat="39.95054143315695" lon="116.47964874520325">
        <ele>25.8</ele>
        <time>2023-07-18T22:53:05Z</time>
      </trkpt>
      <trkpt lat="39.950656318010594" lon="116.47961058931017">
        <ele>26.3</ele>
        <time>2023-07-18T22:53:11Z</time>
      </trkpt>
      <trkpt lat="39.9507141760385" lon="116.47956240334454">
        <ele>27.099999999999998</ele>
        <time>2023-07-18T22:53:17Z</time>
      </trkpt>
      <trkpt lat="39.95079509427798" lon="116.47953529269645">
        <ele>28.7</ele>
        <time>2023-07-18T22:53:23Z</time>
      </trkpt>
      <trkpt lat="39.9510081527725" lon="116.47955835164775">
        <ele>29.599999999999998</ele>
        <time>2023-07-18T22:53:35Z</time>
      </trkpt>
      <trkpt lat="39.951061403858965" lon="116.47964566893502">
        <ele>29.599999999999998</ele>
        <time>2023-07-18T22:53:41Z</time>
      </trkpt>
      <trkpt lat="39.9510623416964" lon="116.47996886871195">
        <ele>29.599999999999998</ele>
        <time>2023-07-18T22:53:56Z</time>
      </trkpt>
      <trkpt lat="39.95103509510177" lon="116.48022783452392">
        <ele>30.999999999999996</ele>
        <time>2023-07-18T22:54:05Z</time>
      </trkpt>
      <trkpt lat="39.95107356051949" lon="116.48038842698428">
        <ele>29.7</ele>
        <time>2023-07-18T22:54:11Z</time>
      </trkpt>
      <trkpt lat="39.95123655895696" lon="116.4807336918363">
        <ele>27.099999999999998</ele>
        <time>2023-07-18T22:54:29Z</time>
      </trkpt>
      <trkpt lat="39.95123040149211" lon="116.48102276976967">
        <ele>26.3</ele>
        <time>2023-07-18T22:54:41Z</time>
      </trkpt>
      <trkpt lat="39.95115215696273" lon="116.48128074163078">
        <ele>27.2</ele>
        <time>2023-07-18T22:54:53Z</time>
      </trkpt>
      <trkpt lat="39.95111241338725" lon="116.48136807246357">
        <ele>27.7</ele>
        <time>2023-07-18T22:54:56Z</time>
      </trkpt>
      <trkpt lat="39.9510138334213" lon="116.48151061685166">
        <ele>29.2</ele>
        <time>2023-07-18T22:55:05Z</time>
      </trkpt>
      <trkpt lat="39.950776514334756" lon="116.48174050506343">
        <ele>32.400000000000006</ele>
        <time>2023-07-18T22:55:17Z</time>
      </trkpt>
      <trkpt lat="39.950709833859136" lon="116.48184891850603">
        <ele>34.2</ele>
        <time>2023-07-18T22:55:23Z</time>
      </trkpt>
      <trkpt lat="39.95070443295425" lon="116.48205368473359">
        <ele>32.7</ele>
        <time>2023-07-18T22:55:32Z</time>
      </trkpt>
      <trkpt lat="39.95074898346497" lon="116.48224238508038">
        <ele>31.2</ele>
        <time>2023-07-18T22:55:41Z</time>
      </trkpt>
      <trkpt lat="39.950747380318795" lon="116.4823778924284">
        <ele>29.499999999999996</ele>
        <time>2023-07-18T22:55:47Z</time>
      </trkpt>
      <trkpt lat="39.95077464680493" lon="116.48246923098478">
        <ele>29.2</ele>
        <time>2023-07-18T22:55:50Z</time>
      </trkpt>
      <trkpt lat="39.95082480363282" lon="116.4825234276799">
        <ele>29.499999999999996</ele>
        <time>2023-07-18T22:55:53Z</time>
      </trkpt>
      <trkpt lat="39.950929881834256" lon="116.48255151979545">
        <ele>29.999999999999996</ele>
        <time>2023-07-18T22:55:59Z</time>
      </trkpt>
      <trkpt lat="39.95120695029901" lon="116.4825785866549">
        <ele>30.8</ele>
        <time>2023-07-18T22:56:20Z</time>
      </trkpt>
      <trkpt lat="39.951313972542295" lon="116.48258760710935">
        <ele>31.400000000000002</ele>
        <time>2023-07-18T22:56:26Z</time>
      </trkpt>
      <trkpt lat="39.95139888387537" lon="116.48255848746717">
        <ele>31.3</ele>
        <time>2023-07-18T22:56:29Z</time>
      </trkpt>
      <trkpt lat="39.951517588014234" lon="116.4824591005019">
        <ele>30.900000000000002</ele>
        <time>2023-07-18T22:56:35Z</time>
      </trkpt>
      <trkpt lat="39.95171900681217" lon="116.48226334265142">
        <ele>31.599999999999998</ele>
        <time>2023-07-18T22:56:47Z</time>
      </trkpt>
      <trkpt lat="39.95193450765668" lon="116.48209568856717">
        <ele>33.300000000000004</ele>
        <time>2023-07-18T22:57:02Z</time>
      </trkpt>
      <trkpt lat="39.95209941214884" lon="116.48172327583576">
        <ele>26.2</ele>
        <time>2023-07-18T22:57:20Z</time>
      </trkpt>
      <trkpt lat="39.952272534527175" lon="116.48142514087418">
        <ele>26.400000000000002</ele>
        <time>2023-07-18T22:57:35Z</time>
      </trkpt>
      <trkpt lat="39.95249189020634" lon="116.4812073006578">
        <ele>32.7</ele>
        <time>2023-07-18T22:57:50Z</time>
      </trkpt>
      <trkpt lat="39.95277543697088" lon="116.48105569994038">
        <ele>35.5</ele>
        <time>2023-07-18T22:58:05Z</time>
      </trkpt>
      <trkpt lat="39.953068147427985" lon="116.48096030783948">
        <ele>36.2</ele>
        <time>2023-07-18T22:58:23Z</time>
      </trkpt>
      <trkpt lat="39.95313710667127" lon="116.48094725057499">
        <ele>36.2</ele>
        <time>2023-07-18T22:58:26Z</time>
      </trkpt>
      <trkpt lat="39.953414659939526" lon="116.48079765855337">
        <ele>37.300000000000004</ele>
        <time>2023-07-18T22:58:41Z</time>
      </trkpt>
      <trkpt lat="39.95349649299132" lon="116.48074143893209">
        <ele>37.400000000000006</ele>
        <time>2023-07-18T22:58:44Z</time>
      </trkpt>
      <trkpt lat="39.95356224196412" lon="116.48065611296882">
        <ele>36.7</ele>
        <time>2023-07-18T22:58:47Z</time>
      </trkpt>
      <trkpt lat="39.95380875896466" lon="116.48049347680089">
        <ele>32.1</ele>
        <time>2023-07-18T22:58:59Z</time>
      </trkpt>
      <trkpt lat="39.95403916015775" lon="116.48029069365332">
        <ele>31.599999999999998</ele>
        <time>2023-07-18T22:59:14Z</time>
      </trkpt>
      <trkpt lat="39.95426656192908" lon="116.4800879114044">
        <ele>26.599999999999998</ele>
        <time>2023-07-18T22:59:32Z</time>
      </trkpt>
      <trkpt lat="39.95441908950583" lon="116.47992729563285">
        <ele>25.2</ele>
        <time>2023-07-18T22:59:41Z</time>
      </trkpt>
      <trkpt lat="39.95442685611233" lon="116.47984699644962">
        <ele>25.7</ele>
        <time>2023-07-18T22:59:44Z</time>
      </trkpt>
      <trkpt lat="39.954383380236216" lon="116.47968239082985">
        <ele>25.599999999999998</ele>
        <time>2023-07-18T22:59:50Z</time>
      </trkpt>
      <trkpt lat="39.954324943088864" lon="116.47953083584508">
        <ele>27.3</ele>
        <time>2023-07-18T22:59:56Z</time>
      </trkpt>
      <trkpt lat="39.95431166145616" lon="116.4794334764597">
        <ele>28.099999999999998</ele>
        <time>2023-07-18T22:59:59Z</time>
      </trkpt>
      <trkpt lat="39.95427736913801" lon="116.47933210495539">
        <ele>24.2</ele>
        <time>2023-07-18T23:00:05Z</time>
      </trkpt>
      <trkpt lat="39.95417416103455" lon="116.479258846352">
        <ele>17.9</ele>
        <time>2023-07-18T23:00:11Z</time>
      </trkpt>
      <trkpt lat="39.95399439843077" lon="116.47899288381426">
        <ele>18.2</ele>
        <time>2023-07-18T23:00:23Z</time>
      </trkpt>
      <trkpt lat="39.95382953752075" lon="116.4786927942384">
        <ele>18.599999999999998</ele>
        <time>2023-07-18T23:00:35Z</time>
      </trkpt>
      <trkpt lat="39.953611702989505" lon="116.47840074226289">
        <ele>22.599999999999998</ele>
        <time>2023-07-18T23:00:50Z</time>
      </trkpt>
      <trkpt lat="39.953411779192564" lon="116.47807757455055">
        <ele>25.0</ele>
        <time>2023-07-18T23:01:02Z</time>
      </trkpt>
      <trkpt lat="39.953328424055144" lon="116.47795312609168">
        <ele>25.3</ele>
        <time>2023-07-18T23:01:08Z</time>
      </trkpt>
      <trkpt lat="39.953264293674465" lon="116.47790696394908">
        <ele>26.3</ele>
        <time>2023-07-18T23:01:11Z</time>
      </trkpt>
      <trkpt lat="39.953148885220564" lon="116.47776344958822">
        <ele>29.599999999999998</ele>
        <time>2023-07-18T23:01:17Z</time>
      </trkpt>
      <trkpt lat="39.95289423156606" lon="116.47753263161808">
        <ele>33.800000000000004</ele>
        <time>2023-07-18T23:01:32Z</time>
      </trkpt>
      <trkpt lat="39.952641688031534" lon="116.47733995444358">
        <ele>34.2</ele>
        <time>2023-07-18T23:01:44Z</time>
      </trkpt>
      <trkpt lat="39.952427074408526" lon="116.47712318462352">
        <ele>33.900000000000006</ele>
        <time>2023-07-18T23:01:59Z</time>
      </trkpt>
      <trkpt lat="39.95233178174881" lon="116.47701981691795">
        <ele>33.2</ele>
        <time>2023-07-18T23:02:05Z</time>
      </trkpt>
      <trkpt lat="39.952178856308485" lon="116.47669464298812">
        <ele>29.8</ele>
        <time>2023-07-18T23:02:20Z</time>
      </trkpt>
      <trkpt lat="39.952075010722254" lon="116.47639756754636">
        <ele>26.999999999999996</ele>
        <time>2023-07-18T23:02:32Z</time>
      </trkpt>
      <trkpt lat="39.95206680455441" lon="116.47632530403877">
        <ele>26.7</ele>
        <time>2023-07-18T23:02:35Z</time>
      </trkpt>
      <trkpt lat="39.951994426175396" lon="116.47619182468873">
        <ele>26.2</ele>
        <time>2023-07-18T23:02:41Z</time>
      </trkpt>
      <trkpt lat="39.95194690391059" lon="116.47600815910256">
        <ele>27.2</ele>
        <time>2023-07-18T23:02:50Z</time>
      </trkpt>
      <trkpt lat="39.95182198778091" lon="116.47568499455956">
        <ele>27.099999999999998</ele>
        <time>2023-07-18T23:03:05Z</time>
      </trkpt>
      <trkpt lat="39.95179156900861" lon="116.47553746019305">
        <ele>27.499999999999996</ele>
        <time>2023-07-18T23:03:11Z</time>
      </trkpt>
      <trkpt lat="39.95170305298956" lon="116.47535480551025">
        <ele>25.9</ele>
        <time>2023-07-18T23:03:20Z</time>
      </trkpt>
      <trkpt lat="39.951646946800096" lon="116.47531667361265">
        <ele>23.7</ele>
        <time>2023-07-18T23:03:23Z</time>
      </trkpt>
      <trkpt lat="39.95152340142792" lon="116.47512298387257">
        <ele>20.3</ele>
        <time>2023-07-18T23:03:35Z</time>
      </trkpt>
      <trkpt lat="39.95150323127745" lon="116.47506276729682">
        <ele>20.0</ele>
        <time>2023-07-18T23:03:38Z</time>
      </trkpt>
      <trkpt lat="39.95146612450618" lon="116.47502463321855">
        <ele>19.7</ele>
        <time>2023-07-18T23:03:41Z</time>
      </trkpt>
      <trkpt lat="39.95132405749928" lon="116.4746462761133">
        <ele>22.5</ele>
        <time>2023-07-18T23:03:53Z</time>
      </trkpt>
      <trkpt lat="39.951198148106" lon="116.47432311968088">
        <ele>28.900000000000002</ele>
        <time>2023-07-18T23:04:05Z</time>
      </trkpt>
      <trkpt lat="39.95109751414277" lon="116.47409731437754">
        <ele>29.3</ele>
        <time>2023-07-18T23:04:14Z</time>
      </trkpt>
      <trkpt lat="39.95089857087426" lon="116.47376011972656">
        <ele>30.499999999999996</ele>
        <time>2023-07-18T23:04:29Z</time>
      </trkpt>
      <trkpt lat="39.950764047642785" lon="116.47357245879523">
        <ele>31.2</ele>
        <time>2023-07-18T23:04:38Z</time>
      </trkpt>
      <trkpt lat="39.95047838989739" lon="116.47333463660115">
        <ele>23.4</ele>
        <time>2023-07-18T23:04:56Z</time>
      </trkpt>
      <trkpt lat="39.950396964521936" lon="116.47318209710691">
        <ele>23.9</ele>
        <time>2023-07-18T23:05:02Z</time>
      </trkpt>
      <trkpt lat="39.950349814216075" lon="116.47312790784464">
        <ele>24.599999999999998</ele>
        <time>2023-07-18T23:05:05Z</time>
      </trkpt>
      <trkpt lat="39.950236677835825" lon="116.47307774137644">
        <ele>26.7</ele>
        <time>2023-07-18T23:05:11Z</time>
      </trkpt>
      <trkpt lat="39.95013965069099" lon="116.47306671381574">
        <ele>28.2</ele>
        <time>2023-07-18T23:05:17Z</time>
      </trkpt>
      <trkpt lat="39.94985887308092" lon="116.47314202006739">
        <ele>30.599999999999998</ele>
        <time>2023-07-18T23:05:29Z</time>
      </trkpt>
      <trkpt lat="39.94957619431852" lon="116.4732524532301">
        <ele>31.3</ele>
        <time>2023-07-18T23:05:44Z</time>
      </trkpt>
      <trkpt lat="39.94928151623583" lon="116.47336288813916">
        <ele>24.0</ele>
        <time>2023-07-18T23:05:59Z</time>
      </trkpt>
      <trkpt lat="39.94906666583091" lon="116.47341309605837">
        <ele>17.8</ele>
        <time>2023-07-18T23:06:08Z</time>
      </trkpt>
      <trkpt lat="39.94899979267412" lon="116.47345726373156">
        <ele>16.5</ele>
        <time>2023-07-18T23:06:11Z</time>
      </trkpt>
      <trkpt lat="39.948929493249004" lon="116.47370516740939">
        <ele>20.3</ele>
        <time>2023-07-18T23:06:20Z</time>
      </trkpt>
      <trkpt lat="39.94894196228259" lon="116.47387176792178">
        <ele>20.4</ele>
        <time>2023-07-18T23:06:26Z</time>
      </trkpt>
      <trkpt lat="39.94901869555292" lon="116.47413270238697">
        <ele>16.5</ele>
        <time>2023-07-18T23:06:38Z</time>
      </trkpt>
      <trkpt lat="39.94915953807968" lon="116.47443277203564">
        <ele>11.099999999999998</ele>
        <time>2023-07-18T23:06:47Z</time>
      </trkpt>
      <trkpt lat="39.949368328157846" lon="116.47471476925445">
        <ele>11.2</ele>
        <time>2023-07-18T23:06:59Z</time>
      </trkpt>
      <trkpt lat="39.94946886183911" lon="116.474904445821">
        <ele>11.5</ele>
        <time>2023-07-18T23:07:05Z</time>
      </trkpt>
      <trkpt lat="39.9495648865344" lon="116.47526675197462">
        <ele>11.2</ele>
        <time>2023-07-18T23:07:17Z</time>
      </trkpt>
      <trkpt lat="39.94960131588593" lon="116.47541829948909">
        <ele>13.2</ele>
        <time>2023-07-18T23:07:23Z</time>
      </trkpt>
      <trkpt lat="39.94961434381279" lon="116.4757796157274">
        <ele>18.099999999999998</ele>
        <time>2023-07-18T23:07:35Z</time>
      </trkpt>
      <trkpt lat="39.9496285777763" lon="116.47586191444552">
        <ele>19.099999999999998</ele>
        <time>2023-07-18T23:07:38Z</time>
      </trkpt>
      <trkpt lat="39.94961977840879" lon="116.47593217216885">
        <ele>20.3</ele>
        <time>2023-07-18T23:07:41Z</time>
      </trkpt>
      <trkpt lat="39.949593922536216" lon="116.475982358763">
        <ele>22.0</ele>
        <time>2023-07-18T23:07:44Z</time>
      </trkpt>
      <trkpt lat="39.94933213902925" lon="116.47605465568715">
        <ele>28.499999999999996</ele>
        <time>2023-07-18T23:07:56Z</time>
      </trkpt>
      <trkpt lat="39.94906685180133" lon="116.47595030749493">
        <ele>32.6</ele>
        <time>2023-07-18T23:08:11Z</time>
      </trkpt>
      <trkpt lat="39.94878652528421" lon="116.47583191007021">
        <ele>37.0</ele>
        <time>2023-07-18T23:08:26Z</time>
      </trkpt>
      <trkpt lat="39.948486225492495" lon="116.47572254836255">
        <ele>38.300000000000004</ele>
        <time>2023-07-18T23:08:41Z</time>
      </trkpt>
      <trkpt lat="39.94821497901497" lon="116.47563225278579">
        <ele>36.6</ele>
        <time>2023-07-18T23:08:53Z</time>
      </trkpt>
      <trkpt lat="39.94796854036401" lon="116.47547470908725">
        <ele>28.2</ele>
        <time>2023-07-18T23:09:05Z</time>
      </trkpt>
      <trkpt lat="39.9478473482092" lon="116.4754054718933">
        <ele>29.8</ele>
        <time>2023-07-18T23:09:11Z</time>
      </trkpt>
      <trkpt lat="39.947581207514915" lon="116.4753523114599">
        <ele>28.099999999999998</ele>
        <time>2023-07-18T23:09:23Z</time>
      </trkpt>
      <trkpt lat="39.947383915839964" lon="116.4752469523946">
        <ele>28.499999999999996</ele>
        <time>2023-07-18T23:09:35Z</time>
      </trkpt>
      <trkpt lat="39.947279629199436" lon="116.47514459282517">
        <ele>28.900000000000002</ele>
        <time>2023-07-18T23:09:41Z</time>
      </trkpt>
      <trkpt lat="39.94715857415022" lon="116.47512353130853">
        <ele>29.099999999999998</ele>
        <time>2023-07-18T23:09:47Z</time>
      </trkpt>
      <trkpt lat="39.94710649073263" lon="116.47509342828594">
        <ele>28.900000000000002</ele>
        <time>2023-07-18T23:09:50Z</time>
      </trkpt>
      <trkpt lat="39.9468112090531" lon="116.47499008930762">
        <ele>28.099999999999998</ele>
        <time>2023-07-18T23:10:05Z</time>
      </trkpt>
      <trkpt lat="39.946573118833946" lon="116.47495499144179">
        <ele>26.099999999999998</ele>
        <time>2023-07-18T23:10:17Z</time>
      </trkpt>
      <trkpt lat="39.94648398572818" lon="116.4749068274912">
        <ele>26.599999999999998</ele>
        <time>2023-07-18T23:10:23Z</time>
      </trkpt>
      <trkpt lat="39.94642377753365" lon="116.47483256513533">
        <ele>26.099999999999998</ele>
        <time>2023-07-18T23:10:29Z</time>
      </trkpt>
      <trkpt lat="39.94639342037667" lon="116.47470610960595">
        <ele>26.099999999999998</ele>
        <time>2023-07-18T23:10:35Z</time>
      </trkpt>
      <trkpt lat="39.946313307416226" lon="116.47431168887873">
        <ele>27.3</ele>
        <time>2023-07-18T23:10:53Z</time>
      </trkpt>
      <trkpt lat="39.94628987448423" lon="116.47415813559334">
        <ele>27.7</ele>
        <time>2023-07-18T23:10:59Z</time>
      </trkpt>
      <trkpt lat="39.94628843822543" lon="116.47400357636826">
        <ele>27.599999999999998</ele>
        <time>2023-07-18T23:11:05Z</time>
      </trkpt>
      <trkpt lat="39.94625825820885" lon="116.47393934780983">
        <ele>28.2</ele>
        <time>2023-07-18T23:11:08Z</time>
      </trkpt>
      <trkpt lat="39.94618308570243" lon="116.4738771322335">
        <ele>28.7</ele>
        <time>2023-07-18T23:11:11Z</time>
      </trkpt>
      <trkpt lat="39.946108088675665" lon="116.47387714164313">
        <ele>28.599999999999998</ele>
        <time>2023-07-18T23:11:14Z</time>
      </trkpt>
      <trkpt lat="39.94595931535775" lon="116.47395544339466">
        <ele>26.099999999999998</ele>
        <time>2023-07-18T23:11:20Z</time>
      </trkpt>
      <trkpt lat="39.945681484947386" lon="116.4740116815646">
        <ele>37.2</ele>
        <time>2023-07-18T23:11:35Z</time>
      </trkpt>
      <trkpt lat="39.94561146789997" lon="116.47400466493129">
        <ele>36.900000000000006</ele>
        <time>2023-07-18T23:11:41Z</time>
      </trkpt>
      <trkpt lat="39.94543162231884" lon="116.47405687633162">
        <ele>33.7</ele>
        <time>2023-07-18T23:11:50Z</time>
      </trkpt>
      <trkpt lat="39.9451446337043" lon="116.4740569123351">
        <ele>30.3</ele>
        <time>2023-07-18T23:12:02Z</time>
      </trkpt>
      <trkpt lat="39.94486293108138" lon="116.47415831460198">
        <ele>25.3</ele>
        <time>2023-07-18T23:12:17Z</time>
      </trkpt>
      <trkpt lat="39.944836133432474" lon="116.47422957601991">
        <ele>25.3</ele>
        <time>2023-07-18T23:12:20Z</time>
      </trkpt>
      <trkpt lat="39.94483489967796" lon="116.47450055839533">
        <ele>27.3</ele>
        <time>2023-07-18T23:12:29Z</time>
      </trkpt>
      <trkpt lat="39.94475892892842" lon="116.47486288333796">
        <ele>28.7</ele>
        <time>2023-07-18T23:12:47Z</time>
      </trkpt>
      <trkpt lat="39.944651984246626" lon="116.47523324380857">
        <ele>27.7</ele>
        <time>2023-07-18T23:13:02Z</time>
      </trkpt>
      <trkpt lat="39.94456008961637" lon="116.47562066709371">
        <ele>26.7</ele>
        <time>2023-07-18T23:13:17Z</time>
      </trkpt>
      <trkpt lat="39.94440414250665" lon="116.47598802770212">
        <ele>25.4</ele>
        <time>2023-07-18T23:13:35Z</time>
      </trkpt>
      <trkpt lat="39.944153937326185" lon="116.47626306455028">
        <ele>25.2</ele>
        <time>2023-07-18T23:13:50Z</time>
      </trkpt>
      <trkpt lat="39.94393249963068" lon="116.47645680131725">
        <ele>26.0</ele>
        <time>2023-07-18T23:14:02Z</time>
      </trkpt>
      <trkpt lat="39.943794579716624" lon="116.4764829141644">
        <ele>27.499999999999996</ele>
        <time>2023-07-18T23:14:08Z</time>
      </trkpt>
      <trkpt lat="39.94374351574652" lon="116.47645983602665">
        <ele>27.900000000000002</ele>
        <time>2023-07-18T23:14:11Z</time>
      </trkpt>
      <trkpt lat="39.943697253664865" lon="116.47636750376608">
        <ele>28.2</ele>
        <time>2023-07-18T23:14:17Z</time>
      </trkpt>
      <trkpt lat="39.94367903932667" lon="116.47629223056447">
        <ele>28.999999999999996</ele>
        <time>2023-07-18T23:14:20Z</time>
      </trkpt>
      <trkpt lat="39.94360372990735" lon="116.47618283980417">
        <ele>29.400000000000002</ele>
        <time>2023-07-18T23:14:26Z</time>
      </trkpt>
      <trkpt lat="39.943384165850055" lon="116.47598213354789">
        <ele>30.400000000000002</ele>
        <time>2023-07-18T23:14:38Z</time>
      </trkpt>
      <trkpt lat="39.94310802227585" lon="116.47592797016075">
        <ele>28.999999999999996</ele>
        <time>2023-07-18T23:14:50Z</time>
      </trkpt>
      <trkpt lat="39.94280893401914" lon="116.47589287934412">
        <ele>32.6</ele>
        <time>2023-07-18T23:15:05Z</time>
      </trkpt>
      <trkpt lat="39.94267997634395" lon="116.47590594316178">
        <ele>33.1</ele>
        <time>2023-07-18T23:15:11Z</time>
      </trkpt>
      <trkpt lat="39.94259394256987" lon="116.47589290629188">
        <ele>32.5</ele>
        <time>2023-07-18T23:15:17Z</time>
      </trkpt>
      <trkpt lat="39.942469044825614" lon="116.47592704658533">
        <ele>30.099999999999998</ele>
        <time>2023-07-18T23:15:23Z</time>
      </trkpt>
      <trkpt lat="39.94214699468721" lon="116.47590500630054">
        <ele>25.9</ele>
        <time>2023-07-18T23:15:41Z</time>
      </trkpt>
      <trkpt lat="39.94182618774887" lon="116.47596827748488">
        <ele>26.499999999999996</ele>
        <time>2023-07-18T23:15:56Z</time>
      </trkpt>
      <trkpt lat="39.94152662631441" lon="116.47611786157601">
        <ele>26.400000000000002</ele>
        <time>2023-07-18T23:16:11Z</time>
      </trkpt>
      <trkpt lat="39.94128707428383" lon="116.47627145321297">
        <ele>25.7</ele>
        <time>2023-07-18T23:16:26Z</time>
      </trkpt>
      <trkpt lat="39.94111119883566" lon="116.47631262581888">
        <ele>27.099999999999998</ele>
        <time>2023-07-18T23:16:32Z</time>
      </trkpt>
      <trkpt lat="39.940797007818986" lon="116.47624140447388">
        <ele>30.400000000000002</ele>
        <time>2023-07-18T23:16:47Z</time>
      </trkpt>
      <trkpt lat="39.940586560663384" lon="116.47608184730264">
        <ele>30.499999999999996</ele>
        <time>2023-07-18T23:16:59Z</time>
      </trkpt>
      <trkpt lat="39.94055143606616" lon="116.47603769029801">
        <ele>30.7</ele>
        <time>2023-07-18T23:17:02Z</time>
      </trkpt>
      <trkpt lat="39.940254173115186" lon="116.47594137551049">
        <ele>31.8</ele>
        <time>2023-07-18T23:17:20Z</time>
      </trkpt>
      <trkpt lat="39.94014106602591" lon="116.47590224671511">
        <ele>33.0</ele>
        <time>2023-07-18T23:17:26Z</time>
      </trkpt>
      <trkpt lat="39.94003879263161" lon="116.47580490405491">
        <ele>33.1</ele>
        <time>2023-07-18T23:17:32Z</time>
      </trkpt>
      <trkpt lat="39.93995631567847" lon="116.47563629911149">
        <ele>31.3</ele>
        <time>2023-07-18T23:17:38Z</time>
      </trkpt>
      <trkpt lat="39.93991168064568" lon="116.47541248876979">
        <ele>29.599999999999998</ele>
        <time>2023-07-18T23:17:47Z</time>
      </trkpt>
      <trkpt lat="39.93982628749578" lon="116.47527299133823">
        <ele>28.999999999999996</ele>
        <time>2023-07-18T23:17:53Z</time>
      </trkpt>
      <trkpt lat="39.93967891706309" lon="116.47514052759138">
        <ele>30.099999999999998</ele>
        <time>2023-07-18T23:17:59Z</time>
      </trkpt>
      <trkpt lat="39.93947179425443" lon="116.47509438558575">
        <ele>29.900000000000002</ele>
        <time>2023-07-18T23:18:11Z</time>
      </trkpt>
      <trkpt lat="39.939351878824816" lon="116.47512250285797">
        <ele>29.8</ele>
        <time>2023-07-18T23:18:17Z</time>
      </trkpt>
      <trkpt lat="39.93914688701184" lon="116.47512252855664">
        <ele>31.400000000000002</ele>
        <time>2023-07-18T23:18:26Z</time>
      </trkpt>
      <trkpt lat="39.93908698629923" lon="116.47515666023195">
        <ele>31.499999999999996</ele>
        <time>2023-07-18T23:18:29Z</time>
      </trkpt>
      <trkpt lat="39.93905930956421" lon="116.47527007652178">
        <ele>30.400000000000002</ele>
        <time>2023-07-18T23:18:35Z</time>
      </trkpt>
      <trkpt lat="39.93906136569641" lon="116.47564142958821">
        <ele>37.6</ele>
        <time>2023-07-18T23:18:47Z</time>
      </trkpt>
      <trkpt lat="39.939058501376174" lon="116.47603988472821">
        <ele>40.2</ele>
        <time>2023-07-18T23:19:02Z</time>
      </trkpt>
      <trkpt lat="39.939099261899415" lon="116.4763068558939">
        <ele>37.300000000000004</ele>
        <time>2023-07-18T23:19:11Z</time>
      </trkpt>
      <trkpt lat="39.93908151117801" lon="116.4767434572491">
        <ele>31.999999999999996</ele>
        <time>2023-07-18T23:19:26Z</time>
      </trkpt>
      <trkpt lat="39.93907451511393" lon="116.4770937433845">
        <ele>29.499999999999996</ele>
        <time>2023-07-18T23:19:38Z</time>
      </trkpt>
      <trkpt lat="39.9390771024563" lon="116.4772984952494">
        <ele>26.499999999999996</ele>
        <time>2023-07-18T23:19:47Z</time>
      </trkpt>
      <trkpt lat="39.93905527125787" lon="116.47770499327076">
        <ele>26.8</ele>
        <time>2023-07-18T23:20:02Z</time>
      </trkpt>
      <trkpt lat="39.93907245225432" lon="116.47811550377702">
        <ele>29.2</ele>
        <time>2023-07-18T23:20:17Z</time>
      </trkpt>
      <trkpt lat="39.93907625075419" lon="116.47839252551027">
        <ele>29.599999999999998</ele>
        <time>2023-07-18T23:20:26Z</time>
      </trkpt>
      <trkpt lat="39.93906044830493" lon="116.47846077951253">
        <ele>30.2</ele>
        <time>2023-07-18T23:20:29Z</time>
      </trkpt>
      <trkpt lat="39.938979639820495" lon="116.47852603059795">
        <ele>30.499999999999996</ele>
        <time>2023-07-18T23:20:35Z</time>
      </trkpt>
      <trkpt lat="39.93868167200953" lon="116.47853309385297">
        <ele>31.499999999999996</ele>
        <time>2023-07-18T23:20:50Z</time>
      </trkpt>
      <trkpt lat="39.938362493582595" lon="116.47846688912793">
        <ele>34.300000000000004</ele>
        <time>2023-07-18T23:21:02Z</time>
      </trkpt>
      <trkpt lat="39.93809508733204" lon="116.47832238898141">
        <ele>34.300000000000004</ele>
        <time>2023-07-18T23:21:14Z</time>
      </trkpt>
      <trkpt lat="39.937981776436914" lon="116.47821299945228">
        <ele>34.0</ele>
        <time>2023-07-18T23:21:20Z</time>
      </trkpt>
      <trkpt lat="39.93788936076607" lon="116.47806747425">
        <ele>33.300000000000004</ele>
        <time>2023-07-18T23:21:26Z</time>
      </trkpt>
      <trkpt lat="39.937636582059305" lon="116.47779349616258">
        <ele>32.900000000000006</ele>
        <time>2023-07-18T23:21:41Z</time>
      </trkpt>
      <trkpt lat="39.937402227702506" lon="116.47766705986638">
        <ele>31.599999999999998</ele>
        <time>2023-07-18T23:21:53Z</time>
      </trkpt>
      <trkpt lat="39.93718413832217" lon="116.47763296156953">
        <ele>33.5</ele>
        <time>2023-07-18T23:22:02Z</time>
      </trkpt>
      <trkpt lat="39.937048959091314" lon="116.4775687421114">
        <ele>32.1</ele>
        <time>2023-07-18T23:22:08Z</time>
      </trkpt>
      <trkpt lat="39.93675479494085" lon="116.47750755370396">
        <ele>32.1</ele>
        <time>2023-07-18T23:22:20Z</time>
      </trkpt>
      <trkpt lat="39.93661368237163" lon="116.47746642001489">
        <ele>32.900000000000006</ele>
        <time>2023-07-18T23:22:26Z</time>
      </trkpt>
      <trkpt lat="39.936304648635094" lon="116.47745039965443">
        <ele>35.7</ele>
        <time>2023-07-18T23:22:38Z</time>
      </trkpt>
      <trkpt lat="39.93612882869934" lon="116.47751064316645">
        <ele>35.300000000000004</ele>
        <time>2023-07-18T23:22:44Z</time>
      </trkpt>
      <trkpt lat="39.93604881460729" lon="116.47750463103401">
        <ele>35.6</ele>
        <time>2023-07-18T23:22:47Z</time>
      </trkpt>
      <trkpt lat="39.93596987833876" lon="116.47752571845307">
        <ele>35.0</ele>
        <time>2023-07-18T23:22:50Z</time>
      </trkpt>
      <trkpt lat="39.93589980905311" lon="116.47750063492516">
        <ele>34.2</ele>
        <time>2023-07-18T23:22:53Z</time>
      </trkpt>
      <trkpt lat="39.93572445572838" lon="116.47737519552294">
        <ele>31.599999999999998</ele>
        <time>2023-07-18T23:23:02Z</time>
      </trkpt>
      <trkpt lat="39.93572445572838" lon="116.47737519552294">
        <ele>31.599999999999998</ele>
        <time>2023-07-18T23:23:05Z</time>
      </trkpt>
    </trkseg>
  </trk>
</gpx>