<?xml version="1.0" encoding="UTF-8"?>
<gpx xmlns="http://www.topografix.com/GPX/1/1" xmlns:gpxtpx="http://www.garmin.com/xmlschemas/TrackPointExtension/v1" xmlns:xsi="http://www.w3.org/2001/XMLSchema-instance" xsi:schemaLocation="http://www.topografix.com/GPX/1/1 http://www.topografix.com/GPX/1/1/gpx.xsd" version="1.1" creator="gpx.py -- https://github.com/tkrajina/gpxpy">
  <trk>
    <name>gpx from keep</name>
    <type>Walk</type>
    <trkseg>
      <trkpt lat="39.92669181610754" lon="116.48424388757714">
        <ele>157.1</ele>
        <time>2023-06-14T12:03:40Z</time>
      </trkpt>
      <trkpt lat="39.926570620061696" lon="116.48417564607777">
        <ele>157.1</ele>
        <time>2023-06-14T12:03:43Z</time>
      </trkpt>
      <trkpt lat="39.926404813073376" lon="116.484238904528">
        <ele>157.0</ele>
        <time>2023-06-14T12:03:46Z</time>
      </trkpt>
      <trkpt lat="39.926463795877694" lon="116.48423387829547">
        <ele>156.89999999999998</ele>
        <time>2023-06-14T12:03:49Z</time>
      </trkpt>
      <trkpt lat="39.92564224017814" lon="116.48876408640884">
        <ele>39.400000000000006</ele>
        <time>2023-06-14T12:04:46Z</time>
      </trkpt>
      <trkpt lat="39.925904110074875" lon="116.48872390167702">
        <ele>36.1</ele>
        <time>2023-06-14T12:05:10Z</time>
      </trkpt>
      <trkpt lat="39.92602915866074" lon="116.48874195454944">
        <ele>31.7</ele>
        <time>2023-06-14T12:05:19Z</time>
      </trkpt>
      <trkpt lat="39.92623409356646" lon="116.48872285676835">
        <ele>31.2</ele>
        <time>2023-06-14T12:05:37Z</time>
      </trkpt>
      <trkpt lat="39.9263698791371" lon="116.48865257367176">
        <ele>34.800000000000004</ele>
        <time>2023-06-14T12:05:49Z</time>
      </trkpt>
      <trkpt lat="39.92639968697093" lon="116.48858832660974">
        <ele>35.900000000000006</ele>
        <time>2023-06-14T12:05:55Z</time>
      </trkpt>
      <trkpt lat="39.92638019855565" lon="116.48842370553479">
        <ele>35.400000000000006</ele>
        <time>2023-06-14T12:06:04Z</time>
      </trkpt>
      <trkpt lat="39.92639468501843" lon="116.48825104993709">
        <ele>35.0</ele>
        <time>2023-06-14T12:06:16Z</time>
      </trkpt>
      <trkpt lat="39.926385470716625" lon="116.48817877744372">
        <ele>34.6</ele>
        <time>2023-06-14T12:06:22Z</time>
      </trkpt>
      <trkpt lat="39.92644431923875" lon="116.48812858009613">
        <ele>34.2</ele>
        <time>2023-06-14T12:06:31Z</time>
      </trkpt>
      <trkpt lat="39.92674226828747" lon="116.48811549356807">
        <ele>32.7</ele>
        <time>2023-06-14T12:07:01Z</time>
      </trkpt>
      <trkpt lat="39.92698425838885" lon="116.48811546341446">
        <ele>33.6</ele>
        <time>2023-06-14T12:07:22Z</time>
      </trkpt>
      <trkpt lat="39.927130007989774" lon="116.4880331336554">
        <ele>31.900000000000002</ele>
        <time>2023-06-14T12:07:34Z</time>
      </trkpt>
      <trkpt lat="39.92736039656014" lon="116.48783033748666">
        <ele>29.599999999999998</ele>
        <time>2023-06-14T12:08:01Z</time>
      </trkpt>
      <trkpt lat="39.92748699810523" lon="116.48769782030864">
        <ele>31.999999999999996</ele>
        <time>2023-06-14T12:08:13Z</time>
      </trkpt>
      <trkpt lat="39.92757061043339" lon="116.48756831996816">
        <ele>31.099999999999998</ele>
        <time>2023-06-14T12:08:28Z</time>
      </trkpt>
      <trkpt lat="39.927614498444285" lon="116.48753117399427">
        <ele>30.8</ele>
        <time>2023-06-14T12:08:31Z</time>
      </trkpt>
      <trkpt lat="39.92775983446141" lon="116.48730931680495">
        <ele>29.2</ele>
        <time>2023-06-14T12:08:52Z</time>
      </trkpt>
      <trkpt lat="39.9277596022822" lon="116.48723102075375">
        <ele>26.999999999999996</ele>
        <time>2023-06-14T12:09:01Z</time>
      </trkpt>
      <trkpt lat="39.92768088533382" lon="116.48698811217889">
        <ele>25.9</ele>
        <time>2023-06-14T12:09:19Z</time>
      </trkpt>
      <trkpt lat="39.92760509129088" lon="116.48671910497285">
        <ele>30.400000000000002</ele>
        <time>2023-06-14T12:09:37Z</time>
      </trkpt>
      <trkpt lat="39.92764175381629" lon="116.48660567186798">
        <ele>31.099999999999998</ele>
        <time>2023-06-14T12:09:43Z</time>
      </trkpt>
      <trkpt lat="39.927813027561974" lon="116.48636273303579">
        <ele>36.2</ele>
        <time>2023-06-14T12:10:04Z</time>
      </trkpt>
      <trkpt lat="39.92782177465847" lon="116.48627740978102">
        <ele>34.300000000000004</ele>
        <time>2023-06-14T12:10:10Z</time>
      </trkpt>
      <trkpt lat="39.92776544129075" lon="116.48616398859234">
        <ele>33.2</ele>
        <time>2023-06-14T12:10:22Z</time>
      </trkpt>
      <trkpt lat="39.927782113934455" lon="116.48605356974994">
        <ele>31.599999999999998</ele>
        <time>2023-06-14T12:10:28Z</time>
      </trkpt>
      <trkpt lat="39.92786889067415" lon="116.48597927860526">
        <ele>27.900000000000002</ele>
        <time>2023-06-14T12:10:34Z</time>
      </trkpt>
      <trkpt lat="39.9279724471203" lon="116.4858307051592">
        <ele>26.099999999999998</ele>
        <time>2023-06-14T12:10:52Z</time>
      </trkpt>
      <trkpt lat="39.9279892149575" lon="116.48575240771558">
        <ele>24.2</ele>
        <time>2023-06-14T12:10:58Z</time>
      </trkpt>
      <trkpt lat="39.927964029051566" lon="116.48568917233561">
        <ele>23.9</ele>
        <time>2023-06-14T12:11:04Z</time>
      </trkpt>
      <trkpt lat="39.927944575978074" lon="116.48553559561576">
        <ele>25.099999999999998</ele>
        <time>2023-06-14T12:11:16Z</time>
      </trkpt>
      <trkpt lat="39.92788684300274" lon="116.48528666444157">
        <ele>27.7</ele>
        <time>2023-06-14T12:11:34Z</time>
      </trkpt>
      <trkpt lat="39.92788557630936" lon="116.48519632417565">
        <ele>28.8</ele>
        <time>2023-06-14T12:11:40Z</time>
      </trkpt>
      <trkpt lat="39.92780441553274" lon="116.48480184853337">
        <ele>27.400000000000002</ele>
        <time>2023-06-14T12:12:10Z</time>
      </trkpt>
      <trkpt lat="39.927794176168206" lon="116.48472054373913">
        <ele>27.2</ele>
        <time>2023-06-14T12:12:19Z</time>
      </trkpt>
      <trkpt lat="39.92803477570371" lon="116.48458801504434">
        <ele>28.999999999999996</ele>
        <time>2023-06-14T12:12:43Z</time>
      </trkpt>
      <trkpt lat="39.92825158934003" lon="116.48452776136507">
        <ele>29.499999999999996</ele>
        <time>2023-06-14T12:12:58Z</time>
      </trkpt>
      <trkpt lat="39.92829044280011" lon="116.48447857146529">
        <ele>32.5</ele>
        <time>2023-06-14T12:13:01Z</time>
      </trkpt>
      <trkpt lat="39.92833940234995" lon="116.48446551626297">
        <ele>33.0</ele>
        <time>2023-06-14T12:13:07Z</time>
      </trkpt>
      <trkpt lat="39.92845959612768" lon="116.48419347821994">
        <ele>32.900000000000006</ele>
        <time>2023-06-14T12:13:22Z</time>
      </trkpt>
      <trkpt lat="39.92837923294223" lon="116.48406902035947">
        <ele>33.300000000000004</ele>
        <time>2023-06-14T12:13:46Z</time>
      </trkpt>
      <trkpt lat="39.928378600825894" lon="116.48385421327303">
        <ele>33.400000000000006</ele>
        <time>2023-06-14T12:14:04Z</time>
      </trkpt>
      <trkpt lat="39.92842008838441" lon="116.48368055587899">
        <ele>31.3</ele>
        <time>2023-06-14T12:14:10Z</time>
      </trkpt>
      <trkpt lat="39.92846181517454" lon="116.4835882039406">
        <ele>28.999999999999996</ele>
        <time>2023-06-14T12:14:13Z</time>
      </trkpt>
      <trkpt lat="39.92844256812218" lon="116.48350388983557">
        <ele>26.900000000000002</ele>
        <time>2023-06-14T12:14:19Z</time>
      </trkpt>
      <trkpt lat="39.92855227458713" lon="116.48340550696247">
        <ele>18.5</ele>
        <time>2023-06-14T12:14:34Z</time>
      </trkpt>
      <trkpt lat="39.928673806717704" lon="116.48324790054676">
        <ele>22.2</ele>
        <time>2023-06-14T12:14:49Z</time>
      </trkpt>
      <trkpt lat="39.92874964445919" lon="116.48319368777541">
        <ele>24.8</ele>
        <time>2023-06-14T12:14:55Z</time>
      </trkpt>
      <trkpt lat="39.92891454932915" lon="116.48316355424906">
        <ele>25.8</ele>
        <time>2023-06-14T12:15:13Z</time>
      </trkpt>
      <trkpt lat="39.92901955684398" lon="116.48316755619247">
        <ele>24.0</ele>
        <time>2023-06-14T12:15:22Z</time>
      </trkpt>
      <trkpt lat="39.92927440207805" lon="116.48311833992568">
        <ele>23.3</ele>
        <time>2023-06-14T12:15:43Z</time>
      </trkpt>
      <trkpt lat="39.92943443682504" lon="116.48313237263407">
        <ele>23.0</ele>
        <time>2023-06-14T12:16:01Z</time>
      </trkpt>
      <trkpt lat="39.92950251657163" lon="116.48316046952753">
        <ele>23.9</ele>
        <time>2023-06-14T12:16:10Z</time>
      </trkpt>
      <trkpt lat="39.92956043465001" lon="116.48313336066235">
        <ele>26.599999999999998</ele>
        <time>2023-06-14T12:16:16Z</time>
      </trkpt>
      <trkpt lat="39.929555137282314" lon="116.48303198120979">
        <ele>27.3</ele>
        <time>2023-06-14T12:16:22Z</time>
      </trkpt>
      <trkpt lat="39.92956889224386" lon="116.4829486671976">
        <ele>26.099999999999998</ele>
        <time>2023-06-14T12:16:28Z</time>
      </trkpt>
      <trkpt lat="39.929537416527786" lon="116.482786061793">
        <ele>25.0</ele>
        <time>2023-06-14T12:16:40Z</time>
      </trkpt>
      <trkpt lat="39.92954718655252" lon="116.48270776728504">
        <ele>25.4</ele>
        <time>2023-06-14T12:16:49Z</time>
      </trkpt>
      <trkpt lat="39.929516990623334" lon="116.48264051918099">
        <ele>28.099999999999998</ele>
        <time>2023-06-14T12:16:55Z</time>
      </trkpt>
      <trkpt lat="39.9292554306248" lon="116.48244582281055">
        <ele>26.8</ele>
        <time>2023-06-14T12:17:19Z</time>
      </trkpt>
      <trkpt lat="39.92921424118831" lon="116.48238058377878">
        <ele>26.400000000000002</ele>
        <time>2023-06-14T12:17:28Z</time>
      </trkpt>
      <trkpt lat="39.92916885799373" lon="116.48224909747587">
        <ele>22.8</ele>
        <time>2023-06-14T12:17:37Z</time>
      </trkpt>
      <trkpt lat="39.92914893656211" lon="116.48193392149881">
        <ele>24.0</ele>
        <time>2023-06-14T12:17:58Z</time>
      </trkpt>
      <trkpt lat="39.929058549902045" lon="116.48180043396593">
        <ele>28.099999999999998</ele>
        <time>2023-06-14T12:18:07Z</time>
      </trkpt>
      <trkpt lat="39.92899942614642" lon="116.48175728012211">
        <ele>28.400000000000002</ele>
        <time>2023-06-14T12:18:13Z</time>
      </trkpt>
      <trkpt lat="39.92892437346098" lon="116.48173821826546">
        <ele>29.2</ele>
        <time>2023-06-14T12:18:19Z</time>
      </trkpt>
      <trkpt lat="39.9288543968445" lon="116.48174525325376">
        <ele>30.8</ele>
        <time>2023-06-14T12:18:28Z</time>
      </trkpt>
      <trkpt lat="39.928569924905574" lon="116.48192194883109">
        <ele>30.2</ele>
        <time>2023-06-14T12:18:49Z</time>
      </trkpt>
      <trkpt lat="39.92851203881638" lon="116.48196009861613">
        <ele>29.8</ele>
        <time>2023-06-14T12:18:55Z</time>
      </trkpt>
      <trkpt lat="39.92839206425529" lon="116.48196713986778">
        <ele>27.099999999999998</ele>
        <time>2023-06-14T12:19:07Z</time>
      </trkpt>
      <trkpt lat="39.92834201932221" lon="116.48195108609553">
        <ele>28.400000000000002</ele>
        <time>2023-06-14T12:19:10Z</time>
      </trkpt>
      <trkpt lat="39.92815922055123" lon="116.48201735655665">
        <ele>30.2</ele>
        <time>2023-06-14T12:19:31Z</time>
      </trkpt>
      <trkpt lat="39.9279120767062" lon="116.48230646852419">
        <ele>26.599999999999998</ele>
        <time>2023-06-14T12:19:58Z</time>
      </trkpt>
      <trkpt lat="39.92780707497206" lon="116.48264575156207">
        <ele>24.2</ele>
        <time>2023-06-14T12:20:22Z</time>
      </trkpt>
      <trkpt lat="39.92779528144221" lon="116.48271601618735">
        <ele>24.7</ele>
        <time>2023-06-14T12:20:25Z</time>
      </trkpt>
      <trkpt lat="39.92752231024293" lon="116.48272207283995">
        <ele>29.900000000000002</ele>
        <time>2023-06-14T12:20:52Z</time>
      </trkpt>
      <trkpt lat="39.92729036680672" lon="116.48273816196631">
        <ele>26.900000000000002</ele>
        <time>2023-06-14T12:21:13Z</time>
      </trkpt>
      <trkpt lat="39.927247433314136" lon="116.48276025004851">
        <ele>27.900000000000002</ele>
        <time>2023-06-14T12:21:16Z</time>
      </trkpt>
      <trkpt lat="39.927206664595964" lon="116.48283854846014">
        <ele>29.499999999999996</ele>
        <time>2023-06-14T12:21:22Z</time>
      </trkpt>
      <trkpt lat="39.92718795098681" lon="116.4829359156538">
        <ele>28.7</ele>
        <time>2023-06-14T12:21:28Z</time>
      </trkpt>
      <trkpt lat="39.92719716562266" lon="116.48300918914889">
        <ele>28.400000000000002</ele>
        <time>2023-06-14T12:21:34Z</time>
      </trkpt>
      <trkpt lat="39.927177428632916" lon="116.48309852652856">
        <ele>30.7</ele>
        <time>2023-06-14T12:21:40Z</time>
      </trkpt>
      <trkpt lat="39.92717994430631" lon="116.48327418498509">
        <ele>31.900000000000002</ele>
        <time>2023-06-14T12:21:49Z</time>
      </trkpt>
      <trkpt lat="39.92719720601415" lon="116.48336351797728">
        <ele>29.400000000000002</ele>
        <time>2023-06-14T12:21:55Z</time>
      </trkpt>
      <trkpt lat="39.927197527478135" lon="116.48347292850362">
        <ele>25.3</ele>
        <time>2023-06-14T12:22:04Z</time>
      </trkpt>
      <trkpt lat="39.927176728934946" lon="116.4835411872915">
        <ele>24.4</ele>
        <time>2023-06-14T12:22:10Z</time>
      </trkpt>
      <trkpt lat="39.92720510254492" lon="116.48366866234119">
        <ele>23.0</ele>
        <time>2023-06-14T12:22:19Z</time>
      </trkpt>
      <trkpt lat="39.927205294401524" lon="116.48373390732479">
        <ele>21.599999999999998</ele>
        <time>2023-06-14T12:22:25Z</time>
      </trkpt>
      <trkpt lat="39.92714752114175" lon="116.4838102010575">
        <ele>21.599999999999998</ele>
        <time>2023-06-14T12:22:31Z</time>
      </trkpt>
      <trkpt lat="39.9271427428115" lon="116.4838854844564">
        <ele>21.8</ele>
        <time>2023-06-14T12:22:34Z</time>
      </trkpt>
      <trkpt lat="39.92722238652958" lon="116.48410530059122">
        <ele>27.7</ele>
        <time>2023-06-14T12:22:49Z</time>
      </trkpt>
      <trkpt lat="39.927214847934444" lon="116.48426189023259">
        <ele>27.400000000000002</ele>
        <time>2023-06-14T12:22:55Z</time>
      </trkpt>
      <trkpt lat="39.92716005713978" lon="116.48433216130111">
        <ele>28.8</ele>
        <time>2023-06-14T12:23:01Z</time>
      </trkpt>
      <trkpt lat="39.92689225439135" lon="116.48439543256818">
        <ele>34.1</ele>
        <time>2023-06-14T12:23:19Z</time>
      </trkpt>
      <trkpt lat="39.92661026001281" lon="116.48439346021179">
        <ele>33.1</ele>
        <time>2023-06-14T12:23:49Z</time>
      </trkpt>
      <trkpt lat="39.92634516735979" lon="116.48435836115944">
        <ele>30.8</ele>
        <time>2023-06-14T12:24:04Z</time>
      </trkpt>
      <trkpt lat="39.92617721563969" lon="116.48437243497425">
        <ele>27.8</ele>
        <time>2023-06-14T12:24:22Z</time>
      </trkpt>
      <trkpt lat="39.926027325290356" lon="116.484407585822">
        <ele>28.3</ele>
        <time>2023-06-14T12:24:31Z</time>
      </trkpt>
      <trkpt lat="39.92575426550602" lon="116.48438352928846">
        <ele>22.9</ele>
        <time>2023-06-14T12:24:52Z</time>
      </trkpt>
      <trkpt lat="39.92546229818552" lon="116.48439059215394">
        <ele>26.2</ele>
        <time>2023-06-14T12:25:19Z</time>
      </trkpt>
      <trkpt lat="39.92530729567583" lon="116.4843876001719">
        <ele>26.099999999999998</ele>
        <time>2023-06-14T12:25:28Z</time>
      </trkpt>
      <trkpt lat="39.92526222655142" lon="116.48436351518959">
        <ele>23.3</ele>
        <time>2023-06-14T12:25:37Z</time>
      </trkpt>
      <trkpt lat="39.924979161294054" lon="116.48433745236444">
        <ele>20.9</ele>
        <time>2023-06-14T12:26:01Z</time>
      </trkpt>
      <trkpt lat="39.92492826688475" lon="116.48437259084425">
        <ele>22.4</ele>
        <time>2023-06-14T12:26:07Z</time>
      </trkpt>
      <trkpt lat="39.9247590074856" lon="116.48462154848839">
        <ele>22.099999999999998</ele>
        <time>2023-06-14T12:26:28Z</time>
      </trkpt>
      <trkpt lat="39.92471710390715" lon="116.48465367459649">
        <ele>24.3</ele>
        <time>2023-06-14T12:26:34Z</time>
      </trkpt>
      <trkpt lat="39.92466065089845" lon="116.48483837686068">
        <ele>27.900000000000002</ele>
        <time>2023-06-14T12:26:46Z</time>
      </trkpt>
      <trkpt lat="39.924572332765464" lon="116.48506825351033">
        <ele>32.5</ele>
        <time>2023-06-14T12:26:58Z</time>
      </trkpt>
      <trkpt lat="39.92456854624573" lon="116.48514052623217">
        <ele>35.400000000000006</ele>
        <time>2023-06-14T12:27:07Z</time>
      </trkpt>
      <trkpt lat="39.924603775941" lon="116.48521881681994">
        <ele>35.7</ele>
        <time>2023-06-14T12:27:16Z</time>
      </trkpt>
      <trkpt lat="39.92465440824945" lon="116.48543362005647">
        <ele>29.099999999999998</ele>
        <time>2023-06-14T12:27:28Z</time>
      </trkpt>
      <trkpt lat="39.92473581120151" lon="116.48557112834952">
        <ele>25.3</ele>
        <time>2023-06-14T12:27:40Z</time>
      </trkpt>
      <trkpt lat="39.92491945637662" lon="116.48579193827634">
        <ele>23.8</ele>
        <time>2023-06-14T12:27:58Z</time>
      </trkpt>
      <trkpt lat="39.92498694633121" lon="116.48595855849933">
        <ele>22.7</ele>
        <time>2023-06-14T12:28:10Z</time>
      </trkpt>
      <trkpt lat="39.925022633802996" lon="116.48619143295105">
        <ele>21.7</ele>
        <time>2023-06-14T12:28:28Z</time>
      </trkpt>
      <trkpt lat="39.92501993394882" lon="116.48629281602689">
        <ele>21.4</ele>
        <time>2023-06-14T12:28:34Z</time>
      </trkpt>
      <trkpt lat="39.924975048694506" lon="116.48633096564214">
        <ele>21.3</ele>
        <time>2023-06-14T12:28:40Z</time>
      </trkpt>
      <trkpt lat="39.924778982475374" lon="116.48630589534038">
        <ele>23.099999999999998</ele>
        <time>2023-06-14T12:28:58Z</time>
      </trkpt>
      <trkpt lat="39.924649279002175" lon="116.48640428295488">
        <ele>27.8</ele>
        <time>2023-06-14T12:29:10Z</time>
      </trkpt>
      <trkpt lat="39.92438799261661" lon="116.48630393651388">
        <ele>27.3</ele>
        <time>2023-06-14T12:29:31Z</time>
      </trkpt>
      <trkpt lat="39.924288833300714" lon="116.48624874044555">
        <ele>29.400000000000002</ele>
        <time>2023-06-14T12:29:37Z</time>
      </trkpt>
      <trkpt lat="39.92420683667657" lon="116.48624875066996">
        <ele>31.8</ele>
        <time>2023-06-14T12:29:43Z</time>
      </trkpt>
      <trkpt lat="39.92416796305172" lon="116.48629091468183">
        <ele>34.6</ele>
        <time>2023-06-14T12:29:46Z</time>
      </trkpt>
      <trkpt lat="39.92401402881226" lon="116.48631100967252">
        <ele>36.900000000000006</ele>
        <time>2023-06-14T12:29:58Z</time>
      </trkpt>
      <trkpt lat="39.92382938408067" lon="116.48642847615695">
        <ele>32.900000000000006</ele>
        <time>2023-06-14T12:30:19Z</time>
      </trkpt>
      <trkpt lat="39.92372264110816" lon="116.48651381169365">
        <ele>30.7</ele>
        <time>2023-06-14T12:30:28Z</time>
      </trkpt>
      <trkpt lat="39.92367303555734" lon="116.48664631836978">
        <ele>28.400000000000002</ele>
        <time>2023-06-14T12:30:40Z</time>
      </trkpt>
      <trkpt lat="39.923560417841905" lon="116.48677381404472">
        <ele>30.900000000000002</ele>
        <time>2023-06-14T12:30:53Z</time>
      </trkpt>
      <trkpt lat="39.923518761601116" lon="116.48688925544838">
        <ele>30.999999999999996</ele>
        <time>2023-06-14T12:31:05Z</time>
      </trkpt>
      <trkpt lat="39.92343699403678" lon="116.48696655775645">
        <ele>29.7</ele>
        <time>2023-06-14T12:31:14Z</time>
      </trkpt>
      <trkpt lat="39.923397260479575" lon="116.4870559003923">
        <ele>28.2</ele>
        <time>2023-06-14T12:31:23Z</time>
      </trkpt>
      <trkpt lat="39.92327756300574" lon="116.48715629478511">
        <ele>27.999999999999996</ele>
        <time>2023-06-14T12:31:32Z</time>
      </trkpt>
      <trkpt lat="39.92313983061478" lon="116.4872446459346">
        <ele>27.499999999999996</ele>
        <time>2023-06-14T12:31:50Z</time>
      </trkpt>
      <trkpt lat="39.92298897377684" lon="116.48729083933509">
        <ele>28.7</ele>
        <time>2023-06-14T12:32:02Z</time>
      </trkpt>
      <trkpt lat="39.9228698893926" lon="116.48726074030668">
        <ele>28.8</ele>
        <time>2023-06-14T12:32:14Z</time>
      </trkpt>
      <trkpt lat="39.922821936025926" lon="116.48727580321743">
        <ele>29.900000000000002</ele>
        <time>2023-06-14T12:32:20Z</time>
      </trkpt>
      <trkpt lat="39.922772881978936" lon="116.48759401282766">
        <ele>31.499999999999996</ele>
        <time>2023-06-14T12:32:41Z</time>
      </trkpt>
      <trkpt lat="39.92275009143158" lon="116.48766428149564">
        <ele>31.2</ele>
        <time>2023-06-14T12:32:44Z</time>
      </trkpt>
      <trkpt lat="39.92273181621427" lon="116.48790820676841">
        <ele>28.2</ele>
        <time>2023-06-14T12:32:56Z</time>
      </trkpt>
      <trkpt lat="39.922689256110935" lon="116.4880557705668">
        <ele>26.599999999999998</ele>
        <time>2023-06-14T12:33:11Z</time>
      </trkpt>
      <trkpt lat="39.92268079906316" lon="116.48823846323184">
        <ele>28.8</ele>
        <time>2023-06-14T12:33:26Z</time>
      </trkpt>
      <trkpt lat="39.92264704796211" lon="116.48832178289157">
        <ele>31.999999999999996</ele>
        <time>2023-06-14T12:33:32Z</time>
      </trkpt>
      <trkpt lat="39.9226255886975" lon="116.48850347358972">
        <ele>35.5</ele>
        <time>2023-06-14T12:33:41Z</time>
      </trkpt>
      <trkpt lat="39.922690507974" lon="116.48881364040517">
        <ele>28.3</ele>
        <time>2023-06-14T12:34:05Z</time>
      </trkpt>
      <trkpt lat="39.92274478926416" lon="116.48890899493702">
        <ele>26.8</ele>
        <time>2023-06-14T12:34:11Z</time>
      </trkpt>
      <trkpt lat="39.92279888254298" lon="116.4889411099065">
        <ele>25.099999999999998</ele>
        <time>2023-06-14T12:34:14Z</time>
      </trkpt>
      <trkpt lat="39.92285888901759" lon="116.48894411384346">
        <ele>23.2</ele>
        <time>2023-06-14T12:34:20Z</time>
      </trkpt>
      <trkpt lat="39.92293277850981" lon="116.48890796772118">
        <ele>22.5</ele>
        <time>2023-06-14T12:34:26Z</time>
      </trkpt>
      <trkpt lat="39.9230148646634" lon="116.48893807159777">
        <ele>22.3</ele>
        <time>2023-06-14T12:34:32Z</time>
      </trkpt>
      <trkpt lat="39.92307980228399" lon="116.48891798744332">
        <ele>24.2</ele>
        <time>2023-06-14T12:34:38Z</time>
      </trkpt>
      <trkpt lat="39.923149868042096" lon="116.48894106619439">
        <ele>26.099999999999998</ele>
        <time>2023-06-14T12:34:44Z</time>
      </trkpt>
      <trkpt lat="39.92323482573072" lon="116.48892800616957">
        <ele>24.8</ele>
        <time>2023-06-14T12:34:50Z</time>
      </trkpt>
      <trkpt lat="39.923305715352306" lon="116.48889186042214">
        <ele>23.4</ele>
        <time>2023-06-14T12:34:56Z</time>
      </trkpt>
      <trkpt lat="39.92349358821466" lon="116.48885168489694">
        <ele>26.0</ele>
        <time>2023-06-14T12:35:14Z</time>
      </trkpt>
      <trkpt lat="39.923669616768606" lon="116.4888637086101">
        <ele>29.499999999999996</ele>
        <time>2023-06-14T12:35:29Z</time>
      </trkpt>
      <trkpt lat="39.923767744048256" lon="116.48890786373043">
        <ele>30.599999999999998</ele>
        <time>2023-06-14T12:35:44Z</time>
      </trkpt>
      <trkpt lat="39.92404786383781" lon="116.48895199619211">
        <ele>20.5</ele>
        <time>2023-06-14T12:36:05Z</time>
      </trkpt>
      <trkpt lat="39.92416889467223" lon="116.48896402676039">
        <ele>22.2</ele>
        <time>2023-06-14T12:36:14Z</time>
      </trkpt>
      <trkpt lat="39.92419207879552" lon="116.48902625969986">
        <ele>23.099999999999998</ele>
        <time>2023-06-14T12:36:20Z</time>
      </trkpt>
      <trkpt lat="39.92420557683462" lon="116.48919389329971">
        <ele>23.599999999999998</ele>
        <time>2023-06-14T12:36:29Z</time>
      </trkpt>
      <trkpt lat="39.9242025117492" lon="116.48950808461592">
        <ele>23.3</ele>
        <time>2023-06-14T12:36:44Z</time>
      </trkpt>
      <trkpt lat="39.92418281726776" lon="116.48961047523652">
        <ele>25.5</ele>
        <time>2023-06-14T12:36:50Z</time>
      </trkpt>
      <trkpt lat="39.92423463982346" lon="116.48988751927797">
        <ele>28.8</ele>
        <time>2023-06-14T12:37:08Z</time>
      </trkpt>
      <trkpt lat="39.92427077580951" lon="116.4899336898825">
        <ele>28.599999999999998</ele>
        <time>2023-06-14T12:37:11Z</time>
      </trkpt>
      <trkpt lat="39.92433587175648" lon="116.48996680739967">
        <ele>25.9</ele>
        <time>2023-06-14T12:37:17Z</time>
      </trkpt>
      <trkpt lat="39.92446489334478" lon="116.48997582559822">
        <ele>26.599999999999998</ele>
        <time>2023-06-14T12:37:29Z</time>
      </trkpt>
      <trkpt lat="39.92470302402427" lon="116.49002297487456">
        <ele>36.6</ele>
        <time>2023-06-14T12:37:53Z</time>
      </trkpt>
      <trkpt lat="39.9249128390556" lon="116.48996372414996">
        <ele>23.4</ele>
        <time>2023-06-14T12:38:05Z</time>
      </trkpt>
      <trkpt lat="39.925012071098045" lon="116.49004301253956">
        <ele>20.9</ele>
        <time>2023-06-14T12:38:17Z</time>
      </trkpt>
      <trkpt lat="39.92528515254002" lon="116.49007409656093">
        <ele>37.7</ele>
        <time>2023-06-14T12:38:41Z</time>
      </trkpt>
      <trkpt lat="39.9253351624428" lon="116.4900781055634">
        <ele>38.900000000000006</ele>
        <time>2023-06-14T12:38:44Z</time>
      </trkpt>
      <trkpt lat="39.92559186197652" lon="116.4899807043289">
        <ele>33.6</ele>
        <time>2023-06-14T12:38:59Z</time>
      </trkpt>
      <trkpt lat="39.925802748719" lon="116.48994554483487">
        <ele>30.999999999999996</ele>
        <time>2023-06-14T12:39:14Z</time>
      </trkpt>
      <trkpt lat="39.92611479569983" lon="116.48996558212036">
        <ele>28.999999999999996</ele>
        <time>2023-06-14T12:39:44Z</time>
      </trkpt>
      <trkpt lat="39.92640002910265" lon="116.49004785877898">
        <ele>27.900000000000002</ele>
        <time>2023-06-14T12:40:02Z</time>
      </trkpt>
      <trkpt lat="39.92647204109885" lon="116.49005286884889">
        <ele>29.2</ele>
        <time>2023-06-14T12:40:08Z</time>
      </trkpt>
      <trkpt lat="39.926596931371556" lon="116.4900177200532">
        <ele>31.8</ele>
        <time>2023-06-14T12:40:17Z</time>
      </trkpt>
      <trkpt lat="39.92674902976078" lon="116.49005283436355">
        <ele>36.6</ele>
        <time>2023-06-14T12:40:29Z</time>
      </trkpt>
      <trkpt lat="39.926787126841816" lon="116.49008595525632">
        <ele>37.7</ele>
        <time>2023-06-14T12:40:35Z</time>
      </trkpt>
      <trkpt lat="39.9268591776991" lon="116.49010401481588">
        <ele>38.1</ele>
        <time>2023-06-14T12:40:41Z</time>
      </trkpt>
      <trkpt lat="39.92693800559363" lon="116.49038306350896">
        <ele>34.900000000000006</ele>
        <time>2023-06-14T12:40:59Z</time>
      </trkpt>
      <trkpt lat="39.92693556488683" lon="116.49057077592772">
        <ele>26.0</ele>
        <time>2023-06-14T12:41:11Z</time>
      </trkpt>
      <trkpt lat="39.926870279400966" lon="116.49080969048204">
        <ele>23.2</ele>
        <time>2023-06-14T12:41:26Z</time>
      </trkpt>
      <trkpt lat="39.926860617825454" lon="116.49092312208295">
        <ele>21.2</ele>
        <time>2023-06-14T12:41:32Z</time>
      </trkpt>
      <trkpt lat="39.926872895548684" lon="116.49101647479237">
        <ele>21.3</ele>
        <time>2023-06-14T12:41:38Z</time>
      </trkpt>
      <trkpt lat="39.92686414124169" lon="116.49109878823118">
        <ele>20.8</ele>
        <time>2023-06-14T12:41:44Z</time>
      </trkpt>
      <trkpt lat="39.92687738605086" lon="116.49118109894204">
        <ele>22.5</ele>
        <time>2023-06-14T12:41:50Z</time>
      </trkpt>
      <trkpt lat="39.9268829424089" lon="116.49136780680526">
        <ele>25.599999999999998</ele>
        <time>2023-06-14T12:42:02Z</time>
      </trkpt>
      <trkpt lat="39.92691417755343" lon="116.49144710387647">
        <ele>26.400000000000002</ele>
        <time>2023-06-14T12:42:08Z</time>
      </trkpt>
      <trkpt lat="39.926920470597594" lon="116.49154547644275">
        <ele>25.599999999999998</ele>
        <time>2023-06-14T12:42:14Z</time>
      </trkpt>
      <trkpt lat="39.926894705109675" lon="116.49162377681066">
        <ele>24.099999999999998</ele>
        <time>2023-06-14T12:42:20Z</time>
      </trkpt>
      <trkpt lat="39.926894264876495" lon="116.4918114893132">
        <ele>23.4</ele>
        <time>2023-06-14T12:42:32Z</time>
      </trkpt>
      <trkpt lat="39.92686077217054" lon="116.49198113736998">
        <ele>19.599999999999998</ele>
        <time>2023-06-14T12:42:44Z</time>
      </trkpt>
      <trkpt lat="39.92689207027606" lon="116.49208151448366">
        <ele>19.599999999999998</ele>
        <time>2023-06-14T12:42:50Z</time>
      </trkpt>
      <trkpt lat="39.92687233166255" lon="116.49250412100753">
        <ele>23.099999999999998</ele>
        <time>2023-06-14T12:43:20Z</time>
      </trkpt>
      <trkpt lat="39.92690583638507" lon="116.49267376075517">
        <ele>25.3</ele>
        <time>2023-06-14T12:43:32Z</time>
      </trkpt>
      <trkpt lat="39.92689410340033" lon="116.49276310131457">
        <ele>26.499999999999996</ele>
        <time>2023-06-14T12:43:38Z</time>
      </trkpt>
      <trkpt lat="39.926907354427044" lon="116.49284741971393">
        <ele>26.499999999999996</ele>
        <time>2023-06-14T12:43:44Z</time>
      </trkpt>
      <trkpt lat="39.92690243285018" lon="116.49320879191315">
        <ele>26.400000000000002</ele>
        <time>2023-06-14T12:44:08Z</time>
      </trkpt>
      <trkpt lat="39.92688470358621" lon="116.49363440939938">
        <ele>21.4</ele>
        <time>2023-06-14T12:44:38Z</time>
      </trkpt>
      <trkpt lat="39.92688398518403" lon="116.49372876756503">
        <ele>24.2</ele>
        <time>2023-06-14T12:44:44Z</time>
      </trkpt>
      <trkpt lat="39.926922528776416" lon="116.49391145603518">
        <ele>27.499999999999996</ele>
        <time>2023-06-14T12:44:56Z</time>
      </trkpt>
      <trkpt lat="39.92694028290237" lon="116.49416441364042">
        <ele>28.499999999999996</ele>
        <time>2023-06-14T12:45:14Z</time>
      </trkpt>
      <trkpt lat="39.92690026403457" lon="116.49449266390432">
        <ele>29.400000000000002</ele>
        <time>2023-06-14T12:45:38Z</time>
      </trkpt>
      <trkpt lat="39.9268892678962" lon="116.49482894078018">
        <ele>26.2</ele>
        <time>2023-06-14T12:46:02Z</time>
      </trkpt>
      <trkpt lat="39.926912467621" lon="116.49489619296624">
        <ele>27.599999999999998</ele>
        <time>2023-06-14T12:46:08Z</time>
      </trkpt>
      <trkpt lat="39.92689401347262" lon="116.49507888807034">
        <ele>28.3</ele>
        <time>2023-06-14T12:46:20Z</time>
      </trkpt>
      <trkpt lat="39.92691222836201" lon="116.49515115986102">
        <ele>28.400000000000002</ele>
        <time>2023-06-14T12:46:26Z</time>
      </trkpt>
      <trkpt lat="39.92695932526616" lon="116.49518427961323">
        <ele>29.499999999999996</ele>
        <time>2023-06-14T12:46:29Z</time>
      </trkpt>
      <trkpt lat="39.92699057255775" lon="116.49526759162765">
        <ele>28.7</ele>
        <time>2023-06-14T12:46:35Z</time>
      </trkpt>
      <trkpt lat="39.92694906538371" lon="116.49543222090114">
        <ele>29.599999999999998</ele>
        <time>2023-06-14T12:46:47Z</time>
      </trkpt>
      <trkpt lat="39.92693055424244" lon="116.49559584342593">
        <ele>30.3</ele>
        <time>2023-06-14T12:46:59Z</time>
      </trkpt>
      <trkpt lat="39.92689612156471" lon="116.49578556674564">
        <ele>26.999999999999996</ele>
        <time>2023-06-14T12:47:17Z</time>
      </trkpt>
      <trkpt lat="39.926880855700844" lon="116.49603150054094">
        <ele>28.099999999999998</ele>
        <time>2023-06-14T12:47:59Z</time>
      </trkpt>
      <trkpt lat="39.92689409764514" lon="116.49611280694353">
        <ele>28.999999999999996</ele>
        <time>2023-06-14T12:48:08Z</time>
      </trkpt>
      <trkpt lat="39.926864266503735" lon="116.49616902360327">
        <ele>28.7</ele>
        <time>2023-06-14T12:48:14Z</time>
      </trkpt>
      <trkpt lat="39.92679719141735" lon="116.49614293306155">
        <ele>28.900000000000002</ele>
        <time>2023-06-14T12:48:32Z</time>
      </trkpt>
      <trkpt lat="39.92673431672402" lon="116.4961840967787">
        <ele>28.8</ele>
        <time>2023-06-14T12:48:35Z</time>
      </trkpt>
      <trkpt lat="39.92657962553343" lon="116.49595022987619">
        <ele>0.0</ele>
        <time>2023-06-14T12:50:23Z</time>
      </trkpt>
      <trkpt lat="39.92660819622534" lon="116.4958066823891">
        <ele>0.0</ele>
        <time>2023-06-14T12:50:32Z</time>
      </trkpt>
      <trkpt lat="39.926359110615344" lon="116.49577459159235">
        <ele>0.0</ele>
        <time>2023-06-14T12:50:47Z</time>
      </trkpt>
      <trkpt lat="39.92630632535765" lon="116.49584586823207">
        <ele>0.0</ele>
        <time>2023-06-14T12:51:05Z</time>
      </trkpt>
      <trkpt lat="39.92660791755957" lon="116.49638386910746">
        <ele>29.000000000000004</ele>
        <time>2023-06-14T12:51:14Z</time>
      </trkpt>
      <trkpt lat="39.92650008659157" lon="116.49643909158576">
        <ele>29.000000000000004</ele>
        <time>2023-06-14T12:51:20Z</time>
      </trkpt>
      <trkpt lat="39.92654090533815" lon="116.49637885841875">
        <ele>29.000000000000004</ele>
        <time>2023-06-14T12:51:26Z</time>
      </trkpt>
      <trkpt lat="39.92658982551394" lon="116.49635275349708">
        <ele>29.099999999999998</ele>
        <time>2023-06-14T12:51:35Z</time>
      </trkpt>
      <trkpt lat="39.926344323800784" lon="116.49584586351318">
        <ele>0.0</ele>
        <time>2023-06-14T12:52:35Z</time>
      </trkpt>
      <trkpt lat="39.92687863709371" lon="116.49629349331795">
        <ele>0.0</ele>
        <time>2023-06-14T12:52:59Z</time>
      </trkpt>
      <trkpt lat="39.926959771461874" lon="116.49633965813887">
        <ele>0.0</ele>
        <time>2023-06-14T12:53:05Z</time>
      </trkpt>
      <trkpt lat="39.92698733031854" lon="116.49619209578253">
        <ele>0.0</ele>
        <time>2023-06-14T12:54:05Z</time>
      </trkpt>
      <trkpt lat="39.92677761428844" lon="116.49628447164189">
        <ele>15.2</ele>
        <time>2023-06-14T12:54:11Z</time>
      </trkpt>
      <trkpt lat="39.92679442502057" lon="116.49622123000844">
        <ele>18.3</ele>
        <time>2023-06-14T12:54:17Z</time>
      </trkpt>
      <trkpt lat="39.92674721741087" lon="116.49615096968893">
        <ele>31.599999999999998</ele>
        <time>2023-06-14T12:54:23Z</time>
      </trkpt>
      <trkpt lat="39.92653736968896" lon="116.49619917827188">
        <ele>33.9</ele>
        <time>2023-06-14T12:54:47Z</time>
      </trkpt>
      <trkpt lat="39.9264193056751" lon="116.49617610547266">
        <ele>32.6</ele>
        <time>2023-06-14T12:55:02Z</time>
      </trkpt>
      <trkpt lat="39.92623752864818" lon="116.49624840182041">
        <ele>27.500000000000004</ele>
        <time>2023-06-14T12:55:23Z</time>
      </trkpt>
      <trkpt lat="39.9261705493533" lon="116.49625443295058">
        <ele>27.599999999999998</ele>
        <time>2023-06-14T12:55:29Z</time>
      </trkpt>
      <trkpt lat="39.926045401821376" lon="116.496203254568">
        <ele>26.1</ele>
        <time>2023-06-14T12:55:38Z</time>
      </trkpt>
      <trkpt lat="39.92574219872616" lon="116.49613101842709">
        <ele>26.400000000000002</ele>
        <time>2023-06-14T12:56:08Z</time>
      </trkpt>
      <trkpt lat="39.92541421518276" lon="116.49613206295449">
        <ele>26.2</ele>
        <time>2023-06-14T12:56:38Z</time>
      </trkpt>
      <trkpt lat="39.92516027650421" lon="116.49614915913048">
        <ele>28.400000000000002</ele>
        <time>2023-06-14T12:57:02Z</time>
      </trkpt>
      <trkpt lat="39.92503550314795" lon="116.49622345600743">
        <ele>28.000000000000004</ele>
        <time>2023-06-14T12:57:17Z</time>
      </trkpt>
      <trkpt lat="39.92471063324784" lon="116.49626264463029">
        <ele>28.099999999999998</ele>
        <time>2023-06-14T12:57:44Z</time>
      </trkpt>
      <trkpt lat="39.92457956081401" lon="116.49623656204595">
        <ele>30.8</ele>
        <time>2023-06-14T12:57:56Z</time>
      </trkpt>
      <trkpt lat="39.92442260319477" lon="116.4962486271599">
        <ele>30.400000000000002</ele>
        <time>2023-06-14T12:58:08Z</time>
      </trkpt>
      <trkpt lat="39.92435955191026" lon="116.49623056654757">
        <ele>30.599999999999998</ele>
        <time>2023-06-14T12:58:14Z</time>
      </trkpt>
      <trkpt lat="39.924240676539426" lon="116.49627073339414">
        <ele>30.3</ele>
        <time>2023-06-14T12:58:26Z</time>
      </trkpt>
      <trkpt lat="39.92417461939404" lon="116.49625066555232">
        <ele>29.500000000000004</ele>
        <time>2023-06-14T12:58:32Z</time>
      </trkpt>
      <trkpt lat="39.924089251722805" lon="116.49612620464885">
        <ele>36.900000000000006</ele>
        <time>2023-06-14T12:58:47Z</time>
      </trkpt>
      <trkpt lat="39.92401738041277" lon="116.4961683732814">
        <ele>40.6</ele>
        <time>2023-06-14T12:58:53Z</time>
      </trkpt>
      <trkpt lat="39.92395741281921" lon="116.49617841875165">
        <ele>43.0</ele>
        <time>2023-06-14T12:58:59Z</time>
      </trkpt>
      <trkpt lat="39.9238743294327" lon="116.4961493187937">
        <ele>44.300000000000004</ele>
        <time>2023-06-14T12:59:05Z</time>
      </trkpt>
      <trkpt lat="39.92373548183881" lon="116.49619852235382">
        <ele>46.0</ele>
        <time>2023-06-14T12:59:20Z</time>
      </trkpt>
      <trkpt lat="39.92361739989919" lon="116.49616942674358">
        <ele>42.0</ele>
        <time>2023-06-14T12:59:29Z</time>
      </trkpt>
      <trkpt lat="39.92357242869599" lon="116.49617846654913">
        <ele>39.7</ele>
        <time>2023-06-14T12:59:32Z</time>
      </trkpt>
      <trkpt lat="39.92351757165091" lon="116.4962256520703">
        <ele>36.199999999999996</ele>
        <time>2023-06-14T12:59:38Z</time>
      </trkpt>
      <trkpt lat="39.92350905092035" lon="116.49638626143584">
        <ele>30.2</ele>
        <time>2023-06-14T12:59:47Z</time>
      </trkpt>
      <trkpt lat="39.923490219306906" lon="116.49644247665573">
        <ele>27.7</ele>
        <time>2023-06-14T12:59:53Z</time>
      </trkpt>
      <trkpt lat="39.92356249466144" lon="116.4965358211902">
        <ele>27.500000000000004</ele>
        <time>2023-06-14T12:59:59Z</time>
      </trkpt>
      <trkpt lat="39.923583649409984" lon="116.49658801620726">
        <ele>26.0</ele>
        <time>2023-06-14T13:00:02Z</time>
      </trkpt>
      <trkpt lat="39.92356183884344" lon="116.49665125835048">
        <ele>25.6</ele>
        <time>2023-06-14T13:00:08Z</time>
      </trkpt>
      <trkpt lat="39.92350579926039" lon="116.49663721210015">
        <ele>25.7</ele>
        <time>2023-06-14T13:00:17Z</time>
      </trkpt>
      <trkpt lat="39.92356471902178" lon="116.49661110597228">
        <ele>25.900000000000002</ele>
        <time>2023-06-14T13:00:20Z</time>
      </trkpt>
      <trkpt lat="39.92350944597305" lon="116.49651876315872">
        <ele>26.3</ele>
        <time>2023-06-14T13:00:26Z</time>
      </trkpt>
      <trkpt lat="39.9234225662769" lon="116.4965579221795">
        <ele>26.1</ele>
        <time>2023-06-14T13:00:29Z</time>
      </trkpt>
      <trkpt lat="39.923494841608196" lon="116.49665126666669">
        <ele>25.7</ele>
        <time>2023-06-14T13:00:32Z</time>
      </trkpt>
      <trkpt lat="39.92356485368164" lon="116.49665627697834">
        <ele>27.2</ele>
        <time>2023-06-14T13:00:35Z</time>
      </trkpt>
      <trkpt lat="39.92360015445771" lon="116.49675765641415">
        <ele>28.400000000000002</ele>
        <time>2023-06-14T13:00:44Z</time>
      </trkpt>
      <trkpt lat="39.92358565174352" lon="116.49692428893923">
        <ele>27.2</ele>
        <time>2023-06-14T13:00:56Z</time>
      </trkpt>
      <trkpt lat="39.923550844656" lon="116.49698853639484">
        <ele>25.3</ele>
        <time>2023-06-14T13:01:02Z</time>
      </trkpt>
      <trkpt lat="39.92356706536833" lon="116.49706281548218">
        <ele>23.6</ele>
        <time>2023-06-14T13:01:08Z</time>
      </trkpt>
      <trkpt lat="39.92351873740442" lon="116.49728767220977">
        <ele>20.6</ele>
        <time>2023-06-14T13:01:29Z</time>
      </trkpt>
      <trkpt lat="39.923530544373406" lon="116.49755869582793">
        <ele>17.8</ele>
        <time>2023-06-14T13:01:47Z</time>
      </trkpt>
      <trkpt lat="39.923561827136936" lon="116.49765405252936">
        <ele>17.5</ele>
        <time>2023-06-14T13:01:53Z</time>
      </trkpt>
      <trkpt lat="39.923538599387015" lon="116.49791303441938">
        <ele>13.8</ele>
        <time>2023-06-14T13:02:11Z</time>
      </trkpt>
      <trkpt lat="39.92360535874237" lon="116.49816899337615">
        <ele>11.5</ele>
        <time>2023-06-14T13:02:29Z</time>
      </trkpt>
      <trkpt lat="39.92365461069759" lon="116.49825430959142">
        <ele>11.7</ele>
        <time>2023-06-14T13:02:35Z</time>
      </trkpt>
      <trkpt lat="39.92359026165003" lon="116.49847214024165">
        <ele>12.3</ele>
        <time>2023-06-14T13:02:50Z</time>
      </trkpt>
      <trkpt lat="39.92358552171339" lon="116.49855947056962">
        <ele>14.0</ele>
        <time>2023-06-14T13:02:56Z</time>
      </trkpt>
      <trkpt lat="39.92355970496779" lon="116.49862070493874">
        <ele>15.600000000000001</ele>
        <time>2023-06-14T13:03:02Z</time>
      </trkpt>
      <trkpt lat="39.92351065055831" lon="116.49893790814109">
        <ele>19.6</ele>
        <time>2023-06-14T13:03:26Z</time>
      </trkpt>
      <trkpt lat="39.92350015246912" lon="116.49910654560277">
        <ele>20.400000000000002</ele>
        <time>2023-06-14T13:03:38Z</time>
      </trkpt>
      <trkpt lat="39.92346024365347" lon="116.49913666412999">
        <ele>21.1</ele>
        <time>2023-06-14T13:03:44Z</time>
      </trkpt>
      <trkpt lat="39.923440748777935" lon="116.49930630625151">
        <ele>22.3</ele>
        <time>2023-06-14T13:03:56Z</time>
      </trkpt>
      <trkpt lat="39.92339492670447" lon="116.49936553521174">
        <ele>22.6</ele>
        <time>2023-06-14T13:04:02Z</time>
      </trkpt>
      <trkpt lat="39.92334899423711" lon="116.49938762415637">
        <ele>22.5</ele>
        <time>2023-06-14T13:04:05Z</time>
      </trkpt>
      <trkpt lat="39.92330721373948" lon="116.49946090554836">
        <ele>22.8</ele>
        <time>2023-06-14T13:04:14Z</time>
      </trkpt>
      <trkpt lat="39.9233124432074" lon="116.49953819620332">
        <ele>23.6</ele>
        <time>2023-06-14T13:04:20Z</time>
      </trkpt>
      <trkpt lat="39.923545208950266" lon="116.49979915063354">
        <ele>24.400000000000002</ele>
        <time>2023-06-14T13:04:35Z</time>
      </trkpt>
      <trkpt lat="39.92322669728187" lon="116.49962252456656">
        <ele>0.0</ele>
        <time>2023-06-14T13:05:23Z</time>
      </trkpt>
      <trkpt lat="39.923026311851515" lon="116.49949005008948">
        <ele>0.0</ele>
        <time>2023-06-14T13:05:35Z</time>
      </trkpt>
      <trkpt lat="39.9227562952099" lon="116.49981731647755">
        <ele>0.0</ele>
        <time>2023-06-14T13:06:44Z</time>
      </trkpt>
      <trkpt lat="39.92275250214043" lon="116.49955031101244">
        <ele>0.0</ele>
        <time>2023-06-14T13:07:50Z</time>
      </trkpt>
    </trkseg>
  </trk>
</gpx>