<?xml version="1.0" encoding="UTF-8"?>
<gpx xmlns="http://www.topografix.com/GPX/1/1" xmlns:gpxtpx="http://www.garmin.com/xmlschemas/TrackPointExtension/v1" xmlns:xsi="http://www.w3.org/2001/XMLSchema-instance" xsi:schemaLocation="http://www.topografix.com/GPX/1/1 http://www.topografix.com/GPX/1/1/gpx.xsd" version="1.1" creator="gpx.py -- https://github.com/tkrajina/gpxpy">
  <trk>
    <name>gpx from keep</name>
    <type>Run</type>
    <trkseg>
      <trkpt lat="39.900633259107806" lon="116.6689964016742">
        <ele>0.0</ele>
        <time>2022-12-01T05:55:10Z</time>
      </trkpt>
      <trkpt lat="39.900633692180804" lon="116.66877104475796">
        <ele>0.0</ele>
        <time>2022-12-01T05:55:17Z</time>
      </trkpt>
      <trkpt lat="39.90071310648684" lon="116.66855365540869">
        <ele>160.0</ele>
        <time>2022-12-01T05:55:20Z</time>
      </trkpt>
      <trkpt lat="39.90078628533438" lon="116.66845891678169">
        <ele>160.1</ele>
        <time>2022-12-01T05:55:23Z</time>
      </trkpt>
      <trkpt lat="39.90064329997836" lon="116.66837812903772">
        <ele>0.0</ele>
        <time>2022-12-01T05:55:29Z</time>
      </trkpt>
      <trkpt lat="39.90061582714967" lon="116.66870124617871">
        <ele>160.0</ele>
        <time>2022-12-01T05:55:32Z</time>
      </trkpt>
      <trkpt lat="39.900400145458136" lon="116.66854073100029">
        <ele>159.6</ele>
        <time>2022-12-01T05:55:41Z</time>
      </trkpt>
      <trkpt lat="39.9003480251103" lon="116.66860455527163">
        <ele>159.7</ele>
        <time>2022-12-01T05:55:44Z</time>
      </trkpt>
      <trkpt lat="39.900281081794155" lon="116.66857664321867">
        <ele>159.9</ele>
        <time>2022-12-01T05:55:47Z</time>
      </trkpt>
      <trkpt lat="39.90045098406345" lon="116.6686234884993">
        <ele>159.7</ele>
        <time>2022-12-01T05:55:50Z</time>
      </trkpt>
      <trkpt lat="39.89939322820968" lon="116.66800139509688">
        <ele>141.5</ele>
        <time>2022-12-01T05:56:08Z</time>
      </trkpt>
      <trkpt lat="39.899329160132744" lon="116.66803829766755">
        <ele>141.8</ele>
        <time>2022-12-01T05:56:11Z</time>
      </trkpt>
      <trkpt lat="39.89931790555928" lon="116.66817092045393">
        <ele>139.1</ele>
        <time>2022-12-01T05:56:14Z</time>
      </trkpt>
      <trkpt lat="39.89931823634746" lon="116.66851892702064">
        <ele>133.8</ele>
        <time>2022-12-01T05:56:23Z</time>
      </trkpt>
      <trkpt lat="39.89930652576572" lon="116.66888887261645">
        <ele>127.1</ele>
        <time>2022-12-01T05:56:32Z</time>
      </trkpt>
      <trkpt lat="39.89930633798528" lon="116.6689865937711">
        <ele>128.5</ele>
        <time>2022-12-01T05:56:35Z</time>
      </trkpt>
      <trkpt lat="39.89921477506165" lon="116.66928176287041">
        <ele>120.9</ele>
        <time>2022-12-01T05:56:45Z</time>
      </trkpt>
      <trkpt lat="39.89922797408538" lon="116.66969857223575">
        <ele>112.1</ele>
        <time>2022-12-01T05:56:51Z</time>
      </trkpt>
      <trkpt lat="39.899222771432584" lon="116.66980427142362">
        <ele>111.6</ele>
        <time>2022-12-01T05:56:54Z</time>
      </trkpt>
      <trkpt lat="39.899267606740146" lon="116.66988902418144">
        <ele>111.3</ele>
        <time>2022-12-01T05:56:57Z</time>
      </trkpt>
      <trkpt lat="39.89936148003862" lon="116.669952830619">
        <ele>110.0</ele>
        <time>2022-12-01T05:57:00Z</time>
      </trkpt>
      <trkpt lat="39.89940433078171" lon="116.67002960639984">
        <ele>109.1</ele>
        <time>2022-12-01T05:57:03Z</time>
      </trkpt>
      <trkpt lat="39.89956620295834" lon="116.67009240731508">
        <ele>108.9</ele>
        <time>2022-12-01T05:57:09Z</time>
      </trkpt>
      <trkpt lat="39.89972522066087" lon="116.67007942465662">
        <ele>110.0</ele>
        <time>2022-12-01T05:57:15Z</time>
      </trkpt>
      <trkpt lat="39.899773113292866" lon="116.67013426238434">
        <ele>109.4</ele>
        <time>2022-12-01T05:57:18Z</time>
      </trkpt>
      <trkpt lat="39.89994490664141" lon="116.67023794554316">
        <ele>110.6</ele>
        <time>2022-12-01T05:57:24Z</time>
      </trkpt>
      <trkpt lat="39.899990763063116" lon="116.670311729541">
        <ele>111.5</ele>
        <time>2022-12-01T05:57:27Z</time>
      </trkpt>
      <trkpt lat="39.900213393611104" lon="116.67049916775815">
        <ele>116.6</ele>
        <time>2022-12-01T05:57:39Z</time>
      </trkpt>
      <trkpt lat="39.9001730265595" lon="116.67069162433378">
        <ele>154.6</ele>
        <time>2022-12-01T05:57:42Z</time>
      </trkpt>
      <trkpt lat="39.90027592257351" lon="116.67074346390115">
        <ele>161.4</ele>
        <time>2022-12-01T05:57:48Z</time>
      </trkpt>
      <trkpt lat="39.90033595235785" lon="116.67072650479057">
        <ele>162.7</ele>
        <time>2022-12-01T05:57:51Z</time>
      </trkpt>
      <trkpt lat="39.90046810120376" lon="116.6706457186192">
        <ele>163.3</ele>
        <time>2022-12-01T05:57:57Z</time>
      </trkpt>
      <trkpt lat="39.900625945067546" lon="116.67072347752837">
        <ele>162.1</ele>
        <time>2022-12-01T05:58:03Z</time>
      </trkpt>
      <trkpt lat="39.90066601970226" lon="116.67068358622836">
        <ele>161.6</ele>
        <time>2022-12-01T05:58:06Z</time>
      </trkpt>
      <trkpt lat="39.90071123745149" lon="116.6705689074092">
        <ele>160.5</ele>
        <time>2022-12-01T05:58:15Z</time>
      </trkpt>
      <trkpt lat="39.90071513789851" lon="116.67009924566722">
        <ele>156.4</ele>
        <time>2022-12-01T05:58:25Z</time>
      </trkpt>
      <trkpt lat="39.900733357091234" lon="116.66998457038758">
        <ele>155.2</ele>
        <time>2022-12-01T05:58:28Z</time>
      </trkpt>
      <trkpt lat="39.90071081930142" lon="116.66974425849433">
        <ele>153.1</ele>
        <time>2022-12-01T05:58:34Z</time>
      </trkpt>
      <trkpt lat="39.900728021436294" lon="116.66963855784856">
        <ele>151.9</ele>
        <time>2022-12-01T05:58:37Z</time>
      </trkpt>
      <trkpt lat="39.90072428581394" lon="116.66950095083702">
        <ele>150.4</ele>
        <time>2022-12-01T05:58:40Z</time>
      </trkpt>
      <trkpt lat="39.90076926656356" lon="116.66950991968767">
        <ele>149.1</ele>
        <time>2022-12-01T05:58:43Z</time>
      </trkpt>
      <trkpt lat="39.900808391187525" lon="116.66944410260635">
        <ele>147.7</ele>
        <time>2022-12-01T05:58:46Z</time>
      </trkpt>
      <trkpt lat="39.900773469352615" lon="116.66940422070313">
        <ele>146.1</ele>
        <time>2022-12-01T05:58:52Z</time>
      </trkpt>
      <trkpt lat="39.90080561729125" lon="116.66932643863667">
        <ele>144.9</ele>
        <time>2022-12-01T05:58:58Z</time>
      </trkpt>
      <trkpt lat="39.90078580013942" lon="116.66923171135916">
        <ele>144.0</ele>
        <time>2022-12-01T05:59:04Z</time>
      </trkpt>
      <trkpt lat="39.901086349930075" lon="116.668938510841">
        <ele>141.6</ele>
        <time>2022-12-01T05:59:10Z</time>
      </trkpt>
      <trkpt lat="39.90125467393239" lon="116.66876598240817">
        <ele>138.7</ele>
        <time>2022-12-01T05:59:16Z</time>
      </trkpt>
      <trkpt lat="39.90121077173074" lon="116.6687161301215">
        <ele>137.4</ele>
        <time>2022-12-01T05:59:19Z</time>
      </trkpt>
      <trkpt lat="39.90108993431983" lon="116.66863437840102">
        <ele>136.7</ele>
        <time>2022-12-01T05:59:22Z</time>
      </trkpt>
      <trkpt lat="39.90102297182397" lon="116.66861643788899">
        <ele>136.0</ele>
        <time>2022-12-01T05:59:25Z</time>
      </trkpt>
      <trkpt lat="39.90081329562664" lon="116.66845293052921">
        <ele>128.2</ele>
        <time>2022-12-01T05:59:31Z</time>
      </trkpt>
      <trkpt lat="39.90063133638315" lon="116.66843600135367">
        <ele>114.5</ele>
        <time>2022-12-01T05:59:38Z</time>
      </trkpt>
      <trkpt lat="39.900464529858624" lon="116.66833929802274">
        <ele>86.9</ele>
        <time>2022-12-01T05:59:44Z</time>
      </trkpt>
      <trkpt lat="39.90030450828543" lon="116.66835427505656">
        <ele>50.3</ele>
        <time>2022-12-01T05:59:50Z</time>
      </trkpt>
      <trkpt lat="39.90005319748002" lon="116.66852182785937">
        <ele>25.2</ele>
        <time>2022-12-01T06:00:02Z</time>
      </trkpt>
      <trkpt lat="39.899830031157535" lon="116.66861359352964">
        <ele>12.2</ele>
        <time>2022-12-01T06:00:14Z</time>
      </trkpt>
      <trkpt lat="39.89962496755361" lon="116.66865151066473">
        <ele>10.5</ele>
        <time>2022-12-01T06:00:23Z</time>
      </trkpt>
      <trkpt lat="39.899454894715475" lon="116.66869341210364">
        <ele>9.9</ele>
        <time>2022-12-01T06:00:32Z</time>
      </trkpt>
      <trkpt lat="39.899432698301304" lon="116.66879612171257">
        <ele>10.4</ele>
        <time>2022-12-01T06:00:38Z</time>
      </trkpt>
      <trkpt lat="39.899520044788915" lon="116.66913414629819">
        <ele>8.0</ele>
        <time>2022-12-01T06:00:50Z</time>
      </trkpt>
      <trkpt lat="39.899586302522" lon="116.66951904000295">
        <ele>2.0999999999999996</ele>
        <time>2022-12-01T06:01:03Z</time>
      </trkpt>
      <trkpt lat="39.89964285392345" lon="116.66975137032831">
        <ele>2.7</ele>
        <time>2022-12-01T06:01:12Z</time>
      </trkpt>
      <trkpt lat="39.899637553696124" lon="116.66990792451753">
        <ele>2.5999999999999996</ele>
        <time>2022-12-01T06:01:18Z</time>
      </trkpt>
      <trkpt lat="39.8996882376313" lon="116.67007145196371">
        <ele>2.0999999999999996</ele>
        <time>2022-12-01T06:01:24Z</time>
      </trkpt>
      <trkpt lat="39.89972810575617" lon="116.67013925372254">
        <ele>1.4000000000000004</ele>
        <time>2022-12-01T06:01:27Z</time>
      </trkpt>
      <trkpt lat="39.89984996637887" lon="116.67020903969322">
        <ele>-0.7000000000000002</ele>
        <time>2022-12-01T06:01:33Z</time>
      </trkpt>
      <trkpt lat="39.900028044433164" lon="116.6701641456468">
        <ele>0.20000000000000018</ele>
        <time>2022-12-01T06:01:45Z</time>
      </trkpt>
      <trkpt lat="39.90021996503287" lon="116.67020101678578">
        <ele>-1.2000000000000002</ele>
        <time>2022-12-01T06:02:01Z</time>
      </trkpt>
      <trkpt lat="39.900330979169546" lon="116.67019103151658">
        <ele>-1.2000000000000002</ele>
        <time>2022-12-01T06:02:10Z</time>
      </trkpt>
      <trkpt lat="39.900430882878375" lon="116.67023888274149">
        <ele>1.2999999999999998</ele>
        <time>2022-12-01T06:02:19Z</time>
      </trkpt>
      <trkpt lat="39.90066986449985" lon="116.67024284188531">
        <ele>5.300000000000001</ele>
        <time>2022-12-01T06:02:37Z</time>
      </trkpt>
      <trkpt lat="39.90084099070505" lon="116.67017301976253">
        <ele>4.300000000000001</ele>
        <time>2022-12-01T06:02:50Z</time>
      </trkpt>
      <trkpt lat="39.90088593131063" lon="116.67020292893406">
        <ele>4.300000000000001</ele>
        <time>2022-12-01T06:03:02Z</time>
      </trkpt>
      <trkpt lat="39.90096298906168" lon="116.67017101039607">
        <ele>4.199999999999999</ele>
        <time>2022-12-01T06:03:10Z</time>
      </trkpt>
      <trkpt lat="39.900991089180636" lon="116.67011815760392">
        <ele>4.5</ele>
        <time>2022-12-01T06:03:19Z</time>
      </trkpt>
      <trkpt lat="39.90099625920844" lon="116.67002941000403">
        <ele>5.6</ele>
        <time>2022-12-01T06:03:26Z</time>
      </trkpt>
      <trkpt lat="39.901142819079105" lon="116.66973423364237">
        <ele>6.300000000000001</ele>
        <time>2022-12-01T06:03:47Z</time>
      </trkpt>
      <trkpt lat="39.901169296505955" lon="116.66948494145797">
        <ele>7.199999999999999</ele>
        <time>2022-12-01T06:03:59Z</time>
      </trkpt>
      <trkpt lat="39.90113651053445" lon="116.66937426126766">
        <ele>8.1</ele>
        <time>2022-12-01T06:04:05Z</time>
      </trkpt>
      <trkpt lat="39.90115279135514" lon="116.6692276774751">
        <ele>8.6</ele>
        <time>2022-12-01T06:04:11Z</time>
      </trkpt>
      <trkpt lat="39.90122526514694" lon="116.66897937703745">
        <ele>8.4</ele>
        <time>2022-12-01T06:04:20Z</time>
      </trkpt>
      <trkpt lat="39.90123646393431" lon="116.66887567160863">
        <ele>8.3</ele>
        <time>2022-12-01T06:04:23Z</time>
      </trkpt>
      <trkpt lat="39.90126665231371" lon="116.66877694962562">
        <ele>8.6</ele>
        <time>2022-12-01T06:04:26Z</time>
      </trkpt>
      <trkpt lat="39.90112298076273" lon="116.66860944547959">
        <ele>8.9</ele>
        <time>2022-12-01T06:04:30Z</time>
      </trkpt>
      <trkpt lat="39.90120302701977" lon="116.66858350960955">
        <ele>8.9</ele>
        <time>2022-12-01T06:04:32Z</time>
      </trkpt>
      <trkpt lat="39.90112338526551" lon="116.66839904599816">
        <ele>8.7</ele>
        <time>2022-12-01T06:04:37Z</time>
      </trkpt>
      <trkpt lat="39.900854441416854" lon="116.66837614462783">
        <ele>8.0</ele>
        <time>2022-12-01T06:04:48Z</time>
      </trkpt>
      <trkpt lat="39.900610532891235" lon="116.66833429425297">
        <ele>9.9</ele>
        <time>2022-12-01T06:04:54Z</time>
      </trkpt>
      <trkpt lat="39.900473424000445" lon="116.66839414037258">
        <ele>14.2</ele>
        <time>2022-12-01T06:05:00Z</time>
      </trkpt>
      <trkpt lat="39.900315431097866" lon="116.66839415985326">
        <ele>17.6</ele>
        <time>2022-12-01T06:05:06Z</time>
      </trkpt>
      <trkpt lat="39.89998327539558" lon="116.66848294748489">
        <ele>23.6</ele>
        <time>2022-12-01T06:05:18Z</time>
      </trkpt>
      <trkpt lat="39.8996851105305" lon="116.66857571955202">
        <ele>19.0</ele>
        <time>2022-12-01T06:05:33Z</time>
      </trkpt>
      <trkpt lat="39.89959303991782" lon="116.66861461990617">
        <ele>19.8</ele>
        <time>2022-12-01T06:05:39Z</time>
      </trkpt>
      <trkpt lat="39.89946804171989" lon="116.66861662962698">
        <ele>20.3</ele>
        <time>2022-12-01T06:05:45Z</time>
      </trkpt>
      <trkpt lat="39.899432960876105" lon="116.66865951157232">
        <ele>21.0</ele>
        <time>2022-12-01T06:05:49Z</time>
      </trkpt>
      <trkpt lat="39.899458392441396" lon="116.66895466607717">
        <ele>18.1</ele>
        <time>2022-12-01T06:05:58Z</time>
      </trkpt>
      <trkpt lat="39.899500070594364" lon="116.66912118575009">
        <ele>12.399999999999999</ele>
        <time>2022-12-01T06:06:04Z</time>
      </trkpt>
      <trkpt lat="39.89952458871171" lon="116.66937146862051">
        <ele>5.300000000000001</ele>
        <time>2022-12-01T06:06:13Z</time>
      </trkpt>
      <trkpt lat="39.89964611411262" lon="116.66961575672222">
        <ele>1.9000000000000004</ele>
        <time>2022-12-01T06:06:25Z</time>
      </trkpt>
      <trkpt lat="39.899688396417204" lon="116.66998868792894">
        <ele>1.7999999999999998</ele>
        <time>2022-12-01T06:06:40Z</time>
      </trkpt>
      <trkpt lat="39.89971306244005" lon="116.67016219019293">
        <ele>6.6</ele>
        <time>2022-12-01T06:06:47Z</time>
      </trkpt>
      <trkpt lat="39.89979294982081" lon="116.670219018301">
        <ele>7.9</ele>
        <time>2022-12-01T06:06:53Z</time>
      </trkpt>
      <trkpt lat="39.89997285183547" lon="116.67026586250363">
        <ele>8.5</ele>
        <time>2022-12-01T06:07:11Z</time>
      </trkpt>
      <trkpt lat="39.90003087791066" lon="116.67025089798263">
        <ele>9.2</ele>
        <time>2022-12-01T06:07:14Z</time>
      </trkpt>
      <trkpt lat="39.9001698525355" lon="116.67026085241052">
        <ele>11.3</ele>
        <time>2022-12-01T06:07:26Z</time>
      </trkpt>
      <trkpt lat="39.90022476209963" lon="116.6703067148819">
        <ele>12.3</ele>
        <time>2022-12-01T06:07:32Z</time>
      </trkpt>
      <trkpt lat="39.900310702783045" lon="116.67033562184976">
        <ele>12.100000000000001</ele>
        <time>2022-12-01T06:07:39Z</time>
      </trkpt>
      <trkpt lat="39.90044578467693" lon="116.67028973593314">
        <ele>13.2</ele>
        <time>2022-12-01T06:07:51Z</time>
      </trkpt>
      <trkpt lat="39.90057074655726" lon="116.67030667219343">
        <ele>13.899999999999999</ele>
        <time>2022-12-01T06:08:00Z</time>
      </trkpt>
      <trkpt lat="39.90088779544079" lon="116.67027372687654">
        <ele>10.9</ele>
        <time>2022-12-01T06:08:21Z</time>
      </trkpt>
      <trkpt lat="39.9009437757204" lon="116.67028269438676">
        <ele>10.7</ele>
        <time>2022-12-01T06:08:27Z</time>
      </trkpt>
      <trkpt lat="39.901032802328835" lon="116.67026672888284">
        <ele>10.9</ele>
        <time>2022-12-01T06:08:34Z</time>
      </trkpt>
      <trkpt lat="39.901122981894" lon="116.67017099065612">
        <ele>10.8</ele>
        <time>2022-12-01T06:08:46Z</time>
      </trkpt>
      <trkpt lat="39.90116328425125" lon="116.67001243773315">
        <ele>10.1</ele>
        <time>2022-12-01T06:08:55Z</time>
      </trkpt>
      <trkpt lat="39.90127371751834" lon="116.66978407529577">
        <ele>9.2</ele>
        <time>2022-12-01T06:09:07Z</time>
      </trkpt>
      <trkpt lat="39.901316349283825" lon="116.669454011503">
        <ele>12.399999999999999</ele>
        <time>2022-12-01T06:09:23Z</time>
      </trkpt>
      <trkpt lat="39.90123761134294" lon="116.66931940526747">
        <ele>15.7</ele>
        <time>2022-12-01T06:09:29Z</time>
      </trkpt>
      <trkpt lat="39.90115012480934" lon="116.66905417288895">
        <ele>20.7</ele>
        <time>2022-12-01T06:09:38Z</time>
      </trkpt>
      <trkpt lat="39.90116030062981" lon="116.66896243342508">
        <ele>22.4</ele>
        <time>2022-12-01T06:09:41Z</time>
      </trkpt>
      <trkpt lat="39.9011464679636" lon="116.66887568270747">
        <ele>23.4</ele>
        <time>2022-12-01T06:09:44Z</time>
      </trkpt>
      <trkpt lat="39.901288021298285" lon="116.66858449628238">
        <ele>21.7</ele>
        <time>2022-12-01T06:09:53Z</time>
      </trkpt>
      <trkpt lat="39.90128115004926" lon="116.6685176878282">
        <ele>22.8</ele>
        <time>2022-12-01T06:09:56Z</time>
      </trkpt>
      <trkpt lat="39.90096342502723" lon="116.6683821141112">
        <ele>25.9</ele>
        <time>2022-12-01T06:10:09Z</time>
      </trkpt>
      <trkpt lat="39.90066340205084" lon="116.6684010970231">
        <ele>25.3</ele>
        <time>2022-12-01T06:10:21Z</time>
      </trkpt>
      <trkpt lat="39.90042135539725" lon="116.66843104147682">
        <ele>23.9</ele>
        <time>2022-12-01T06:10:33Z</time>
      </trkpt>
      <trkpt lat="39.900276365746414" lon="116.66842906504709">
        <ele>24.3</ele>
        <time>2022-12-01T06:10:39Z</time>
      </trkpt>
      <trkpt lat="39.89996821472381" lon="116.66851485826173">
        <ele>22.9</ele>
        <time>2022-12-01T06:10:52Z</time>
      </trkpt>
      <trkpt lat="39.89968506835855" lon="116.6685976569423">
        <ele>19.6</ele>
        <time>2022-12-01T06:11:07Z</time>
      </trkpt>
      <trkpt lat="39.89956297609851" lon="116.66864852684688">
        <ele>18.0</ele>
        <time>2022-12-01T06:11:13Z</time>
      </trkpt>
      <trkpt lat="39.89946098453121" lon="116.66864654511527">
        <ele>17.5</ele>
        <time>2022-12-01T06:11:20Z</time>
      </trkpt>
      <trkpt lat="39.899448678415226" lon="116.66880609128381">
        <ele>17.0</ele>
        <time>2022-12-01T06:11:23Z</time>
      </trkpt>
      <trkpt lat="39.89951601815042" lon="116.66914810696132">
        <ele>11.100000000000001</ele>
        <time>2022-12-01T06:11:47Z</time>
      </trkpt>
      <trkpt lat="39.89961551758513" lon="116.66940635783898">
        <ele>5.9</ele>
        <time>2022-12-01T06:12:02Z</time>
      </trkpt>
      <trkpt lat="39.89966974170279" lon="116.6698092020682">
        <ele>4.199999999999999</ele>
        <time>2022-12-01T06:12:27Z</time>
      </trkpt>
      <trkpt lat="39.89971606995553" lon="116.67015820119316">
        <ele>4.300000000000001</ele>
        <time>2022-12-01T06:12:45Z</time>
      </trkpt>
      <trkpt lat="39.89977296984635" lon="116.67020904919269">
        <ele>3.4000000000000004</ele>
        <time>2022-12-01T06:12:51Z</time>
      </trkpt>
      <trkpt lat="39.899910915821366" lon="116.6702339611073">
        <ele>-0.5</ele>
        <time>2022-12-01T06:13:00Z</time>
      </trkpt>
      <trkpt lat="39.90013902987719" lon="116.67016911773987">
        <ele>-2.6</ele>
        <time>2022-12-01T06:13:18Z</time>
      </trkpt>
      <trkpt lat="39.9004159600506" lon="116.67019899828983">
        <ele>-6.0</ele>
        <time>2022-12-01T06:13:40Z</time>
      </trkpt>
      <trkpt lat="39.9006299160178" lon="116.67021692072326">
        <ele>-4.7</ele>
        <time>2022-12-01T06:13:52Z</time>
      </trkpt>
      <trkpt lat="39.90087301222202" lon="116.67016104992594">
        <ele>-2.7</ele>
        <time>2022-12-01T06:14:01Z</time>
      </trkpt>
      <trkpt lat="39.90103396484178" lon="116.67018197036795">
        <ele>-0.09999999999999964</ele>
        <time>2022-12-01T06:14:07Z</time>
      </trkpt>
      <trkpt lat="39.90110798639102" lon="116.67016899819198">
        <ele>2.0999999999999996</ele>
        <time>2022-12-01T06:14:10Z</time>
      </trkpt>
      <trkpt lat="39.90114310532582" lon="116.6701061729647">
        <ele>6.699999999999999</ele>
        <time>2022-12-01T06:14:16Z</time>
      </trkpt>
      <trkpt lat="39.901146321362695" lon="116.66999349384915">
        <ele>10.0</ele>
        <time>2022-12-01T06:14:23Z</time>
      </trkpt>
      <trkpt lat="39.90124313811006" lon="116.66956570194276">
        <ele>16.7</ele>
        <time>2022-12-01T06:14:35Z</time>
      </trkpt>
      <trkpt lat="39.90126127132578" lon="116.669495898822">
        <ele>18.3</ele>
        <time>2022-12-01T06:14:38Z</time>
      </trkpt>
      <trkpt lat="39.90110991587228" lon="116.66916386485691">
        <ele>27.700000000000003</ele>
        <time>2022-12-01T06:14:50Z</time>
      </trkpt>
      <trkpt lat="39.90107516265385" lon="116.66903623335304">
        <ele>32.3</ele>
        <time>2022-12-01T06:14:57Z</time>
      </trkpt>
      <trkpt lat="39.901066419807954" lon="116.66890261574414">
        <ele>36.7</ele>
        <time>2022-12-01T06:15:03Z</time>
      </trkpt>
      <trkpt lat="39.901112820201824" lon="116.66869320765953">
        <ele>40.2</ele>
        <time>2022-12-01T06:15:09Z</time>
      </trkpt>
      <trkpt lat="39.90123008331946" lon="116.66855359165979">
        <ele>37.1</ele>
        <time>2022-12-01T06:15:12Z</time>
      </trkpt>
      <trkpt lat="39.901251245329746" lon="116.66846883098528">
        <ele>36.3</ele>
        <time>2022-12-01T06:15:15Z</time>
      </trkpt>
      <trkpt lat="39.90115836644274" lon="116.66840801606703">
        <ele>36.2</ele>
        <time>2022-12-01T06:15:21Z</time>
      </trkpt>
      <trkpt lat="39.900891506865804" lon="116.66834123968343">
        <ele>34.4</ele>
        <time>2022-12-01T06:15:37Z</time>
      </trkpt>
      <trkpt lat="39.90077949654843" lon="116.66834923072273">
        <ele>30.700000000000003</ele>
        <time>2022-12-01T06:15:43Z</time>
      </trkpt>
      <trkpt lat="39.90054631527465" lon="116.6684489748346">
        <ele>23.3</ele>
        <time>2022-12-01T06:16:04Z</time>
      </trkpt>
      <trkpt lat="39.90046134018029" lon="116.66843801662212">
        <ele>22.4</ele>
        <time>2022-12-01T06:16:10Z</time>
      </trkpt>
      <trkpt lat="39.90022522041824" lon="116.66850585218803">
        <ele>17.6</ele>
        <time>2022-12-01T06:16:23Z</time>
      </trkpt>
      <trkpt lat="39.90010528140988" lon="116.66847694951889">
        <ele>16.0</ele>
        <time>2022-12-01T06:16:32Z</time>
      </trkpt>
      <trkpt lat="39.89979108850334" lon="116.66858468086907">
        <ele>14.399999999999999</ele>
        <time>2022-12-01T06:16:57Z</time>
      </trkpt>
      <trkpt lat="39.89953792355666" lon="116.66867645024733">
        <ele>15.100000000000001</ele>
        <time>2022-12-01T06:17:15Z</time>
      </trkpt>
      <trkpt lat="39.89949084900891" lon="116.66871634221297">
        <ele>15.3</ele>
        <time>2022-12-01T06:17:21Z</time>
      </trkpt>
      <trkpt lat="39.89949148292809" lon="116.66890679858605">
        <ele>15.600000000000001</ele>
        <time>2022-12-01T06:17:33Z</time>
      </trkpt>
      <trkpt lat="39.899553981956544" lon="116.66916605106535">
        <ele>11.2</ele>
        <time>2022-12-01T06:17:51Z</time>
      </trkpt>
      <trkpt lat="39.89955583245979" lon="116.66924382891716">
        <ele>10.1</ele>
        <time>2022-12-01T06:17:56Z</time>
      </trkpt>
      <trkpt lat="39.89961825685534" lon="116.66902145571242">
        <ele>10.1</ele>
        <time>2022-12-01T06:18:03Z</time>
      </trkpt>
      <trkpt lat="39.89954352083066" lon="116.66940636671906">
        <ele>9.1</ele>
        <time>2022-12-01T06:18:09Z</time>
      </trkpt>
      <trkpt lat="39.89954340210988" lon="116.66946819036535">
        <ele>8.4</ele>
        <time>2022-12-01T06:18:12Z</time>
      </trkpt>
      <trkpt lat="39.89961808283098" lon="116.66963271182794">
        <ele>5.9</ele>
        <time>2022-12-01T06:18:21Z</time>
      </trkpt>
      <trkpt lat="39.899615669501394" lon="116.66984809783308">
        <ele>6.5</ele>
        <time>2022-12-01T06:18:30Z</time>
      </trkpt>
      <trkpt lat="39.89967116570754" lon="116.67010934603505">
        <ele>7.800000000000001</ele>
        <time>2022-12-01T06:18:46Z</time>
      </trkpt>
      <trkpt lat="39.899719983708756" lon="116.67020307278598">
        <ele>9.1</ele>
        <time>2022-12-01T06:18:52Z</time>
      </trkpt>
      <trkpt lat="39.89976792799746" lon="116.67023098727647">
        <ele>10.0</ele>
        <time>2022-12-01T06:18:58Z</time>
      </trkpt>
      <trkpt lat="39.89994295262996" lon="116.67021401400757">
        <ele>8.8</ele>
        <time>2022-12-01T06:19:11Z</time>
      </trkpt>
      <trkpt lat="39.90008789447024" lon="116.67024091937385">
        <ele>8.7</ele>
        <time>2022-12-01T06:19:17Z</time>
      </trkpt>
      <trkpt lat="39.900252940599465" lon="116.67021297860485">
        <ele>8.2</ele>
        <time>2022-12-01T06:19:23Z</time>
      </trkpt>
      <trkpt lat="39.90032486851653" lon="116.6702488673955">
        <ele>8.7</ele>
        <time>2022-12-01T06:19:26Z</time>
      </trkpt>
      <trkpt lat="39.90065477529469" lon="116.67028971014732">
        <ele>7.4</ele>
        <time>2022-12-01T06:19:38Z</time>
      </trkpt>
      <trkpt lat="39.9007227588584" lon="116.67029668186198">
        <ele>9.6</ele>
        <time>2022-12-01T06:19:42Z</time>
      </trkpt>
      <trkpt lat="39.90083082668079" lon="116.67025877654389">
        <ele>10.0</ele>
        <time>2022-12-01T06:19:45Z</time>
      </trkpt>
      <trkpt lat="39.90092074998012" lon="116.67029665743294">
        <ele>11.3</ele>
        <time>2022-12-01T06:19:48Z</time>
      </trkpt>
      <trkpt lat="39.90106572436123" lon="116.67030661112065">
        <ele>13.3</ele>
        <time>2022-12-01T06:19:54Z</time>
      </trkpt>
      <trkpt lat="39.90120346230955" lon="116.66991870005874">
        <ele>9.8</ele>
        <time>2022-12-01T06:20:09Z</time>
      </trkpt>
      <trkpt lat="39.901228671687164" lon="116.66980900975595">
        <ele>9.5</ele>
        <time>2022-12-01T06:20:12Z</time>
      </trkpt>
      <trkpt lat="39.90123823214738" lon="116.66951684192799">
        <ele>9.9</ele>
        <time>2022-12-01T06:20:22Z</time>
      </trkpt>
      <trkpt lat="39.90113971340758" lon="116.66926856243862">
        <ele>13.2</ele>
        <time>2022-12-01T06:20:31Z</time>
      </trkpt>
      <trkpt lat="39.90113284205228" lon="116.66920175391024">
        <ele>14.0</ele>
        <time>2022-12-01T06:20:34Z</time>
      </trkpt>
      <trkpt lat="39.90123838144721" lon="116.66891854900508">
        <ele>11.899999999999999</ele>
        <time>2022-12-01T06:20:43Z</time>
      </trkpt>
      <trkpt lat="39.90129590209576" lon="116.66864631884843">
        <ele>10.5</ele>
        <time>2022-12-01T06:20:52Z</time>
      </trkpt>
      <trkpt lat="39.901241272617604" lon="116.66845487206396">
        <ele>9.9</ele>
        <time>2022-12-01T06:20:59Z</time>
      </trkpt>
      <trkpt lat="39.90117635413325" lon="116.6684139967706">
        <ele>10.7</ele>
        <time>2022-12-01T06:21:02Z</time>
      </trkpt>
      <trkpt lat="39.90089347801545" lon="116.66835619674342">
        <ele>12.5</ele>
        <time>2022-12-01T06:21:11Z</time>
      </trkpt>
      <trkpt lat="39.90074154043557" lon="116.66832729802509">
        <ele>10.8</ele>
        <time>2022-12-01T06:21:17Z</time>
      </trkpt>
      <trkpt lat="39.90066151718083" lon="116.66834126804135">
        <ele>10.0</ele>
        <time>2022-12-01T06:21:20Z</time>
      </trkpt>
      <trkpt lat="39.90032127169962" lon="116.66847692288651">
        <ele>3.8000000000000007</ele>
        <time>2022-12-01T06:21:32Z</time>
      </trkpt>
      <trkpt lat="39.90005808223635" lon="116.66858165648543">
        <ele>6.199999999999999</ele>
        <time>2022-12-01T06:21:39Z</time>
      </trkpt>
      <trkpt lat="39.899867975775614" lon="116.66864150916035">
        <ele>6.1</ele>
        <time>2022-12-01T06:21:48Z</time>
      </trkpt>
      <trkpt lat="39.89958793471973" lon="116.66866946400262">
        <ele>9.6</ele>
        <time>2022-12-01T06:22:00Z</time>
      </trkpt>
      <trkpt lat="39.899445956456255" lon="116.66866150427782">
        <ele>13.0</ele>
        <time>2022-12-01T06:22:06Z</time>
      </trkpt>
      <trkpt lat="39.89941584280837" lon="116.66872133723227">
        <ele>14.5</ele>
        <time>2022-12-01T06:22:09Z</time>
      </trkpt>
      <trkpt lat="39.89940968017435" lon="116.66880609609282">
        <ele>14.100000000000001</ele>
        <time>2022-12-01T06:22:13Z</time>
      </trkpt>
      <trkpt lat="39.89944153500501" lon="116.66888087873309">
        <ele>13.600000000000001</ele>
        <time>2022-12-01T06:22:22Z</time>
      </trkpt>
      <trkpt lat="39.89944153500501" lon="116.66888087873309">
        <ele>13.600000000000001</ele>
        <time>2022-12-01T06:22:25Z</time>
      </trkpt>
    </trkseg>
  </trk>
</gpx>