<?xml version="1.0" encoding="UTF-8"?>
<gpx xmlns="http://www.topografix.com/GPX/1/1" xmlns:gpxtpx="http://www.garmin.com/xmlschemas/TrackPointExtension/v1" xmlns:xsi="http://www.w3.org/2001/XMLSchema-instance" xsi:schemaLocation="http://www.topografix.com/GPX/1/1 http://www.topografix.com/GPX/1/1/gpx.xsd" version="1.1" creator="gpx.py -- https://github.com/tkrajina/gpxpy">
  <trk>
    <name>gpx from keep</name>
    <type>Run</type>
    <trkseg>
      <trkpt lat="39.917626302171655" lon="116.45566404964488">
        <ele>0.0</ele>
        <time>2022-12-09T06:24:29Z</time>
      </trkpt>
      <trkpt lat="39.91791398846605" lon="116.4559539150919">
        <ele>40.1</ele>
        <time>2022-12-09T06:24:38Z</time>
      </trkpt>
      <trkpt lat="39.91775200251178" lon="116.45595694490686">
        <ele>34.7</ele>
        <time>2022-12-09T06:24:44Z</time>
      </trkpt>
      <trkpt lat="39.9175921375487" lon="116.45601013078274">
        <ele>33.5</ele>
        <time>2022-12-09T06:24:50Z</time>
      </trkpt>
      <trkpt lat="39.917371062055985" lon="116.45597504923673">
        <ele>30.6</ele>
        <time>2022-12-09T06:25:00Z</time>
      </trkpt>
      <trkpt lat="39.917183428588615" lon="116.45612353598109">
        <ele>25.6</ele>
        <time>2022-12-09T06:25:08Z</time>
      </trkpt>
      <trkpt lat="39.917084246071205" lon="116.45604630747425">
        <ele>17.5</ele>
        <time>2022-12-09T06:25:11Z</time>
      </trkpt>
      <trkpt lat="39.916996160127" lon="116.45600920284892">
        <ele>18.9</ele>
        <time>2022-12-09T06:25:14Z</time>
      </trkpt>
      <trkpt lat="39.91688713321912" lon="116.4559961759513">
        <ele>22.0</ele>
        <time>2022-12-09T06:25:17Z</time>
      </trkpt>
      <trkpt lat="39.91676219417812" lon="116.4560192636433">
        <ele>22.799999999999997</ele>
        <time>2022-12-09T06:25:23Z</time>
      </trkpt>
      <trkpt lat="39.91645401584558" lon="116.45594005554517">
        <ele>24.9</ele>
        <time>2022-12-09T06:25:35Z</time>
      </trkpt>
      <trkpt lat="39.91634600586847" lon="116.45593405042374">
        <ele>25.4</ele>
        <time>2022-12-09T06:25:41Z</time>
      </trkpt>
      <trkpt lat="39.91618114837491" lon="116.45599024626107">
        <ele>27.200000000000003</ele>
        <time>2022-12-09T06:25:50Z</time>
      </trkpt>
      <trkpt lat="39.915843157767746" lon="116.45598828264946">
        <ele>26.6</ele>
        <time>2022-12-09T06:26:02Z</time>
      </trkpt>
      <trkpt lat="39.915524282638195" lon="116.45603446673998">
        <ele>25.4</ele>
        <time>2022-12-09T06:26:17Z</time>
      </trkpt>
      <trkpt lat="39.91533539239899" lon="116.45607662198744">
        <ele>24.200000000000003</ele>
        <time>2022-12-09T06:26:26Z</time>
      </trkpt>
      <trkpt lat="39.915286382347496" lon="116.45607161252201">
        <ele>23.799999999999997</ele>
        <time>2022-12-09T06:26:29Z</time>
      </trkpt>
      <trkpt lat="39.91516350149787" lon="116.45611877515296">
        <ele>23.299999999999997</ele>
        <time>2022-12-09T06:26:35Z</time>
      </trkpt>
      <trkpt lat="39.914885561756066" lon="116.45613887284732">
        <ele>24.799999999999997</ele>
        <time>2022-12-09T06:26:50Z</time>
      </trkpt>
      <trkpt lat="39.91456553890597" lon="116.45612386624268">
        <ele>27.4</ele>
        <time>2022-12-09T06:27:06Z</time>
      </trkpt>
      <trkpt lat="39.91426055909604" lon="116.45612691410948">
        <ele>30.0</ele>
        <time>2022-12-09T06:27:21Z</time>
      </trkpt>
      <trkpt lat="39.91413663712863" lon="116.45615702370266">
        <ele>30.4</ele>
        <time>2022-12-09T06:27:27Z</time>
      </trkpt>
      <trkpt lat="39.91409155898071" lon="116.45612392603387">
        <ele>30.4</ele>
        <time>2022-12-09T06:27:30Z</time>
      </trkpt>
      <trkpt lat="39.91387375749612" lon="116.45620219786474">
        <ele>30.0</ele>
        <time>2022-12-09T06:27:42Z</time>
      </trkpt>
      <trkpt lat="39.91374062238127" lon="116.45614403293722">
        <ele>27.800000000000004</ele>
        <time>2022-12-09T06:27:48Z</time>
      </trkpt>
      <trkpt lat="39.91343579308293" lon="116.45620927504947">
        <ele>22.9</ele>
        <time>2022-12-09T06:28:03Z</time>
      </trkpt>
      <trkpt lat="39.91312905392668" lon="116.45631163363508">
        <ele>17.200000000000003</ele>
        <time>2022-12-09T06:28:18Z</time>
      </trkpt>
      <trkpt lat="39.91290416805121" lon="116.45635479696887">
        <ele>13.299999999999999</ele>
        <time>2022-12-09T06:28:30Z</time>
      </trkpt>
      <trkpt lat="39.912801128662586" lon="116.45633675345866">
        <ele>9.9</ele>
        <time>2022-12-09T06:28:36Z</time>
      </trkpt>
      <trkpt lat="39.91266698123737" lon="116.45627357269765">
        <ele>7.1</ele>
        <time>2022-12-09T06:28:42Z</time>
      </trkpt>
      <trkpt lat="39.912510983024085" lon="116.45627158610058">
        <ele>6.9</ele>
        <time>2022-12-09T06:28:51Z</time>
      </trkpt>
      <trkpt lat="39.91248125904153" lon="116.45638494451217">
        <ele>7.9</ele>
        <time>2022-12-09T06:28:57Z</time>
      </trkpt>
      <trkpt lat="39.912456744832795" lon="116.45658457329472">
        <ele>11.700000000000001</ele>
        <time>2022-12-09T06:29:07Z</time>
      </trkpt>
      <trkpt lat="39.91248104398232" lon="116.45670795766834">
        <ele>11.1</ele>
        <time>2022-12-09T06:29:13Z</time>
      </trkpt>
      <trkpt lat="39.91242885126437" lon="116.45703800319993">
        <ele>12.1</ele>
        <time>2022-12-09T06:29:25Z</time>
      </trkpt>
      <trkpt lat="39.912443675989145" lon="116.45737506631569">
        <ele>13.299999999999999</ele>
        <time>2022-12-09T06:29:37Z</time>
      </trkpt>
      <trkpt lat="39.91238252442731" lon="116.45771916526046">
        <ele>15.499999999999998</ele>
        <time>2022-12-09T06:29:46Z</time>
      </trkpt>
      <trkpt lat="39.912337422599926" lon="116.45808232704279">
        <ele>16.6</ele>
        <time>2022-12-09T06:29:58Z</time>
      </trkpt>
      <trkpt lat="39.91230620428224" lon="116.45839733742088">
        <ele>15.499999999999998</ele>
        <time>2022-12-09T06:30:07Z</time>
      </trkpt>
      <trkpt lat="39.9122774595824" lon="116.45849966870053">
        <ele>14.700000000000001</ele>
        <time>2022-12-09T06:30:10Z</time>
      </trkpt>
      <trkpt lat="39.91231978700234" lon="116.45863208791683">
        <ele>12.700000000000001</ele>
        <time>2022-12-09T06:30:16Z</time>
      </trkpt>
      <trkpt lat="39.91232216159889" lon="116.45878257077705">
        <ele>11.700000000000001</ele>
        <time>2022-12-09T06:30:22Z</time>
      </trkpt>
      <trkpt lat="39.91229435786999" lon="116.45886082582344">
        <ele>11.299999999999999</ele>
        <time>2022-12-09T06:30:25Z</time>
      </trkpt>
      <trkpt lat="39.912299805958106" lon="116.459040403168">
        <ele>10.9</ele>
        <time>2022-12-09T06:30:31Z</time>
      </trkpt>
      <trkpt lat="39.91232195548272" lon="116.45910059437082">
        <ele>10.700000000000001</ele>
        <time>2022-12-09T06:30:34Z</time>
      </trkpt>
      <trkpt lat="39.91231998133144" lon="116.45950991695871">
        <ele>10.999999999999998</ele>
        <time>2022-12-09T06:30:50Z</time>
      </trkpt>
      <trkpt lat="39.91231293088944" lon="116.45988714134873">
        <ele>9.1</ele>
        <time>2022-12-09T06:31:02Z</time>
      </trkpt>
      <trkpt lat="39.91222453745876" lon="116.46012592932814">
        <ele>6.699999999999999</ele>
        <time>2022-12-09T06:31:11Z</time>
      </trkpt>
      <trkpt lat="39.912222737954444" lon="116.46020518782301">
        <ele>6.799999999999999</ele>
        <time>2022-12-09T06:31:14Z</time>
      </trkpt>
      <trkpt lat="39.912161274133204" lon="116.46041588308351">
        <ele>7.199999999999999</ele>
        <time>2022-12-09T06:31:20Z</time>
      </trkpt>
      <trkpt lat="39.91211254851617" lon="116.46052324007509">
        <ele>7.5</ele>
        <time>2022-12-09T06:31:23Z</time>
      </trkpt>
      <trkpt lat="39.912111372373694" lon="116.46084730157703">
        <ele>8.9</ele>
        <time>2022-12-09T06:31:35Z</time>
      </trkpt>
      <trkpt lat="39.912261407857514" lon="116.46125562479382">
        <ele>13.700000000000001</ele>
        <time>2022-12-09T06:31:54Z</time>
      </trkpt>
      <trkpt lat="39.9122996551648" lon="116.46135294061561">
        <ele>15.1</ele>
        <time>2022-12-09T06:32:00Z</time>
      </trkpt>
      <trkpt lat="39.91230789114226" lon="116.46144524396173">
        <ele>16.5</ele>
        <time>2022-12-09T06:32:06Z</time>
      </trkpt>
      <trkpt lat="39.91233715216262" lon="116.46154757805654">
        <ele>19.0</ele>
        <time>2022-12-09T06:32:12Z</time>
      </trkpt>
      <trkpt lat="39.91233964645366" lon="116.46174021444305">
        <ele>21.299999999999997</ele>
        <time>2022-12-09T06:32:21Z</time>
      </trkpt>
      <trkpt lat="39.91228290416167" lon="116.46183955033264">
        <ele>22.6</ele>
        <time>2022-12-09T06:32:27Z</time>
      </trkpt>
      <trkpt lat="39.912332498675696" lon="116.46207131234725">
        <ele>23.9</ele>
        <time>2022-12-09T06:32:33Z</time>
      </trkpt>
      <trkpt lat="39.912347251543665" lon="116.46236328063382">
        <ele>24.200000000000003</ele>
        <time>2022-12-09T06:32:36Z</time>
      </trkpt>
      <trkpt lat="39.91237017262449" lon="116.46271946475821">
        <ele>33.2</ele>
        <time>2022-12-09T06:32:51Z</time>
      </trkpt>
      <trkpt lat="39.91240194767053" lon="116.46301846012156">
        <ele>34.2</ele>
        <time>2022-12-09T06:33:01Z</time>
      </trkpt>
      <trkpt lat="39.91239712795589" lon="116.46308769250392">
        <ele>33.800000000000004</ele>
        <time>2022-12-09T06:33:04Z</time>
      </trkpt>
      <trkpt lat="39.9124603289688" lon="116.46316594673137">
        <ele>36.5</ele>
        <time>2022-12-09T06:33:10Z</time>
      </trkpt>
      <trkpt lat="39.912570272035296" lon="116.46314586565622">
        <ele>39.4</ele>
        <time>2022-12-09T06:33:16Z</time>
      </trkpt>
      <trkpt lat="39.9126303060487" lon="116.46315990517182">
        <ele>41.1</ele>
        <time>2022-12-09T06:33:19Z</time>
      </trkpt>
      <trkpt lat="39.91273860987121" lon="116.46327828850085">
        <ele>46.800000000000004</ele>
        <time>2022-12-09T06:33:25Z</time>
      </trkpt>
      <trkpt lat="39.912910662702984" lon="116.46330134427598">
        <ele>50.4</ele>
        <time>2022-12-09T06:33:34Z</time>
      </trkpt>
      <trkpt lat="39.912980515894354" lon="116.46324615037645">
        <ele>48.5</ele>
        <time>2022-12-09T06:33:37Z</time>
      </trkpt>
      <trkpt lat="39.91309952128884" lon="116.46325014886372">
        <ele>50.9</ele>
        <time>2022-12-09T06:33:43Z</time>
      </trkpt>
      <trkpt lat="39.91336979755032" lon="116.46336048518697">
        <ele>55.800000000000004</ele>
        <time>2022-12-09T06:33:58Z</time>
      </trkpt>
      <trkpt lat="39.913476858440156" lon="116.46338555593329">
        <ele>56.300000000000004</ele>
        <time>2022-12-09T06:34:05Z</time>
      </trkpt>
      <trkpt lat="39.9137047964066" lon="116.46336545988252">
        <ele>57.9</ele>
        <time>2022-12-09T06:34:17Z</time>
      </trkpt>
      <trkpt lat="39.91383865726903" lon="116.46331427129066">
        <ele>57.800000000000004</ele>
        <time>2022-12-09T06:34:23Z</time>
      </trkpt>
      <trkpt lat="39.91391564615401" lon="116.46331125150378">
        <ele>57.5</ele>
        <time>2022-12-09T06:34:26Z</time>
      </trkpt>
      <trkpt lat="39.91422992074423" lon="116.46342158249449">
        <ele>50.7</ele>
        <time>2022-12-09T06:34:38Z</time>
      </trkpt>
      <trkpt lat="39.91430294383856" lon="116.46343160700984">
        <ele>49.5</ele>
        <time>2022-12-09T06:34:41Z</time>
      </trkpt>
      <trkpt lat="39.91442211431635" lon="116.4634988179">
        <ele>50.5</ele>
        <time>2022-12-09T06:34:47Z</time>
      </trkpt>
      <trkpt lat="39.914761968930975" lon="116.46344860656038">
        <ele>37.6</ele>
        <time>2022-12-09T06:35:02Z</time>
      </trkpt>
      <trkpt lat="39.91493190936064" lon="116.46342851776708">
        <ele>31.800000000000004</ele>
        <time>2022-12-09T06:35:12Z</time>
      </trkpt>
      <trkpt lat="39.91505744611356" lon="116.46325291261682">
        <ele>22.9</ele>
        <time>2022-12-09T06:35:18Z</time>
      </trkpt>
      <trkpt lat="39.91516532391862" lon="116.46320774764138">
        <ele>20.0</ele>
        <time>2022-12-09T06:35:24Z</time>
      </trkpt>
      <trkpt lat="39.91545835336528" lon="116.46322376459551">
        <ele>24.0</ele>
        <time>2022-12-09T06:35:36Z</time>
      </trkpt>
      <trkpt lat="39.91552726682178" lon="116.46319164828165">
        <ele>24.4</ele>
        <time>2022-12-09T06:35:39Z</time>
      </trkpt>
      <trkpt lat="39.91567957396228" lon="116.46292774558546">
        <ele>22.799999999999997</ele>
        <time>2022-12-09T06:35:48Z</time>
      </trkpt>
      <trkpt lat="39.91575793792499" lon="116.46268392122651">
        <ele>22.5</ele>
        <time>2022-12-09T06:35:57Z</time>
      </trkpt>
      <trkpt lat="39.91577738108606" lon="116.46246920296441">
        <ele>23.799999999999997</ele>
        <time>2022-12-09T06:36:07Z</time>
      </trkpt>
      <trkpt lat="39.91585960265099" lon="116.4621691948177">
        <ele>28.0</ele>
        <time>2022-12-09T06:36:19Z</time>
      </trkpt>
      <trkpt lat="39.91601265319433" lon="116.46180296122675">
        <ele>25.799999999999997</ele>
        <time>2022-12-09T06:36:37Z</time>
      </trkpt>
      <trkpt lat="39.916112763298266" lon="116.46145780794751">
        <ele>27.9</ele>
        <time>2022-12-09T06:36:49Z</time>
      </trkpt>
      <trkpt lat="39.91608882128529" lon="116.46149342001374">
        <ele>0.0</ele>
        <time>2022-12-09T06:36:51Z</time>
      </trkpt>
      <trkpt lat="39.91565770557597" lon="116.46259262928315">
        <ele>24.0</ele>
        <time>2022-12-09T06:37:08Z</time>
      </trkpt>
      <trkpt lat="39.91576142329132" lon="116.46248525844369">
        <ele>23.1</ele>
        <time>2022-12-09T06:37:11Z</time>
      </trkpt>
      <trkpt lat="39.91573679682977" lon="116.46224245363294">
        <ele>21.9</ele>
        <time>2022-12-09T06:37:14Z</time>
      </trkpt>
      <trkpt lat="39.91590493917616" lon="116.4615230493661">
        <ele>18.1</ele>
        <time>2022-12-09T06:37:23Z</time>
      </trkpt>
      <trkpt lat="39.915985073065656" lon="116.46118592802476">
        <ele>15.1</ele>
        <time>2022-12-09T06:37:33Z</time>
      </trkpt>
      <trkpt lat="39.91605155554648" lon="116.46098425658884">
        <ele>13.6</ele>
        <time>2022-12-09T06:37:39Z</time>
      </trkpt>
      <trkpt lat="39.91609934129167" lon="116.4609009771423">
        <ele>12.6</ele>
        <time>2022-12-09T06:37:42Z</time>
      </trkpt>
      <trkpt lat="39.916119130947926" lon="116.46081870473111">
        <ele>11.6</ele>
        <time>2022-12-09T06:37:45Z</time>
      </trkpt>
      <trkpt lat="39.91621172639922" lon="116.46066117687205">
        <ele>10.999999999999998</ele>
        <time>2022-12-09T06:37:48Z</time>
      </trkpt>
      <trkpt lat="39.916254449366114" lon="116.46055281685837">
        <ele>9.799999999999999</ele>
        <time>2022-12-09T06:37:51Z</time>
      </trkpt>
      <trkpt lat="39.91693794972985" lon="116.45957454630333">
        <ele>22.1</ele>
        <time>2022-12-09T06:38:06Z</time>
      </trkpt>
      <trkpt lat="39.91688686364533" lon="116.45953943900524">
        <ele>22.1</ele>
        <time>2022-12-09T06:38:12Z</time>
      </trkpt>
      <trkpt lat="39.91697422819931" lon="116.45928761353993">
        <ele>20.200000000000003</ele>
        <time>2022-12-09T06:38:31Z</time>
      </trkpt>
      <trkpt lat="39.91708670623271" lon="116.45908093249103">
        <ele>15.799999999999999</ele>
        <time>2022-12-09T06:38:49Z</time>
      </trkpt>
      <trkpt lat="39.91714125292169" lon="116.45890034407181">
        <ele>22.5</ele>
        <time>2022-12-09T06:38:58Z</time>
      </trkpt>
      <trkpt lat="39.917141007745705" lon="116.45880202794129">
        <ele>25.799999999999997</ele>
        <time>2022-12-09T06:39:04Z</time>
      </trkpt>
      <trkpt lat="39.91719230401074" lon="116.45852011672704">
        <ele>28.800000000000004</ele>
        <time>2022-12-09T06:39:20Z</time>
      </trkpt>
      <trkpt lat="39.917194102101156" lon="116.45843885619746">
        <ele>29.4</ele>
        <time>2022-12-09T06:39:26Z</time>
      </trkpt>
      <trkpt lat="39.91724893049858" lon="116.45837063093195">
        <ele>27.800000000000004</ele>
        <time>2022-12-09T06:39:32Z</time>
      </trkpt>
      <trkpt lat="39.91734705947154" lon="116.45802050037462">
        <ele>19.9</ele>
        <time>2022-12-09T06:39:53Z</time>
      </trkpt>
      <trkpt lat="39.91742923941798" lon="116.45768943654882">
        <ele>13.799999999999999</ele>
        <time>2022-12-09T06:40:15Z</time>
      </trkpt>
      <trkpt lat="39.917510910202076" lon="116.45755700591856">
        <ele>14.499999999999998</ele>
        <time>2022-12-09T06:40:27Z</time>
      </trkpt>
      <trkpt lat="39.91760615284767" lon="116.4572500218327">
        <ele>12.9</ele>
        <time>2022-12-09T06:40:45Z</time>
      </trkpt>
      <trkpt lat="39.91767682326793" lon="116.45711659143664">
        <ele>9.299999999999999</ele>
        <time>2022-12-09T06:40:54Z</time>
      </trkpt>
      <trkpt lat="39.91773467120947" lon="116.45705539103632">
        <ele>6.199999999999999</ele>
        <time>2022-12-09T06:41:00Z</time>
      </trkpt>
      <trkpt lat="39.91774726646128" lon="116.45688986777219">
        <ele>5.5</ele>
        <time>2022-12-09T06:41:10Z</time>
      </trkpt>
      <trkpt lat="39.91773912000532" lon="116.45682967933764">
        <ele>5.1</ele>
        <time>2022-12-09T06:41:13Z</time>
      </trkpt>
      <trkpt lat="39.917761923480136" lon="116.4567494240432">
        <ele>4.1</ele>
        <time>2022-12-09T06:41:19Z</time>
      </trkpt>
      <trkpt lat="39.91793917943123" lon="116.45644645085031">
        <ele>10.499999999999998</ele>
        <time>2022-12-09T06:41:37Z</time>
      </trkpt>
      <trkpt lat="39.91799980956279" lon="116.45629496900294">
        <ele>11.6</ele>
        <time>2022-12-09T06:41:46Z</time>
      </trkpt>
      <trkpt lat="39.91810707238921" lon="116.45599200952357">
        <ele>12.799999999999999</ele>
        <time>2022-12-09T06:42:02Z</time>
      </trkpt>
      <trkpt lat="39.918143942535615" lon="116.45593883919938">
        <ele>12.700000000000001</ele>
        <time>2022-12-09T06:42:05Z</time>
      </trkpt>
      <trkpt lat="39.918258799827456" lon="116.4558816466442">
        <ele>15.6</ele>
        <time>2022-12-09T06:42:17Z</time>
      </trkpt>
      <trkpt lat="39.91850384279745" lon="116.45590368443698">
        <ele>15.700000000000001</ele>
        <time>2022-12-09T06:42:32Z</time>
      </trkpt>
      <trkpt lat="39.918649469335314" lon="116.45575119167837">
        <ele>0.0</ele>
        <time>2022-12-09T06:42:40Z</time>
      </trkpt>
      <trkpt lat="39.91855689138962" lon="116.45592474334872">
        <ele>16.9</ele>
        <time>2022-12-09T06:42:43Z</time>
      </trkpt>
    </trkseg>
  </trk>
</gpx>