<?xml version="1.0" encoding="UTF-8"?>
<gpx xmlns="http://www.topografix.com/GPX/1/1" xmlns:gpxtpx="http://www.garmin.com/xmlschemas/TrackPointExtension/v1" xmlns:xsi="http://www.w3.org/2001/XMLSchema-instance" xsi:schemaLocation="http://www.topografix.com/GPX/1/1 http://www.topografix.com/GPX/1/1/gpx.xsd" version="1.1" creator="gpx.py -- https://github.com/tkrajina/gpxpy">
  <trk>
    <name>gpx from keep</name>
    <type>Run</type>
    <trkseg>
      <trkpt lat="39.91987060270329" lon="116.45624156672271">
        <ele>69.1</ele>
        <time>2023-02-03T04:34:15Z</time>
      </trkpt>
      <trkpt lat="39.92016357836982" lon="116.45623651407801">
        <ele>64.19999999999999</ele>
        <time>2023-02-03T04:34:27Z</time>
      </trkpt>
      <trkpt lat="39.92031671292164" lon="116.45629467668799">
        <ele>48.4</ele>
        <time>2023-02-03T04:34:36Z</time>
      </trkpt>
      <trkpt lat="39.92036084480683" lon="116.45634984375253">
        <ele>43.7</ele>
        <time>2023-02-03T04:34:39Z</time>
      </trkpt>
      <trkpt lat="39.920545557635805" lon="116.45623445961024">
        <ele>39.5</ele>
        <time>2023-02-03T04:34:48Z</time>
      </trkpt>
      <trkpt lat="39.9207640173641" lon="116.45601474619679">
        <ele>37.4</ele>
        <time>2023-02-03T04:34:57Z</time>
      </trkpt>
      <trkpt lat="39.92088198582298" lon="116.45600369690703">
        <ele>34.800000000000004</ele>
        <time>2023-02-03T04:35:03Z</time>
      </trkpt>
      <trkpt lat="39.92108413735623" lon="116.45606987788511">
        <ele>35.4</ele>
        <time>2023-02-03T04:35:12Z</time>
      </trkpt>
      <trkpt lat="39.9213487631128" lon="116.45591937542838">
        <ele>36.2</ele>
        <time>2023-02-03T04:35:21Z</time>
      </trkpt>
      <trkpt lat="39.92145069840699" lon="116.45589428446608">
        <ele>38.2</ele>
        <time>2023-02-03T04:35:24Z</time>
      </trkpt>
      <trkpt lat="39.92159578917614" lon="116.45593439112484">
        <ele>38.800000000000004</ele>
        <time>2023-02-03T04:35:30Z</time>
      </trkpt>
      <trkpt lat="39.92174695723691" lon="116.45600659713787">
        <ele>35.300000000000004</ele>
        <time>2023-02-03T04:35:42Z</time>
      </trkpt>
      <trkpt lat="39.92179696727787" lon="116.45601160646511">
        <ele>35.2</ele>
        <time>2023-02-03T04:35:51Z</time>
      </trkpt>
      <trkpt lat="39.92188687153029" lon="116.45597347629197">
        <ele>31.6</ele>
        <time>2023-02-03T04:36:36Z</time>
      </trkpt>
      <trkpt lat="39.922175699846676" lon="116.45590723358073">
        <ele>37.9</ele>
        <time>2023-02-03T04:37:09Z</time>
      </trkpt>
      <trkpt lat="39.92230656142016" lon="116.45585204530069">
        <ele>41.800000000000004</ele>
        <time>2023-02-03T04:37:18Z</time>
      </trkpt>
      <trkpt lat="39.922466666047896" lon="116.45589816874596">
        <ele>43.0</ele>
        <time>2023-02-03T04:37:27Z</time>
      </trkpt>
      <trkpt lat="39.922591830280105" lon="116.45596837169643">
        <ele>45.7</ele>
        <time>2023-02-03T04:37:33Z</time>
      </trkpt>
      <trkpt lat="39.9228837480297" lon="116.4559392442109">
        <ele>51.1</ele>
        <time>2023-02-03T04:37:42Z</time>
      </trkpt>
      <trkpt lat="39.923051726578166" lon="116.45593320426102">
        <ele>52.1</ele>
        <time>2023-02-03T04:37:48Z</time>
      </trkpt>
      <trkpt lat="39.92320664034385" lon="116.45590008160566">
        <ele>49.6</ele>
        <time>2023-02-03T04:37:54Z</time>
      </trkpt>
      <trkpt lat="39.92354880533298" lon="116.45597426968214">
        <ele>43.9</ele>
        <time>2023-02-03T04:38:12Z</time>
      </trkpt>
      <trkpt lat="39.923871750877986" lon="116.45595717577956">
        <ele>37.5</ele>
        <time>2023-02-03T04:38:24Z</time>
      </trkpt>
      <trkpt lat="39.923928780002804" lon="116.45597020922149">
        <ele>35.9</ele>
        <time>2023-02-03T04:38:27Z</time>
      </trkpt>
      <trkpt lat="39.92412671860145" lon="116.4559481154691">
        <ele>32.6</ele>
        <time>2023-02-03T04:38:33Z</time>
      </trkpt>
      <trkpt lat="39.9242817340119" lon="116.45595712403625">
        <ele>27.4</ele>
        <time>2023-02-03T04:38:39Z</time>
      </trkpt>
      <trkpt lat="39.924350682768385" lon="116.45593705282357">
        <ele>25.0</ele>
        <time>2023-02-03T04:38:42Z</time>
      </trkpt>
      <trkpt lat="39.92447675988825" lon="116.45597114318815">
        <ele>21.1</ele>
        <time>2023-02-03T04:38:51Z</time>
      </trkpt>
      <trkpt lat="39.92451892043727" lon="116.45603834741725">
        <ele>18.0</ele>
        <time>2023-02-03T04:38:57Z</time>
      </trkpt>
      <trkpt lat="39.924484106106156" lon="116.45611458970536">
        <ele>17.1</ele>
        <time>2023-02-03T04:39:03Z</time>
      </trkpt>
      <trkpt lat="39.92438914639162" lon="116.4561296486669">
        <ele>16.5</ele>
        <time>2023-02-03T04:39:09Z</time>
      </trkpt>
      <trkpt lat="39.924334274824076" lon="116.45618181850895">
        <ele>16.4</ele>
        <time>2023-02-03T04:39:12Z</time>
      </trkpt>
      <trkpt lat="39.924251683970006" lon="116.45634935280175">
        <ele>18.1</ele>
        <time>2023-02-03T04:39:18Z</time>
      </trkpt>
      <trkpt lat="39.92414098057634" lon="116.45646974382045">
        <ele>19.0</ele>
        <time>2023-02-03T04:39:24Z</time>
      </trkpt>
      <trkpt lat="39.924004112892185" lon="116.45652192463824">
        <ele>21.200000000000003</ele>
        <time>2023-02-03T04:39:30Z</time>
      </trkpt>
      <trkpt lat="39.92369111602866" lon="116.45651795154892">
        <ele>25.9</ele>
        <time>2023-02-03T04:39:42Z</time>
      </trkpt>
      <trkpt lat="39.92358914216176" lon="116.45652699273066">
        <ele>26.200000000000003</ele>
        <time>2023-02-03T04:39:48Z</time>
      </trkpt>
      <trkpt lat="39.923516089124554" lon="116.4565039295949">
        <ele>25.9</ele>
        <time>2023-02-03T04:39:51Z</time>
      </trkpt>
      <trkpt lat="39.92332409216398" lon="116.45650194753046">
        <ele>22.5</ele>
        <time>2023-02-03T04:40:00Z</time>
      </trkpt>
      <trkpt lat="39.92306047370285" lon="116.45665445929156">
        <ele>25.1</ele>
        <time>2023-02-03T04:40:12Z</time>
      </trkpt>
      <trkpt lat="39.922930625558756" lon="116.45671466478106">
        <ele>32.2</ele>
        <time>2023-02-03T04:40:18Z</time>
      </trkpt>
      <trkpt lat="39.92286876249262" lon="116.4567698460457">
        <ele>33.2</ele>
        <time>2023-02-03T04:40:24Z</time>
      </trkpt>
      <trkpt lat="39.92276154802709" lon="116.4570898677437">
        <ele>28.700000000000003</ele>
        <time>2023-02-03T04:40:36Z</time>
      </trkpt>
      <trkpt lat="39.92275378889208" lon="116.45718817916212">
        <ele>27.200000000000003</ele>
        <time>2023-02-03T04:40:39Z</time>
      </trkpt>
      <trkpt lat="39.92264151432531" lon="116.45748212347964">
        <ele>24.6</ele>
        <time>2023-02-03T04:40:48Z</time>
      </trkpt>
      <trkpt lat="39.922541868638135" lon="116.45762458791556">
        <ele>21.700000000000003</ele>
        <time>2023-02-03T04:40:54Z</time>
      </trkpt>
      <trkpt lat="39.922514047568" lon="116.4576968208077">
        <ele>19.6</ele>
        <time>2023-02-03T04:40:57Z</time>
      </trkpt>
      <trkpt lat="39.92250921333253" lon="116.45776403503244">
        <ele>17.5</ele>
        <time>2023-02-03T04:41:00Z</time>
      </trkpt>
      <trkpt lat="39.92257149275483" lon="116.45787839099904">
        <ele>15.4</ele>
        <time>2023-02-03T04:41:06Z</time>
      </trkpt>
      <trkpt lat="39.922637663355935" lon="116.45794860627531">
        <ele>16.4</ele>
        <time>2023-02-03T04:41:09Z</time>
      </trkpt>
      <trkpt lat="39.92291400150511" lon="116.45809002237635">
        <ele>21.299999999999997</ele>
        <time>2023-02-03T04:41:18Z</time>
      </trkpt>
      <trkpt lat="39.9230171511294" lon="116.45815220787509">
        <ele>21.9</ele>
        <time>2023-02-03T04:41:24Z</time>
      </trkpt>
      <trkpt lat="39.92308499158572" lon="116.45849228702609">
        <ele>24.200000000000003</ele>
        <time>2023-02-03T04:41:39Z</time>
      </trkpt>
      <trkpt lat="39.92303259514819" lon="116.4587340692729">
        <ele>24.9</ele>
        <time>2023-02-03T04:41:48Z</time>
      </trkpt>
      <trkpt lat="39.9231021151099" lon="116.45894373474648">
        <ele>24.4</ele>
        <time>2023-02-03T04:41:57Z</time>
      </trkpt>
      <trkpt lat="39.923114118545335" lon="116.45934502772353">
        <ele>20.1</ele>
        <time>2023-02-03T04:42:12Z</time>
      </trkpt>
      <trkpt lat="39.92311131241243" lon="116.45942227787835">
        <ele>20.0</ele>
        <time>2023-02-03T04:42:15Z</time>
      </trkpt>
      <trkpt lat="39.92313046270781" lon="116.45948247025105">
        <ele>19.9</ele>
        <time>2023-02-03T04:42:18Z</time>
      </trkpt>
      <trkpt lat="39.923267817518266" lon="116.45962591766042">
        <ele>21.9</ele>
        <time>2023-02-03T04:42:24Z</time>
      </trkpt>
      <trkpt lat="39.92331209082699" lon="116.4597352667623">
        <ele>25.799999999999997</ele>
        <time>2023-02-03T04:42:27Z</time>
      </trkpt>
      <trkpt lat="39.923372313229606" lon="116.45982454906498">
        <ele>28.200000000000003</ele>
        <time>2023-02-03T04:42:33Z</time>
      </trkpt>
      <trkpt lat="39.92357492249633" lon="116.46006931962519">
        <ele>26.4</ele>
        <time>2023-02-03T04:42:48Z</time>
      </trkpt>
      <trkpt lat="39.92381144302778" lon="116.46027897326535">
        <ele>24.200000000000003</ele>
        <time>2023-02-03T04:43:03Z</time>
      </trkpt>
      <trkpt lat="39.92398767464328" lon="116.46037325890825">
        <ele>24.799999999999997</ele>
        <time>2023-02-03T04:43:12Z</time>
      </trkpt>
      <trkpt lat="39.924282451587345" lon="116.46028994992274">
        <ele>26.4</ele>
        <time>2023-02-03T04:43:27Z</time>
      </trkpt>
      <trkpt lat="39.924446416905084" lon="116.46027889325036">
        <ele>27.800000000000004</ele>
        <time>2023-02-03T04:43:36Z</time>
      </trkpt>
      <trkpt lat="39.92475952852795" lon="116.46032801423456">
        <ele>28.300000000000004</ele>
        <time>2023-02-03T04:43:54Z</time>
      </trkpt>
      <trkpt lat="39.924892561186134" lon="116.46034304660077">
        <ele>29.200000000000003</ele>
        <time>2023-02-03T04:44:00Z</time>
      </trkpt>
      <trkpt lat="39.924996493387205" lon="116.46031795162394">
        <ele>29.700000000000003</ele>
        <time>2023-02-03T04:44:06Z</time>
      </trkpt>
      <trkpt lat="39.92513717019892" lon="116.46019252479996">
        <ele>27.1</ele>
        <time>2023-02-03T04:44:15Z</time>
      </trkpt>
      <trkpt lat="39.92521463975358" lon="116.45998383542559">
        <ele>23.299999999999997</ele>
        <time>2023-02-03T04:44:24Z</time>
      </trkpt>
      <trkpt lat="39.92525449129612" lon="116.45992564114746">
        <ele>22.1</ele>
        <time>2023-02-03T04:44:27Z</time>
      </trkpt>
      <trkpt lat="39.925381372239485" lon="116.45988047839525">
        <ele>21.1</ele>
        <time>2023-02-03T04:44:36Z</time>
      </trkpt>
      <trkpt lat="39.92555430950754" lon="116.45985838487275">
        <ele>22.200000000000003</ele>
        <time>2023-02-03T04:44:45Z</time>
      </trkpt>
      <trkpt lat="39.92560620371872" lon="116.4598172447036">
        <ele>23.0</ele>
        <time>2023-02-03T04:44:48Z</time>
      </trkpt>
      <trkpt lat="39.92564305816729" lon="116.45976005437387">
        <ele>23.700000000000003</ele>
        <time>2023-02-03T04:44:51Z</time>
      </trkpt>
      <trkpt lat="39.92569274307738" lon="116.45963564453479">
        <ele>24.700000000000003</ele>
        <time>2023-02-03T04:44:57Z</time>
      </trkpt>
      <trkpt lat="39.92580127737342" lon="116.4594520361786">
        <ele>25.299999999999997</ele>
        <time>2023-02-03T04:45:06Z</time>
      </trkpt>
      <trkpt lat="39.925913935576766" lon="116.45931758723411">
        <ele>25.6</ele>
        <time>2023-02-03T04:45:12Z</time>
      </trkpt>
      <trkpt lat="39.925961524124226" lon="116.45915405321043">
        <ele>24.0</ele>
        <time>2023-02-03T04:45:18Z</time>
      </trkpt>
      <trkpt lat="39.926009263772954" lon="116.45905071398896">
        <ele>23.0</ele>
        <time>2023-02-03T04:45:21Z</time>
      </trkpt>
      <trkpt lat="39.92599722107771" lon="116.45863237016081">
        <ele>17.200000000000003</ele>
        <time>2023-02-03T04:45:36Z</time>
      </trkpt>
      <trkpt lat="39.92603376327769" lon="116.45844877700245">
        <ele>16.1</ele>
        <time>2023-02-03T04:45:42Z</time>
      </trkpt>
      <trkpt lat="39.926092427335035" lon="116.4583143393653">
        <ele>15.1</ele>
        <time>2023-02-03T04:45:48Z</time>
      </trkpt>
      <trkpt lat="39.926083511778494" lon="116.45794415889807">
        <ele>16.1</ele>
        <time>2023-02-03T04:46:03Z</time>
      </trkpt>
      <trkpt lat="39.92607924706692" lon="116.45783681768111">
        <ele>17.0</ele>
        <time>2023-02-03T04:46:09Z</time>
      </trkpt>
      <trkpt lat="39.92611582044053" lon="116.45766426453315">
        <ele>19.1</ele>
        <time>2023-02-03T04:46:15Z</time>
      </trkpt>
      <trkpt lat="39.92609024444309" lon="116.45742952314443">
        <ele>23.4</ele>
        <time>2023-02-03T04:46:24Z</time>
      </trkpt>
      <trkpt lat="39.92592370031968" lon="116.45720483315023">
        <ele>30.700000000000003</ele>
        <time>2023-02-03T04:46:39Z</time>
      </trkpt>
      <trkpt lat="39.925841203181676" lon="116.45700019756696">
        <ele>31.4</ele>
        <time>2023-02-03T04:46:42Z</time>
      </trkpt>
      <trkpt lat="39.925791781674405" lon="116.45682665712509">
        <ele>30.5</ele>
        <time>2023-02-03T04:46:45Z</time>
      </trkpt>
      <trkpt lat="39.92575661198625" lon="116.4567564406644">
        <ele>30.6</ele>
        <time>2023-02-03T04:46:48Z</time>
      </trkpt>
      <trkpt lat="39.92570246275021" lon="116.45669425198932">
        <ele>30.4</ele>
        <time>2023-02-03T04:46:51Z</time>
      </trkpt>
      <trkpt lat="39.9253921606977" lon="116.45656488480121">
        <ele>26.6</ele>
        <time>2023-02-03T04:47:06Z</time>
      </trkpt>
      <trkpt lat="39.92513389108361" lon="116.45644955564823">
        <ele>24.0</ele>
        <time>2023-02-03T04:47:18Z</time>
      </trkpt>
      <trkpt lat="39.92496565950233" lon="116.45635126898237">
        <ele>22.200000000000003</ele>
        <time>2023-02-03T04:47:27Z</time>
      </trkpt>
      <trkpt lat="39.92487345909179" lon="116.45626701698102">
        <ele>20.0</ele>
        <time>2023-02-03T04:47:33Z</time>
      </trkpt>
      <trkpt lat="39.9247434158436" lon="116.45624697065902">
        <ele>18.200000000000003</ele>
        <time>2023-02-03T04:47:39Z</time>
      </trkpt>
      <trkpt lat="39.92462048648928" lon="116.45627407086573">
        <ele>17.1</ele>
        <time>2023-02-03T04:47:45Z</time>
      </trkpt>
      <trkpt lat="39.92449933358547" lon="116.45620888230854">
        <ele>18.200000000000003</ele>
        <time>2023-02-03T04:47:51Z</time>
      </trkpt>
      <trkpt lat="39.92440432777829" lon="116.45620488175881">
        <ele>21.200000000000003</ele>
        <time>2023-02-03T04:47:54Z</time>
      </trkpt>
      <trkpt lat="39.92432644512284" lon="116.45625203896181">
        <ele>23.6</ele>
        <time>2023-02-03T04:47:57Z</time>
      </trkpt>
      <trkpt lat="39.92420390006707" lon="116.45643763528416">
        <ele>26.200000000000003</ele>
        <time>2023-02-03T04:48:06Z</time>
      </trkpt>
      <trkpt lat="39.92400913705689" lon="116.45653195546669">
        <ele>26.0</ele>
        <time>2023-02-03T04:48:15Z</time>
      </trkpt>
      <trkpt lat="39.92392915740984" lon="116.45653898758448">
        <ele>25.700000000000003</ele>
        <time>2023-02-03T04:48:18Z</time>
      </trkpt>
      <trkpt lat="39.92381611088208" lon="116.45651793577686">
        <ele>25.9</ele>
        <time>2023-02-03T04:48:21Z</time>
      </trkpt>
      <trkpt lat="39.92362514311602" lon="116.45652799133428">
        <ele>24.9</ele>
        <time>2023-02-03T04:48:27Z</time>
      </trkpt>
      <trkpt lat="39.92348110274884" lon="116.45650894973696">
        <ele>24.299999999999997</ele>
        <time>2023-02-03T04:48:33Z</time>
      </trkpt>
      <trkpt lat="39.92316131095325" lon="116.45658924184706">
        <ele>26.200000000000003</ele>
        <time>2023-02-03T04:48:48Z</time>
      </trkpt>
      <trkpt lat="39.92298645723101" lon="116.45664644342578">
        <ele>31.300000000000004</ele>
        <time>2023-02-03T04:48:57Z</time>
      </trkpt>
      <trkpt lat="39.92291660904035" lon="116.45670764448052">
        <ele>32.5</ele>
        <time>2023-02-03T04:49:00Z</time>
      </trkpt>
      <trkpt lat="39.922782277496516" lon="116.45697951707798">
        <ele>30.800000000000004</ele>
        <time>2023-02-03T04:49:06Z</time>
      </trkpt>
      <trkpt lat="39.92269678878966" lon="116.45718718318301">
        <ele>25.4</ele>
        <time>2023-02-03T04:49:15Z</time>
      </trkpt>
      <trkpt lat="39.92262646566877" lon="116.45746206179071">
        <ele>19.9</ele>
        <time>2023-02-03T04:49:28Z</time>
      </trkpt>
    </trkseg>
  </trk>
</gpx>