<?xml version="1.0" encoding="UTF-8"?>
<gpx xmlns="http://www.topografix.com/GPX/1/1" xmlns:gpxtpx="http://www.garmin.com/xmlschemas/TrackPointExtension/v1" xmlns:xsi="http://www.w3.org/2001/XMLSchema-instance" xsi:schemaLocation="http://www.topografix.com/GPX/1/1 http://www.topografix.com/GPX/1/1/gpx.xsd" version="1.1" creator="gpx.py -- https://github.com/tkrajina/gpxpy">
  <trk>
    <name>gpx from keep</name>
    <type>Run</type>
    <trkseg>
      <trkpt lat="39.92253976911446" lon="116.4882264351956">
        <ele>33.0</ele>
        <time>2023-06-12T13:21:05Z</time>
      </trkpt>
      <trkpt lat="39.922584898447965" lon="116.48827059679634">
        <ele>33.2</ele>
        <time>2023-06-12T13:21:08Z</time>
      </trkpt>
      <trkpt lat="39.922668971748436" lon="116.4886329586314">
        <ele>33.900000000000006</ele>
        <time>2023-06-12T13:21:26Z</time>
      </trkpt>
      <trkpt lat="39.922739317949336" lon="116.4887503947515">
        <ele>33.800000000000004</ele>
        <time>2023-06-12T13:21:32Z</time>
      </trkpt>
      <trkpt lat="39.92278943524493" lon="116.48879054061851">
        <ele>33.300000000000004</ele>
        <time>2023-06-12T13:21:35Z</time>
      </trkpt>
      <trkpt lat="39.923109532440286" lon="116.48882764145786">
        <ele>32.800000000000004</ele>
        <time>2023-06-12T13:21:53Z</time>
      </trkpt>
      <trkpt lat="39.923209534279685" lon="116.48882963660876">
        <ele>31.8</ele>
        <time>2023-06-12T13:21:59Z</time>
      </trkpt>
      <trkpt lat="39.923340421439576" lon="116.48879348340185">
        <ele>29.499999999999996</ele>
        <time>2023-06-12T13:22:05Z</time>
      </trkpt>
      <trkpt lat="39.92350552206368" lon="116.48882959974371">
        <ele>30.3</ele>
        <time>2023-06-12T13:22:11Z</time>
      </trkpt>
      <trkpt lat="39.92354760389355" lon="116.48885770098794">
        <ele>29.8</ele>
        <time>2023-06-12T13:22:14Z</time>
      </trkpt>
      <trkpt lat="39.923820652326036" lon="116.48887774304313">
        <ele>31.599999999999998</ele>
        <time>2023-06-12T13:22:26Z</time>
      </trkpt>
      <trkpt lat="39.92408052521968" lon="116.48883856235358">
        <ele>28.599999999999998</ele>
        <time>2023-06-12T13:22:38Z</time>
      </trkpt>
      <trkpt lat="39.92440471184036" lon="116.48890577679008">
        <ele>26.3</ele>
        <time>2023-06-12T13:22:50Z</time>
      </trkpt>
      <trkpt lat="39.92446568545305" lon="116.48889773876914">
        <ele>26.099999999999998</ele>
        <time>2023-06-12T13:22:53Z</time>
      </trkpt>
      <trkpt lat="39.92454060178441" lon="116.48887062675006">
        <ele>25.4</ele>
        <time>2023-06-12T13:23:08Z</time>
      </trkpt>
      <trkpt lat="39.92474460234709" lon="116.48887361275064">
        <ele>24.099999999999998</ele>
        <time>2023-06-12T13:23:14Z</time>
      </trkpt>
      <trkpt lat="39.925052485232115" lon="116.48883844129078">
        <ele>22.2</ele>
        <time>2023-06-12T13:23:26Z</time>
      </trkpt>
      <trkpt lat="39.92517559358741" lon="116.48887657047808">
        <ele>22.099999999999998</ele>
        <time>2023-06-12T13:23:29Z</time>
      </trkpt>
      <trkpt lat="39.92547452759001" lon="116.48885846478511">
        <ele>25.4</ele>
        <time>2023-06-12T13:23:41Z</time>
      </trkpt>
      <trkpt lat="39.92580935866113" lon="116.48880622531553">
        <ele>28.499999999999996</ele>
        <time>2023-06-12T13:23:53Z</time>
      </trkpt>
      <trkpt lat="39.92608915321773" lon="116.48874094327321">
        <ele>31.599999999999998</ele>
        <time>2023-06-12T13:24:08Z</time>
      </trkpt>
      <trkpt lat="39.926223989544035" lon="116.488687724934">
        <ele>30.400000000000002</ele>
        <time>2023-06-12T13:24:14Z</time>
      </trkpt>
      <trkpt lat="39.92636040816177" lon="116.48849397411566">
        <ele>29.599999999999998</ele>
        <time>2023-06-12T13:24:23Z</time>
      </trkpt>
      <trkpt lat="39.926362686328886" lon="116.48825105392403">
        <ele>31.599999999999998</ele>
        <time>2023-06-12T13:24:32Z</time>
      </trkpt>
      <trkpt lat="39.92638941092659" lon="116.48815870094545">
        <ele>25.4</ele>
        <time>2023-06-12T13:24:38Z</time>
      </trkpt>
      <trkpt lat="39.92653016368719" lon="116.48807737559596">
        <ele>27.400000000000002</ele>
        <time>2023-06-12T13:24:50Z</time>
      </trkpt>
      <trkpt lat="39.92688027158528" lon="116.48811848777243">
        <ele>27.999999999999996</ele>
        <time>2023-06-12T13:25:05Z</time>
      </trkpt>
      <trkpt lat="39.927049216977814" lon="116.48810240591847">
        <ele>29.099999999999998</ele>
        <time>2023-06-12T13:25:11Z</time>
      </trkpt>
      <trkpt lat="39.927130002028484" lon="116.4880311260566">
        <ele>29.7</ele>
        <time>2023-06-12T13:25:17Z</time>
      </trkpt>
      <trkpt lat="39.92717696434002" lon="116.48801907460759">
        <ele>28.2</ele>
        <time>2023-06-12T13:25:20Z</time>
      </trkpt>
      <trkpt lat="39.92733752264904" lon="116.48787249989164">
        <ele>23.599999999999998</ele>
        <time>2023-06-12T13:25:32Z</time>
      </trkpt>
      <trkpt lat="39.92751511016573" lon="116.48773596113851">
        <ele>22.9</ele>
        <time>2023-06-12T13:25:41Z</time>
      </trkpt>
      <trkpt lat="39.92762572434442" lon="116.48760746120502">
        <ele>22.2</ele>
        <time>2023-06-12T13:25:47Z</time>
      </trkpt>
      <trkpt lat="39.92766548147178" lon="116.48752614865316">
        <ele>21.9</ele>
        <time>2023-06-12T13:25:50Z</time>
      </trkpt>
      <trkpt lat="39.927694140825196" lon="116.4874117122259">
        <ele>21.599999999999998</ele>
        <time>2023-06-12T13:25:53Z</time>
      </trkpt>
      <trkpt lat="39.92767790925694" lon="116.48699614290445">
        <ele>18.8</ele>
        <time>2023-06-12T13:26:02Z</time>
      </trkpt>
      <trkpt lat="39.92763232213781" lon="116.48679739742529">
        <ele>19.8</ele>
        <time>2023-06-12T13:26:08Z</time>
      </trkpt>
      <trkpt lat="39.92763205748067" lon="116.48670805989141">
        <ele>19.3</ele>
        <time>2023-06-12T13:26:11Z</time>
      </trkpt>
      <trkpt lat="39.9277194712172" lon="116.48651130575843">
        <ele>20.2</ele>
        <time>2023-06-12T13:26:20Z</time>
      </trkpt>
      <trkpt lat="39.92773492972535" lon="116.48632861390396">
        <ele>21.8</ele>
        <time>2023-06-12T13:26:26Z</time>
      </trkpt>
      <trkpt lat="39.92774036509285" lon="116.48613789320478">
        <ele>25.599999999999998</ele>
        <time>2023-06-12T13:26:32Z</time>
      </trkpt>
      <trkpt lat="39.927907378546294" lon="116.48580662239351">
        <ele>23.099999999999998</ele>
        <time>2023-06-12T13:26:50Z</time>
      </trkpt>
      <trkpt lat="39.92792498614046" lon="116.48567412041933">
        <ele>22.0</ele>
        <time>2023-06-12T13:26:56Z</time>
      </trkpt>
      <trkpt lat="39.92787493834524" lon="116.4853187869815">
        <ele>14.599999999999998</ele>
        <time>2023-06-12T13:27:08Z</time>
      </trkpt>
      <trkpt lat="39.927858780485025" lon="116.48492631040814">
        <ele>9.899999999999999</ele>
        <time>2023-06-12T13:27:23Z</time>
      </trkpt>
      <trkpt lat="39.92787553698187" lon="116.48484399838345">
        <ele>10.0</ele>
        <time>2023-06-12T13:27:26Z</time>
      </trkpt>
      <trkpt lat="39.92796245053366" lon="116.48481588171899">
        <ele>8.0</ele>
        <time>2023-06-12T13:27:32Z</time>
      </trkpt>
      <trkpt lat="39.9281145272333" lon="116.4848439685601">
        <ele>5.3</ele>
        <time>2023-06-12T13:27:44Z</time>
      </trkpt>
      <trkpt lat="39.92820033129193" lon="116.4847787122112">
        <ele>2.8999999999999995</ele>
        <time>2023-06-12T13:27:50Z</time>
      </trkpt>
      <trkpt lat="39.92825176093797" lon="116.4845859804093">
        <ele>1.5</ele>
        <time>2023-06-12T13:27:56Z</time>
      </trkpt>
      <trkpt lat="39.928263473480825" lon="116.48448861259509">
        <ele>0.9000000000000004</ele>
        <time>2023-06-12T13:27:59Z</time>
      </trkpt>
      <trkpt lat="39.92837015856759" lon="116.48438320280246">
        <ele>-0.20000000000000018</ele>
        <time>2023-06-12T13:28:05Z</time>
      </trkpt>
      <trkpt lat="39.928449037065796" lon="116.48434304194299">
        <ele>-0.5</ele>
        <time>2023-06-12T13:28:08Z</time>
      </trkpt>
      <trkpt lat="39.92844552080181" lon="116.48348782918724">
        <ele>11.899999999999999</ele>
        <time>2023-06-12T13:28:23Z</time>
      </trkpt>
      <trkpt lat="39.928539762065526" lon="116.48323085328093">
        <ele>28.900000000000002</ele>
        <time>2023-06-12T13:28:32Z</time>
      </trkpt>
      <trkpt lat="39.928606797655576" lon="116.48324389385442">
        <ele>24.7</ele>
        <time>2023-06-12T13:28:35Z</time>
      </trkpt>
      <trkpt lat="39.928710592998364" lon="116.48317562489171">
        <ele>26.3</ele>
        <time>2023-06-12T13:28:44Z</time>
      </trkpt>
      <trkpt lat="39.92899244006963" lon="116.48312740901412">
        <ele>29.499999999999996</ele>
        <time>2023-06-12T13:28:56Z</time>
      </trkpt>
      <trkpt lat="39.92920225179711" lon="116.48306615323007">
        <ele>29.3</ele>
        <time>2023-06-12T13:29:08Z</time>
      </trkpt>
      <trkpt lat="39.92934931358152" lon="116.48308922142262">
        <ele>29.599999999999998</ele>
        <time>2023-06-12T13:29:20Z</time>
      </trkpt>
      <trkpt lat="39.92942717488964" lon="116.48304303858508">
        <ele>28.499999999999996</ele>
        <time>2023-06-12T13:29:26Z</time>
      </trkpt>
      <trkpt lat="39.929459049869294" lon="116.48300087656257">
        <ele>28.3</ele>
        <time>2023-06-12T13:29:29Z</time>
      </trkpt>
      <trkpt lat="39.92946722806184" lon="116.4827208261496">
        <ele>25.0</ele>
        <time>2023-06-12T13:29:41Z</time>
      </trkpt>
      <trkpt lat="39.929445037684175" lon="116.48265558455498">
        <ele>24.8</ele>
        <time>2023-06-12T13:29:44Z</time>
      </trkpt>
      <trkpt lat="39.92934471226628" lon="116.4825431761293">
        <ele>24.2</ele>
        <time>2023-06-12T13:29:50Z</time>
      </trkpt>
      <trkpt lat="39.92919534485826" lon="116.48241571761388">
        <ele>20.599999999999998</ele>
        <time>2023-06-12T13:29:59Z</time>
      </trkpt>
      <trkpt lat="39.92914512641257" lon="116.48234044217286">
        <ele>21.4</ele>
        <time>2023-06-12T13:30:02Z</time>
      </trkpt>
      <trkpt lat="39.92911187794356" lon="116.48225512712362">
        <ele>21.8</ele>
        <time>2023-06-12T13:30:05Z</time>
      </trkpt>
      <trkpt lat="39.92910418500217" lon="116.48201824224167">
        <ele>23.3</ele>
        <time>2023-06-12T13:30:14Z</time>
      </trkpt>
      <trkpt lat="39.92906998967936" lon="116.48195099513744">
        <ele>24.0</ele>
        <time>2023-06-12T13:30:17Z</time>
      </trkpt>
      <trkpt lat="39.92894171898723" lon="116.4818566585724">
        <ele>24.8</ele>
        <time>2023-06-12T13:30:23Z</time>
      </trkpt>
      <trkpt lat="39.9287646851079" lon="116.48184262818828">
        <ele>26.3</ele>
        <time>2023-06-12T13:30:32Z</time>
      </trkpt>
      <trkpt lat="39.9285400376758" lon="116.48196009511778">
        <ele>25.9</ele>
        <time>2023-06-12T13:30:44Z</time>
      </trkpt>
      <trkpt lat="39.928265078238184" lon="116.481970166989">
        <ele>30.099999999999998</ele>
        <time>2023-06-12T13:30:56Z</time>
      </trkpt>
      <trkpt lat="39.9282140979318" lon="116.481976195869">
        <ele>31.7</ele>
        <time>2023-06-12T13:30:59Z</time>
      </trkpt>
      <trkpt lat="39.928052448096246" lon="116.48209365509621">
        <ele>34.7</ele>
        <time>2023-06-12T13:31:11Z</time>
      </trkpt>
      <trkpt lat="39.92788032492506" lon="116.4823907879787">
        <ele>33.2</ele>
        <time>2023-06-12T13:31:26Z</time>
      </trkpt>
      <trkpt lat="39.92785249365426" lon="116.4824480055796">
        <ele>32.2</ele>
        <time>2023-06-12T13:31:29Z</time>
      </trkpt>
      <trkpt lat="39.92781011898448" lon="116.48266080756733">
        <ele>28.8</ele>
        <time>2023-06-12T13:31:38Z</time>
      </trkpt>
      <trkpt lat="39.92775226848247" lon="116.48271100276149">
        <ele>28.499999999999996</ele>
        <time>2023-06-12T13:31:41Z</time>
      </trkpt>
      <trkpt lat="39.92747531216206" lon="116.48272207871">
        <ele>29.7</ele>
        <time>2023-06-12T13:31:53Z</time>
      </trkpt>
      <trkpt lat="39.92727848797226" lon="116.48277931761388">
        <ele>29.900000000000002</ele>
        <time>2023-06-12T13:32:02Z</time>
      </trkpt>
      <trkpt lat="39.927246630577784" lon="116.48282750209927">
        <ele>29.499999999999996</ele>
        <time>2023-06-12T13:32:05Z</time>
      </trkpt>
      <trkpt lat="39.927211952951055" lon="116.48293691641818">
        <ele>28.3</ele>
        <time>2023-06-12T13:32:11Z</time>
      </trkpt>
      <trkpt lat="39.92722380691203" lon="116.483228006316">
        <ele>26.400000000000002</ele>
        <time>2023-06-12T13:32:23Z</time>
      </trkpt>
      <trkpt lat="39.927159774157396" lon="116.48321596913478">
        <ele>25.8</ele>
        <time>2023-06-12T13:32:26Z</time>
      </trkpt>
      <trkpt lat="39.92711182917437" lon="116.48323404288782">
        <ele>25.4</ele>
        <time>2023-06-12T13:32:29Z</time>
      </trkpt>
      <trkpt lat="39.92713526922313" lon="116.48335407979509">
        <ele>24.9</ele>
        <time>2023-06-12T13:32:35Z</time>
      </trkpt>
      <trkpt lat="39.92728380372832" lon="116.48424782878489">
        <ele>13.599999999999998</ele>
        <time>2023-06-12T13:32:59Z</time>
      </trkpt>
      <trkpt lat="39.927164039235535" lon="116.48432613815415">
        <ele>9.8</ele>
        <time>2023-06-12T13:33:02Z</time>
      </trkpt>
      <trkpt lat="39.92705932741393" lon="116.48442251365937">
        <ele>13.0</ele>
        <time>2023-06-12T13:33:05Z</time>
      </trkpt>
      <trkpt lat="39.92673729030474" lon="116.48440548966452">
        <ele>15.099999999999998</ele>
        <time>2023-06-12T13:33:20Z</time>
      </trkpt>
      <trkpt lat="39.92644230829217" lon="116.48440753403096">
        <ele>23.599999999999998</ele>
        <time>2023-06-12T13:33:32Z</time>
      </trkpt>
      <trkpt lat="39.92624526608409" lon="116.48439049443827">
        <ele>28.8</ele>
        <time>2023-06-12T13:33:41Z</time>
      </trkpt>
      <trkpt lat="39.92612235984477" lon="116.48442062304514">
        <ele>30.7</ele>
        <time>2023-06-12T13:33:47Z</time>
      </trkpt>
      <trkpt lat="39.92579524016721" lon="116.48437549397195">
        <ele>38.1</ele>
        <time>2023-06-12T13:34:02Z</time>
      </trkpt>
      <trkpt lat="39.92551722199899" lon="116.48436549091642">
        <ele>35.400000000000006</ele>
        <time>2023-06-12T13:34:14Z</time>
      </trkpt>
      <trkpt lat="39.925377248444306" lon="116.4843725348119">
        <ele>31.900000000000002</ele>
        <time>2023-06-12T13:34:20Z</time>
      </trkpt>
      <trkpt lat="39.925317324838296" lon="116.48439763667463">
        <ele>30.099999999999998</ele>
        <time>2023-06-12T13:34:23Z</time>
      </trkpt>
      <trkpt lat="39.925045256163266" lon="116.48437056869373">
        <ele>24.8</ele>
        <time>2023-06-12T13:34:35Z</time>
      </trkpt>
      <trkpt lat="39.924972276905365" lon="116.48437660045293">
        <ele>24.8</ele>
        <time>2023-06-12T13:34:38Z</time>
      </trkpt>
      <trkpt lat="39.924874487954106" lon="116.48444687694705">
        <ele>24.4</ele>
        <time>2023-06-12T13:34:44Z</time>
      </trkpt>
      <trkpt lat="39.924814842445436" lon="116.48456633377968">
        <ele>24.0</ele>
        <time>2023-06-12T13:34:50Z</time>
      </trkpt>
      <trkpt lat="39.92479914492687" lon="116.48466872102445">
        <ele>22.5</ele>
        <time>2023-06-12T13:34:56Z</time>
      </trkpt>
      <trkpt lat="39.92468282172951" lon="116.48489659329739">
        <ele>18.7</ele>
        <time>2023-06-12T13:35:08Z</time>
      </trkpt>
      <trkpt lat="39.92467053612479" lon="116.48513850594541">
        <ele>16.599999999999998</ele>
        <time>2023-06-12T13:35:17Z</time>
      </trkpt>
      <trkpt lat="39.92473517662824" lon="116.4853563186532">
        <ele>16.599999999999998</ele>
        <time>2023-06-12T13:35:26Z</time>
      </trkpt>
      <trkpt lat="39.9249170321675" lon="116.48564839719701">
        <ele>12.899999999999999</ele>
        <time>2023-06-12T13:35:47Z</time>
      </trkpt>
      <trkpt lat="39.92500792765641" lon="116.48595253315737">
        <ele>10.7</ele>
        <time>2023-06-12T13:35:56Z</time>
      </trkpt>
      <trkpt lat="39.925025342631706" lon="116.48609306130791">
        <ele>12.2</ele>
        <time>2023-06-12T13:35:59Z</time>
      </trkpt>
      <trkpt lat="39.925012634213864" lon="116.48619143419799">
        <ele>13.399999999999999</ele>
        <time>2023-06-12T13:36:02Z</time>
      </trkpt>
      <trkpt lat="39.92494896063322" lon="116.48630085519574">
        <ele>13.0</ele>
        <time>2023-06-12T13:36:08Z</time>
      </trkpt>
      <trkpt lat="39.92485003897646" lon="116.48632596227961">
        <ele>11.099999999999998</ele>
        <time>2023-06-12T13:36:14Z</time>
      </trkpt>
      <trkpt lat="39.92479518979801" lon="116.48637615862891">
        <ele>10.100000000000001</ele>
        <time>2023-06-12T13:36:20Z</time>
      </trkpt>
      <trkpt lat="39.924605262982666" lon="116.4863982657">
        <ele>11.0</ele>
        <time>2023-06-12T13:36:29Z</time>
      </trkpt>
      <trkpt lat="39.92444511505503" lon="116.48634608857172">
        <ele>13.8</ele>
        <time>2023-06-12T13:36:35Z</time>
      </trkpt>
      <trkpt lat="39.92425484658268" lon="116.4862527598415">
        <ele>16.599999999999998</ele>
        <time>2023-06-12T13:36:41Z</time>
      </trkpt>
      <trkpt lat="39.92416180585366" lon="116.48623771460095">
        <ele>19.5</ele>
        <time>2023-06-12T13:36:44Z</time>
      </trkpt>
      <trkpt lat="39.92395212941164" lon="116.4863441424607">
        <ele>28.900000000000002</ele>
        <time>2023-06-12T13:36:53Z</time>
      </trkpt>
      <trkpt lat="39.92384021425071" lon="116.48637125875013">
        <ele>33.2</ele>
        <time>2023-06-12T13:36:59Z</time>
      </trkpt>
      <trkpt lat="39.92377436554589" lon="116.48642145648236">
        <ele>34.0</ele>
        <time>2023-06-12T13:37:02Z</time>
      </trkpt>
      <trkpt lat="39.92357733387659" lon="116.48674570574015">
        <ele>36.300000000000004</ele>
        <time>2023-06-12T13:37:14Z</time>
      </trkpt>
      <trkpt lat="39.92336928543879" lon="116.48706393423502">
        <ele>35.900000000000006</ele>
        <time>2023-06-12T13:37:29Z</time>
      </trkpt>
      <trkpt lat="39.9232318536053" lon="116.48725366862524">
        <ele>34.900000000000006</ele>
        <time>2023-06-12T13:37:38Z</time>
      </trkpt>
      <trkpt lat="39.92304501611598" lon="116.48730588928748">
        <ele>36.300000000000004</ele>
        <time>2023-06-12T13:37:47Z</time>
      </trkpt>
      <trkpt lat="39.922898022188626" lon="116.48730590760722">
        <ele>37.2</ele>
        <time>2023-06-12T13:37:56Z</time>
      </trkpt>
      <trkpt lat="39.92285508350371" lon="116.48732598887628">
        <ele>37.2</ele>
        <time>2023-06-12T13:37:59Z</time>
      </trkpt>
      <trkpt lat="39.92279441947963" lon="116.48743842161562">
        <ele>35.2</ele>
        <time>2023-06-12T13:38:05Z</time>
      </trkpt>
      <trkpt lat="39.922769816579105" lon="116.48757192966892">
        <ele>33.5</ele>
        <time>2023-06-12T13:38:11Z</time>
      </trkpt>
      <trkpt lat="39.92279748869266" lon="116.48779878453045">
        <ele>32.2</ele>
        <time>2023-06-12T13:38:20Z</time>
      </trkpt>
      <trkpt lat="39.92277213941426" lon="116.48801761585752">
        <ele>30.400000000000002</ele>
        <time>2023-06-12T13:38:29Z</time>
      </trkpt>
      <trkpt lat="39.92271337435329" lon="116.4880959195514">
        <ele>30.499999999999996</ele>
        <time>2023-06-12T13:38:32Z</time>
      </trkpt>
      <trkpt lat="39.9226926643977" lon="116.48819329073667">
        <ele>30.599999999999998</ele>
        <time>2023-06-12T13:38:35Z</time>
      </trkpt>
      <trkpt lat="39.92271085962703" lon="116.4885958127364">
        <ele>29.499999999999996</ele>
        <time>2023-06-12T13:38:50Z</time>
      </trkpt>
      <trkpt lat="39.92279730958393" lon="116.48874837992334">
        <ele>28.099999999999998</ele>
        <time>2023-06-12T13:38:59Z</time>
      </trkpt>
      <trkpt lat="39.922865417183225" lon="116.48878551214108">
        <ele>26.400000000000002</ele>
        <time>2023-06-12T13:39:02Z</time>
      </trkpt>
      <trkpt lat="39.92322749772509" lon="116.48881758873593">
        <ele>24.7</ele>
        <time>2023-06-12T13:39:17Z</time>
      </trkpt>
      <trkpt lat="39.923524574998204" lon="116.48884766582529">
        <ele>25.099999999999998</ele>
        <time>2023-06-12T13:39:32Z</time>
      </trkpt>
      <trkpt lat="39.92376747246319" lon="116.48881651767877">
        <ele>25.3</ele>
        <time>2023-06-12T13:39:44Z</time>
      </trkpt>
      <trkpt lat="39.923874572504324" lon="116.48885163744542">
        <ele>25.2</ele>
        <time>2023-06-12T13:39:50Z</time>
      </trkpt>
      <trkpt lat="39.92405946938283" lon="116.48881949271865">
        <ele>28.400000000000002</ele>
        <time>2023-06-12T13:40:02Z</time>
      </trkpt>
      <trkpt lat="39.92417950622057" lon="116.4888335310099">
        <ele>29.2</ele>
        <time>2023-06-12T13:40:08Z</time>
      </trkpt>
      <trkpt lat="39.9243074621544" lon="116.4888204656331">
        <ele>29.2</ele>
        <time>2023-06-12T13:40:14Z</time>
      </trkpt>
      <trkpt lat="39.924664617575104" lon="116.48887763792604">
        <ele>29.400000000000002</ele>
        <time>2023-06-12T13:40:23Z</time>
      </trkpt>
      <trkpt lat="39.92484470866492" lon="116.48891074100445">
        <ele>28.8</ele>
        <time>2023-06-12T13:40:29Z</time>
      </trkpt>
      <trkpt lat="39.92504070657869" lon="116.48891272419901">
        <ele>26.7</ele>
        <time>2023-06-12T13:40:38Z</time>
      </trkpt>
      <trkpt lat="39.925102847300025" lon="116.48896089902682">
        <ele>26.900000000000002</ele>
        <time>2023-06-12T13:40:44Z</time>
      </trkpt>
      <trkpt lat="39.92536967217334" lon="116.48890565660093">
        <ele>27.7</ele>
        <time>2023-06-12T13:40:57Z</time>
      </trkpt>
      <trkpt lat="39.92565052932111" lon="116.48886145427208">
        <ele>30.3</ele>
        <time>2023-06-12T13:41:06Z</time>
      </trkpt>
      <trkpt lat="39.925984208248785" lon="116.488758020994">
        <ele>30.7</ele>
        <time>2023-06-12T13:41:21Z</time>
      </trkpt>
      <trkpt lat="39.926057145577424" lon="116.488737935852">
        <ele>29.499999999999996</ele>
        <time>2023-06-12T13:41:24Z</time>
      </trkpt>
      <trkpt lat="39.9261039944609" lon="116.48868773988204">
        <ele>28.8</ele>
        <time>2023-06-12T13:41:27Z</time>
      </trkpt>
      <trkpt lat="39.926183850953926" lon="116.48864055121715">
        <ele>29.3</ele>
        <time>2023-06-12T13:41:30Z</time>
      </trkpt>
      <trkpt lat="39.926273298380785" lon="116.48845584050311">
        <ele>29.400000000000002</ele>
        <time>2023-06-12T13:41:39Z</time>
      </trkpt>
      <trkpt lat="39.926325583487476" lon="116.48821592552396">
        <ele>30.7</ele>
        <time>2023-06-12T13:41:48Z</time>
      </trkpt>
      <trkpt lat="39.92658515249326" lon="116.48807435734413">
        <ele>31.400000000000002</ele>
        <time>2023-06-12T13:42:06Z</time>
      </trkpt>
      <trkpt lat="39.92687313772845" lon="116.48807331765882">
        <ele>30.999999999999996</ele>
        <time>2023-06-12T13:42:21Z</time>
      </trkpt>
      <trkpt lat="39.92695211959329" lon="116.48806828881722">
        <ele>30.999999999999996</ele>
        <time>2023-06-12T13:42:24Z</time>
      </trkpt>
      <trkpt lat="39.927214631973015" lon="116.48790764817487">
        <ele>27.2</ele>
        <time>2023-06-12T13:42:36Z</time>
      </trkpt>
      <trkpt lat="39.927260439381776" lon="116.48784339932867">
        <ele>26.8</ele>
        <time>2023-06-12T13:42:39Z</time>
      </trkpt>
      <trkpt lat="39.927385300193066" lon="116.48779821282362">
        <ele>23.3</ele>
        <time>2023-06-12T13:42:48Z</time>
      </trkpt>
      <trkpt lat="39.9274770134085" lon="116.48770284054389">
        <ele>20.9</ele>
        <time>2023-06-12T13:42:54Z</time>
      </trkpt>
      <trkpt lat="39.92752892489654" lon="116.4876737239289">
        <ele>20.099999999999998</ele>
        <time>2023-06-12T13:42:57Z</time>
      </trkpt>
      <trkpt lat="39.927633566165724" lon="116.48755425895693">
        <ele>16.599999999999998</ele>
        <time>2023-06-12T13:43:03Z</time>
      </trkpt>
      <trkpt lat="39.92766221359153" lon="116.48743580732717">
        <ele>15.3</ele>
        <time>2023-06-12T13:43:06Z</time>
      </trkpt>
      <trkpt lat="39.92766982027405" lon="116.4873033052491">
        <ele>14.0</ele>
        <time>2023-06-12T13:43:09Z</time>
      </trkpt>
      <trkpt lat="39.92763275639642" lon="116.48694395123617">
        <ele>12.599999999999998</ele>
        <time>2023-06-12T13:43:21Z</time>
      </trkpt>
      <trkpt lat="39.92761550127909" lon="116.48685762712282">
        <ele>12.2</ele>
        <time>2023-06-12T13:43:24Z</time>
      </trkpt>
      <trkpt lat="39.92763192665656" lon="116.4866638930387">
        <ele>13.099999999999998</ele>
        <time>2023-06-12T13:43:30Z</time>
      </trkpt>
      <trkpt lat="39.927699611734276" lon="116.48655848643723">
        <ele>13.899999999999999</ele>
        <time>2023-06-12T13:43:36Z</time>
      </trkpt>
      <trkpt lat="39.92774249405629" lon="116.48651933321888">
        <ele>14.3</ele>
        <time>2023-06-12T13:43:39Z</time>
      </trkpt>
      <trkpt lat="39.927773127250205" lon="116.48639586309969">
        <ele>14.8</ele>
        <time>2023-06-12T13:43:45Z</time>
      </trkpt>
      <trkpt lat="39.92777252119788" lon="116.48619109001824">
        <ele>14.599999999999998</ele>
        <time>2023-06-12T13:43:51Z</time>
      </trkpt>
      <trkpt lat="39.92782717742421" lon="116.48607564747556">
        <ele>15.0</ele>
        <time>2023-06-12T13:43:57Z</time>
      </trkpt>
      <trkpt lat="39.92791987374936" lon="116.48597425330696">
        <ele>15.8</ele>
        <time>2023-06-12T13:44:03Z</time>
      </trkpt>
      <trkpt lat="39.927944486844765" lon="116.48584375787637">
        <ele>17.2</ele>
        <time>2023-06-12T13:44:09Z</time>
      </trkpt>
      <trkpt lat="39.92789232010163" lon="116.48544827289349">
        <ele>18.8</ele>
        <time>2023-06-12T13:44:21Z</time>
      </trkpt>
      <trkpt lat="39.927835202058304" lon="116.48506885019235">
        <ele>17.8</ele>
        <time>2023-06-12T13:44:36Z</time>
      </trkpt>
      <trkpt lat="39.92782963360771" lon="116.48487612505485">
        <ele>18.0</ele>
        <time>2023-06-12T13:44:42Z</time>
      </trkpt>
      <trkpt lat="39.92784242878456" lon="116.48480686268479">
        <ele>19.599999999999998</ele>
        <time>2023-06-12T13:44:45Z</time>
      </trkpt>
      <trkpt lat="39.92787028258663" lon="116.48475767404557">
        <ele>21.3</ele>
        <time>2023-06-12T13:44:48Z</time>
      </trkpt>
      <trkpt lat="39.92792226566458" lon="116.4847526486653">
        <ele>22.599999999999998</ele>
        <time>2023-06-12T13:44:54Z</time>
      </trkpt>
      <trkpt lat="39.92813686918966" lon="116.48462112695655">
        <ele>23.7</ele>
        <time>2023-06-12T13:45:09Z</time>
      </trkpt>
      <trkpt lat="39.92816165217795" lon="116.48454784812645">
        <ele>24.099999999999998</ele>
        <time>2023-06-12T13:45:12Z</time>
      </trkpt>
      <trkpt lat="39.928215410362306" lon="116.48446653551474">
        <ele>25.0</ele>
        <time>2023-06-12T13:45:15Z</time>
      </trkpt>
      <trkpt lat="39.92832238301037" lon="116.48411921610564">
        <ele>27.999999999999996</ele>
        <time>2023-06-12T13:45:27Z</time>
      </trkpt>
      <trkpt lat="39.92847180671513" lon="116.48392546938884">
        <ele>5.500000000000001</ele>
        <time>2023-06-12T13:45:48Z</time>
      </trkpt>
      <trkpt lat="39.928474729343364" lon="116.48321881622383">
        <ele>35.1</ele>
        <time>2023-06-12T13:45:57Z</time>
      </trkpt>
      <trkpt lat="39.928551782209894" lon="116.48323787813455">
        <ele>29.400000000000002</ele>
        <time>2023-06-12T13:46:00Z</time>
      </trkpt>
      <trkpt lat="39.92860453248163" lon="116.48315355532286">
        <ele>30.499999999999996</ele>
        <time>2023-06-12T13:46:03Z</time>
      </trkpt>
      <trkpt lat="39.92878540429652" lon="116.48311237841243">
        <ele>26.499999999999996</ele>
        <time>2023-06-12T13:46:12Z</time>
      </trkpt>
      <trkpt lat="39.92891736356571" lon="116.48310031676802">
        <ele>26.3</ele>
        <time>2023-06-12T13:46:18Z</time>
      </trkpt>
      <trkpt lat="39.92907940117047" lon="116.48311535298745">
        <ele>26.599999999999998</ele>
        <time>2023-06-12T13:46:27Z</time>
      </trkpt>
      <trkpt lat="39.92924425892718" lon="116.4830691592738">
        <ele>24.7</ele>
        <time>2023-06-12T13:46:39Z</time>
      </trkpt>
      <trkpt lat="39.929375244761694" lon="116.48306613162477">
        <ele>22.7</ele>
        <time>2023-06-12T13:46:48Z</time>
      </trkpt>
      <trkpt lat="39.929463961304805" lon="116.48297076307323">
        <ele>22.4</ele>
        <time>2023-06-12T13:46:57Z</time>
      </trkpt>
      <trkpt lat="39.929473513327586" lon="116.48281819011619">
        <ele>23.3</ele>
        <time>2023-06-12T13:47:03Z</time>
      </trkpt>
      <trkpt lat="39.929447117049534" lon="116.48268268579595">
        <ele>23.8</ele>
        <time>2023-06-12T13:47:09Z</time>
      </trkpt>
      <trkpt lat="39.92934772096821" lon="116.48254618702738">
        <ele>24.099999999999998</ele>
        <time>2023-06-12T13:47:15Z</time>
      </trkpt>
      <trkpt lat="39.92920334453286" lon="116.48241571661451">
        <ele>22.8</ele>
        <time>2023-06-12T13:47:24Z</time>
      </trkpt>
      <trkpt lat="39.9291400766481" lon="116.48232337895685">
        <ele>21.7</ele>
        <time>2023-06-12T13:47:30Z</time>
      </trkpt>
      <trkpt lat="39.929124874476166" lon="116.48225412174507">
        <ele>21.0</ele>
        <time>2023-06-12T13:47:33Z</time>
      </trkpt>
      <trkpt lat="39.92912730152408" lon="116.48205838945302">
        <ele>20.2</ele>
        <time>2023-06-12T13:47:42Z</time>
      </trkpt>
      <trkpt lat="39.92909903253434" lon="116.4819660477826">
        <ele>20.3</ele>
        <time>2023-06-12T13:47:45Z</time>
      </trkpt>
      <trkpt lat="39.929048776262945" lon="116.48187772395727">
        <ele>20.7</ele>
        <time>2023-06-12T13:47:48Z</time>
      </trkpt>
      <trkpt lat="39.92893456375007" lon="116.4818034607084">
        <ele>21.0</ele>
        <time>2023-06-12T13:47:54Z</time>
      </trkpt>
      <trkpt lat="39.928791642926626" lon="116.48182857231689">
        <ele>18.7</ele>
        <time>2023-06-12T13:48:03Z</time>
      </trkpt>
      <trkpt lat="39.9287068635576" lon="116.48190286045053">
        <ele>16.8</ele>
        <time>2023-06-12T13:48:09Z</time>
      </trkpt>
      <trkpt lat="39.92843722390238" lon="116.48202234058367">
        <ele>15.0</ele>
        <time>2023-06-12T13:48:24Z</time>
      </trkpt>
      <trkpt lat="39.92815734102663" lon="116.48205851064128">
        <ele>20.0</ele>
        <time>2023-06-12T13:48:39Z</time>
      </trkpt>
      <trkpt lat="39.92808242925121" lon="116.48208762883239">
        <ele>23.5</ele>
        <time>2023-06-12T13:48:45Z</time>
      </trkpt>
      <trkpt lat="39.92793502874456" lon="116.48229040557257">
        <ele>27.099999999999998</ele>
        <time>2023-06-12T13:48:57Z</time>
      </trkpt>
      <trkpt lat="39.92786302855451" lon="116.48263068819">
        <ele>28.599999999999998</ele>
        <time>2023-06-12T13:49:12Z</time>
      </trkpt>
      <trkpt lat="39.92775229791152" lon="116.4827210403546">
        <ele>27.599999999999998</ele>
        <time>2023-06-12T13:49:18Z</time>
      </trkpt>
      <trkpt lat="39.92746031571756" lon="116.48272308434278">
        <ele>27.400000000000002</ele>
        <time>2023-06-12T13:49:33Z</time>
      </trkpt>
      <trkpt lat="39.92727737911033" lon="116.48274217862807">
        <ele>26.0</ele>
        <time>2023-06-12T13:49:42Z</time>
      </trkpt>
      <trkpt lat="39.92724449819186" lon="116.48278233314">
        <ele>26.099999999999998</ele>
        <time>2023-06-12T13:49:45Z</time>
      </trkpt>
      <trkpt lat="39.927197339428005" lon="116.48306841114058">
        <ele>24.4</ele>
        <time>2023-06-12T13:49:57Z</time>
      </trkpt>
      <trkpt lat="39.92719004118484" lon="116.4833073079835">
        <ele>22.5</ele>
        <time>2023-06-12T13:50:06Z</time>
      </trkpt>
      <trkpt lat="39.92720221760484" lon="116.48336753241614">
        <ele>22.4</ele>
        <time>2023-06-12T13:50:09Z</time>
      </trkpt>
      <trkpt lat="39.9270247197207" lon="116.4842157403505">
        <ele>33.0</ele>
        <time>2023-06-12T13:50:42Z</time>
      </trkpt>
      <trkpt lat="39.926945237437586" lon="116.48439040707787">
        <ele>41.800000000000004</ele>
        <time>2023-06-12T13:50:45Z</time>
      </trkpt>
      <trkpt lat="39.92680223441391" lon="116.48438741359922">
        <ele>40.0</ele>
        <time>2023-06-12T13:50:54Z</time>
      </trkpt>
      <trkpt lat="39.92646535467028" lon="116.48442359156581">
        <ele>35.2</ele>
        <time>2023-06-12T13:51:09Z</time>
      </trkpt>
      <trkpt lat="39.926198253222935" lon="116.48438548142843">
        <ele>33.0</ele>
        <time>2023-06-12T13:51:21Z</time>
      </trkpt>
      <trkpt lat="39.92600535280902" lon="116.48441662254496">
        <ele>33.300000000000004</ele>
        <time>2023-06-12T13:51:30Z</time>
      </trkpt>
      <trkpt lat="39.92573724550278" lon="116.48437650498511">
        <ele>33.2</ele>
        <time>2023-06-12T13:51:42Z</time>
      </trkpt>
      <trkpt lat="39.92545721854695" lon="116.48436349085452">
        <ele>32.1</ele>
        <time>2023-06-12T13:51:54Z</time>
      </trkpt>
      <trkpt lat="39.92517919447538" lon="116.48435148025045">
        <ele>26.499999999999996</ele>
        <time>2023-06-12T13:52:06Z</time>
      </trkpt>
      <trkpt lat="39.92491030606796" lon="116.48438564216457">
        <ele>21.8</ele>
        <time>2023-06-12T13:52:18Z</time>
      </trkpt>
      <trkpt lat="39.924872420010665" lon="116.48442379036223">
        <ele>21.9</ele>
        <time>2023-06-12T13:52:21Z</time>
      </trkpt>
      <trkpt lat="39.924790189689475" lon="116.48468377880891">
        <ele>18.599999999999998</ele>
        <time>2023-06-12T13:52:36Z</time>
      </trkpt>
      <trkpt lat="39.92462890390473" lon="116.4849237020766">
        <ele>21.099999999999998</ele>
        <time>2023-06-12T13:52:48Z</time>
      </trkpt>
      <trkpt lat="39.9245951688957" lon="116.48501304272052">
        <ele>21.599999999999998</ele>
        <time>2023-06-12T13:52:51Z</time>
      </trkpt>
      <trkpt lat="39.92459544439801" lon="116.48510639430913">
        <ele>22.0</ele>
        <time>2023-06-12T13:52:54Z</time>
      </trkpt>
      <trkpt lat="39.92467019115918" lon="116.48536034189253">
        <ele>23.099999999999998</ele>
        <time>2023-06-12T13:53:03Z</time>
      </trkpt>
      <trkpt lat="39.924735588767604" lon="116.48549584453848">
        <ele>22.0</ele>
        <time>2023-06-12T13:53:09Z</time>
      </trkpt>
      <trkpt lat="39.924899202013584" lon="116.48570561519871">
        <ele>23.5</ele>
        <time>2023-06-12T13:53:21Z</time>
      </trkpt>
      <trkpt lat="39.92499733784305" lon="116.4860910572233">
        <ele>21.5</ele>
        <time>2023-06-12T13:53:39Z</time>
      </trkpt>
      <trkpt lat="39.92500463751278" lon="116.48619243898435">
        <ele>21.7</ele>
        <time>2023-06-12T13:53:42Z</time>
      </trkpt>
      <trkpt lat="39.92498380471708" lon="116.4862486537859">
        <ele>21.7</ele>
        <time>2023-06-12T13:53:45Z</time>
      </trkpt>
      <trkpt lat="39.924877082433184" lon="116.48634101575887">
        <ele>20.2</ele>
        <time>2023-06-12T13:53:51Z</time>
      </trkpt>
      <trkpt lat="39.92466025477761" lon="116.48639625126225">
        <ele>19.3</ele>
        <time>2023-06-12T13:54:06Z</time>
      </trkpt>
      <trkpt lat="39.924395111170206" lon="116.48634408722637">
        <ele>20.099999999999998</ele>
        <time>2023-06-12T13:54:15Z</time>
      </trkpt>
      <trkpt lat="39.924198902359905" lon="116.48627083502984">
        <ele>23.0</ele>
        <time>2023-06-12T13:54:21Z</time>
      </trkpt>
      <trkpt lat="39.92402699262569" lon="116.48629896257779">
        <ele>29.400000000000002</ele>
        <time>2023-06-12T13:54:27Z</time>
      </trkpt>
      <trkpt lat="39.923900205835444" lon="116.48636924368955">
        <ele>33.7</ele>
        <time>2023-06-12T13:54:36Z</time>
      </trkpt>
      <trkpt lat="39.92383737483589" lon="116.48642546378875">
        <ele>35.2</ele>
        <time>2023-06-12T13:54:39Z</time>
      </trkpt>
      <trkpt lat="39.92361034738391" lon="116.48675072058779">
        <ele>36.900000000000006</ele>
        <time>2023-06-12T13:54:51Z</time>
      </trkpt>
      <trkpt lat="39.92337730593729" lon="116.48707095979692">
        <ele>37.5</ele>
        <time>2023-06-12T13:55:09Z</time>
      </trkpt>
      <trkpt lat="39.92329770801214" lon="116.48720547823694">
        <ele>37.800000000000004</ele>
        <time>2023-06-12T13:55:15Z</time>
      </trkpt>
      <trkpt lat="39.92324985286226" lon="116.48725366638193">
        <ele>38.400000000000006</ele>
        <time>2023-06-12T13:55:18Z</time>
      </trkpt>
      <trkpt lat="39.92313494690969" lon="116.48728379457219">
        <ele>38.800000000000004</ele>
        <time>2023-06-12T13:55:24Z</time>
      </trkpt>
      <trkpt lat="39.92288500784156" lon="116.48730089025011">
        <ele>38.7</ele>
        <time>2023-06-12T13:55:36Z</time>
      </trkpt>
      <trkpt lat="39.922812257954185" lon="116.48738421438702">
        <ele>36.6</ele>
        <time>2023-06-12T13:55:42Z</time>
      </trkpt>
      <trkpt lat="39.922775694225386" lon="116.48753077325372">
        <ele>33.300000000000004</ele>
        <time>2023-06-12T13:55:48Z</time>
      </trkpt>
      <trkpt lat="39.922795348745495" lon="116.48775160627764">
        <ele>30.900000000000002</ele>
        <time>2023-06-12T13:55:57Z</time>
      </trkpt>
      <trkpt lat="39.92277274300014" lon="116.48788411049595">
        <ele>28.400000000000002</ele>
        <time>2023-06-12T13:56:03Z</time>
      </trkpt>
      <trkpt lat="39.922784933228854" lon="116.48794835211179">
        <ele>26.599999999999998</ele>
        <time>2023-06-12T13:56:06Z</time>
      </trkpt>
      <trkpt lat="39.92274934901756" lon="116.48808788467097">
        <ele>24.5</ele>
        <time>2023-06-12T13:56:12Z</time>
      </trkpt>
      <trkpt lat="39.922758682539424" lon="116.48820030911419">
        <ele>24.7</ele>
        <time>2023-06-12T13:56:15Z</time>
      </trkpt>
      <trkpt lat="39.92274018129602" lon="116.48836794613362">
        <ele>22.7</ele>
        <time>2023-06-12T13:56:24Z</time>
      </trkpt>
      <trkpt lat="39.92275429047368" lon="116.48874135866302">
        <ele>26.900000000000002</ele>
        <time>2023-06-12T13:56:33Z</time>
      </trkpt>
      <trkpt lat="39.922779459531576" lon="116.48879857228354">
        <ele>26.0</ele>
        <time>2023-06-12T13:56:36Z</time>
      </trkpt>
      <trkpt lat="39.922779459531576" lon="116.48879857228354">
        <ele>26.0</ele>
        <time>2023-06-12T13:56:39Z</time>
      </trkpt>
    </trkseg>
  </trk>
</gpx>