<?xml version="1.0" encoding="UTF-8"?>
<gpx xmlns="http://www.topografix.com/GPX/1/1" xmlns:gpxtpx="http://www.garmin.com/xmlschemas/TrackPointExtension/v1" xmlns:xsi="http://www.w3.org/2001/XMLSchema-instance" xsi:schemaLocation="http://www.topografix.com/GPX/1/1 http://www.topografix.com/GPX/1/1/gpx.xsd" version="1.1" creator="gpx.py -- https://github.com/tkrajina/gpxpy">
  <trk>
    <name>gpx from keep</name>
    <type>Walk</type>
    <trkseg>
      <trkpt lat="36.67214030926493" lon="117.0097287338916">
        <ele>26.2</ele>
        <time>2023-06-20T11:31:58Z</time>
      </trkpt>
      <trkpt lat="36.67237399978247" lon="117.00978447117694">
        <ele>28.5</ele>
        <time>2023-06-20T11:33:49Z</time>
      </trkpt>
      <trkpt lat="36.67239477824428" lon="117.00985516912223">
        <ele>27.3</ele>
        <time>2023-06-20T11:34:19Z</time>
      </trkpt>
      <trkpt lat="36.67229502079664" lon="117.01013300335565">
        <ele>32.7</ele>
        <time>2023-06-20T11:34:52Z</time>
      </trkpt>
      <trkpt lat="36.67225193013123" lon="117.01017283956106">
        <ele>34.0</ele>
        <time>2023-06-20T11:34:58Z</time>
      </trkpt>
      <trkpt lat="36.67219497423897" lon="117.01016985860919">
        <ele>34.7</ele>
        <time>2023-06-20T11:35:07Z</time>
      </trkpt>
      <trkpt lat="36.67214460359748" lon="117.01030628688177">
        <ele>36.1</ele>
        <time>2023-06-20T11:35:16Z</time>
      </trkpt>
      <trkpt lat="36.67213933713807" lon="117.01039789991363">
        <ele>34.400000000000006</ele>
        <time>2023-06-20T11:35:22Z</time>
      </trkpt>
      <trkpt lat="36.67219200851206" lon="117.01049846868264">
        <ele>33.6</ele>
        <time>2023-06-20T11:35:34Z</time>
      </trkpt>
      <trkpt lat="36.672354600165654" lon="117.01060300843267">
        <ele>32.1</ele>
        <time>2023-06-20T11:35:52Z</time>
      </trkpt>
      <trkpt lat="36.67240333864879" lon="117.01068167054434">
        <ele>32.400000000000006</ele>
        <time>2023-06-20T11:35:58Z</time>
      </trkpt>
      <trkpt lat="36.67244491780706" lon="117.01081609807449">
        <ele>27.7</ele>
        <time>2023-06-20T11:36:13Z</time>
      </trkpt>
      <trkpt lat="36.672413764544565" lon="117.01087485352743">
        <ele>28.7</ele>
        <time>2023-06-20T11:36:16Z</time>
      </trkpt>
      <trkpt lat="36.672444511553245" lon="117.01095451382785">
        <ele>28.599999999999998</ele>
        <time>2023-06-20T11:36:28Z</time>
      </trkpt>
      <trkpt lat="36.67243215388126" lon="117.01107899005999">
        <ele>28.0</ele>
        <time>2023-06-20T11:36:49Z</time>
      </trkpt>
      <trkpt lat="36.67251225324553" lon="117.01102819528515">
        <ele>37.2</ele>
        <time>2023-06-20T11:37:37Z</time>
      </trkpt>
      <trkpt lat="36.672449347780855" lon="117.01100928218142">
        <ele>23.4</ele>
        <time>2023-06-20T11:37:40Z</time>
      </trkpt>
      <trkpt lat="36.67256823314503" lon="117.0110232099964">
        <ele>22.0</ele>
        <time>2023-06-20T11:38:19Z</time>
      </trkpt>
      <trkpt lat="36.67289204107414" lon="117.01102018619123">
        <ele>31.900000000000002</ele>
        <time>2023-06-20T11:38:55Z</time>
      </trkpt>
      <trkpt lat="36.67298995694718" lon="117.01102814157227">
        <ele>32.300000000000004</ele>
        <time>2023-06-20T11:39:07Z</time>
      </trkpt>
      <trkpt lat="36.673129224260514" lon="117.01090763437263">
        <ele>33.300000000000004</ele>
        <time>2023-06-20T11:39:19Z</time>
      </trkpt>
      <trkpt lat="36.673397253865744" lon="117.01084088589018">
        <ele>28.8</ele>
        <time>2023-06-20T11:39:40Z</time>
      </trkpt>
      <trkpt lat="36.67346121416247" lon="117.01084087869896">
        <ele>28.5</ele>
        <time>2023-06-20T11:39:46Z</time>
      </trkpt>
      <trkpt lat="36.67369864859848" lon="117.01098325095356">
        <ele>28.8</ele>
        <time>2023-06-20T11:40:10Z</time>
      </trkpt>
      <trkpt lat="36.67384518063277" lon="117.01111169257423">
        <ele>27.099999999999998</ele>
        <time>2023-06-20T11:40:22Z</time>
      </trkpt>
      <trkpt lat="36.67397916752974" lon="117.01108777830481">
        <ele>22.0</ele>
        <time>2023-06-20T11:40:34Z</time>
      </trkpt>
      <trkpt lat="36.67409700960431" lon="117.01111664325778">
        <ele>22.2</ele>
        <time>2023-06-20T11:40:46Z</time>
      </trkpt>
      <trkpt lat="36.674139898248605" lon="117.01114551665373">
        <ele>23.3</ele>
        <time>2023-06-20T11:40:55Z</time>
      </trkpt>
      <trkpt lat="36.674258733874694" lon="117.01117637312646">
        <ele>22.5</ele>
        <time>2023-06-20T11:41:07Z</time>
      </trkpt>
      <trkpt lat="36.674321586772955" lon="117.01121321072341">
        <ele>23.8</ele>
        <time>2023-06-20T11:41:13Z</time>
      </trkpt>
      <trkpt lat="36.67437046880574" lon="117.0112430792966">
        <ele>23.5</ele>
        <time>2023-06-20T11:41:46Z</time>
      </trkpt>
      <trkpt lat="36.67445954483949" lon="117.01119825817977">
        <ele>22.099999999999998</ele>
        <time>2023-06-20T11:41:55Z</time>
      </trkpt>
      <trkpt lat="36.67463535964113" lon="117.01122412926084">
        <ele>25.3</ele>
        <time>2023-06-20T11:42:19Z</time>
      </trkpt>
      <trkpt lat="36.67475632240034" lon="117.01121117022956">
        <ele>26.2</ele>
        <time>2023-06-20T11:42:34Z</time>
      </trkpt>
      <trkpt lat="36.675044775233914" lon="117.01133660898287">
        <ele>25.5</ele>
        <time>2023-06-20T11:43:07Z</time>
      </trkpt>
      <trkpt lat="36.67529720398293" lon="117.01147798496979">
        <ele>26.099999999999998</ele>
        <time>2023-06-20T11:43:31Z</time>
      </trkpt>
      <trkpt lat="36.67550473085759" lon="117.01159546694538">
        <ele>25.599999999999998</ele>
        <time>2023-06-20T11:43:49Z</time>
      </trkpt>
      <trkpt lat="36.67561738103388" lon="117.01169105200412">
        <ele>27.599999999999998</ele>
        <time>2023-06-20T11:44:01Z</time>
      </trkpt>
      <trkpt lat="36.67568431024961" lon="117.0117010025816">
        <ele>26.599999999999998</ele>
        <time>2023-06-20T11:44:07Z</time>
      </trkpt>
      <trkpt lat="36.67585496230394" lon="117.01178363573669">
        <ele>25.7</ele>
        <time>2023-06-20T11:44:25Z</time>
      </trkpt>
      <trkpt lat="36.676100343839046" lon="117.01194293831782">
        <ele>28.9</ele>
        <time>2023-06-20T11:44:49Z</time>
      </trkpt>
      <trkpt lat="36.6761672323654" lon="117.01196683036044">
        <ele>27.3</ele>
        <time>2023-06-20T11:44:55Z</time>
      </trkpt>
      <trkpt lat="36.67632483465785" lon="117.01206938172736">
        <ele>25.099999999999998</ele>
        <time>2023-06-20T11:45:10Z</time>
      </trkpt>
      <trkpt lat="36.67636463544195" lon="117.01212912632843">
        <ele>25.599999999999998</ele>
        <time>2023-06-20T11:45:16Z</time>
      </trkpt>
      <trkpt lat="36.67648048013639" lon="117.01250055490007">
        <ele>25.0</ele>
        <time>2023-06-20T11:45:40Z</time>
      </trkpt>
      <trkpt lat="36.67649528817371" lon="117.01256329027682">
        <ele>23.599999999999998</ele>
        <time>2023-06-20T11:45:46Z</time>
      </trkpt>
      <trkpt lat="36.676484865614704" lon="117.0127106740056">
        <ele>23.9</ele>
        <time>2023-06-20T11:45:58Z</time>
      </trkpt>
      <trkpt lat="36.67655886115981" lon="117.01304028628427">
        <ele>23.099999999999998</ele>
        <time>2023-06-20T11:46:25Z</time>
      </trkpt>
      <trkpt lat="36.67654160872944" lon="117.01313090936782">
        <ele>23.2</ele>
        <time>2023-06-20T11:46:34Z</time>
      </trkpt>
      <trkpt lat="36.67658220768942" lon="117.0132603638502">
        <ele>18.9</ele>
        <time>2023-06-20T11:46:46Z</time>
      </trkpt>
      <trkpt lat="36.676574033673496" lon="117.01332210689665">
        <ele>18.9</ele>
        <time>2023-06-20T11:46:52Z</time>
      </trkpt>
      <trkpt lat="36.67657683844115" lon="117.01338882799568">
        <ele>22.8</ele>
        <time>2023-06-20T11:47:16Z</time>
      </trkpt>
      <trkpt lat="36.676679249404216" lon="117.01357006015775">
        <ele>22.8</ele>
        <time>2023-06-20T11:47:34Z</time>
      </trkpt>
      <trkpt lat="36.67673225099524" lon="117.0139036638102">
        <ele>20.4</ele>
        <time>2023-06-20T11:48:04Z</time>
      </trkpt>
      <trkpt lat="36.676726966465296" lon="117.01400324980452">
        <ele>21.3</ele>
        <time>2023-06-20T11:48:10Z</time>
      </trkpt>
      <trkpt lat="36.676797652010805" lon="117.01409685230362">
        <ele>22.4</ele>
        <time>2023-06-20T11:48:34Z</time>
      </trkpt>
      <trkpt lat="36.676784453214836" lon="117.014168555541">
        <ele>22.9</ele>
        <time>2023-06-20T11:48:40Z</time>
      </trkpt>
      <trkpt lat="36.67680400139473" lon="117.01432091991225">
        <ele>25.3</ele>
        <time>2023-06-20T11:48:55Z</time>
      </trkpt>
      <trkpt lat="36.6767645522931" lon="117.01448524178957">
        <ele>24.8</ele>
        <time>2023-06-20T11:49:07Z</time>
      </trkpt>
      <trkpt lat="36.67681517079881" lon="117.0146067317651">
        <ele>23.3</ele>
        <time>2023-06-20T11:49:19Z</time>
      </trkpt>
      <trkpt lat="36.67680386825932" lon="117.01471428684864">
        <ele>21.8</ele>
        <time>2023-06-20T11:49:25Z</time>
      </trkpt>
      <trkpt lat="36.676819348801196" lon="117.01489155025259">
        <ele>18.5</ele>
        <time>2023-06-20T11:49:37Z</time>
      </trkpt>
      <trkpt lat="36.67679719660442" lon="117.01494931344706">
        <ele>19.5</ele>
        <time>2023-06-20T11:49:43Z</time>
      </trkpt>
      <trkpt lat="36.67680896897405" lon="117.01502599453755">
        <ele>20.3</ele>
        <time>2023-06-20T11:49:49Z</time>
      </trkpt>
      <trkpt lat="36.67685459742414" lon="117.0151454947131">
        <ele>21.7</ele>
        <time>2023-06-20T11:50:01Z</time>
      </trkpt>
      <trkpt lat="36.67685729286636" lon="117.01525105769578">
        <ele>20.3</ele>
        <time>2023-06-20T11:50:07Z</time>
      </trkpt>
      <trkpt lat="36.676729413779" lon="117.01558568941256">
        <ele>23.3</ele>
        <time>2023-06-20T11:50:34Z</time>
      </trkpt>
      <trkpt lat="36.676700238159874" lon="117.01565341316888">
        <ele>24.4</ele>
        <time>2023-06-20T11:50:40Z</time>
      </trkpt>
      <trkpt lat="36.676684195086956" lon="117.0160218957767">
        <ele>24.599999999999998</ele>
        <time>2023-06-20T11:51:04Z</time>
      </trkpt>
      <trkpt lat="36.676683982055955" lon="117.01609658822456">
        <ele>22.5</ele>
        <time>2023-06-20T11:51:13Z</time>
      </trkpt>
      <trkpt lat="36.676662756657855" lon="117.01618024628137">
        <ele>22.599999999999998</ele>
        <time>2023-06-20T11:51:19Z</time>
      </trkpt>
      <trkpt lat="36.676697374550955" lon="117.01630672207526">
        <ele>21.599999999999998</ele>
        <time>2023-06-20T11:51:28Z</time>
      </trkpt>
      <trkpt lat="36.6767272027532" lon="117.01636049759078">
        <ele>21.0</ele>
        <time>2023-06-20T11:51:34Z</time>
      </trkpt>
      <trkpt lat="36.67673503904064" lon="117.0164162674657">
        <ele>22.5</ele>
        <time>2023-06-20T11:51:40Z</time>
      </trkpt>
      <trkpt lat="36.67686421054184" lon="117.01667917314789">
        <ele>21.8</ele>
        <time>2023-06-20T11:51:58Z</time>
      </trkpt>
      <trkpt lat="36.67683825679685" lon="117.01702077559952">
        <ele>22.599999999999998</ele>
        <time>2023-06-20T11:52:22Z</time>
      </trkpt>
      <trkpt lat="36.67690052934272" lon="117.01726377397874">
        <ele>23.0</ele>
        <time>2023-06-20T11:52:43Z</time>
      </trkpt>
      <trkpt lat="36.67690021663121" lon="117.01737432201494">
        <ele>23.099999999999998</ele>
        <time>2023-06-20T11:52:49Z</time>
      </trkpt>
      <trkpt lat="36.67685560525312" lon="117.01760040359436">
        <ele>23.599999999999998</ele>
        <time>2023-06-20T11:53:13Z</time>
      </trkpt>
      <trkpt lat="36.67686277159814" lon="117.0178942045348">
        <ele>23.099999999999998</ele>
        <time>2023-06-20T11:53:37Z</time>
      </trkpt>
      <trkpt lat="36.67697589879561" lon="117.01817903207115">
        <ele>22.599999999999998</ele>
        <time>2023-06-20T11:54:01Z</time>
      </trkpt>
      <trkpt lat="36.676972648681065" lon="117.01826866790807">
        <ele>25.0</ele>
        <time>2023-06-20T11:54:07Z</time>
      </trkpt>
      <trkpt lat="36.67700439929935" lon="117.01835033236947">
        <ele>25.9</ele>
        <time>2023-06-20T11:54:13Z</time>
      </trkpt>
      <trkpt lat="36.676990722641285" lon="117.01859434307778">
        <ele>26.7</ele>
        <time>2023-06-20T11:54:31Z</time>
      </trkpt>
      <trkpt lat="36.67694235620594" lon="117.01873577493531">
        <ele>27.4</ele>
        <time>2023-06-20T11:54:43Z</time>
      </trkpt>
      <trkpt lat="36.676870433610816" lon="117.01908138347883">
        <ele>27.5</ele>
        <time>2023-06-20T11:55:07Z</time>
      </trkpt>
      <trkpt lat="36.67688729982144" lon="117.01948375591682">
        <ele>23.599999999999998</ele>
        <time>2023-06-20T11:55:34Z</time>
      </trkpt>
      <trkpt lat="36.67686953434143" lon="117.01976263367106">
        <ele>27.2</ele>
        <time>2023-06-20T11:55:58Z</time>
      </trkpt>
      <trkpt lat="36.67690514108497" lon="117.01989609232886">
        <ele>27.0</ele>
        <time>2023-06-20T11:56:04Z</time>
      </trkpt>
      <trkpt lat="36.67694528391742" lon="117.02019588252735">
        <ele>24.2</ele>
        <time>2023-06-20T11:56:37Z</time>
      </trkpt>
      <trkpt lat="36.67692518324425" lon="117.02023672080838">
        <ele>23.8</ele>
        <time>2023-06-20T11:56:58Z</time>
      </trkpt>
      <trkpt lat="36.67698487839599" lon="117.02069487721867">
        <ele>24.7</ele>
        <time>2023-06-20T12:06:04Z</time>
      </trkpt>
      <trkpt lat="36.67701256417078" lon="117.02080244364505">
        <ele>25.4</ele>
        <time>2023-06-20T12:06:10Z</time>
      </trkpt>
      <trkpt lat="36.67703974831069" lon="117.02109228231805">
        <ele>23.3</ele>
        <time>2023-06-20T12:06:34Z</time>
      </trkpt>
      <trkpt lat="36.67707558888125" lon="117.02114207948445">
        <ele>22.099999999999998</ele>
        <time>2023-06-20T12:06:37Z</time>
      </trkpt>
      <trkpt lat="36.677085371775455" lon="117.02121877238488">
        <ele>23.099999999999998</ele>
        <time>2023-06-20T12:06:43Z</time>
      </trkpt>
      <trkpt lat="36.677059221008314" lon="117.02127953304377">
        <ele>22.7</ele>
        <time>2023-06-20T12:06:49Z</time>
      </trkpt>
      <trkpt lat="36.67707288953321" lon="117.02139706308148">
        <ele>22.2</ele>
        <time>2023-06-20T12:06:58Z</time>
      </trkpt>
      <trkpt lat="36.67704303387423" lon="117.02171579808909">
        <ele>23.599999999999998</ele>
        <time>2023-06-20T12:07:19Z</time>
      </trkpt>
      <trkpt lat="36.67701885254863" lon="117.02178751582842">
        <ele>23.599999999999998</ele>
        <time>2023-06-20T12:07:25Z</time>
      </trkpt>
      <trkpt lat="36.67702934734117" lon="117.02196979092788">
        <ele>20.8</ele>
        <time>2023-06-20T12:07:40Z</time>
      </trkpt>
      <trkpt lat="36.67700508212607" lon="117.02207238674436">
        <ele>21.4</ele>
        <time>2023-06-20T12:07:46Z</time>
      </trkpt>
      <trkpt lat="36.67700791988004" lon="117.02213115346284">
        <ele>23.3</ele>
        <time>2023-06-20T12:07:52Z</time>
      </trkpt>
      <trkpt lat="36.67701271029261" lon="117.02220685297979">
        <ele>22.0</ele>
        <time>2023-06-20T12:09:13Z</time>
      </trkpt>
      <trkpt lat="36.67704556482654" lon="117.02225266780009">
        <ele>22.599999999999998</ele>
        <time>2023-06-20T12:09:22Z</time>
      </trkpt>
      <trkpt lat="36.67702244344075" lon="117.02230247323736">
        <ele>26.099999999999998</ele>
        <time>2023-06-20T12:09:43Z</time>
      </trkpt>
      <trkpt lat="36.67700458408767" lon="117.02262221105985">
        <ele>26.099999999999998</ele>
        <time>2023-06-20T12:10:10Z</time>
      </trkpt>
      <trkpt lat="36.67707320837749" lon="117.02274471966112">
        <ele>21.9</ele>
        <time>2023-06-20T12:10:19Z</time>
      </trkpt>
      <trkpt lat="36.67708983300002" lon="117.0228791874553">
        <ele>19.599999999999998</ele>
        <time>2023-06-20T12:10:31Z</time>
      </trkpt>
      <trkpt lat="36.6770448313312" lon="117.02289014935634">
        <ele>18.5</ele>
        <time>2023-06-20T12:10:40Z</time>
      </trkpt>
      <trkpt lat="36.677104604983356" lon="117.02295986783955">
        <ele>20.3</ele>
        <time>2023-06-20T12:10:55Z</time>
      </trkpt>
      <trkpt lat="36.677169992251564" lon="117.0231710291838">
        <ele>19.9</ele>
        <time>2023-06-20T12:11:10Z</time>
      </trkpt>
      <trkpt lat="36.67716746326538" lon="117.02336725818981">
        <ele>23.0</ele>
        <time>2023-06-20T12:11:28Z</time>
      </trkpt>
      <trkpt lat="36.677245766608266" lon="117.02360730732046">
        <ele>22.9</ele>
        <time>2023-06-20T12:11:49Z</time>
      </trkpt>
      <trkpt lat="36.67729055881628" lon="117.02367404066734">
        <ele>23.4</ele>
        <time>2023-06-20T12:11:55Z</time>
      </trkpt>
      <trkpt lat="36.67736579351222" lon="117.02394098713324">
        <ele>21.0</ele>
        <time>2023-06-20T12:12:13Z</time>
      </trkpt>
      <trkpt lat="36.67731981682918" lon="117.02394298454519">
        <ele>21.0</ele>
        <time>2023-06-20T12:12:25Z</time>
      </trkpt>
      <trkpt lat="36.67709300109261" lon="117.02392707253986">
        <ele>-5.3</ele>
        <time>2023-06-20T12:12:55Z</time>
      </trkpt>
      <trkpt lat="36.67739152589552" lon="117.02403461818645">
        <ele>22.9</ele>
        <time>2023-06-20T12:13:01Z</time>
      </trkpt>
      <trkpt lat="36.67743138068194" lon="117.02407943853952">
        <ele>23.8</ele>
        <time>2023-06-20T12:13:10Z</time>
      </trkpt>
      <trkpt lat="36.677423952427056" lon="117.02424080938648">
        <ele>24.0</ele>
        <time>2023-06-20T12:13:22Z</time>
      </trkpt>
      <trkpt lat="36.67734844995906" lon="117.0244460179615">
        <ele>23.099999999999998</ele>
        <time>2023-06-20T12:13:40Z</time>
      </trkpt>
      <trkpt lat="36.67736105056725" lon="117.0245924464619">
        <ele>26.9</ele>
        <time>2023-06-20T12:13:52Z</time>
      </trkpt>
      <trkpt lat="36.67734482123137" lon="117.02468209959605">
        <ele>28.4</ele>
        <time>2023-06-20T12:13:58Z</time>
      </trkpt>
      <trkpt lat="36.67730172844926" lon="117.02472693021453">
        <ele>29.900000000000002</ele>
        <time>2023-06-20T12:14:04Z</time>
      </trkpt>
      <trkpt lat="36.677027798237646" lon="117.02476481411875">
        <ele>30.8</ele>
        <time>2023-06-20T12:14:31Z</time>
      </trkpt>
      <trkpt lat="36.676713052882036" lon="117.0247429349074">
        <ele>27.4</ele>
        <time>2023-06-20T12:15:01Z</time>
      </trkpt>
      <trkpt lat="36.67664606273113" lon="117.02475489603783">
        <ele>26.5</ele>
        <time>2023-06-20T12:15:07Z</time>
      </trkpt>
      <trkpt lat="36.67653595332147" lon="117.02482164922205">
        <ele>25.099999999999998</ele>
        <time>2023-06-20T12:15:19Z</time>
      </trkpt>
      <trkpt lat="36.67640100817426" lon="117.02483262194256">
        <ele>24.5</ele>
        <time>2023-06-20T12:15:31Z</time>
      </trkpt>
      <trkpt lat="36.67635995408258" lon="117.02486251054891">
        <ele>23.9</ele>
        <time>2023-06-20T12:15:37Z</time>
      </trkpt>
      <trkpt lat="36.67624098835771" lon="117.02487746600582">
        <ele>23.599999999999998</ele>
        <time>2023-06-20T12:15:46Z</time>
      </trkpt>
      <trkpt lat="36.67618805053149" lon="117.02486651453852">
        <ele>23.8</ele>
        <time>2023-06-20T12:15:52Z</time>
      </trkpt>
      <trkpt lat="36.67587885303245" lon="117.02501298135648">
        <ele>25.099999999999998</ele>
        <time>2023-06-20T12:16:22Z</time>
      </trkpt>
      <trkpt lat="36.67573083913359" lon="117.02505284361933">
        <ele>23.0</ele>
        <time>2023-06-20T12:16:34Z</time>
      </trkpt>
      <trkpt lat="36.67569474500299" lon="117.02509667781949">
        <ele>24.0</ele>
        <time>2023-06-20T12:16:43Z</time>
      </trkpt>
      <trkpt lat="36.67563487236159" lon="117.0250628158679">
        <ele>26.3</ele>
        <time>2023-06-20T12:17:43Z</time>
      </trkpt>
      <trkpt lat="36.675572910924" lon="117.02506282288242">
        <ele>26.9</ele>
        <time>2023-06-20T12:17:52Z</time>
      </trkpt>
      <trkpt lat="36.67547785878749" lon="117.02510467149116">
        <ele>24.3</ele>
        <time>2023-06-20T12:18:07Z</time>
      </trkpt>
      <trkpt lat="36.67542777605883" lon="117.02514751120444">
        <ele>24.099999999999998</ele>
        <time>2023-06-20T12:18:13Z</time>
      </trkpt>
      <trkpt lat="36.67540120795234" lon="117.02536766216895">
        <ele>20.2</ele>
        <time>2023-06-20T12:18:31Z</time>
      </trkpt>
      <trkpt lat="36.67543583514698" lon="117.02550014620566">
        <ele>21.599999999999998</ele>
        <time>2023-06-20T12:18:40Z</time>
      </trkpt>
      <trkpt lat="36.675428362472594" lon="117.02568045109216">
        <ele>19.099999999999998</ele>
        <time>2023-06-20T12:18:52Z</time>
      </trkpt>
      <trkpt lat="36.67548792256402" lon="117.02583285684486">
        <ele>18.4</ele>
        <time>2023-06-20T12:19:04Z</time>
      </trkpt>
      <trkpt lat="36.675586361852815" lon="117.0260221171362">
        <ele>20.8</ele>
        <time>2023-06-20T12:19:19Z</time>
      </trkpt>
      <trkpt lat="36.67563022951913" lon="117.02606195893092">
        <ele>21.5</ele>
        <time>2023-06-20T12:19:25Z</time>
      </trkpt>
      <trkpt lat="36.67567369363529" lon="117.02625521152356">
        <ele>21.2</ele>
        <time>2023-06-20T12:19:37Z</time>
      </trkpt>
      <trkpt lat="36.67565623324365" lon="117.02643452566245">
        <ele>21.2</ele>
        <time>2023-06-20T12:19:49Z</time>
      </trkpt>
      <trkpt lat="36.67562807817865" lon="117.02650027690201">
        <ele>21.9</ele>
        <time>2023-06-20T12:19:55Z</time>
      </trkpt>
      <trkpt lat="36.675635506889435" lon="117.02671644865893">
        <ele>23.4</ele>
        <time>2023-06-20T12:20:10Z</time>
      </trkpt>
      <trkpt lat="36.67559644773729" lon="117.02674833119832">
        <ele>23.5</ele>
        <time>2023-06-20T12:20:16Z</time>
      </trkpt>
      <trkpt lat="36.67546647125879" lon="117.02677026214654">
        <ele>26.2</ele>
        <time>2023-06-20T12:20:28Z</time>
      </trkpt>
      <trkpt lat="36.67533032663652" lon="117.02685794261782">
        <ele>26.0</ele>
        <time>2023-06-20T12:20:40Z</time>
      </trkpt>
      <trkpt lat="36.67528135189634" lon="117.02685994055688">
        <ele>26.3</ele>
        <time>2023-06-20T12:20:43Z</time>
      </trkpt>
      <trkpt lat="36.67518051102723" lon="117.02682309278151">
        <ele>26.5</ele>
        <time>2023-06-20T12:20:49Z</time>
      </trkpt>
      <trkpt lat="36.67513052388109" lon="117.0268300718037">
        <ele>27.4</ele>
        <time>2023-06-20T12:20:58Z</time>
      </trkpt>
      <trkpt lat="36.67509138672375" lon="117.02689184034244">
        <ele>27.5</ele>
        <time>2023-06-20T12:21:04Z</time>
      </trkpt>
      <trkpt lat="36.67507824650754" lon="117.02694862506884">
        <ele>27.099999999999998</ele>
        <time>2023-06-20T12:21:22Z</time>
      </trkpt>
      <trkpt lat="36.67499549584576" lon="117.026872923484">
        <ele>25.9</ele>
        <time>2023-06-20T12:22:01Z</time>
      </trkpt>
      <trkpt lat="36.674988659022915" lon="117.0268121563851">
        <ele>26.7</ele>
        <time>2023-06-20T12:22:13Z</time>
      </trkpt>
      <trkpt lat="36.674951562239556" lon="117.02685798553073">
        <ele>28.8</ele>
        <time>2023-06-20T12:22:40Z</time>
      </trkpt>
      <trkpt lat="36.67484960740694" lon="117.02686497044864">
        <ele>26.599999999999998</ele>
        <time>2023-06-20T12:23:55Z</time>
      </trkpt>
      <trkpt lat="36.67474065431462" lon="117.02687295235667">
        <ele>26.0</ele>
        <time>2023-06-20T12:24:07Z</time>
      </trkpt>
      <trkpt lat="36.6746716217123" lon="117.02690184986496">
        <ele>26.3</ele>
        <time>2023-06-20T12:24:16Z</time>
      </trkpt>
      <trkpt lat="36.6745537080324" lon="117.02689688224167">
        <ele>27.5</ele>
        <time>2023-06-20T12:24:28Z</time>
      </trkpt>
      <trkpt lat="36.674416616235256" lon="117.02696463920518">
        <ele>28.8</ele>
        <time>2023-06-20T12:24:46Z</time>
      </trkpt>
      <trkpt lat="36.67434669092038" lon="117.02695269274649">
        <ele>29.8</ele>
        <time>2023-06-20T12:24:52Z</time>
      </trkpt>
      <trkpt lat="36.67428364683187" lon="117.02698457824938">
        <ele>30.8</ele>
        <time>2023-06-20T12:24:58Z</time>
      </trkpt>
      <trkpt lat="36.67423870077886" lon="117.02697462135062">
        <ele>29.7</ele>
        <time>2023-06-20T12:25:10Z</time>
      </trkpt>
      <trkpt lat="36.67419074878829" lon="117.02696765339164">
        <ele>24.9</ele>
        <time>2023-06-20T12:25:34Z</time>
      </trkpt>
      <trkpt lat="36.67413470295833" lon="117.0269985419176">
        <ele>25.4</ele>
        <time>2023-06-20T12:25:40Z</time>
      </trkpt>
      <trkpt lat="36.67403074673304" lon="117.02700652329466">
        <ele>25.4</ele>
        <time>2023-06-20T12:25:52Z</time>
      </trkpt>
      <trkpt lat="36.67398170177959" lon="117.02703541866482">
        <ele>25.099999999999998</ele>
        <time>2023-06-20T12:26:01Z</time>
      </trkpt>
      <trkpt lat="36.67381664313161" lon="117.02709720188629">
        <ele>28.5</ele>
        <time>2023-06-20T12:26:22Z</time>
      </trkpt>
      <trkpt lat="36.67354278460538" lon="117.02710819114952">
        <ele>23.8</ele>
        <time>2023-06-20T12:26:49Z</time>
      </trkpt>
      <trkpt lat="36.67334873882205" lon="117.02717197021413">
        <ele>26.9</ele>
        <time>2023-06-20T12:27:25Z</time>
      </trkpt>
      <trkpt lat="36.67327073271395" lon="117.02719289937306">
        <ele>33.7</ele>
        <time>2023-06-20T12:29:20Z</time>
      </trkpt>
      <trkpt lat="36.673382839731524" lon="117.02712514473266">
        <ele>30.900000000000002</ele>
        <time>2023-06-20T12:29:38Z</time>
      </trkpt>
      <trkpt lat="36.673430028761395" lon="117.02704145837521">
        <ele>29.400000000000002</ele>
        <time>2023-06-20T12:29:44Z</time>
      </trkpt>
      <trkpt lat="36.67347032636526" lon="117.02691792511497">
        <ele>26.5</ele>
        <time>2023-06-20T12:29:56Z</time>
      </trkpt>
      <trkpt lat="36.67346985306758" lon="117.02671669399953">
        <ele>24.2</ele>
        <time>2023-06-20T12:30:08Z</time>
      </trkpt>
      <trkpt lat="36.673489002960046" lon="117.02665492807044">
        <ele>24.099999999999998</ele>
        <time>2023-06-20T12:30:14Z</time>
      </trkpt>
      <trkpt lat="36.67347850064379" lon="117.02646764635182">
        <ele>23.3</ele>
        <time>2023-06-20T12:30:26Z</time>
      </trkpt>
      <trkpt lat="36.673496635863295" lon="117.02641185811704">
        <ele>25.599999999999998</ele>
        <time>2023-06-20T12:31:02Z</time>
      </trkpt>
      <trkpt lat="36.67347484569267" lon="117.02633714710628">
        <ele>27.2</ele>
        <time>2023-06-20T12:31:20Z</time>
      </trkpt>
      <trkpt lat="36.67346616022141" lon="117.02621959924397">
        <ele>28.7</ele>
        <time>2023-06-20T12:31:29Z</time>
      </trkpt>
      <trkpt lat="36.673350738253106" lon="117.02602735116693">
        <ele>29.599999999999998</ele>
        <time>2023-06-20T12:31:44Z</time>
      </trkpt>
      <trkpt lat="36.67328487106859" lon="117.02599249274004">
        <ele>29.099999999999998</ele>
        <time>2023-06-20T12:31:50Z</time>
      </trkpt>
      <trkpt lat="36.673061136045895" lon="117.02594470206624">
        <ele>22.7</ele>
        <time>2023-06-20T12:32:08Z</time>
      </trkpt>
      <trkpt lat="36.672903047461105" lon="117.0256369061242">
        <ele>20.7</ele>
        <time>2023-06-20T12:32:35Z</time>
      </trkpt>
      <trkpt lat="36.67289045359201" lon="117.02548648827376">
        <ele>22.599999999999998</ele>
        <time>2023-06-20T12:32:44Z</time>
      </trkpt>
      <trkpt lat="36.67296152567017" lon="117.0254426495778">
        <ele>23.2</ele>
        <time>2023-06-20T12:32:50Z</time>
      </trkpt>
      <trkpt lat="36.67297490583806" lon="117.02529621428151">
        <ele>22.9</ele>
        <time>2023-06-20T12:33:05Z</time>
      </trkpt>
      <trkpt lat="36.672896415045706" lon="117.02512289424395">
        <ele>26.4</ele>
        <time>2023-06-20T12:33:17Z</time>
      </trkpt>
      <trkpt lat="36.672873943305234" lon="117.02492964609284">
        <ele>24.7</ele>
        <time>2023-06-20T12:33:29Z</time>
      </trkpt>
      <trkpt lat="36.67279525228119" lon="117.02483203395057">
        <ele>23.2</ele>
        <time>2023-06-20T12:33:38Z</time>
      </trkpt>
      <trkpt lat="36.6727954726669" lon="117.02474935510206">
        <ele>23.9</ele>
        <time>2023-06-20T12:33:44Z</time>
      </trkpt>
      <trkpt lat="36.67283556742498" lon="117.02470452478342">
        <ele>25.0</ele>
        <time>2023-06-20T12:33:53Z</time>
      </trkpt>
      <trkpt lat="36.6728007220211" lon="117.02465472237577">
        <ele>27.4</ele>
        <time>2023-06-20T12:34:23Z</time>
      </trkpt>
      <trkpt lat="36.67275530404071" lon="117.02444753390367">
        <ele>31.900000000000002</ele>
        <time>2023-06-20T12:35:05Z</time>
      </trkpt>
      <trkpt lat="36.672665642303905" lon="117.02434195549756">
        <ele>29.900000000000002</ele>
        <time>2023-06-20T12:35:17Z</time>
      </trkpt>
      <trkpt lat="36.67263583424766" lon="117.0242772113397">
        <ele>29.3</ele>
        <time>2023-06-20T12:35:23Z</time>
      </trkpt>
      <trkpt lat="36.67263501632526" lon="117.02420947568899">
        <ele>30.599999999999998</ele>
        <time>2023-06-20T12:35:32Z</time>
      </trkpt>
      <trkpt lat="36.6725611699428" lon="117.02379709586641">
        <ele>33.1</ele>
        <time>2023-06-20T12:35:59Z</time>
      </trkpt>
      <trkpt lat="36.67251015743313" lon="117.023442491688">
        <ele>24.099999999999998</ele>
        <time>2023-06-20T12:36:23Z</time>
      </trkpt>
      <trkpt lat="36.672495605100174" lon="117.02328013102498">
        <ele>25.099999999999998</ele>
        <time>2023-06-20T12:36:35Z</time>
      </trkpt>
      <trkpt lat="36.672444940968624" lon="117.02316757928754">
        <ele>23.4</ele>
        <time>2023-06-20T12:36:44Z</time>
      </trkpt>
      <trkpt lat="36.672419302089885" lon="117.02304008390836">
        <ele>27.8</ele>
        <time>2023-06-20T12:37:26Z</time>
      </trkpt>
      <trkpt lat="36.672420544281536" lon="117.02295043682311">
        <ele>29.499999999999996</ele>
        <time>2023-06-20T12:37:38Z</time>
      </trkpt>
      <trkpt lat="36.6724508578346" lon="117.02282791628008">
        <ele>26.7</ele>
        <time>2023-06-20T12:37:50Z</time>
      </trkpt>
      <trkpt lat="36.672435019083935" lon="117.0227721380645">
        <ele>28.599999999999998</ele>
        <time>2023-06-20T12:38:05Z</time>
      </trkpt>
      <trkpt lat="36.67241336265763" lon="117.02265062009425">
        <ele>31.2</ele>
        <time>2023-06-20T12:38:17Z</time>
      </trkpt>
      <trkpt lat="36.672434528278835" lon="117.02258487732314">
        <ele>31.3</ele>
        <time>2023-06-20T12:38:23Z</time>
      </trkpt>
      <trkpt lat="36.67246060839403" lon="117.02218246626097">
        <ele>35.5</ele>
        <time>2023-06-20T12:38:50Z</time>
      </trkpt>
      <trkpt lat="36.67246480699397" lon="117.02210875786675">
        <ele>34.5</ele>
        <time>2023-06-20T12:38:53Z</time>
      </trkpt>
      <trkpt lat="36.672523198069115" lon="117.02195237145708">
        <ele>29.599999999999998</ele>
        <time>2023-06-20T12:39:05Z</time>
      </trkpt>
      <trkpt lat="36.67261542149482" lon="117.02184976828272">
        <ele>26.599999999999998</ele>
        <time>2023-06-20T12:39:23Z</time>
      </trkpt>
      <trkpt lat="36.672815469170324" lon="117.0217869949121">
        <ele>30.8</ele>
        <time>2023-06-20T12:39:47Z</time>
      </trkpt>
      <trkpt lat="36.6728795276175" lon="117.0217511301443">
        <ele>30.499999999999996</ele>
        <time>2023-06-20T12:39:56Z</time>
      </trkpt>
      <trkpt lat="36.672987425216824" lon="117.02176406649686">
        <ele>27.9</ele>
        <time>2023-06-20T12:40:02Z</time>
      </trkpt>
      <trkpt lat="36.6730245113238" lon="117.02172422063579">
        <ele>27.0</ele>
        <time>2023-06-20T12:40:08Z</time>
      </trkpt>
      <trkpt lat="36.67292750043826" lon="117.02138557918494">
        <ele>27.4</ele>
        <time>2023-06-20T12:40:32Z</time>
      </trkpt>
      <trkpt lat="36.67293112801285" lon="117.0211564921674">
        <ele>25.8</ele>
        <time>2023-06-20T12:40:50Z</time>
      </trkpt>
      <trkpt lat="36.67285022679199" lon="117.0207760214923">
        <ele>24.2</ele>
        <time>2023-06-20T12:41:17Z</time>
      </trkpt>
      <trkpt lat="36.67279427461652" lon="117.02040949597144">
        <ele>19.099999999999998</ele>
        <time>2023-06-20T12:41:44Z</time>
      </trkpt>
      <trkpt lat="36.6727687483932" lon="117.02024416229384">
        <ele>20.599999999999998</ele>
        <time>2023-06-20T12:41:59Z</time>
      </trkpt>
      <trkpt lat="36.67275428222855" lon="117.02005492417277">
        <ele>21.3</ele>
        <time>2023-06-20T12:42:14Z</time>
      </trkpt>
      <trkpt lat="36.672654171813534" lon="117.01975713376535">
        <ele>28.4</ele>
        <time>2023-06-20T12:42:38Z</time>
      </trkpt>
      <trkpt lat="36.67261567808921" lon="117.0195838365051">
        <ele>31.999999999999996</ele>
        <time>2023-06-20T12:42:50Z</time>
      </trkpt>
      <trkpt lat="36.672557044728016" lon="117.01946532120857">
        <ele>26.8</ele>
        <time>2023-06-20T12:43:02Z</time>
      </trkpt>
      <trkpt lat="36.67251421977784" lon="117.01905398806608">
        <ele>19.8</ele>
        <time>2023-06-20T12:43:26Z</time>
      </trkpt>
      <trkpt lat="36.67242085739067" lon="117.01884683727836">
        <ele>24.599999999999998</ele>
        <time>2023-06-20T12:43:47Z</time>
      </trkpt>
      <trkpt lat="36.67227241549732" lon="117.01868052817055">
        <ele>23.4</ele>
        <time>2023-06-20T12:44:05Z</time>
      </trkpt>
      <trkpt lat="36.672234662367075" lon="117.0186008556166">
        <ele>24.8</ele>
        <time>2023-06-20T12:44:14Z</time>
      </trkpt>
      <trkpt lat="36.672150907125534" lon="117.01853214394264">
        <ele>23.0</ele>
        <time>2023-06-20T12:44:23Z</time>
      </trkpt>
      <trkpt lat="36.67210511166508" lon="117.01846940383705">
        <ele>22.7</ele>
        <time>2023-06-20T12:44:29Z</time>
      </trkpt>
      <trkpt lat="36.67204759224247" lon="117.01831105364174">
        <ele>22.599999999999998</ele>
        <time>2023-06-20T12:44:44Z</time>
      </trkpt>
      <trkpt lat="36.672014758209876" lon="117.01825926787268">
        <ele>22.9</ele>
        <time>2023-06-20T12:44:47Z</time>
      </trkpt>
      <trkpt lat="36.67193239505726" lon="117.01805112398176">
        <ele>25.9</ele>
        <time>2023-06-20T12:45:05Z</time>
      </trkpt>
      <trkpt lat="36.67186964716995" lon="117.01797543925623">
        <ele>26.2</ele>
        <time>2023-06-20T12:45:11Z</time>
      </trkpt>
      <trkpt lat="36.671805678386306" lon="117.01797843430472">
        <ele>27.099999999999998</ele>
        <time>2023-06-20T12:45:20Z</time>
      </trkpt>
      <trkpt lat="36.67177481539167" lon="117.0179366081615">
        <ele>27.8</ele>
        <time>2023-06-20T12:45:26Z</time>
      </trkpt>
      <trkpt lat="36.671721893096176" lon="117.01792067904775">
        <ele>25.2</ele>
        <time>2023-06-20T12:45:32Z</time>
      </trkpt>
      <trkpt lat="36.67168083431712" lon="117.01795056196758">
        <ele>24.8</ele>
        <time>2023-06-20T12:46:29Z</time>
      </trkpt>
      <trkpt lat="36.67163193198166" lon="117.01792666485237">
        <ele>27.5</ele>
        <time>2023-06-20T12:46:53Z</time>
      </trkpt>
      <trkpt lat="36.67151287380375" lon="117.01797348761814">
        <ele>29.2</ele>
        <time>2023-06-20T12:47:08Z</time>
      </trkpt>
      <trkpt lat="36.671474981474475" lon="117.01794361358812">
        <ele>28.4</ele>
        <time>2023-06-20T12:47:14Z</time>
      </trkpt>
      <trkpt lat="36.67142954048786" lon="117.01775538589101">
        <ele>25.599999999999998</ele>
        <time>2023-06-20T12:47:32Z</time>
      </trkpt>
      <trkpt lat="36.67143290957434" lon="117.01762392182376">
        <ele>24.0</ele>
        <time>2023-06-20T12:47:44Z</time>
      </trkpt>
      <trkpt lat="36.67142227921587" lon="117.01749544754698">
        <ele>23.7</ele>
        <time>2023-06-20T12:47:56Z</time>
      </trkpt>
      <trkpt lat="36.67138539779843" lon="117.01746159001904">
        <ele>22.599999999999998</ele>
        <time>2023-06-20T12:48:26Z</time>
      </trkpt>
      <trkpt lat="36.67157431459063" lon="117.01744961753441">
        <ele>24.099999999999998</ele>
        <time>2023-06-20T12:48:44Z</time>
      </trkpt>
      <trkpt lat="36.671530246136406" lon="117.01748348418258">
        <ele>25.099999999999998</ele>
        <time>2023-06-20T12:48:56Z</time>
      </trkpt>
      <trkpt lat="36.67142319700222" lon="117.01752432949279">
        <ele>24.599999999999998</ele>
        <time>2023-06-20T12:49:17Z</time>
      </trkpt>
      <trkpt lat="36.67139705838909" lon="117.01757910879624">
        <ele>23.8</ele>
        <time>2023-06-20T12:49:23Z</time>
      </trkpt>
      <trkpt lat="36.67143508478769" lon="117.01791573169065">
        <ele>25.2</ele>
        <time>2023-06-20T12:49:56Z</time>
      </trkpt>
      <trkpt lat="36.671485758716365" lon="117.01802030006498">
        <ele>24.7</ele>
        <time>2023-06-20T12:50:14Z</time>
      </trkpt>
      <trkpt lat="36.671552677992764" lon="117.01803423574748">
        <ele>24.9</ele>
        <time>2023-06-20T12:50:23Z</time>
      </trkpt>
      <trkpt lat="36.67165284884674" lon="117.01795156106805">
        <ele>25.9</ele>
        <time>2023-06-20T12:50:38Z</time>
      </trkpt>
      <trkpt lat="36.67182389167091" lon="117.01789875681045">
        <ele>25.4</ele>
        <time>2023-06-20T12:50:53Z</time>
      </trkpt>
      <trkpt lat="36.67187901198047" lon="117.01784397381698">
        <ele>25.2</ele>
        <time>2023-06-20T12:50:59Z</time>
      </trkpt>
      <trkpt lat="36.67189517896453" lon="117.01778122777627">
        <ele>24.7</ele>
        <time>2023-06-20T12:51:05Z</time>
      </trkpt>
      <trkpt lat="36.67192928430728" lon="117.01773640668941">
        <ele>25.5</ele>
        <time>2023-06-20T12:51:11Z</time>
      </trkpt>
      <trkpt lat="36.671920739609796" lon="117.01757705785936">
        <ele>27.2</ele>
        <time>2023-06-20T12:51:23Z</time>
      </trkpt>
      <trkpt lat="36.671944977933414" lon="117.01748742113372">
        <ele>27.0</ele>
        <time>2023-06-20T12:51:29Z</time>
      </trkpt>
      <trkpt lat="36.6719353670104" lon="117.01735197566023">
        <ele>23.4</ele>
        <time>2023-06-20T12:51:41Z</time>
      </trkpt>
      <trkpt lat="36.671969582615425" lon="117.01726831385109">
        <ele>22.8</ele>
        <time>2023-06-20T12:51:47Z</time>
      </trkpt>
      <trkpt lat="36.67195274817238" lon="117.01721353980047">
        <ele>23.5</ele>
        <time>2023-06-20T12:51:53Z</time>
      </trkpt>
      <trkpt lat="36.6719749996367" lon="117.01711992037806">
        <ele>24.3</ele>
        <time>2023-06-20T12:51:59Z</time>
      </trkpt>
      <trkpt lat="36.67207920330024" lon="117.01702529599906">
        <ele>25.9</ele>
        <time>2023-06-20T12:52:14Z</time>
      </trkpt>
      <trkpt lat="36.67234429043247" lon="117.01693662920394">
        <ele>26.8</ele>
        <time>2023-06-20T12:52:41Z</time>
      </trkpt>
      <trkpt lat="36.67267721118539" lon="117.01689177532204">
        <ele>26.9</ele>
        <time>2023-06-20T12:53:14Z</time>
      </trkpt>
      <trkpt lat="36.67273820445293" lon="117.01688081334598">
        <ele>27.099999999999998</ele>
        <time>2023-06-20T12:53:20Z</time>
      </trkpt>
      <trkpt lat="36.672924431155906" lon="117.01676028645039">
        <ele>25.0</ele>
        <time>2023-06-20T12:53:38Z</time>
      </trkpt>
      <trkpt lat="36.6729405739563" lon="117.01670650524792">
        <ele>22.599999999999998</ele>
        <time>2023-06-20T12:54:08Z</time>
      </trkpt>
      <trkpt lat="36.672911764518815" lon="117.01664575779289">
        <ele>21.3</ele>
        <time>2023-06-20T12:54:14Z</time>
      </trkpt>
      <trkpt lat="36.67291400387565" lon="117.01656110506268">
        <ele>22.4</ele>
        <time>2023-06-20T12:54:20Z</time>
      </trkpt>
      <trkpt lat="36.672880223192855" lon="117.01649139518955">
        <ele>22.4</ele>
        <time>2023-06-20T12:54:26Z</time>
      </trkpt>
      <trkpt lat="36.6728868317378" lon="117.01627627864082">
        <ele>22.5</ele>
        <time>2023-06-20T12:54:44Z</time>
      </trkpt>
      <trkpt lat="36.672903048796464" lon="117.01619660455975">
        <ele>22.5</ele>
        <time>2023-06-20T12:54:50Z</time>
      </trkpt>
      <trkpt lat="36.67289507719607" lon="117.01583808208905">
        <ele>22.599999999999998</ele>
        <time>2023-06-20T12:55:14Z</time>
      </trkpt>
      <trkpt lat="36.672900301701816" lon="117.01575841003056">
        <ele>22.4</ele>
        <time>2023-06-20T12:55:23Z</time>
      </trkpt>
      <trkpt lat="36.67286199512333" lon="117.01552438021768">
        <ele>23.099999999999998</ele>
        <time>2023-06-20T12:55:38Z</time>
      </trkpt>
      <trkpt lat="36.672885160442014" lon="117.01546163674759">
        <ele>22.599999999999998</ele>
        <time>2023-06-20T12:55:44Z</time>
      </trkpt>
      <trkpt lat="36.67286871869188" lon="117.01527042889188">
        <ele>24.0</ele>
        <time>2023-06-20T12:55:59Z</time>
      </trkpt>
      <trkpt lat="36.672917108703224" lon="117.01512402904376">
        <ele>25.9</ele>
        <time>2023-06-20T12:56:11Z</time>
      </trkpt>
      <trkpt lat="36.67294221501416" lon="117.01473364341173">
        <ele>25.599999999999998</ele>
        <time>2023-06-20T12:56:41Z</time>
      </trkpt>
      <trkpt lat="36.6729324789973" lon="117.01464401626141">
        <ele>25.7</ele>
        <time>2023-06-20T12:56:47Z</time>
      </trkpt>
      <trkpt lat="36.67286998527537" lon="117.0144816970171">
        <ele>27.7</ele>
        <time>2023-06-20T12:56:59Z</time>
      </trkpt>
      <trkpt lat="36.672870266392785" lon="117.01438410230777">
        <ele>28.099999999999998</ele>
        <time>2023-06-20T12:57:05Z</time>
      </trkpt>
      <trkpt lat="36.672907381201746" lon="117.0143362967255">
        <ele>25.0</ele>
        <time>2023-06-20T12:57:14Z</time>
      </trkpt>
      <trkpt lat="36.67287459112703" lon="117.0142705735679">
        <ele>23.4</ele>
        <time>2023-06-20T12:57:32Z</time>
      </trkpt>
      <trkpt lat="36.67287979479905" lon="117.01419887106525">
        <ele>22.4</ele>
        <time>2023-06-20T12:57:38Z</time>
      </trkpt>
      <trkpt lat="36.67286397709341" lon="117.01413912133052">
        <ele>22.8</ele>
        <time>2023-06-20T12:57:44Z</time>
      </trkpt>
      <trkpt lat="36.67286925854086" lon="117.01404053089504">
        <ele>21.9</ele>
        <time>2023-06-20T12:57:50Z</time>
      </trkpt>
      <trkpt lat="36.6729172712207" lon="117.0136800269537">
        <ele>19.9</ele>
        <time>2023-06-20T12:58:14Z</time>
      </trkpt>
      <trkpt lat="36.67290455879986" lon="117.01358343115805">
        <ele>19.3</ele>
        <time>2023-06-20T12:58:20Z</time>
      </trkpt>
      <trkpt lat="36.67288171720008" lon="117.01353364141771">
        <ele>19.099999999999998</ele>
        <time>2023-06-20T12:58:26Z</time>
      </trkpt>
      <trkpt lat="36.67287297367919" lon="117.0134470038975">
        <ele>19.0</ele>
        <time>2023-06-20T12:58:32Z</time>
      </trkpt>
      <trkpt lat="36.67289913932038" lon="117.01338426281795">
        <ele>19.0</ele>
        <time>2023-06-20T12:58:38Z</time>
      </trkpt>
      <trkpt lat="36.672950254885556" lon="117.01333346910803">
        <ele>19.7</ele>
        <time>2023-06-20T12:58:47Z</time>
      </trkpt>
      <trkpt lat="36.67297941589093" lon="117.01327172367357">
        <ele>19.5</ele>
        <time>2023-06-20T12:58:53Z</time>
      </trkpt>
      <trkpt lat="36.6730575234658" lon="117.01321793952036">
        <ele>21.8</ele>
        <time>2023-06-20T12:59:05Z</time>
      </trkpt>
      <trkpt lat="36.67309172482036" lon="117.01314125608778">
        <ele>23.0</ele>
        <time>2023-06-20T12:59:11Z</time>
      </trkpt>
      <trkpt lat="36.673102010528886" lon="117.01304067539246">
        <ele>24.099999999999998</ele>
        <time>2023-06-20T12:59:17Z</time>
      </trkpt>
      <trkpt lat="36.673075183407676" lon="117.01298690329465">
        <ele>24.599999999999998</ele>
        <time>2023-06-20T12:59:23Z</time>
      </trkpt>
      <trkpt lat="36.67302432782501" lon="117.01294807146864">
        <ele>24.3</ele>
        <time>2023-06-20T12:59:29Z</time>
      </trkpt>
      <trkpt lat="36.67276360534881" lon="117.01290826745765">
        <ele>20.5</ele>
        <time>2023-06-20T12:59:50Z</time>
      </trkpt>
      <trkpt lat="36.672477226039895" lon="117.01275593738765">
        <ele>24.0</ele>
        <time>2023-06-20T13:00:23Z</time>
      </trkpt>
      <trkpt lat="36.672260050643665" lon="117.01251895468847">
        <ele>18.4</ele>
        <time>2023-06-20T13:00:50Z</time>
      </trkpt>
      <trkpt lat="36.672113959818546" lon="117.01223814892056">
        <ele>19.8</ele>
        <time>2023-06-20T13:01:14Z</time>
      </trkpt>
      <trkpt lat="36.672069341994444" lon="117.01211666394096">
        <ele>19.8</ele>
        <time>2023-06-20T13:01:26Z</time>
      </trkpt>
      <trkpt lat="36.67204486899157" lon="117.01194140291597">
        <ele>19.5</ele>
        <time>2023-06-20T13:01:38Z</time>
      </trkpt>
      <trkpt lat="36.67202967031127" lon="117.0116705435345">
        <ele>20.2</ele>
        <time>2023-06-20T13:01:56Z</time>
      </trkpt>
      <trkpt lat="36.672049873419525" lon="117.01159685134391">
        <ele>19.8</ele>
        <time>2023-06-20T13:02:02Z</time>
      </trkpt>
      <trkpt lat="36.67204170092384" lon="117.01131603482244">
        <ele>21.3</ele>
        <time>2023-06-20T13:02:23Z</time>
      </trkpt>
      <trkpt lat="36.67208412132267" lon="117.0111636722429">
        <ele>20.9</ele>
        <time>2023-06-20T13:02:35Z</time>
      </trkpt>
      <trkpt lat="36.67216146487299" lon="117.01103022632496">
        <ele>18.9</ele>
        <time>2023-06-20T13:02:53Z</time>
      </trkpt>
      <trkpt lat="36.67212414006602" lon="117.01080816777645">
        <ele>21.2</ele>
        <time>2023-06-20T13:03:11Z</time>
      </trkpt>
      <trkpt lat="36.6720993105295" lon="117.01075539344932">
        <ele>21.8</ele>
        <time>2023-06-20T13:03:14Z</time>
      </trkpt>
      <trkpt lat="36.67212247762744" lon="117.01069365163508">
        <ele>23.8</ele>
        <time>2023-06-20T13:03:20Z</time>
      </trkpt>
      <trkpt lat="36.67210369712894" lon="117.01062295247358">
        <ele>25.099999999999998</ele>
        <time>2023-06-20T13:03:26Z</time>
      </trkpt>
      <trkpt lat="36.67216212958348" lon="117.01046361940668">
        <ele>23.7</ele>
        <time>2023-06-20T13:03:38Z</time>
      </trkpt>
      <trkpt lat="36.67216141725653" lon="117.0103660322193">
        <ele>20.599999999999998</ele>
        <time>2023-06-20T13:03:47Z</time>
      </trkpt>
      <trkpt lat="36.672184581750386" lon="117.01030528660175">
        <ele>19.2</ele>
        <time>2023-06-20T13:03:53Z</time>
      </trkpt>
      <trkpt lat="36.672299774315064" lon="117.010215652928">
        <ele>20.2</ele>
        <time>2023-06-20T13:04:20Z</time>
      </trkpt>
      <trkpt lat="36.67227971927814" lon="117.0102385582438">
        <ele>21.099999999999998</ele>
        <time>2023-06-20T13:04:23Z</time>
      </trkpt>
      <trkpt lat="36.67221873068506" lon="117.01024752716857">
        <ele>21.8</ele>
        <time>2023-06-20T13:04:29Z</time>
      </trkpt>
      <trkpt lat="36.67217462311295" lon="117.010293338283">
        <ele>22.099999999999998</ele>
        <time>2023-06-20T13:04:35Z</time>
      </trkpt>
      <trkpt lat="36.67215421654114" lon="117.01043573820328">
        <ele>23.3</ele>
        <time>2023-06-20T13:04:47Z</time>
      </trkpt>
      <trkpt lat="36.67211695249836" lon="117.0105333297748">
        <ele>23.7</ele>
        <time>2023-06-20T13:04:53Z</time>
      </trkpt>
      <trkpt lat="36.672121656717366" lon="117.01063290837523">
        <ele>23.9</ele>
        <time>2023-06-20T13:04:59Z</time>
      </trkpt>
      <trkpt lat="36.672147476768735" lon="117.01068866985906">
        <ele>24.2</ele>
        <time>2023-06-20T13:05:05Z</time>
      </trkpt>
      <trkpt lat="36.67222044032462" lon="117.01068567427745">
        <ele>25.599999999999998</ele>
        <time>2023-06-20T13:05:11Z</time>
      </trkpt>
      <trkpt lat="36.672273547927766" lon="117.01063787026125">
        <ele>26.3</ele>
        <time>2023-06-20T13:05:20Z</time>
      </trkpt>
      <trkpt lat="36.67236836033493" lon="117.01068167447656">
        <ele>25.2</ele>
        <time>2023-06-20T13:05:26Z</time>
      </trkpt>
      <trkpt lat="36.67240910970849" lon="117.01075834600377">
        <ele>23.9</ele>
        <time>2023-06-20T13:05:29Z</time>
      </trkpt>
      <trkpt lat="36.672443737187045" lon="117.01087783754652">
        <ele>21.7</ele>
        <time>2023-06-20T13:05:35Z</time>
      </trkpt>
      <trkpt lat="36.67244452324027" lon="117.01095053063604">
        <ele>22.9</ele>
        <time>2023-06-20T13:05:47Z</time>
      </trkpt>
      <trkpt lat="36.67246940549488" lon="117.01098538076458">
        <ele>22.7</ele>
        <time>2023-06-20T13:05:50Z</time>
      </trkpt>
    </trkseg>
  </trk>
</gpx>