<?xml version="1.0" encoding="UTF-8"?>
<gpx xmlns="http://www.topografix.com/GPX/1/1" xmlns:gpxtpx="http://www.garmin.com/xmlschemas/TrackPointExtension/v1" xmlns:xsi="http://www.w3.org/2001/XMLSchema-instance" xsi:schemaLocation="http://www.topografix.com/GPX/1/1 http://www.topografix.com/GPX/1/1/gpx.xsd" version="1.1" creator="gpx.py -- https://github.com/tkrajina/gpxpy">
  <trk>
    <name>gpx from keep</name>
    <type>Walk</type>
    <trkseg>
      <trkpt lat="39.92451930471624" lon="116.46023574333468">
        <ele>-0.40000000000000036</ele>
        <time>2023-02-20T03:54:16Z</time>
      </trkpt>
      <trkpt lat="39.92464116011434" lon="116.46018054806147">
        <ele>0.2999999999999998</ele>
        <time>2023-02-20T03:54:22Z</time>
      </trkpt>
      <trkpt lat="39.924700200827786" lon="116.46019759622148">
        <ele>1.2999999999999998</ele>
        <time>2023-02-20T03:54:25Z</time>
      </trkpt>
      <trkpt lat="39.92486151671602" lon="116.46032499155739">
        <ele>14.9</ele>
        <time>2023-02-20T03:54:37Z</time>
      </trkpt>
      <trkpt lat="39.92490655298693" lon="116.46034003501096">
        <ele>16.299999999999997</ele>
        <time>2023-02-20T03:54:40Z</time>
      </trkpt>
      <trkpt lat="39.92508423074486" lon="116.46021560670717">
        <ele>17.1</ele>
        <time>2023-02-20T03:54:58Z</time>
      </trkpt>
      <trkpt lat="39.925129048754" lon="116.46014436886522">
        <ele>17.4</ele>
        <time>2023-02-20T03:55:04Z</time>
      </trkpt>
      <trkpt lat="39.92515265749021" lon="116.45998986282177">
        <ele>16.700000000000003</ele>
        <time>2023-02-20T03:55:16Z</time>
      </trkpt>
      <trkpt lat="39.925222371172715" lon="116.45987748865375">
        <ele>17.200000000000003</ele>
        <time>2023-02-20T03:55:28Z</time>
      </trkpt>
      <trkpt lat="39.925357282183825" lon="116.45984436407079">
        <ele>17.200000000000003</ele>
        <time>2023-02-20T03:55:40Z</time>
      </trkpt>
      <trkpt lat="39.92550930376588" lon="116.45985538076573">
        <ele>18.6</ele>
        <time>2023-02-20T03:55:52Z</time>
      </trkpt>
      <trkpt lat="39.925581199688" lon="116.45981524133812">
        <ele>19.4</ele>
        <time>2023-02-20T03:55:58Z</time>
      </trkpt>
      <trkpt lat="39.9257915624858" lon="116.4595654044764">
        <ele>8.7</ele>
        <time>2023-02-20T03:56:16Z</time>
      </trkpt>
      <trkpt lat="39.925906722237926" lon="116.45923231268314">
        <ele>-1.7000000000000002</ele>
        <time>2023-02-20T03:56:40Z</time>
      </trkpt>
      <trkpt lat="39.925966902231934" lon="116.45890525086048">
        <ele>-0.8000000000000007</ele>
        <time>2023-02-20T03:56:58Z</time>
      </trkpt>
      <trkpt lat="39.92594118593562" lon="116.45861732894231">
        <ele>2.5999999999999996</ele>
        <time>2023-02-20T03:57:16Z</time>
      </trkpt>
      <trkpt lat="39.92590189575145" lon="116.45849995753964">
        <ele>5.1</ele>
        <time>2023-02-20T03:57:22Z</time>
      </trkpt>
      <trkpt lat="39.92591615615049" lon="116.45820200246325">
        <ele>11.9</ele>
        <time>2023-02-20T03:57:37Z</time>
      </trkpt>
      <trkpt lat="39.92595395347483" lon="116.45812073823387">
        <ele>15.499999999999998</ele>
        <time>2023-02-20T03:57:43Z</time>
      </trkpt>
      <trkpt lat="39.925980964284506" lon="116.45772046002433">
        <ele>21.5</ele>
        <time>2023-02-20T03:58:07Z</time>
      </trkpt>
      <trkpt lat="39.926014161379705" lon="116.45739442153248">
        <ele>20.799999999999997</ele>
        <time>2023-02-20T03:58:25Z</time>
      </trkpt>
      <trkpt lat="39.926043926423816" lon="116.45729911613691">
        <ele>21.0</ele>
        <time>2023-02-20T03:58:31Z</time>
      </trkpt>
      <trkpt lat="39.926011416882574" lon="116.45709046090734">
        <ele>20.9</ele>
        <time>2023-02-20T03:58:43Z</time>
      </trkpt>
      <trkpt lat="39.926014232859124" lon="116.45701522318505">
        <ele>24.0</ele>
        <time>2023-02-20T03:58:49Z</time>
      </trkpt>
      <trkpt lat="39.92599198391124" lon="116.45691290349109">
        <ele>23.9</ele>
        <time>2023-02-20T03:58:52Z</time>
      </trkpt>
      <trkpt lat="39.925843434999514" lon="116.45668520583186">
        <ele>24.0</ele>
        <time>2023-02-20T03:59:04Z</time>
      </trkpt>
      <trkpt lat="39.92571620350394" lon="116.45658791631618">
        <ele>27.1</ele>
        <time>2023-02-20T03:59:13Z</time>
      </trkpt>
      <trkpt lat="39.92557618973078" lon="116.45657990879766">
        <ele>29.4</ele>
        <time>2023-02-20T03:59:25Z</time>
      </trkpt>
      <trkpt lat="39.92551213871232" lon="116.45655784762855">
        <ele>32.6</ele>
        <time>2023-02-20T03:59:31Z</time>
      </trkpt>
      <trkpt lat="39.925423952248295" lon="116.45647961336729">
        <ele>36.1</ele>
        <time>2023-02-20T03:59:40Z</time>
      </trkpt>
      <trkpt lat="39.925126738033654" lon="116.45638635857834">
        <ele>38.1</ele>
        <time>2023-02-20T04:00:01Z</time>
      </trkpt>
      <trkpt lat="39.92502862530315" lon="116.45633822021881">
        <ele>38.7</ele>
        <time>2023-02-20T04:00:07Z</time>
      </trkpt>
      <trkpt lat="39.924963613381465" lon="116.45633220958631">
        <ele>37.6</ele>
        <time>2023-02-20T04:00:13Z</time>
      </trkpt>
      <trkpt lat="39.92485342590151" lon="116.45625297559431">
        <ele>36.300000000000004</ele>
        <time>2023-02-20T04:00:22Z</time>
      </trkpt>
      <trkpt lat="39.92475416050544" lon="116.45614164018872">
        <ele>34.300000000000004</ele>
        <time>2023-02-20T04:00:28Z</time>
      </trkpt>
      <trkpt lat="39.92470711877282" lon="116.45612358974573">
        <ele>33.5</ele>
        <time>2023-02-20T04:00:31Z</time>
      </trkpt>
      <trkpt lat="39.924614137146" lon="116.45612962027236">
        <ele>33.300000000000004</ele>
        <time>2023-02-20T04:00:37Z</time>
      </trkpt>
      <trkpt lat="39.92447529330143" lon="116.45619183205379">
        <ele>31.200000000000003</ele>
        <time>2023-02-20T04:00:46Z</time>
      </trkpt>
      <trkpt lat="39.924429302474266" lon="116.45619484726096">
        <ele>28.5</ele>
        <time>2023-02-20T04:00:49Z</time>
      </trkpt>
      <trkpt lat="39.92434153197439" lon="116.45628814999392">
        <ele>25.4</ele>
        <time>2023-02-20T04:00:58Z</time>
      </trkpt>
      <trkpt lat="39.92420169089003" lon="116.45635136539042">
        <ele>23.1</ele>
        <time>2023-02-20T04:01:07Z</time>
      </trkpt>
      <trkpt lat="39.924097018920506" lon="116.456484796535">
        <ele>21.299999999999997</ele>
        <time>2023-02-20T04:01:16Z</time>
      </trkpt>
      <trkpt lat="39.9239891451915" lon="116.45653496742871">
        <ele>20.700000000000003</ele>
        <time>2023-02-20T04:01:25Z</time>
      </trkpt>
      <trkpt lat="39.92379108510836" lon="116.4565069043318">
        <ele>20.6</ele>
        <time>2023-02-20T04:01:37Z</time>
      </trkpt>
      <trkpt lat="39.92368919166514" lon="116.45654904933194">
        <ele>21.5</ele>
        <time>2023-02-20T04:01:46Z</time>
      </trkpt>
      <trkpt lat="39.92343627523026" lon="116.45657917567071">
        <ele>21.9</ele>
        <time>2023-02-20T04:02:04Z</time>
      </trkpt>
      <trkpt lat="39.9233883650142" lon="116.4566152950692">
        <ele>22.9</ele>
        <time>2023-02-20T04:02:07Z</time>
      </trkpt>
      <trkpt lat="39.923352522688894" lon="116.45667950122224">
        <ele>23.5</ele>
        <time>2023-02-20T04:02:10Z</time>
      </trkpt>
      <trkpt lat="39.923273506415086" lon="116.45667148598012">
        <ele>22.4</ele>
        <time>2023-02-20T04:02:16Z</time>
      </trkpt>
      <trkpt lat="39.923216328196844" lon="116.45659726009364">
        <ele>20.9</ele>
        <time>2023-02-20T04:02:22Z</time>
      </trkpt>
      <trkpt lat="39.92315829400591" lon="116.45658222018973">
        <ele>20.299999999999997</ele>
        <time>2023-02-20T04:02:25Z</time>
      </trkpt>
      <trkpt lat="39.923106186441494" lon="116.45653708513335">
        <ele>19.4</ele>
        <time>2023-02-20T04:02:31Z</time>
      </trkpt>
      <trkpt lat="39.9230271775138" lon="116.45653207937015">
        <ele>22.200000000000003</ele>
        <time>2023-02-20T04:02:40Z</time>
      </trkpt>
      <trkpt lat="39.92291328948136" lon="116.4565762322149">
        <ele>27.300000000000004</ele>
        <time>2023-02-20T04:02:49Z</time>
      </trkpt>
      <trkpt lat="39.92284340944884" lon="116.45662439217367">
        <ele>28.5</ele>
        <time>2023-02-20T04:02:58Z</time>
      </trkpt>
      <trkpt lat="39.92273679727104" lon="116.45678190055499">
        <ele>30.300000000000004</ele>
        <time>2023-02-20T04:03:07Z</time>
      </trkpt>
      <trkpt lat="39.92261661534938" lon="116.4571149651886">
        <ele>25.799999999999997</ele>
        <time>2023-02-20T04:03:22Z</time>
      </trkpt>
      <trkpt lat="39.92256429585203" lon="116.45739184718771">
        <ele>23.200000000000003</ele>
        <time>2023-02-20T04:03:34Z</time>
      </trkpt>
      <trkpt lat="39.922591647026096" lon="116.45753529834239">
        <ele>21.4</ele>
        <time>2023-02-20T04:03:43Z</time>
      </trkpt>
      <trkpt lat="39.922578844898354" lon="116.45761555459163">
        <ele>21.700000000000003</ele>
        <time>2023-02-20T04:03:46Z</time>
      </trkpt>
      <trkpt lat="39.92249126599327" lon="116.45778510428184">
        <ele>21.799999999999997</ele>
        <time>2023-02-20T04:03:58Z</time>
      </trkpt>
      <trkpt lat="39.92256250302732" lon="116.45788240490658">
        <ele>21.700000000000003</ele>
        <time>2023-02-20T04:04:04Z</time>
      </trkpt>
      <trkpt lat="39.92264564568672" lon="116.45794158289891">
        <ele>22.6</ele>
        <time>2023-02-20T04:04:10Z</time>
      </trkpt>
      <trkpt lat="39.92276669023368" lon="116.45796163155183">
        <ele>23.700000000000003</ele>
        <time>2023-02-20T04:04:16Z</time>
      </trkpt>
      <trkpt lat="39.92295460073407" lon="116.45792850239629">
        <ele>24.200000000000003</ele>
        <time>2023-02-20T04:04:25Z</time>
      </trkpt>
      <trkpt lat="39.923014724597024" lon="116.4579796578099">
        <ele>24.4</ele>
        <time>2023-02-20T04:04:31Z</time>
      </trkpt>
      <trkpt lat="39.92306663624764" lon="116.45834883003704">
        <ele>26.700000000000003</ele>
        <time>2023-02-20T04:04:55Z</time>
      </trkpt>
      <trkpt lat="39.92305395548702" lon="116.4584772427281">
        <ele>28.4</ele>
        <time>2023-02-20T04:05:07Z</time>
      </trkpt>
      <trkpt lat="39.923075918426285" lon="116.45886448302068">
        <ele>24.9</ele>
        <time>2023-02-20T04:05:31Z</time>
      </trkpt>
      <trkpt lat="39.923111292613335" lon="116.45901496297108">
        <ele>24.299999999999997</ele>
        <time>2023-02-20T04:05:40Z</time>
      </trkpt>
      <trkpt lat="39.92309942117095" lon="116.45946541896204">
        <ele>23.799999999999997</ele>
        <time>2023-02-20T04:06:07Z</time>
      </trkpt>
      <trkpt lat="39.92311168524844" lon="116.45957075852016">
        <ele>24.799999999999997</ele>
        <time>2023-02-20T04:06:13Z</time>
      </trkpt>
      <trkpt lat="39.92324215685924" lon="116.45976035698042">
        <ele>23.1</ele>
        <time>2023-02-20T04:06:25Z</time>
      </trkpt>
      <trkpt lat="39.92338439616942" lon="116.45985765509657">
        <ele>22.0</ele>
        <time>2023-02-20T04:06:37Z</time>
      </trkpt>
      <trkpt lat="39.923636965564576" lon="116.4600873706119">
        <ele>22.4</ele>
        <time>2023-02-20T04:07:01Z</time>
      </trkpt>
      <trkpt lat="39.923869458419446" lon="116.46028598886987">
        <ele>21.6</ele>
        <time>2023-02-20T04:07:22Z</time>
      </trkpt>
      <trkpt lat="39.92392953978452" lon="116.46031908934879">
        <ele>20.0</ele>
        <time>2023-02-20T04:07:28Z</time>
      </trkpt>
      <trkpt lat="39.924226410712045" lon="116.4602729013339">
        <ele>19.6</ele>
        <time>2023-02-20T04:07:49Z</time>
      </trkpt>
      <trkpt lat="39.92443719894653" lon="116.46019261301082">
        <ele>23.1</ele>
        <time>2023-02-20T04:08:07Z</time>
      </trkpt>
      <trkpt lat="39.92450220388777" lon="116.46019561463126">
        <ele>22.9</ele>
        <time>2023-02-20T04:08:13Z</time>
      </trkpt>
      <trkpt lat="39.92457728202404" lon="116.46022770985266">
        <ele>21.799999999999997</ele>
        <time>2023-02-20T04:08:19Z</time>
      </trkpt>
      <trkpt lat="39.92487632559602" lon="116.46024974415651">
        <ele>20.5</ele>
        <time>2023-02-20T04:08:40Z</time>
      </trkpt>
      <trkpt lat="39.925027329553835" lon="116.46025373821777">
        <ele>19.799999999999997</ele>
        <time>2023-02-20T04:08:52Z</time>
      </trkpt>
      <trkpt lat="39.92507926141006" lon="116.46022764659358">
        <ele>20.4</ele>
        <time>2023-02-20T04:08:55Z</time>
      </trkpt>
      <trkpt lat="39.92513910161199" lon="116.46016543625834">
        <ele>21.4</ele>
        <time>2023-02-20T04:09:01Z</time>
      </trkpt>
      <trkpt lat="39.92520145551493" lon="116.45991059890439">
        <ele>23.1</ele>
        <time>2023-02-20T04:09:19Z</time>
      </trkpt>
      <trkpt lat="39.92525725594617" lon="116.4598323375673">
        <ele>23.799999999999997</ele>
        <time>2023-02-20T04:09:25Z</time>
      </trkpt>
      <trkpt lat="39.92553921910356" lon="116.45982226943967">
        <ele>23.9</ele>
        <time>2023-02-20T04:09:46Z</time>
      </trkpt>
      <trkpt lat="39.92560808991762" lon="116.45977209786405">
        <ele>23.9</ele>
        <time>2023-02-20T04:09:52Z</time>
      </trkpt>
      <trkpt lat="39.92581231217721" lon="116.45946608024272">
        <ele>22.6</ele>
        <time>2023-02-20T04:10:16Z</time>
      </trkpt>
      <trkpt lat="39.925894906184155" lon="116.45930555073002">
        <ele>20.1</ele>
        <time>2023-02-20T04:10:28Z</time>
      </trkpt>
      <trkpt lat="39.92591597943081" lon="116.45893535414791">
        <ele>19.200000000000003</ele>
        <time>2023-02-20T04:10:52Z</time>
      </trkpt>
      <trkpt lat="39.92593148099927" lon="116.45873571020937">
        <ele>18.1</ele>
        <time>2023-02-20T04:11:04Z</time>
      </trkpt>
      <trkpt lat="39.925939652575984" lon="116.45840264110788">
        <ele>17.1</ele>
        <time>2023-02-20T04:11:22Z</time>
      </trkpt>
      <trkpt lat="39.92596898264475" lon="116.45813277476307">
        <ele>18.5</ele>
        <time>2023-02-20T04:11:37Z</time>
      </trkpt>
      <trkpt lat="39.925927198868806" lon="116.45781476664145">
        <ele>24.700000000000003</ele>
        <time>2023-02-20T04:11:55Z</time>
      </trkpt>
      <trkpt lat="39.9258062806987" lon="116.45743959074939">
        <ele>34.6</ele>
        <time>2023-02-20T04:12:28Z</time>
      </trkpt>
      <trkpt lat="39.92578575264597" lon="116.45722391079424">
        <ele>33.1</ele>
        <time>2023-02-20T04:12:46Z</time>
      </trkpt>
      <trkpt lat="39.925627314894996" lon="116.45704235743173">
        <ele>34.0</ele>
        <time>2023-02-20T04:13:13Z</time>
      </trkpt>
      <trkpt lat="39.925499202491295" lon="116.45699422173996">
        <ele>35.5</ele>
        <time>2023-02-20T04:13:25Z</time>
      </trkpt>
      <trkpt lat="39.92527061235809" lon="116.45674847675396">
        <ele>38.1</ele>
        <time>2023-02-20T04:14:01Z</time>
      </trkpt>
      <trkpt lat="39.925112189249155" lon="116.4565719421646">
        <ele>34.800000000000004</ele>
        <time>2023-02-20T04:14:22Z</time>
      </trkpt>
      <trkpt lat="39.92505422089102" lon="116.45658398725665">
        <ele>34.7</ele>
        <time>2023-02-20T04:14:28Z</time>
      </trkpt>
      <trkpt lat="39.925039365438366" lon="116.45664317494365">
        <ele>36.0</ele>
        <time>2023-02-20T04:14:31Z</time>
      </trkpt>
      <trkpt lat="39.92506357198811" lon="116.4567284398025">
        <ele>37.9</ele>
        <time>2023-02-20T04:14:37Z</time>
      </trkpt>
      <trkpt lat="39.92506379195566" lon="116.45681872372677">
        <ele>36.6</ele>
        <time>2023-02-20T04:14:53Z</time>
      </trkpt>
      <trkpt lat="39.92504392731472" lon="116.45687389990046">
        <ele>32.800000000000004</ele>
        <time>2023-02-20T04:15:01Z</time>
      </trkpt>
      <trkpt lat="39.92504108165128" lon="116.45693709931872">
        <ele>29.700000000000003</ele>
        <time>2023-02-20T04:15:07Z</time>
      </trkpt>
      <trkpt lat="39.92500930836786" lon="116.4570293942685">
        <ele>28.200000000000003</ele>
        <time>2023-02-20T04:15:16Z</time>
      </trkpt>
      <trkpt lat="39.92493554195666" lon="116.45712370114838">
        <ele>27.4</ele>
        <time>2023-02-20T04:15:28Z</time>
      </trkpt>
      <trkpt lat="39.92497691115162" lon="116.45727517459498">
        <ele>26.1</ele>
        <time>2023-02-20T04:15:43Z</time>
      </trkpt>
      <trkpt lat="39.92495929572482" lon="116.45743167217054">
        <ele>25.5</ele>
        <time>2023-02-20T04:15:55Z</time>
      </trkpt>
      <trkpt lat="39.92482439240508" lon="116.4574688068002">
        <ele>28.5</ele>
        <time>2023-02-20T04:16:07Z</time>
      </trkpt>
      <trkpt lat="39.924762530497716" lon="116.4575239895203">
        <ele>30.700000000000003</ele>
        <time>2023-02-20T04:16:13Z</time>
      </trkpt>
      <trkpt lat="39.92473666226356" lon="116.4575771614388">
        <ele>32.6</ele>
        <time>2023-02-20T04:16:19Z</time>
      </trkpt>
      <trkpt lat="39.92475884150707" lon="116.45765039109986">
        <ele>34.2</ele>
        <time>2023-02-20T04:16:25Z</time>
      </trkpt>
      <trkpt lat="39.9247593927416" lon="116.45787410228684">
        <ele>30.700000000000003</ele>
        <time>2023-02-20T04:16:43Z</time>
      </trkpt>
      <trkpt lat="39.92485758680756" lon="116.45795434547996">
        <ele>28.6</ele>
        <time>2023-02-20T04:16:55Z</time>
      </trkpt>
      <trkpt lat="39.9249690906674" lon="116.45815998734061">
        <ele>26.9</ele>
        <time>2023-02-20T04:17:13Z</time>
      </trkpt>
      <trkpt lat="39.925009496595756" lon="116.45832450802052">
        <ele>27.1</ele>
        <time>2023-02-20T04:17:25Z</time>
      </trkpt>
      <trkpt lat="39.92500394502759" lon="116.45850508684696">
        <ele>28.6</ele>
        <time>2023-02-20T04:17:37Z</time>
      </trkpt>
      <trkpt lat="39.924834728462976" lon="116.45881710964498">
        <ele>23.4</ele>
        <time>2023-02-20T04:18:01Z</time>
      </trkpt>
      <trkpt lat="39.92478988541816" lon="116.45887931533701">
        <ele>23.5</ele>
        <time>2023-02-20T04:18:07Z</time>
      </trkpt>
      <trkpt lat="39.92481610969213" lon="116.45896960263846">
        <ele>24.6</ele>
        <time>2023-02-20T04:18:13Z</time>
      </trkpt>
      <trkpt lat="39.92486170982788" lon="116.45921037317059">
        <ele>27.5</ele>
        <time>2023-02-20T04:18:31Z</time>
      </trkpt>
      <trkpt lat="39.9248460598442" lon="116.45934982561849">
        <ele>30.0</ele>
        <time>2023-02-20T04:18:43Z</time>
      </trkpt>
      <trkpt lat="39.92484424864526" lon="116.45942506917551">
        <ele>32.2</ele>
        <time>2023-02-20T04:18:59Z</time>
      </trkpt>
      <trkpt lat="39.92479259841726" lon="116.45956352389776">
        <ele>30.800000000000004</ele>
        <time>2023-02-20T04:19:13Z</time>
      </trkpt>
      <trkpt lat="39.92480897115342" lon="116.45971200322353">
        <ele>33.300000000000004</ele>
        <time>2023-02-20T04:19:28Z</time>
      </trkpt>
      <trkpt lat="39.924859032231105" lon="116.45973707830075">
        <ele>35.0</ele>
        <time>2023-02-20T04:19:34Z</time>
      </trkpt>
      <trkpt lat="39.924917017222334" lon="116.45973205471311">
        <ele>34.9</ele>
        <time>2023-02-20T04:19:40Z</time>
      </trkpt>
      <trkpt lat="39.92512125141348" lon="116.45982834167341">
        <ele>30.1</ele>
        <time>2023-02-20T04:20:01Z</time>
      </trkpt>
      <trkpt lat="39.92519527618677" lon="116.45983936819323">
        <ele>30.6</ele>
        <time>2023-02-20T04:20:07Z</time>
      </trkpt>
      <trkpt lat="39.92531124109123" lon="116.45982731446826">
        <ele>31.4</ele>
        <time>2023-02-20T04:20:19Z</time>
      </trkpt>
      <trkpt lat="39.92536728430217" lon="116.45984536606957">
        <ele>31.300000000000004</ele>
        <time>2023-02-20T04:20:25Z</time>
      </trkpt>
      <trkpt lat="39.92560912019648" lon="116.45978413682151">
        <ele>28.200000000000003</ele>
        <time>2023-02-20T04:20:49Z</time>
      </trkpt>
      <trkpt lat="39.92581234491809" lon="116.45947912245278">
        <ele>29.700000000000003</ele>
        <time>2023-02-20T04:21:19Z</time>
      </trkpt>
      <trkpt lat="39.925913814917294" lon="116.45926943166569">
        <ele>32.2</ele>
        <time>2023-02-20T04:21:37Z</time>
      </trkpt>
      <trkpt lat="39.925949341458015" lon="116.45908081855657">
        <ele>33.9</ele>
        <time>2023-02-20T04:21:49Z</time>
      </trkpt>
      <trkpt lat="39.92595437263949" lon="116.45869256877798">
        <ele>30.9</ele>
        <time>2023-02-20T04:22:13Z</time>
      </trkpt>
      <trkpt lat="39.925976638613434" lon="116.45839762038678">
        <ele>31.1</ele>
        <time>2023-02-20T04:22:31Z</time>
      </trkpt>
      <trkpt lat="39.925942179928036" lon="116.45821203122914">
        <ele>32.1</ele>
        <time>2023-02-20T04:22:43Z</time>
      </trkpt>
      <trkpt lat="39.92598120407806" lon="116.45781776940369">
        <ele>31.200000000000003</ele>
        <time>2023-02-20T04:23:08Z</time>
      </trkpt>
      <trkpt lat="39.92597875939088" lon="116.45763719580842">
        <ele>31.4</ele>
        <time>2023-02-20T04:23:20Z</time>
      </trkpt>
      <trkpt lat="39.92591767600377" lon="116.45719480220994">
        <ele>31.700000000000003</ele>
        <time>2023-02-20T04:23:44Z</time>
      </trkpt>
      <trkpt lat="39.92580396468271" lon="116.45690189245708">
        <ele>35.1</ele>
        <time>2023-02-20T04:24:02Z</time>
      </trkpt>
      <trkpt lat="39.92559867222561" lon="116.45677852999988">
        <ele>40.1</ele>
        <time>2023-02-20T04:24:20Z</time>
      </trkpt>
      <trkpt lat="39.925483610955105" lon="116.45675145934032">
        <ele>45.7</ele>
        <time>2023-02-20T04:24:32Z</time>
      </trkpt>
      <trkpt lat="39.92535937671729" lon="116.45665316606933">
        <ele>49.2</ele>
        <time>2023-02-20T04:24:44Z</time>
      </trkpt>
      <trkpt lat="39.925189169022666" lon="116.45656491041636">
        <ele>46.7</ele>
        <time>2023-02-20T04:24:56Z</time>
      </trkpt>
      <trkpt lat="39.92499196753245" lon="116.4564786647355">
        <ele>39.9</ele>
        <time>2023-02-20T04:25:08Z</time>
      </trkpt>
      <trkpt lat="39.92487575563374" lon="116.45638939967495">
        <ele>34.0</ele>
        <time>2023-02-20T04:25:17Z</time>
      </trkpt>
      <trkpt lat="39.92482672601754" lon="116.45637636502711">
        <ele>33.7</ele>
        <time>2023-02-20T04:25:20Z</time>
      </trkpt>
      <trkpt lat="39.924714356318404" lon="116.45622189592993">
        <ele>30.4</ele>
        <time>2023-02-20T04:25:32Z</time>
      </trkpt>
      <trkpt lat="39.92466929746853" lon="116.45619682324241">
        <ele>31.0</ele>
        <time>2023-02-20T04:25:35Z</time>
      </trkpt>
      <trkpt lat="39.92459629561215" lon="116.45619482618638">
        <ele>32.800000000000004</ele>
        <time>2023-02-20T04:25:41Z</time>
      </trkpt>
      <trkpt lat="39.924541392566475" lon="116.45623395538527">
        <ele>32.6</ele>
        <time>2023-02-20T04:25:47Z</time>
      </trkpt>
      <trkpt lat="39.924421443646985" lon="116.45625303010978">
        <ele>31.1</ele>
        <time>2023-02-20T04:25:56Z</time>
      </trkpt>
      <trkpt lat="39.92425178127111" lon="116.45638947841547">
        <ele>34.6</ele>
        <time>2023-02-20T04:26:11Z</time>
      </trkpt>
      <trkpt lat="39.92418580588428" lon="116.45639851501461">
        <ele>35.300000000000004</ele>
        <time>2023-02-20T04:26:17Z</time>
      </trkpt>
      <trkpt lat="39.924156940955456" lon="116.45645369150358">
        <ele>34.6</ele>
        <time>2023-02-20T04:26:23Z</time>
      </trkpt>
      <trkpt lat="39.924054166891324" lon="116.45654499069117">
        <ele>33.800000000000004</ele>
        <time>2023-02-20T04:26:35Z</time>
      </trkpt>
      <trkpt lat="39.92374210418174" lon="116.4565139325318">
        <ele>20.1</ele>
        <time>2023-02-20T04:26:59Z</time>
      </trkpt>
      <trkpt lat="39.92367211437431" lon="116.45651695080069">
        <ele>19.799999999999997</ele>
        <time>2023-02-20T04:27:05Z</time>
      </trkpt>
      <trkpt lat="39.92361221677654" lon="116.4565580873691">
        <ele>20.200000000000003</ele>
        <time>2023-02-20T04:27:11Z</time>
      </trkpt>
      <trkpt lat="39.92332431642744" lon="116.45659423702224">
        <ele>20.9</ele>
        <time>2023-02-20T04:27:29Z</time>
      </trkpt>
      <trkpt lat="39.92324128570635" lon="116.45658020342192">
        <ele>20.299999999999997</ele>
        <time>2023-02-20T04:27:35Z</time>
      </trkpt>
      <trkpt lat="39.92307948512291" lon="116.45665947264686">
        <ele>20.9</ele>
        <time>2023-02-20T04:27:53Z</time>
      </trkpt>
      <trkpt lat="39.923002424847404" lon="116.45663340045857">
        <ele>20.700000000000003</ele>
        <time>2023-02-20T04:27:59Z</time>
      </trkpt>
      <trkpt lat="39.9229514415926" lon="116.45663942579166">
        <ele>20.6</ele>
        <time>2023-02-20T04:28:05Z</time>
      </trkpt>
      <trkpt lat="39.922828793473265" lon="116.45678188894833">
        <ele>20.9</ele>
        <time>2023-02-20T04:28:20Z</time>
      </trkpt>
      <trkpt lat="39.922709488856626" lon="116.45706479517128">
        <ele>16.299999999999997</ele>
        <time>2023-02-20T04:28:38Z</time>
      </trkpt>
      <trkpt lat="39.92261942408209" lon="116.45744500864086">
        <ele>8.1</ele>
        <time>2023-02-20T04:29:02Z</time>
      </trkpt>
      <trkpt lat="39.92261667558241" lon="116.45754733336656">
        <ele>4.5</ele>
        <time>2023-02-20T04:29:08Z</time>
      </trkpt>
      <trkpt lat="39.92263922773933" lon="116.45777204415178">
        <ele>1.3999999999999995</ele>
        <time>2023-02-20T04:29:17Z</time>
      </trkpt>
      <trkpt lat="39.92271449179957" lon="116.45788037935162">
        <ele>0.8999999999999995</ele>
        <time>2023-02-20T04:29:23Z</time>
      </trkpt>
      <trkpt lat="39.922739674007026" lon="116.457954612586">
        <ele>2.0</ele>
        <time>2023-02-20T04:29:26Z</time>
      </trkpt>
      <trkpt lat="39.92283591046691" lon="116.45805191062423">
        <ele>5.1</ele>
        <time>2023-02-20T04:29:35Z</time>
      </trkpt>
      <trkpt lat="39.922900957388364" lon="116.45807196641512">
        <ele>4.4</ele>
        <time>2023-02-20T04:29:44Z</time>
      </trkpt>
      <trkpt lat="39.92297724465859" lon="116.45818933143373">
        <ele>5.9</ele>
        <time>2023-02-20T04:29:56Z</time>
      </trkpt>
      <trkpt lat="39.92303762002789" lon="116.45834181123035">
        <ele>13.6</ele>
        <time>2023-02-20T04:30:08Z</time>
      </trkpt>
      <trkpt lat="39.9230724885797" lon="116.45869192892796">
        <ele>25.6</ele>
        <time>2023-02-20T04:30:29Z</time>
      </trkpt>
      <trkpt lat="39.92306766867546" lon="116.45876416154108">
        <ele>25.9</ele>
        <time>2023-02-20T04:30:32Z</time>
      </trkpt>
      <trkpt lat="39.92316146354602" lon="116.45908417972838">
        <ele>33.6</ele>
        <time>2023-02-20T04:30:50Z</time>
      </trkpt>
      <trkpt lat="39.923171877338696" lon="116.45924971251799">
        <ele>31.700000000000003</ele>
        <time>2023-02-20T04:30:59Z</time>
      </trkpt>
      <trkpt lat="39.92315907896563" lon="116.45932997341656">
        <ele>30.4</ele>
        <time>2023-02-20T04:31:05Z</time>
      </trkpt>
      <trkpt lat="39.92319100491491" lon="116.4596991648374">
        <ele>32.0</ele>
        <time>2023-02-20T04:31:23Z</time>
      </trkpt>
      <trkpt lat="39.923231187628886" lon="116.45977239744417">
        <ele>33.4</ele>
        <time>2023-02-20T04:31:29Z</time>
      </trkpt>
      <trkpt lat="39.92352753698864" lon="116.45991582617856">
        <ele>35.6</ele>
        <time>2023-02-20T04:31:50Z</time>
      </trkpt>
      <trkpt lat="39.923559730581076" lon="116.45999307336703">
        <ele>34.6</ele>
        <time>2023-02-20T04:31:56Z</time>
      </trkpt>
      <trkpt lat="39.923775289629056" lon="116.46021777819972">
        <ele>30.9</ele>
        <time>2023-02-20T04:32:20Z</time>
      </trkpt>
      <trkpt lat="39.924069719577425" lon="116.46039231082973">
        <ele>39.0</ele>
        <time>2023-02-20T04:32:41Z</time>
      </trkpt>
      <trkpt lat="39.92432427465444" lon="116.46022071883384">
        <ele>45.2</ele>
        <time>2023-02-20T04:33:02Z</time>
      </trkpt>
      <trkpt lat="39.924474367502135" lon="116.46025982753748">
        <ele>41.6</ele>
        <time>2023-02-20T04:33:14Z</time>
      </trkpt>
      <trkpt lat="39.92474940445541" lon="116.46027885506919">
        <ele>46.6</ele>
        <time>2023-02-20T04:33:35Z</time>
      </trkpt>
      <trkpt lat="39.9249923614624" lon="116.46026578189935">
        <ele>44.4</ele>
        <time>2023-02-20T04:33:50Z</time>
      </trkpt>
      <trkpt lat="39.92503930367089" lon="116.46024370398324">
        <ele>41.800000000000004</ele>
        <time>2023-02-20T04:33:53Z</time>
      </trkpt>
      <trkpt lat="39.925152880430204" lon="116.46007815016657">
        <ele>29.4</ele>
        <time>2023-02-20T04:34:05Z</time>
      </trkpt>
      <trkpt lat="39.925237438857664" lon="116.45990457480026">
        <ele>24.1</ele>
        <time>2023-02-20T04:34:17Z</time>
      </trkpt>
      <trkpt lat="39.92537132712534" lon="116.45986242097564">
        <ele>22.700000000000003</ele>
        <time>2023-02-20T04:34:29Z</time>
      </trkpt>
      <trkpt lat="39.925486324939165" lon="116.45986340974142">
        <ele>24.200000000000003</ele>
        <time>2023-02-20T04:34:38Z</time>
      </trkpt>
      <trkpt lat="39.925576199892916" lon="116.4598152419683">
        <ele>25.700000000000003</ele>
        <time>2023-02-20T04:34:44Z</time>
      </trkpt>
      <trkpt lat="39.92579154231861" lon="116.45955737847757">
        <ele>24.1</ele>
        <time>2023-02-20T04:35:05Z</time>
      </trkpt>
      <trkpt lat="39.92587917348091" lon="116.45941189652272">
        <ele>23.799999999999997</ele>
        <time>2023-02-20T04:35:14Z</time>
      </trkpt>
      <trkpt lat="39.9259556775297" lon="116.45921525144806">
        <ele>22.6</ele>
        <time>2023-02-20T04:35:26Z</time>
      </trkpt>
      <trkpt lat="39.92598899397109" lon="116.4589423675485">
        <ele>18.700000000000003</ele>
        <time>2023-02-20T04:35:44Z</time>
      </trkpt>
      <trkpt lat="39.92596460711618" lon="116.45878687043393">
        <ele>19.6</ele>
        <time>2023-02-20T04:35:50Z</time>
      </trkpt>
      <trkpt lat="39.92598130161453" lon="116.45866447520062">
        <ele>19.0</ele>
        <time>2023-02-20T04:35:56Z</time>
      </trkpt>
      <trkpt lat="39.92597405485765" lon="116.45856515747028">
        <ele>17.5</ele>
        <time>2023-02-20T04:36:02Z</time>
      </trkpt>
      <trkpt lat="39.926009470530836" lon="116.45833040116692">
        <ele>15.999999999999998</ele>
        <time>2023-02-20T04:36:14Z</time>
      </trkpt>
      <trkpt lat="39.925999720900236" lon="116.45802743483739">
        <ele>21.5</ele>
        <time>2023-02-20T04:36:32Z</time>
      </trkpt>
      <trkpt lat="39.926015465028435" lon="116.4579241035715">
        <ele>22.299999999999997</ele>
        <time>2023-02-20T04:36:38Z</time>
      </trkpt>
      <trkpt lat="39.92598451244292" lon="116.45753687673255">
        <ele>23.1</ele>
        <time>2023-02-20T04:36:59Z</time>
      </trkpt>
      <trkpt lat="39.92598763630069" lon="116.45717974583953">
        <ele>23.6</ele>
        <time>2023-02-20T04:37:20Z</time>
      </trkpt>
      <trkpt lat="39.92595738720578" lon="116.45707742656643">
        <ele>24.5</ele>
        <time>2023-02-20T04:37:23Z</time>
      </trkpt>
      <trkpt lat="39.92586498666322" lon="116.45691191635517">
        <ele>27.0</ele>
        <time>2023-02-20T04:37:29Z</time>
      </trkpt>
      <trkpt lat="39.925633587704255" lon="116.45674441833704">
        <ele>31.5</ele>
        <time>2023-02-20T04:37:44Z</time>
      </trkpt>
      <trkpt lat="39.92547655749293" lon="116.45672939084515">
        <ele>34.800000000000004</ele>
        <time>2023-02-20T04:37:56Z</time>
      </trkpt>
      <trkpt lat="39.92532623656073" lon="116.45659498756564">
        <ele>34.1</ele>
        <time>2023-02-20T04:38:08Z</time>
      </trkpt>
      <trkpt lat="39.9250619305634" lon="116.45646461188625">
        <ele>34.5</ele>
        <time>2023-02-20T04:38:26Z</time>
      </trkpt>
      <trkpt lat="39.92481161475839" lon="116.45633022248933">
        <ele>33.2</ele>
        <time>2023-02-20T04:38:44Z</time>
      </trkpt>
      <trkpt lat="39.9247214726219" lon="116.45627004557271">
        <ele>32.300000000000004</ele>
        <time>2023-02-20T04:38:50Z</time>
      </trkpt>
      <trkpt lat="39.924695352242225" lon="116.45621989205749">
        <ele>32.300000000000004</ele>
        <time>2023-02-20T04:38:53Z</time>
      </trkpt>
      <trkpt lat="39.924619294667295" lon="116.45619482328388">
        <ele>33.0</ele>
        <time>2023-02-20T04:38:59Z</time>
      </trkpt>
      <trkpt lat="39.92454532683959" lon="116.45620687023442">
        <ele>33.5</ele>
        <time>2023-02-20T04:39:05Z</time>
      </trkpt>
      <trkpt lat="39.92449140190701" lon="116.45623697110166">
        <ele>35.5</ele>
        <time>2023-02-20T04:39:11Z</time>
      </trkpt>
      <trkpt lat="39.92442141207007" lon="116.45623998934221">
        <ele>35.0</ele>
        <time>2023-02-20T04:39:17Z</time>
      </trkpt>
      <trkpt lat="39.924281575758556" lon="116.45630521090708">
        <ele>38.4</ele>
        <time>2023-02-20T04:39:29Z</time>
      </trkpt>
      <trkpt lat="39.92405907407909" lon="116.45650687051611">
        <ele>32.0</ele>
        <time>2023-02-20T04:39:50Z</time>
      </trkpt>
      <trkpt lat="39.92390918504593" lon="116.45655002472007">
        <ele>28.6</ele>
        <time>2023-02-20T04:40:02Z</time>
      </trkpt>
      <trkpt lat="39.92383117363072" lon="116.45654401568196">
        <ele>27.700000000000003</ele>
        <time>2023-02-20T04:40:08Z</time>
      </trkpt>
      <trkpt lat="39.9235593799257" lon="116.45662430183685">
        <ele>32.2</ele>
        <time>2023-02-20T04:40:29Z</time>
      </trkpt>
      <trkpt lat="39.92345153081634" lon="116.45668450448866">
        <ele>35.6</ele>
        <time>2023-02-20T04:40:38Z</time>
      </trkpt>
      <trkpt lat="39.92324563454901" lon="116.45672365341369">
        <ele>31.5</ele>
        <time>2023-02-20T04:40:53Z</time>
      </trkpt>
      <trkpt lat="39.92317674245477" lon="116.45676679772471">
        <ele>31.1</ele>
        <time>2023-02-20T04:40:59Z</time>
      </trkpt>
      <trkpt lat="39.922871828366475" lon="116.45679693085094">
        <ele>29.700000000000003</ele>
        <time>2023-02-20T04:41:23Z</time>
      </trkpt>
      <trkpt lat="39.92280691663278" lon="116.4568320495129">
        <ele>31.300000000000004</ele>
        <time>2023-02-20T04:41:29Z</time>
      </trkpt>
      <trkpt lat="39.92274914415591" lon="116.45692434739247">
        <ele>31.800000000000004</ele>
        <time>2023-02-20T04:41:35Z</time>
      </trkpt>
      <trkpt lat="39.92271736349391" lon="116.45701363280098">
        <ele>32.7</ele>
        <time>2023-02-20T04:41:41Z</time>
      </trkpt>
      <trkpt lat="39.92263434219754" lon="116.45741190189058">
        <ele>32.7</ele>
        <time>2023-02-20T04:42:05Z</time>
      </trkpt>
      <trkpt lat="39.922593836875485" lon="116.45761254314795">
        <ele>25.4</ele>
        <time>2023-02-20T04:42:17Z</time>
      </trkpt>
      <trkpt lat="39.92261232776365" lon="116.457812175161">
        <ele>20.200000000000003</ele>
        <time>2023-02-20T04:42:29Z</time>
      </trkpt>
      <trkpt lat="39.92274886942408" lon="116.4580338640182">
        <ele>17.4</ele>
        <time>2023-02-20T04:42:44Z</time>
      </trkpt>
      <trkpt lat="39.922880970616546" lon="116.45807698493618">
        <ele>19.4</ele>
        <time>2023-02-20T04:42:56Z</time>
      </trkpt>
      <trkpt lat="39.923002221274714" lon="116.45818029944908">
        <ele>24.799999999999997</ele>
        <time>2023-02-20T04:43:08Z</time>
      </trkpt>
      <trkpt lat="39.923044410851396" lon="116.45825754091828">
        <ele>29.800000000000004</ele>
        <time>2023-02-20T04:43:14Z</time>
      </trkpt>
      <trkpt lat="39.92306245652724" lon="116.4586788883216">
        <ele>32.1</ele>
        <time>2023-02-20T04:43:38Z</time>
      </trkpt>
      <trkpt lat="39.92310126545882" lon="116.4590039286861">
        <ele>29.0</ele>
        <time>2023-02-20T04:43:56Z</time>
      </trkpt>
      <trkpt lat="39.92313249734975" lon="116.45909722542771">
        <ele>29.1</ele>
        <time>2023-02-20T04:44:02Z</time>
      </trkpt>
      <trkpt lat="39.9231644915329" lon="116.45949450493353">
        <ele>28.4</ele>
        <time>2023-02-20T04:44:26Z</time>
      </trkpt>
      <trkpt lat="39.923219998669964" lon="116.4596971546741">
        <ele>27.5</ele>
        <time>2023-02-20T04:44:38Z</time>
      </trkpt>
      <trkpt lat="39.92328215520998" lon="116.45976035193934">
        <ele>27.700000000000003</ele>
        <time>2023-02-20T04:44:44Z</time>
      </trkpt>
      <trkpt lat="39.92329137471699" lon="116.45984763422392">
        <ele>27.700000000000003</ele>
        <time>2023-02-20T04:44:50Z</time>
      </trkpt>
      <trkpt lat="39.92332254290722" lon="116.45991484875148">
        <ele>28.5</ele>
        <time>2023-02-20T04:44:56Z</time>
      </trkpt>
      <trkpt lat="39.92351688940788" lon="116.46005528120835">
        <ele>25.700000000000003</ele>
        <time>2023-02-20T04:45:11Z</time>
      </trkpt>
      <trkpt lat="39.923577061842245" lon="116.46012449907167">
        <ele>25.1</ele>
        <time>2023-02-20T04:45:17Z</time>
      </trkpt>
      <trkpt lat="39.923691216953124" lon="116.460187690664">
        <ele>26.0</ele>
        <time>2023-02-20T04:45:26Z</time>
      </trkpt>
      <trkpt lat="39.92382148833732" lon="116.46029703092726">
        <ele>27.6</ele>
        <time>2023-02-20T04:45:35Z</time>
      </trkpt>
      <trkpt lat="39.924092594065655" lon="116.46034314740629">
        <ele>30.6</ele>
        <time>2023-02-20T04:45:53Z</time>
      </trkpt>
      <trkpt lat="39.9243273506922" lon="116.46025081660925">
        <ele>26.5</ele>
        <time>2023-02-20T04:46:11Z</time>
      </trkpt>
      <trkpt lat="39.924666372309666" lon="116.46026481970662">
        <ele>31.200000000000003</ele>
        <time>2023-02-20T04:46:38Z</time>
      </trkpt>
      <trkpt lat="39.92475232561001" lon="116.46024775323768">
        <ele>32.300000000000004</ele>
        <time>2023-02-20T04:46:44Z</time>
      </trkpt>
      <trkpt lat="39.92497043602172" lon="116.460294879596">
        <ele>34.300000000000004</ele>
        <time>2023-02-20T04:47:02Z</time>
      </trkpt>
      <trkpt lat="39.925109237333615" lon="116.46021861337042">
        <ele>31.9</ele>
        <time>2023-02-20T04:47:14Z</time>
      </trkpt>
      <trkpt lat="39.92514703787041" lon="116.46014035352168">
        <ele>31.700000000000003</ele>
        <time>2023-02-20T04:47:20Z</time>
      </trkpt>
      <trkpt lat="39.925176552705636" lon="116.45994872600684">
        <ele>33.9</ele>
        <time>2023-02-20T04:47:32Z</time>
      </trkpt>
      <trkpt lat="39.92522234082324" lon="116.45986544953386">
        <ele>33.9</ele>
        <time>2023-02-20T04:47:38Z</time>
      </trkpt>
      <trkpt lat="39.9253772459686" lon="116.45983031592573">
        <ele>35.2</ele>
        <time>2023-02-20T04:47:50Z</time>
      </trkpt>
      <trkpt lat="39.92553720654676" lon="116.45981725340016">
        <ele>36.4</ele>
        <time>2023-02-20T04:48:02Z</time>
      </trkpt>
      <trkpt lat="39.925592093099844" lon="116.45977310313747">
        <ele>38.9</ele>
        <time>2023-02-20T04:48:08Z</time>
      </trkpt>
      <trkpt lat="39.92576739210245" lon="116.4594971865791">
        <ele>37.4</ele>
        <time>2023-02-20T04:48:29Z</time>
      </trkpt>
      <trkpt lat="39.92588584119621" lon="116.45927946759923">
        <ele>35.5</ele>
        <time>2023-02-20T04:48:44Z</time>
      </trkpt>
      <trkpt lat="39.925940878265095" lon="116.45889522185954">
        <ele>35.300000000000004</ele>
        <time>2023-02-20T04:49:08Z</time>
      </trkpt>
      <trkpt lat="39.92592762613234" lon="116.45879389766867">
        <ele>34.7</ele>
        <time>2023-02-20T04:49:14Z</time>
      </trkpt>
      <trkpt lat="39.92593757798256" lon="116.45837254504137">
        <ele>37.300000000000004</ele>
        <time>2023-02-20T04:49:38Z</time>
      </trkpt>
      <trkpt lat="39.92593663672243" lon="116.45799233086184">
        <ele>37.2</ele>
        <time>2023-02-20T04:49:59Z</time>
      </trkpt>
      <trkpt lat="39.92594762000544" lon="116.45758001823441">
        <ele>29.0</ele>
        <time>2023-02-20T04:50:23Z</time>
      </trkpt>
      <trkpt lat="39.92594679028036" lon="116.45724194755884">
        <ele>26.200000000000003</ele>
        <time>2023-02-20T04:50:41Z</time>
      </trkpt>
      <trkpt lat="39.92592228565028" lon="116.45703529806464">
        <ele>27.700000000000003</ele>
        <time>2023-02-20T04:50:53Z</time>
      </trkpt>
      <trkpt lat="39.925856916010325" lon="116.45688282575018">
        <ele>32.1</ele>
        <time>2023-02-20T04:51:02Z</time>
      </trkpt>
      <trkpt lat="39.925750712443524" lon="116.4567975707711">
        <ele>32.7</ele>
        <time>2023-02-20T04:51:11Z</time>
      </trkpt>
      <trkpt lat="39.925595581931724" lon="116.45674141367078">
        <ele>34.2</ele>
        <time>2023-02-20T04:51:23Z</time>
      </trkpt>
      <trkpt lat="39.925521570305925" lon="116.45673540408688">
        <ele>36.300000000000004</ele>
        <time>2023-02-20T04:51:29Z</time>
      </trkpt>
      <trkpt lat="39.92527621422267" lon="116.45658496239241">
        <ele>36.2</ele>
        <time>2023-02-20T04:51:50Z</time>
      </trkpt>
      <trkpt lat="39.92496982234734" lon="116.45641847891983">
        <ele>33.6</ele>
        <time>2023-02-20T04:52:11Z</time>
      </trkpt>
      <trkpt lat="39.92482862864934" lon="116.45633623917858">
        <ele>34.5</ele>
        <time>2023-02-20T04:52:23Z</time>
      </trkpt>
      <trkpt lat="39.92466713496892" lon="116.45612961358384">
        <ele>33.4</ele>
        <time>2023-02-20T04:52:41Z</time>
      </trkpt>
      <trkpt lat="39.92461374699637" lon="116.4559681165199">
        <ele>31.300000000000004</ele>
        <time>2023-02-20T04:52:50Z</time>
      </trkpt>
      <trkpt lat="39.92454160716877" lon="116.45590894123585">
        <ele>33.6</ele>
        <time>2023-02-20T04:52:56Z</time>
      </trkpt>
      <trkpt lat="39.92423563910122" lon="116.45591700484717">
        <ele>35.300000000000004</ele>
        <time>2023-02-20T04:53:17Z</time>
      </trkpt>
      <trkpt lat="39.92411354736308" lon="116.45587689530777">
        <ele>35.2</ele>
        <time>2023-02-20T04:53:26Z</time>
      </trkpt>
      <trkpt lat="39.923810547740075" lon="116.45587191793528">
        <ele>32.2</ele>
        <time>2023-02-20T04:53:47Z</time>
      </trkpt>
      <trkpt lat="39.92359054470866" lon="116.45586693008838">
        <ele>30.700000000000003</ele>
        <time>2023-02-20T04:54:02Z</time>
      </trkpt>
      <trkpt lat="39.9234656780539" lon="116.4559201113965">
        <ele>29.700000000000003</ele>
        <time>2023-02-20T04:54:11Z</time>
      </trkpt>
      <trkpt lat="39.92330567013098" lon="116.45591411284406">
        <ele>28.6</ele>
        <time>2023-02-20T04:54:23Z</time>
      </trkpt>
      <trkpt lat="39.92319582714485" lon="116.45597732360883">
        <ele>29.4</ele>
        <time>2023-02-20T04:54:35Z</time>
      </trkpt>
      <trkpt lat="39.923115706999624" lon="116.4559261743125">
        <ele>29.700000000000003</ele>
        <time>2023-02-20T04:54:41Z</time>
      </trkpt>
      <trkpt lat="39.92305570221526" lon="116.45592317251138">
        <ele>29.300000000000004</ele>
        <time>2023-02-20T04:54:47Z</time>
      </trkpt>
      <trkpt lat="39.92302160927369" lon="116.4558840549818">
        <ele>29.4</ele>
        <time>2023-02-20T04:54:50Z</time>
      </trkpt>
      <trkpt lat="39.92285655562813" lon="116.45585899774393">
        <ele>27.5</ele>
        <time>2023-02-20T04:55:02Z</time>
      </trkpt>
      <trkpt lat="39.92268665454254" lon="116.45589713785915">
        <ele>27.6</ele>
        <time>2023-02-20T04:55:11Z</time>
      </trkpt>
      <trkpt lat="39.92260563369992" lon="116.45588711684952">
        <ele>28.9</ele>
        <time>2023-02-20T04:55:17Z</time>
      </trkpt>
      <trkpt lat="39.9225615750613" lon="116.455862044339">
        <ele>30.9</ele>
        <time>2023-02-20T04:55:20Z</time>
      </trkpt>
      <trkpt lat="39.92243150307477" lon="116.455829960857">
        <ele>34.0</ele>
        <time>2023-02-20T04:55:32Z</time>
      </trkpt>
      <trkpt lat="39.922348506504584" lon="116.45582997133155">
        <ele>32.9</ele>
        <time>2023-02-20T04:55:38Z</time>
      </trkpt>
      <trkpt lat="39.922260689075124" lon="116.45590421348324">
        <ele>24.4</ele>
        <time>2023-02-20T04:55:50Z</time>
      </trkpt>
      <trkpt lat="39.922211642724754" lon="116.45588415720243">
        <ele>20.6</ele>
        <time>2023-02-20T04:56:38Z</time>
      </trkpt>
      <trkpt lat="39.922148708220774" lon="116.45591024635922">
        <ele>21.799999999999997</ele>
        <time>2023-02-20T04:56:47Z</time>
      </trkpt>
      <trkpt lat="39.92196864068238" lon="116.45587917225411">
        <ele>24.6</ele>
        <time>2023-02-20T04:56:56Z</time>
      </trkpt>
      <trkpt lat="39.92177675748379" lon="116.45592433703965">
        <ele>29.0</ele>
        <time>2023-02-20T04:57:08Z</time>
      </trkpt>
      <trkpt lat="39.921454722430774" lon="116.45590431519497">
        <ele>28.800000000000004</ele>
        <time>2023-02-20T04:57:35Z</time>
      </trkpt>
      <trkpt lat="39.921235712155095" lon="116.45589631784352">
        <ele>30.9</ele>
        <time>2023-02-20T04:57:50Z</time>
      </trkpt>
      <trkpt lat="39.921008794147745" lon="116.45592644020194">
        <ele>38.800000000000004</ele>
        <time>2023-02-20T04:58:08Z</time>
      </trkpt>
      <trkpt lat="39.92087166195437" lon="116.45586927946225">
        <ele>44.7</ele>
        <time>2023-02-20T04:58:14Z</time>
      </trkpt>
      <trkpt lat="39.920806686415965" lon="116.4558783157663">
        <ele>44.7</ele>
        <time>2023-02-20T04:58:20Z</time>
      </trkpt>
      <trkpt lat="39.920679049962715" lon="116.45602679445463">
        <ele>47.6</ele>
        <time>2023-02-20T04:58:38Z</time>
      </trkpt>
      <trkpt lat="39.92049386392797" lon="116.45594656768098">
        <ele>49.4</ele>
        <time>2023-02-20T04:58:50Z</time>
      </trkpt>
      <trkpt lat="39.92037611585475" lon="116.45604890150982">
        <ele>52.2</ele>
        <time>2023-02-20T04:58:59Z</time>
      </trkpt>
      <trkpt lat="39.920294090185706" lon="116.45603687431478">
        <ele>53.0</ele>
        <time>2023-02-20T04:59:05Z</time>
      </trkpt>
      <trkpt lat="39.92022116592162" lon="116.4560669773896">
        <ele>52.4</ele>
        <time>2023-02-20T04:59:08Z</time>
      </trkpt>
      <trkpt lat="39.92015639901657" lon="116.45616228303976">
        <ele>52.2</ele>
        <time>2023-02-20T04:59:14Z</time>
      </trkpt>
      <trkpt lat="39.920064589773546" lon="116.45623953597509">
        <ele>49.300000000000004</ele>
        <time>2023-02-20T04:59:20Z</time>
      </trkpt>
      <trkpt lat="39.91996064268173" lon="116.45625961181372">
        <ele>46.0</ele>
        <time>2023-02-20T04:59:29Z</time>
      </trkpt>
      <trkpt lat="39.919908625411644" lon="116.45625159328584">
        <ele>43.9</ele>
        <time>2023-02-20T04:59:32Z</time>
      </trkpt>
      <trkpt lat="39.919886752681" lon="116.4563037591781">
        <ele>42.1</ele>
        <time>2023-02-20T04:59:35Z</time>
      </trkpt>
      <trkpt lat="39.91958898639566" lon="116.45639508246052">
        <ele>31.9</ele>
        <time>2023-02-20T04:59:56Z</time>
      </trkpt>
      <trkpt lat="39.91952208167129" lon="116.45643321029792">
        <ele>30.5</ele>
        <time>2023-02-20T05:00:02Z</time>
      </trkpt>
      <trkpt lat="39.91951047447361" lon="116.45659471819717">
        <ele>29.0</ele>
        <time>2023-02-20T05:00:08Z</time>
      </trkpt>
      <trkpt lat="39.91951047447361" lon="116.45659471819717">
        <ele>29.0</ele>
        <time>2023-02-20T05:00:08Z</time>
      </trkpt>
    </trkseg>
  </trk>
</gpx>