<?xml version="1.0" encoding="UTF-8"?>
<gpx xmlns="http://www.topografix.com/GPX/1/1" xmlns:gpxtpx="http://www.garmin.com/xmlschemas/TrackPointExtension/v1" xmlns:xsi="http://www.w3.org/2001/XMLSchema-instance" xsi:schemaLocation="http://www.topografix.com/GPX/1/1 http://www.topografix.com/GPX/1/1/gpx.xsd" version="1.1" creator="gpx.py -- https://github.com/tkrajina/gpxpy">
  <trk>
    <name>gpx from keep</name>
    <type>Run</type>
    <trkseg>
      <trkpt lat="39.92701805058345" lon="116.49542819711095">
        <ele>0.0</ele>
        <time>2023-08-02T11:04:38Z</time>
      </trkpt>
      <trkpt lat="39.92700429048333" lon="116.4951732321601">
        <ele>0.0</ele>
        <time>2023-08-02T11:04:44Z</time>
      </trkpt>
      <trkpt lat="39.92707795829493" lon="116.49539807550761">
        <ele>41.5</ele>
        <time>2023-08-02T11:04:50Z</time>
      </trkpt>
      <trkpt lat="39.92707563795803" lon="116.4952906685946">
        <ele>41.400000000000006</ele>
        <time>2023-08-02T11:04:53Z</time>
      </trkpt>
      <trkpt lat="39.92715450224829" lon="116.49457594835962">
        <ele>41.800000000000004</ele>
        <time>2023-08-02T11:05:02Z</time>
      </trkpt>
      <trkpt lat="39.92713203289846" lon="116.49441835331369">
        <ele>42.0</ele>
        <time>2023-08-02T11:05:05Z</time>
      </trkpt>
      <trkpt lat="39.92707754388136" lon="116.49425373553596">
        <ele>41.6</ele>
        <time>2023-08-02T11:05:08Z</time>
      </trkpt>
      <trkpt lat="39.92707727729915" lon="116.49416439661465">
        <ele>42.1</ele>
        <time>2023-08-02T11:05:11Z</time>
      </trkpt>
      <trkpt lat="39.927109976417825" lon="116.4940640116853">
        <ele>42.400000000000006</ele>
        <time>2023-08-02T11:05:14Z</time>
      </trkpt>
      <trkpt lat="39.92709781468561" lon="116.49367453528251">
        <ele>38.400000000000006</ele>
        <time>2023-08-02T11:05:29Z</time>
      </trkpt>
      <trkpt lat="39.927095302578294" lon="116.4935028841783">
        <ele>36.7</ele>
        <time>2023-08-02T11:05:35Z</time>
      </trkpt>
      <trkpt lat="39.927059306626404" lon="116.49316862001416">
        <ele>33.300000000000004</ele>
        <time>2023-08-02T11:05:44Z</time>
      </trkpt>
      <trkpt lat="39.92707492560707" lon="116.49304113421148">
        <ele>31.499999999999996</ele>
        <time>2023-08-02T11:05:50Z</time>
      </trkpt>
      <trkpt lat="39.927049156954965" lon="116.49278315823479">
        <ele>29.599999999999998</ele>
        <time>2023-08-02T11:05:59Z</time>
      </trkpt>
      <trkpt lat="39.92710307368316" lon="116.49242077606597">
        <ele>22.2</ele>
        <time>2023-08-02T11:06:08Z</time>
      </trkpt>
      <trkpt lat="39.92710902248198" lon="116.49206843796493">
        <ele>19.2</ele>
        <time>2023-08-02T11:06:17Z</time>
      </trkpt>
      <trkpt lat="39.927034962775934" lon="116.49171209462693">
        <ele>27.7</ele>
        <time>2023-08-02T11:06:26Z</time>
      </trkpt>
      <trkpt lat="39.92705222877029" lon="116.4914661590825">
        <ele>35.2</ele>
        <time>2023-08-02T11:06:35Z</time>
      </trkpt>
      <trkpt lat="39.92701416203341" lon="116.49110780384461">
        <ele>35.300000000000004</ele>
        <time>2023-08-02T11:06:47Z</time>
      </trkpt>
      <trkpt lat="39.927095458646264" lon="116.49087290241054">
        <ele>33.2</ele>
        <time>2023-08-02T11:06:53Z</time>
      </trkpt>
      <trkpt lat="39.92710716801149" lon="116.49077553150184">
        <ele>31.900000000000002</ele>
        <time>2023-08-02T11:06:56Z</time>
      </trkpt>
      <trkpt lat="39.927074412672184" lon="116.49052157204024">
        <ele>32.1</ele>
        <time>2023-08-02T11:07:05Z</time>
      </trkpt>
      <trkpt lat="39.92711991144443" lon="116.49035393043587">
        <ele>27.8</ele>
        <time>2023-08-02T11:07:11Z</time>
      </trkpt>
      <trkpt lat="39.92721057288006" lon="116.49024149268463">
        <ele>24.3</ele>
        <time>2023-08-02T11:07:17Z</time>
      </trkpt>
      <trkpt lat="39.92726445707391" lon="116.49020334128944">
        <ele>22.8</ele>
        <time>2023-08-02T11:07:20Z</time>
      </trkpt>
      <trkpt lat="39.927490417946494" lon="116.49019327508296">
        <ele>20.8</ele>
        <time>2023-08-02T11:07:32Z</time>
      </trkpt>
      <trkpt lat="39.92753547290692" lon="116.49021234181654">
        <ele>20.2</ele>
        <time>2023-08-02T11:07:35Z</time>
      </trkpt>
      <trkpt lat="39.927569342976234" lon="116.49016917387767">
        <ele>19.3</ele>
        <time>2023-08-02T11:07:38Z</time>
      </trkpt>
      <trkpt lat="39.92763227165092" lon="116.49014607847252">
        <ele>16.5</ele>
        <time>2023-08-02T11:07:41Z</time>
      </trkpt>
      <trkpt lat="39.92777026601696" lon="116.49014606129197">
        <ele>16.099999999999998</ele>
        <time>2023-08-02T11:07:47Z</time>
      </trkpt>
      <trkpt lat="39.927899147164396" lon="116.49010790056649">
        <ele>18.2</ele>
        <time>2023-08-02T11:07:53Z</time>
      </trkpt>
      <trkpt lat="39.928124260540514" lon="116.49014902864079">
        <ele>16.9</ele>
        <time>2023-08-02T11:08:02Z</time>
      </trkpt>
      <trkpt lat="39.928200248473416" lon="116.49014600775772">
        <ele>16.599999999999998</ele>
        <time>2023-08-02T11:08:05Z</time>
      </trkpt>
      <trkpt lat="39.92852427113674" lon="116.49015801310455">
        <ele>11.7</ele>
        <time>2023-08-02T11:08:20Z</time>
      </trkpt>
      <trkpt lat="39.92882024712221" lon="116.49015396102372">
        <ele>9.8</ele>
        <time>2023-08-02T11:08:32Z</time>
      </trkpt>
      <trkpt lat="39.928950337486306" lon="116.490186066667">
        <ele>9.0</ele>
        <time>2023-08-02T11:08:38Z</time>
      </trkpt>
      <trkpt lat="39.929032223545185" lon="116.49014891559356">
        <ele>8.7</ele>
        <time>2023-08-02T11:08:41Z</time>
      </trkpt>
      <trkpt lat="39.92911028613425" lon="116.4901709896391">
        <ele>7.3999999999999995</ele>
        <time>2023-08-02T11:08:44Z</time>
      </trkpt>
      <trkpt lat="39.929160463462544" lon="116.49023121184781">
        <ele>4.3999999999999995</ele>
        <time>2023-08-02T11:08:47Z</time>
      </trkpt>
      <trkpt lat="39.9292606477371" lon="116.49029443926287">
        <ele>2.8</ele>
        <time>2023-08-02T11:08:50Z</time>
      </trkpt>
      <trkpt lat="39.92941512725516" lon="116.49012176511691">
        <ele>2.1000000000000005</ele>
        <time>2023-08-02T11:08:56Z</time>
      </trkpt>
      <trkpt lat="39.9296449923633" lon="116.49007957658559">
        <ele>5.3</ele>
        <time>2023-08-02T11:09:02Z</time>
      </trkpt>
      <trkpt lat="39.92985798669645" lon="116.4900805538716">
        <ele>9.0</ele>
        <time>2023-08-02T11:09:08Z</time>
      </trkpt>
      <trkpt lat="39.93000908517946" lon="116.4901156683161">
        <ele>12.0</ele>
        <time>2023-08-02T11:09:14Z</time>
      </trkpt>
      <trkpt lat="39.93014504378748" lon="116.49010360569783">
        <ele>12.8</ele>
        <time>2023-08-02T11:09:20Z</time>
      </trkpt>
      <trkpt lat="39.930193973050216" lon="116.49008051203526">
        <ele>13.3</ele>
        <time>2023-08-02T11:09:23Z</time>
      </trkpt>
      <trkpt lat="39.930462977077184" lon="116.49008549757589">
        <ele>17.0</ele>
        <time>2023-08-02T11:09:35Z</time>
      </trkpt>
      <trkpt lat="39.930567700830494" lon="116.48999413807324">
        <ele>15.3</ele>
        <time>2023-08-02T11:09:41Z</time>
      </trkpt>
      <trkpt lat="39.93064032430619" lon="116.48986865315501">
        <ele>14.3</ele>
        <time>2023-08-02T11:09:47Z</time>
      </trkpt>
      <trkpt lat="39.93070418724076" lon="116.48982347389737">
        <ele>14.099999999999998</ele>
        <time>2023-08-02T11:09:50Z</time>
      </trkpt>
      <trkpt lat="39.931024845552834" lon="116.48971301524142">
        <ele>12.899999999999999</ele>
        <time>2023-08-02T11:10:02Z</time>
      </trkpt>
      <trkpt lat="39.931264253285356" lon="116.48951724322977">
        <ele>11.099999999999998</ele>
        <time>2023-08-02T11:10:14Z</time>
      </trkpt>
      <trkpt lat="39.93144707860521" lon="116.48946100733586">
        <ele>8.2</ele>
        <time>2023-08-02T11:10:20Z</time>
      </trkpt>
      <trkpt lat="39.93165460428462" lon="116.48930438784143">
        <ele>3.8</ele>
        <time>2023-08-02T11:10:29Z</time>
      </trkpt>
      <trkpt lat="39.931939306091685" lon="116.48920798709523">
        <ele>3.8</ele>
        <time>2023-08-02T11:10:38Z</time>
      </trkpt>
      <trkpt lat="39.932267391363226" lon="116.48924107178588">
        <ele>10.899999999999999</ele>
        <time>2023-08-02T11:10:47Z</time>
      </trkpt>
      <trkpt lat="39.93235844143325" lon="116.4892591289335">
        <ele>12.8</ele>
        <time>2023-08-02T11:10:50Z</time>
      </trkpt>
      <trkpt lat="39.932652307128336" lon="116.48921793632034">
        <ele>17.3</ele>
        <time>2023-08-02T11:10:59Z</time>
      </trkpt>
      <trkpt lat="39.93269510534508" lon="116.48915067606669">
        <ele>20.2</ele>
        <time>2023-08-02T11:11:05Z</time>
      </trkpt>
      <trkpt lat="39.93263072001911" lon="116.48868391531077">
        <ele>20.9</ele>
        <time>2023-08-02T11:11:20Z</time>
      </trkpt>
      <trkpt lat="39.93254732746814" lon="116.48821414639737">
        <ele>22.4</ele>
        <time>2023-08-02T11:11:29Z</time>
      </trkpt>
      <trkpt lat="39.932488911123144" lon="116.48773634498042">
        <ele>20.5</ele>
        <time>2023-08-02T11:11:41Z</time>
      </trkpt>
      <trkpt lat="39.93245573308767" lon="116.48733884527012">
        <ele>16.5</ele>
        <time>2023-08-02T11:11:50Z</time>
      </trkpt>
      <trkpt lat="39.9323908606681" lon="116.4870437374197">
        <ele>14.2</ele>
        <time>2023-08-02T11:11:59Z</time>
      </trkpt>
      <trkpt lat="39.93235712726149" lon="116.48679580447241">
        <ele>15.0</ele>
        <time>2023-08-02T11:12:05Z</time>
      </trkpt>
      <trkpt lat="39.93229950814544" lon="116.48658601897066">
        <ele>16.3</ele>
        <time>2023-08-02T11:12:11Z</time>
      </trkpt>
      <trkpt lat="39.93229524544818" lon="116.4861594084358">
        <ele>17.5</ele>
        <time>2023-08-02T11:12:20Z</time>
      </trkpt>
      <trkpt lat="39.932305386952066" lon="116.48586931233596">
        <ele>15.8</ele>
        <time>2023-08-02T11:12:29Z</time>
      </trkpt>
      <trkpt lat="39.93228029316641" lon="116.48549891842347">
        <ele>12.5</ele>
        <time>2023-08-02T11:12:38Z</time>
      </trkpt>
      <trkpt lat="39.93227371822738" lon="116.48530418515843">
        <ele>13.399999999999999</ele>
        <time>2023-08-02T11:12:44Z</time>
      </trkpt>
      <trkpt lat="39.93223073622448" lon="116.48497093492554">
        <ele>10.5</ele>
        <time>2023-08-02T11:12:53Z</time>
      </trkpt>
      <trkpt lat="39.93227069546531" lon="116.48461860344558">
        <ele>15.2</ele>
        <time>2023-08-02T11:13:02Z</time>
      </trkpt>
      <trkpt lat="39.93227739635683" lon="116.4845172211011">
        <ele>16.9</ele>
        <time>2023-08-02T11:13:05Z</time>
      </trkpt>
      <trkpt lat="39.93232211649501" lon="116.48442286052938">
        <ele>19.599999999999998</ele>
        <time>2023-08-02T11:13:08Z</time>
      </trkpt>
      <trkpt lat="39.93239890933234" lon="116.48435359041362">
        <ele>21.599999999999998</ele>
        <time>2023-08-02T11:13:11Z</time>
      </trkpt>
      <trkpt lat="39.932575653822695" lon="116.4842692512377">
        <ele>24.7</ele>
        <time>2023-08-02T11:13:17Z</time>
      </trkpt>
      <trkpt lat="39.932657620947936" lon="116.48425920325724">
        <ele>25.099999999999998</ele>
        <time>2023-08-02T11:13:20Z</time>
      </trkpt>
      <trkpt lat="39.932657620947936" lon="116.48425920325724">
        <ele>25.099999999999998</ele>
        <time>2023-08-02T11:13:23Z</time>
      </trkpt>
      <trkpt lat="39.93268211749526" lon="116.48408855863013">
        <ele>26.999999999999996</ele>
        <time>2023-08-02T11:16:41Z</time>
      </trkpt>
      <trkpt lat="39.93272415586744" lon="116.48376232757617">
        <ele>26.7</ele>
        <time>2023-08-02T11:16:50Z</time>
      </trkpt>
      <trkpt lat="39.932680089484286" lon="116.48339896887848">
        <ele>19.9</ele>
        <time>2023-08-02T11:16:59Z</time>
      </trkpt>
      <trkpt lat="39.93267036465002" lon="116.48315204376058">
        <ele>17.3</ele>
        <time>2023-08-02T11:17:05Z</time>
      </trkpt>
      <trkpt lat="39.932701883137995" lon="116.48298842636443">
        <ele>15.0</ele>
        <time>2023-08-02T11:17:08Z</time>
      </trkpt>
      <trkpt lat="39.93270951121889" lon="116.48252067309289">
        <ele>16.3</ele>
        <time>2023-08-02T11:17:17Z</time>
      </trkpt>
      <trkpt lat="39.93269254476699" lon="116.48219043944172">
        <ele>16.099999999999998</ele>
        <time>2023-08-02T11:17:26Z</time>
      </trkpt>
      <trkpt lat="39.932695332082645" lon="116.48177588948948">
        <ele>12.0</ele>
        <time>2023-08-02T11:17:38Z</time>
      </trkpt>
      <trkpt lat="39.93267504587705" lon="116.48133524699963">
        <ele>13.399999999999999</ele>
        <time>2023-08-02T11:17:50Z</time>
      </trkpt>
      <trkpt lat="39.93268898846486" lon="116.48097289422152">
        <ele>8.8</ele>
        <time>2023-08-02T11:18:02Z</time>
      </trkpt>
      <trkpt lat="39.93267469404463" lon="116.48052824027425">
        <ele>8.3</ele>
        <time>2023-08-02T11:18:14Z</time>
      </trkpt>
      <trkpt lat="39.93268156133068" lon="116.48013879129059">
        <ele>15.0</ele>
        <time>2023-08-02T11:18:23Z</time>
      </trkpt>
      <trkpt lat="39.93264646405765" lon="116.47976039050043">
        <ele>19.5</ele>
        <time>2023-08-02T11:18:35Z</time>
      </trkpt>
      <trkpt lat="39.932680470338504" lon="116.4794181168995">
        <ele>26.099999999999998</ele>
        <time>2023-08-02T11:18:44Z</time>
      </trkpt>
      <trkpt lat="39.93270424549176" lon="116.47934082751978">
        <ele>27.999999999999996</ele>
        <time>2023-08-02T11:18:47Z</time>
      </trkpt>
      <trkpt lat="39.93267307324876" lon="116.47893533008752">
        <ele>33.900000000000006</ele>
        <time>2023-08-02T11:18:56Z</time>
      </trkpt>
      <trkpt lat="39.93266986712676" lon="116.47851778701259">
        <ele>39.2</ele>
        <time>2023-08-02T11:19:08Z</time>
      </trkpt>
      <trkpt lat="39.93266656778474" lon="116.47806712438522">
        <ele>38.6</ele>
        <time>2023-08-02T11:19:20Z</time>
      </trkpt>
      <trkpt lat="39.932661320202726" lon="116.47763352787044">
        <ele>34.7</ele>
        <time>2023-08-02T11:19:29Z</time>
      </trkpt>
      <trkpt lat="39.93263354559938" lon="116.47736353828863">
        <ele>33.7</ele>
        <time>2023-08-02T11:19:35Z</time>
      </trkpt>
      <trkpt lat="39.93263984832129" lon="116.4771206451031">
        <ele>29.099999999999998</ele>
        <time>2023-08-02T11:19:41Z</time>
      </trkpt>
      <trkpt lat="39.932685193404694" lon="116.47689280320566">
        <ele>27.3</ele>
        <time>2023-08-02T11:19:47Z</time>
      </trkpt>
      <trkpt lat="39.93269345454401" lon="116.47663485646314">
        <ele>23.7</ele>
        <time>2023-08-02T11:19:53Z</time>
      </trkpt>
      <trkpt lat="39.93272703405211" lon="116.47648831549778">
        <ele>21.099999999999998</ele>
        <time>2023-08-02T11:19:56Z</time>
      </trkpt>
      <trkpt lat="39.93277373952606" lon="116.47638593486428">
        <ele>21.8</ele>
        <time>2023-08-02T11:19:59Z</time>
      </trkpt>
      <trkpt lat="39.93290629549562" lon="116.4762323564156">
        <ele>30.099999999999998</ele>
        <time>2023-08-02T11:20:05Z</time>
      </trkpt>
      <trkpt lat="39.93299916565431" lon="116.47618818327935">
        <ele>32.5</ele>
        <time>2023-08-02T11:20:11Z</time>
      </trkpt>
      <trkpt lat="39.933061240522136" lon="116.47621527460271">
        <ele>31.900000000000002</ele>
        <time>2023-08-02T11:20:14Z</time>
      </trkpt>
      <trkpt lat="39.93331917375963" lon="116.47654545084276">
        <ele>30.099999999999998</ele>
        <time>2023-08-02T11:45:12Z</time>
      </trkpt>
      <trkpt lat="39.933486959811106" lon="116.47682244509645">
        <ele>29.900000000000002</ele>
        <time>2023-08-02T11:45:27Z</time>
      </trkpt>
      <trkpt lat="39.93351824319107" lon="116.47692180565974">
        <ele>30.900000000000002</ele>
        <time>2023-08-02T11:45:33Z</time>
      </trkpt>
      <trkpt lat="39.93360658771028" lon="116.47704324029199">
        <ele>29.599999999999998</ele>
        <time>2023-08-02T11:45:39Z</time>
      </trkpt>
      <trkpt lat="39.93384511643899" lon="116.47723089969523">
        <ele>21.8</ele>
        <time>2023-08-02T11:45:54Z</time>
      </trkpt>
      <trkpt lat="39.93403828725122" lon="116.47729310416047">
        <ele>18.7</ele>
        <time>2023-08-02T11:46:03Z</time>
      </trkpt>
      <trkpt lat="39.93431424445049" lon="116.47728202903163">
        <ele>20.3</ele>
        <time>2023-08-02T11:46:15Z</time>
      </trkpt>
      <trkpt lat="39.93453922963426" lon="116.47727999348112">
        <ele>22.7</ele>
        <time>2023-08-02T11:46:24Z</time>
      </trkpt>
      <trkpt lat="39.93482488118563" lon="116.47716252628706">
        <ele>24.7</ele>
        <time>2023-08-02T11:46:36Z</time>
      </trkpt>
      <trkpt lat="39.93510151890585" lon="116.47704004201708">
        <ele>23.8</ele>
        <time>2023-08-02T11:46:51Z</time>
      </trkpt>
      <trkpt lat="39.93524245857126" lon="116.47702095436354">
        <ele>24.7</ele>
        <time>2023-08-02T11:46:57Z</time>
      </trkpt>
      <trkpt lat="39.935303502155605" lon="116.47703700566687">
        <ele>25.9</ele>
        <time>2023-08-02T11:47:00Z</time>
      </trkpt>
      <trkpt lat="39.93555917710754" lon="116.4772758510009">
        <ele>27.3</ele>
        <time>2023-08-02T11:47:12Z</time>
      </trkpt>
      <trkpt lat="39.93570158058872" lon="116.47741835706735">
        <ele>26.7</ele>
        <time>2023-08-02T11:47:21Z</time>
      </trkpt>
      <trkpt lat="39.935859830844755" lon="116.47750766577488">
        <ele>26.8</ele>
        <time>2023-08-02T11:47:30Z</time>
      </trkpt>
      <trkpt lat="39.93594187081075" lon="116.47752271088342">
        <ele>25.099999999999998</ele>
        <time>2023-08-02T11:47:36Z</time>
      </trkpt>
      <trkpt lat="39.93616863391099" lon="116.47744339084973">
        <ele>25.2</ele>
        <time>2023-08-02T11:47:48Z</time>
      </trkpt>
      <trkpt lat="39.93644172386839" lon="116.47747848584643">
        <ele>24.9</ele>
        <time>2023-08-02T11:48:00Z</time>
      </trkpt>
      <trkpt lat="39.93675191042165" lon="116.47754770175942">
        <ele>27.900000000000002</ele>
        <time>2023-08-02T11:48:12Z</time>
      </trkpt>
      <trkpt lat="39.936949888064305" lon="116.47754265850449">
        <ele>22.3</ele>
        <time>2023-08-02T11:48:21Z</time>
      </trkpt>
      <trkpt lat="39.9372650975681" lon="116.47761990341044">
        <ele>21.8</ele>
        <time>2023-08-02T11:48:36Z</time>
      </trkpt>
      <trkpt lat="39.93751651467905" lon="116.47776841878799">
        <ele>22.3</ele>
        <time>2023-08-02T11:48:48Z</time>
      </trkpt>
      <trkpt lat="39.937779290003185" lon="116.47804139181632">
        <ele>19.9</ele>
        <time>2023-08-02T11:49:00Z</time>
      </trkpt>
      <trkpt lat="39.937888623953945" lon="116.47815881117587">
        <ele>21.599999999999998</ele>
        <time>2023-08-02T11:49:06Z</time>
      </trkpt>
      <trkpt lat="39.93796489863557" lon="116.47825515710385">
        <ele>22.099999999999998</ele>
        <time>2023-08-02T11:49:12Z</time>
      </trkpt>
      <trkpt lat="39.938158296139136" lon="116.47839565154626">
        <ele>20.0</ele>
        <time>2023-08-02T11:49:21Z</time>
      </trkpt>
      <trkpt lat="39.938372490286426" lon="116.4784658841697">
        <ele>19.099999999999998</ele>
        <time>2023-08-02T11:49:33Z</time>
      </trkpt>
      <trkpt lat="39.93868173574892" lon="116.47855517541987">
        <ele>22.2</ele>
        <time>2023-08-02T11:49:48Z</time>
      </trkpt>
      <trkpt lat="39.93900991679368" lon="116.47862238281489">
        <ele>28.599999999999998</ele>
        <time>2023-08-02T11:50:03Z</time>
      </trkpt>
      <trkpt lat="39.93906688553466" lon="116.47861233859308">
        <ele>28.599999999999998</ele>
        <time>2023-08-02T11:50:06Z</time>
      </trkpt>
      <trkpt lat="39.9392269834829" lon="116.47864845208456">
        <ele>27.099999999999998</ele>
        <time>2023-08-02T11:50:15Z</time>
      </trkpt>
      <trkpt lat="39.939363940331" lon="116.47863538671777">
        <ele>24.2</ele>
        <time>2023-08-02T11:50:21Z</time>
      </trkpt>
      <trkpt lat="39.939493798929256" lon="116.47858819613951">
        <ele>24.7</ele>
        <time>2023-08-02T11:50:27Z</time>
      </trkpt>
      <trkpt lat="39.93954179701274" lon="116.47858819013088">
        <ele>25.5</ele>
        <time>2023-08-02T11:50:30Z</time>
      </trkpt>
      <trkpt lat="39.93978512111395" lon="116.47835730707088">
        <ele>24.8</ele>
        <time>2023-08-02T11:50:45Z</time>
      </trkpt>
      <trkpt lat="39.93995952384322" lon="116.4781525296773">
        <ele>29.400000000000002</ele>
        <time>2023-08-02T11:50:57Z</time>
      </trkpt>
      <trkpt lat="39.94010854680129" lon="116.47781526794654">
        <ele>35.0</ele>
        <time>2023-08-02T11:51:12Z</time>
      </trkpt>
      <trkpt lat="39.940293605845376" lon="116.47783832980777">
        <ele>32.900000000000006</ele>
        <time>2023-08-02T11:51:21Z</time>
      </trkpt>
      <trkpt lat="39.94041485233813" lon="116.47792563635677">
        <ele>28.3</ele>
        <time>2023-08-02T11:51:27Z</time>
      </trkpt>
      <trkpt lat="39.94056235808632" lon="116.47810327280528">
        <ele>23.2</ele>
        <time>2023-08-02T11:51:36Z</time>
      </trkpt>
      <trkpt lat="39.94064224906043" lon="116.47841340727733">
        <ele>18.7</ele>
        <time>2023-08-02T11:51:48Z</time>
      </trkpt>
      <trkpt lat="39.94067144193736" lon="116.47848065196617">
        <ele>17.9</ele>
        <time>2023-08-02T11:51:51Z</time>
      </trkpt>
      <trkpt lat="39.940730109040864" lon="116.47871250136056">
        <ele>17.599999999999998</ele>
        <time>2023-08-02T11:52:00Z</time>
      </trkpt>
      <trkpt lat="39.940881790519434" lon="116.47895036217561">
        <ele>17.9</ele>
        <time>2023-08-02T11:52:12Z</time>
      </trkpt>
      <trkpt lat="39.94110444081111" lon="116.47917817774481">
        <ele>18.3</ele>
        <time>2023-08-02T11:52:27Z</time>
      </trkpt>
      <trkpt lat="39.94121168933572" lon="116.47926548777158">
        <ele>17.0</ele>
        <time>2023-08-02T11:52:33Z</time>
      </trkpt>
      <trkpt lat="39.94136638392836" lon="116.47950736495861">
        <ele>14.5</ele>
        <time>2023-08-02T11:52:45Z</time>
      </trkpt>
      <trkpt lat="39.94139481930003" lon="116.47965791982253">
        <ele>15.5</ele>
        <time>2023-08-02T11:52:51Z</time>
      </trkpt>
      <trkpt lat="39.94141377103893" lon="116.47998613586898">
        <ele>16.9</ele>
        <time>2023-08-02T11:53:03Z</time>
      </trkpt>
      <trkpt lat="39.94145014568437" lon="116.48011561237055">
        <ele>18.2</ele>
        <time>2023-08-02T11:53:09Z</time>
      </trkpt>
      <trkpt lat="39.9416897663039" lon="116.48033238836501">
        <ele>21.099999999999998</ele>
        <time>2023-08-02T11:53:24Z</time>
      </trkpt>
      <trkpt lat="39.941784092425685" lon="116.48044579844967">
        <ele>21.4</ele>
        <time>2023-08-02T11:53:30Z</time>
      </trkpt>
      <trkpt lat="39.941892280855875" lon="116.48051203140226">
        <ele>20.599999999999998</ele>
        <time>2023-08-02T11:53:36Z</time>
      </trkpt>
      <trkpt lat="39.94210340681199" lon="116.48055817681828">
        <ele>19.9</ele>
        <time>2023-08-02T11:53:45Z</time>
      </trkpt>
      <trkpt lat="39.94241947310801" lon="116.48058523814775">
        <ele>15.899999999999999</ele>
        <time>2023-08-02T11:54:00Z</time>
      </trkpt>
      <trkpt lat="39.94271033884488" lon="116.4805430448591">
        <ele>16.0</ele>
        <time>2023-08-02T11:54:12Z</time>
      </trkpt>
      <trkpt lat="39.94283534263566" lon="116.48054604042781">
        <ele>19.0</ele>
        <time>2023-08-02T11:54:18Z</time>
      </trkpt>
      <trkpt lat="39.94296203095185" lon="116.48044063241552">
        <ele>22.599999999999998</ele>
        <time>2023-08-02T11:54:27Z</time>
      </trkpt>
      <trkpt lat="39.943160128196354" lon="116.48047674207292">
        <ele>21.099999999999998</ele>
        <time>2023-08-02T11:54:36Z</time>
      </trkpt>
      <trkpt lat="39.94322905465222" lon="116.4807959217224">
        <ele>21.8</ele>
        <time>2023-08-02T11:54:48Z</time>
      </trkpt>
      <trkpt lat="39.94323516620682" lon="116.48117734255068">
        <ele>23.2</ele>
        <time>2023-08-02T11:55:03Z</time>
      </trkpt>
      <trkpt lat="39.94325510870979" lon="116.48150054603056">
        <ele>18.2</ele>
        <time>2023-08-02T11:55:15Z</time>
      </trkpt>
      <trkpt lat="39.943238654736795" lon="116.48168724526066">
        <ele>17.599999999999998</ele>
        <time>2023-08-02T11:55:21Z</time>
      </trkpt>
      <trkpt lat="39.94325792678876" lon="116.48178059158663">
        <ele>18.0</ele>
        <time>2023-08-02T11:55:24Z</time>
      </trkpt>
      <trkpt lat="39.94329907186539" lon="116.48183077397522">
        <ele>17.2</ele>
        <time>2023-08-02T11:55:27Z</time>
      </trkpt>
      <trkpt lat="39.94341699381811" lon="116.48180566546063">
        <ele>19.2</ele>
        <time>2023-08-02T11:55:33Z</time>
      </trkpt>
      <trkpt lat="39.94350683474585" lon="116.48175245545744">
        <ele>21.3</ele>
        <time>2023-08-02T11:55:39Z</time>
      </trkpt>
      <trkpt lat="39.94355681222361" lon="116.48174542295804">
        <ele>24.099999999999998</ele>
        <time>2023-08-02T11:55:42Z</time>
      </trkpt>
      <trkpt lat="39.94361766313546" lon="116.48169522786365">
        <ele>27.400000000000002</ele>
        <time>2023-08-02T11:55:48Z</time>
      </trkpt>
      <trkpt lat="39.94366245899267" lon="116.48162596357909">
        <ele>26.499999999999996</ele>
        <time>2023-08-02T11:55:51Z</time>
      </trkpt>
      <trkpt lat="39.94377022014782" lon="116.48154565024979">
        <ele>26.7</ele>
        <time>2023-08-02T11:55:57Z</time>
      </trkpt>
      <trkpt lat="39.94382217704152" lon="116.48153159128562">
        <ele>27.3</ele>
        <time>2023-08-02T11:56:00Z</time>
      </trkpt>
      <trkpt lat="39.94395523038648" lon="116.4815516496004">
        <ele>29.3</ele>
        <time>2023-08-02T11:56:09Z</time>
      </trkpt>
      <trkpt lat="39.94419710058756" lon="116.48151046570361">
        <ele>28.900000000000002</ele>
        <time>2023-08-02T11:56:18Z</time>
      </trkpt>
      <trkpt lat="39.944320101564585" lon="116.48151245781628">
        <ele>29.599999999999998</ele>
        <time>2023-08-02T11:56:21Z</time>
      </trkpt>
      <trkpt lat="39.94446028948402" lon="116.48157868763624">
        <ele>33.400000000000006</ele>
        <time>2023-08-02T11:56:27Z</time>
      </trkpt>
      <trkpt lat="39.94463380464356" lon="116.4817573332894">
        <ele>35.900000000000006</ele>
        <time>2023-08-02T11:56:36Z</time>
      </trkpt>
      <trkpt lat="39.9448951405222" lon="116.4818757432136">
        <ele>30.499999999999996</ele>
        <time>2023-08-02T11:56:51Z</time>
      </trkpt>
      <trkpt lat="39.945125298694656" lon="116.48193292829137">
        <ele>28.999999999999996</ele>
        <time>2023-08-02T11:57:03Z</time>
      </trkpt>
      <trkpt lat="39.94545023002713" lon="116.48191381637214">
        <ele>23.9</ele>
        <time>2023-08-02T11:57:18Z</time>
      </trkpt>
      <trkpt lat="39.94560919143221" lon="116.48190275522394">
        <ele>24.5</ele>
        <time>2023-08-02T11:57:24Z</time>
      </trkpt>
      <trkpt lat="39.945888910338525" lon="116.4818103751199">
        <ele>30.499999999999996</ele>
        <time>2023-08-02T11:57:36Z</time>
      </trkpt>
      <trkpt lat="39.94613447229968" lon="116.48166379690656">
        <ele>31.099999999999998</ele>
        <time>2023-08-02T11:57:51Z</time>
      </trkpt>
      <trkpt lat="39.94639390789141" lon="116.48147405606642">
        <ele>27.2</ele>
        <time>2023-08-02T11:58:06Z</time>
      </trkpt>
      <trkpt lat="39.946690257455685" lon="116.48125520242729">
        <ele>26.499999999999996</ele>
        <time>2023-08-02T11:58:24Z</time>
      </trkpt>
      <trkpt lat="39.946952860560785" lon="116.48112267541354">
        <ele>23.5</ele>
        <time>2023-08-02T11:58:36Z</time>
      </trkpt>
      <trkpt lat="39.947240299038896" lon="116.4809339360055">
        <ele>23.3</ele>
        <time>2023-08-02T11:58:51Z</time>
      </trkpt>
      <trkpt lat="39.94754386296742" lon="116.48078835576631">
        <ele>22.0</ele>
        <time>2023-08-02T11:59:06Z</time>
      </trkpt>
      <trkpt lat="39.947789403126784" lon="116.48063374941037">
        <ele>21.8</ele>
        <time>2023-08-02T11:59:21Z</time>
      </trkpt>
      <trkpt lat="39.94803495522892" lon="116.48048315828727">
        <ele>23.0</ele>
        <time>2023-08-02T11:59:33Z</time>
      </trkpt>
      <trkpt lat="39.948169757173666" lon="116.48041689493391">
        <ele>24.4</ele>
        <time>2023-08-02T11:59:39Z</time>
      </trkpt>
      <trkpt lat="39.94827047295689" lon="116.48032052390583">
        <ele>26.400000000000002</ele>
        <time>2023-08-02T11:59:45Z</time>
      </trkpt>
      <trkpt lat="39.94838388207414" lon="116.48011875964694">
        <ele>28.099999999999998</ele>
        <time>2023-08-02T11:59:54Z</time>
      </trkpt>
      <trkpt lat="39.94852270518157" lon="116.4797152437363">
        <ele>27.7</ele>
        <time>2023-08-02T12:00:09Z</time>
      </trkpt>
      <trkpt lat="39.94855421204421" lon="116.47954561046024">
        <ele>28.499999999999996</ele>
        <time>2023-08-02T12:00:15Z</time>
      </trkpt>
      <trkpt lat="39.94857905689497" lon="116.47914713052862">
        <ele>26.3</ele>
        <time>2023-08-02T12:00:30Z</time>
      </trkpt>
      <trkpt lat="39.948579444234525" lon="116.47893534647294">
        <ele>24.9</ele>
        <time>2023-08-02T12:00:39Z</time>
      </trkpt>
      <trkpt lat="39.94855849669789" lon="116.47860713533774">
        <ele>26.8</ele>
        <time>2023-08-02T12:00:51Z</time>
      </trkpt>
      <trkpt lat="39.94861502222905" lon="116.47844352382002">
        <ele>26.599999999999998</ele>
        <time>2023-08-02T12:00:57Z</time>
      </trkpt>
      <trkpt lat="39.94881412006849" lon="116.47813335413133">
        <ele>29.400000000000002</ele>
        <time>2023-08-02T12:01:12Z</time>
      </trkpt>
      <trkpt lat="39.94888479054548" lon="116.47801992700796">
        <ele>29.2</ele>
        <time>2023-08-02T12:01:18Z</time>
      </trkpt>
      <trkpt lat="39.94904850662447" lon="116.47792355130707">
        <ele>25.7</ele>
        <time>2023-08-02T12:01:24Z</time>
      </trkpt>
      <trkpt lat="39.94936166472751" lon="116.47798273035657">
        <ele>24.0</ele>
        <time>2023-08-02T12:01:42Z</time>
      </trkpt>
      <trkpt lat="39.949552787234936" lon="116.47802787293534">
        <ele>26.8</ele>
        <time>2023-08-02T12:01:51Z</time>
      </trkpt>
      <trkpt lat="39.949656933450434" lon="116.47808005235204">
        <ele>25.2</ele>
        <time>2023-08-02T12:01:57Z</time>
      </trkpt>
      <trkpt lat="39.94981169027459" lon="116.47799772948473">
        <ele>24.2</ele>
        <time>2023-08-02T12:02:06Z</time>
      </trkpt>
      <trkpt lat="39.95005687756566" lon="116.47771867066076">
        <ele>29.099999999999998</ele>
        <time>2023-08-02T12:02:21Z</time>
      </trkpt>
      <trkpt lat="39.95010171415876" lon="116.47766245808748">
        <ele>29.8</ele>
        <time>2023-08-02T12:02:24Z</time>
      </trkpt>
      <trkpt lat="39.950159633952225" lon="116.47763535106584">
        <ele>29.599999999999998</ele>
        <time>2023-08-02T12:02:27Z</time>
      </trkpt>
      <trkpt lat="39.95022373241986" lon="116.47767047236174">
        <ele>29.900000000000002</ele>
        <time>2023-08-02T12:02:30Z</time>
      </trkpt>
      <trkpt lat="39.95037350909978" lon="116.47794245560503">
        <ele>25.599999999999998</ele>
        <time>2023-08-02T12:02:42Z</time>
      </trkpt>
      <trkpt lat="39.950383950953324" lon="116.47809602050745">
        <ele>23.099999999999998</ele>
        <time>2023-08-02T12:02:48Z</time>
      </trkpt>
      <trkpt lat="39.95017986474012" lon="116.47841020550285">
        <ele>20.599999999999998</ele>
        <time>2023-08-02T12:03:03Z</time>
      </trkpt>
      <trkpt lat="39.95003935984761" lon="116.47857984972717">
        <ele>24.8</ele>
        <time>2023-08-02T12:03:12Z</time>
      </trkpt>
      <trkpt lat="39.95001456950347" lon="116.47865211992482">
        <ele>25.0</ele>
        <time>2023-08-02T12:03:15Z</time>
      </trkpt>
      <trkpt lat="39.95002400697953" lon="116.47880367914222">
        <ele>24.8</ele>
        <time>2023-08-02T12:03:21Z</time>
      </trkpt>
      <trkpt lat="39.95012498990575" lon="116.47914492952887">
        <ele>23.5</ele>
        <time>2023-08-02T12:03:33Z</time>
      </trkpt>
      <trkpt lat="39.950308970956634" lon="116.47948617116305">
        <ele>23.4</ele>
        <time>2023-08-02T12:03:48Z</time>
      </trkpt>
      <trkpt lat="39.950428452180205" lon="116.47965377796847">
        <ele>25.5</ele>
        <time>2023-08-02T12:03:57Z</time>
      </trkpt>
      <trkpt lat="39.950527494837836" lon="116.47966982515975">
        <ele>30.400000000000002</ele>
        <time>2023-08-02T12:04:03Z</time>
      </trkpt>
      <trkpt lat="39.950825128004624" lon="116.47954733360956">
        <ele>31.999999999999996</ele>
        <time>2023-08-02T12:04:21Z</time>
      </trkpt>
      <trkpt lat="39.950894113637844" lon="116.47954331008148">
        <ele>31.099999999999998</ele>
        <time>2023-08-02T12:04:24Z</time>
      </trkpt>
      <trkpt lat="39.95095019289242" lon="116.4795714073044">
        <ele>30.499999999999996</ele>
        <time>2023-08-02T12:04:27Z</time>
      </trkpt>
      <trkpt lat="39.95106361628912" lon="116.47971894056123">
        <ele>27.499999999999996</ele>
        <time>2023-08-02T12:04:36Z</time>
      </trkpt>
      <trkpt lat="39.951087017279704" lon="116.4798574518375">
        <ele>26.499999999999996</ele>
        <time>2023-08-02T12:04:42Z</time>
      </trkpt>
      <trkpt lat="39.951049977823544" lon="116.48018768339442">
        <ele>24.5</ele>
        <time>2023-08-02T12:04:54Z</time>
      </trkpt>
      <trkpt lat="39.951089405187446" lon="116.48033522711732">
        <ele>24.7</ele>
        <time>2023-08-02T12:05:00Z</time>
      </trkpt>
      <trkpt lat="39.951224896164945" lon="116.48050584501064">
        <ele>19.9</ele>
        <time>2023-08-02T12:05:09Z</time>
      </trkpt>
      <trkpt lat="39.95124734517575" lon="116.48066041761918">
        <ele>18.4</ele>
        <time>2023-08-02T12:05:15Z</time>
      </trkpt>
      <trkpt lat="39.95122714123414" lon="116.4809334371953">
        <ele>19.7</ele>
        <time>2023-08-02T12:05:24Z</time>
      </trkpt>
      <trkpt lat="39.95124176396978" lon="116.4811472324392">
        <ele>19.3</ele>
        <time>2023-08-02T12:05:33Z</time>
      </trkpt>
      <trkpt lat="39.9511573911001" lon="116.48136104061479">
        <ele>19.599999999999998</ele>
        <time>2023-08-02T12:05:42Z</time>
      </trkpt>
      <trkpt lat="39.95095414948556" lon="116.48161802538814">
        <ele>25.8</ele>
        <time>2023-08-02T12:05:54Z</time>
      </trkpt>
      <trkpt lat="39.95074484714769" lon="116.48185393288472">
        <ele>32.5</ele>
        <time>2023-08-02T12:06:06Z</time>
      </trkpt>
      <trkpt lat="39.95072560833645" lon="116.48211390733607">
        <ele>25.9</ele>
        <time>2023-08-02T12:06:15Z</time>
      </trkpt>
      <trkpt lat="39.95077938787226" lon="116.48238089969819">
        <ele>19.4</ele>
        <time>2023-08-02T12:06:24Z</time>
      </trkpt>
      <trkpt lat="39.95077959367811" lon="116.48245116271757">
        <ele>16.9</ele>
        <time>2023-08-02T12:06:27Z</time>
      </trkpt>
      <trkpt lat="39.95084878797816" lon="116.48251840588641">
        <ele>15.599999999999998</ele>
        <time>2023-08-02T12:06:33Z</time>
      </trkpt>
      <trkpt lat="39.95107684366577" lon="116.48254046006868">
        <ele>16.9</ele>
        <time>2023-08-02T12:06:45Z</time>
      </trkpt>
      <trkpt lat="39.951254748392444" lon="116.48251032505438">
        <ele>15.599999999999998</ele>
        <time>2023-08-02T12:06:54Z</time>
      </trkpt>
      <trkpt lat="39.951378749370534" lon="116.48251231706676">
        <ele>16.8</ele>
        <time>2023-08-02T12:07:00Z</time>
      </trkpt>
      <trkpt lat="39.951423694654565" lon="116.4824942437892">
        <ele>19.0</ele>
        <time>2023-08-02T12:07:03Z</time>
      </trkpt>
      <trkpt lat="39.95166899409632" lon="116.48225833012502">
        <ele>26.2</ele>
        <time>2023-08-02T12:07:18Z</time>
      </trkpt>
      <trkpt lat="39.95171886576943" lon="116.48221516238418">
        <ele>27.499999999999996</ele>
        <time>2023-08-02T12:07:21Z</time>
      </trkpt>
      <trkpt lat="39.95184670499937" lon="116.48216194736095">
        <ele>27.2</ele>
        <time>2023-08-02T12:07:27Z</time>
      </trkpt>
      <trkpt lat="39.95189954428526" lon="116.48210773799322">
        <ele>26.099999999999998</ele>
        <time>2023-08-02T12:07:30Z</time>
      </trkpt>
      <trkpt lat="39.95202478185595" lon="116.4818487540361">
        <ele>23.3</ele>
        <time>2023-08-02T12:07:39Z</time>
      </trkpt>
      <trkpt lat="39.9521173175766" lon="116.4816911535951">
        <ele>23.0</ele>
        <time>2023-08-02T12:07:45Z</time>
      </trkpt>
      <trkpt lat="39.95215895816801" lon="116.48156869099063">
        <ele>23.099999999999998</ele>
        <time>2023-08-02T12:07:51Z</time>
      </trkpt>
      <trkpt lat="39.952284367044314" lon="116.48136792584684">
        <ele>25.0</ele>
        <time>2023-08-02T12:08:00Z</time>
      </trkpt>
      <trkpt lat="39.95250376090997" lon="116.48116313443896">
        <ele>23.3</ele>
        <time>2023-08-02T12:08:12Z</time>
      </trkpt>
      <trkpt lat="39.95281539149473" lon="116.48104063880629">
        <ele>14.2</ele>
        <time>2023-08-02T12:08:27Z</time>
      </trkpt>
      <trkpt lat="39.953077027140246" lon="116.48091915334703">
        <ele>14.8</ele>
        <time>2023-08-02T12:08:42Z</time>
      </trkpt>
      <trkpt lat="39.95328676148526" lon="116.48083079796183">
        <ele>18.2</ele>
        <time>2023-08-02T12:08:54Z</time>
      </trkpt>
      <trkpt lat="39.95357006049856" lon="116.48059388028793">
        <ele>17.5</ele>
        <time>2023-08-02T12:09:09Z</time>
      </trkpt>
      <trkpt lat="39.95362489766301" lon="116.48053866792277">
        <ele>17.2</ele>
        <time>2023-08-02T12:09:12Z</time>
      </trkpt>
      <trkpt lat="39.95391237238798" lon="116.48036197459231">
        <ele>19.0</ele>
        <time>2023-08-02T12:09:27Z</time>
      </trkpt>
      <trkpt lat="39.9541796324334" lon="116.48011100808662">
        <ele>23.3</ele>
        <time>2023-08-02T12:09:45Z</time>
      </trkpt>
      <trkpt lat="39.95439391567899" lon="116.47986707511843">
        <ele>30.3</ele>
        <time>2023-08-02T12:09:57Z</time>
      </trkpt>
      <trkpt lat="39.95442971618302" lon="116.47979881720619">
        <ele>28.999999999999996</ele>
        <time>2023-08-02T12:10:00Z</time>
      </trkpt>
      <trkpt lat="39.95441427130881" lon="116.47964524915055">
        <ele>26.099999999999998</ele>
        <time>2023-08-02T12:10:06Z</time>
      </trkpt>
      <trkpt lat="39.95439205391264" lon="116.47956997264218">
        <ele>24.599999999999998</ele>
        <time>2023-08-02T12:10:09Z</time>
      </trkpt>
      <trkpt lat="39.95421910694891" lon="116.4792407737828">
        <ele>20.5</ele>
        <time>2023-08-02T12:10:24Z</time>
      </trkpt>
      <trkpt lat="39.95406733168635" lon="116.47897079294698">
        <ele>22.4</ele>
        <time>2023-08-02T12:10:36Z</time>
      </trkpt>
      <trkpt lat="39.953886636744556" lon="116.47872791697866">
        <ele>22.8</ele>
        <time>2023-08-02T12:10:48Z</time>
      </trkpt>
      <trkpt lat="39.953863402831004" lon="116.47864661930807">
        <ele>23.3</ele>
        <time>2023-08-02T12:10:51Z</time>
      </trkpt>
      <trkpt lat="39.95369470260447" lon="116.47840173557199">
        <ele>22.099999999999998</ele>
        <time>2023-08-02T12:11:03Z</time>
      </trkpt>
      <trkpt lat="39.953634563114505" lon="116.47835256149736">
        <ele>22.2</ele>
        <time>2023-08-02T12:11:06Z</time>
      </trkpt>
      <trkpt lat="39.95342670921281" lon="116.47805348384173">
        <ele>24.2</ele>
        <time>2023-08-02T12:11:21Z</time>
      </trkpt>
      <trkpt lat="39.95319889768028" lon="116.4777684618064">
        <ele>21.5</ele>
        <time>2023-08-02T12:11:36Z</time>
      </trkpt>
      <trkpt lat="39.95309858988991" lon="116.47766007518872">
        <ele>20.7</ele>
        <time>2023-08-02T12:11:42Z</time>
      </trkpt>
      <trkpt lat="39.95297146794791" lon="116.47761592853921">
        <ele>21.2</ele>
        <time>2023-08-02T12:11:48Z</time>
      </trkpt>
      <trkpt lat="39.95272185201841" lon="116.47739815845874">
        <ele>21.4</ele>
        <time>2023-08-02T12:12:03Z</time>
      </trkpt>
      <trkpt lat="39.952633607671494" lon="116.47731185213559">
        <ele>20.599999999999998</ele>
        <time>2023-08-02T12:12:09Z</time>
      </trkpt>
      <trkpt lat="39.95252145077818" lon="116.4772556595883">
        <ele>18.7</ele>
        <time>2023-08-02T12:12:15Z</time>
      </trkpt>
      <trkpt lat="39.95242416664703" lon="116.4771553029724">
        <ele>18.0</ele>
        <time>2023-08-02T12:12:21Z</time>
      </trkpt>
      <trkpt lat="39.952266347159295" lon="116.47686726517837">
        <ele>19.099999999999998</ele>
        <time>2023-08-02T12:12:30Z</time>
      </trkpt>
      <trkpt lat="39.95213441009961" lon="116.47653807472796">
        <ele>21.8</ele>
        <time>2023-08-02T12:12:42Z</time>
      </trkpt>
      <trkpt lat="39.95202189235928" lon="116.47635541988221">
        <ele>20.7</ele>
        <time>2023-08-02T12:12:51Z</time>
      </trkpt>
      <trkpt lat="39.95195619562854" lon="116.47611053216963">
        <ele>21.9</ele>
        <time>2023-08-02T12:13:00Z</time>
      </trkpt>
      <trkpt lat="39.95178615499073" lon="116.47574321150216">
        <ele>18.7</ele>
        <time>2023-08-02T12:13:15Z</time>
      </trkpt>
      <trkpt lat="39.95171702390678" lon="116.47534476719373">
        <ele>13.099999999999998</ele>
        <time>2023-08-02T12:13:27Z</time>
      </trkpt>
      <trkpt lat="39.951506194128896" lon="116.47504971946096">
        <ele>17.0</ele>
        <time>2023-08-02T12:13:42Z</time>
      </trkpt>
      <trkpt lat="39.951426773018476" lon="116.4749001856329">
        <ele>18.599999999999998</ele>
        <time>2023-08-02T12:13:48Z</time>
      </trkpt>
      <trkpt lat="39.95139853226727" lon="116.4748148791435">
        <ele>18.0</ele>
        <time>2023-08-02T12:13:51Z</time>
      </trkpt>
      <trkpt lat="39.95138923969894" lon="116.47471150480347">
        <ele>16.3</ele>
        <time>2023-08-02T12:13:54Z</time>
      </trkpt>
      <trkpt lat="39.95127928393527" lon="116.4743722877566">
        <ele>10.899999999999999</ele>
        <time>2023-08-02T12:14:06Z</time>
      </trkpt>
      <trkpt lat="39.951142416038145" lon="116.47406318522951">
        <ele>17.0</ele>
        <time>2023-08-02T12:14:18Z</time>
      </trkpt>
      <trkpt lat="39.95096960200296" lon="116.47377215433197">
        <ele>21.9</ele>
        <time>2023-08-02T12:14:30Z</time>
      </trkpt>
      <trkpt lat="39.950772891946926" lon="116.47351725845995">
        <ele>23.3</ele>
        <time>2023-08-02T12:14:42Z</time>
      </trkpt>
      <trkpt lat="39.95058333215165" lon="116.47331555468898">
        <ele>23.2</ele>
        <time>2023-08-02T12:14:54Z</time>
      </trkpt>
      <trkpt lat="39.950497890075155" lon="116.4731569940691">
        <ele>21.599999999999998</ele>
        <time>2023-08-02T12:15:00Z</time>
      </trkpt>
      <trkpt lat="39.95039959253257" lon="116.47304961977242">
        <ele>25.8</ele>
        <time>2023-08-02T12:15:06Z</time>
      </trkpt>
      <trkpt lat="39.95026968498048" lon="116.47308074807181">
        <ele>29.499999999999996</ele>
        <time>2023-08-02T12:15:12Z</time>
      </trkpt>
      <trkpt lat="39.950163889194705" lon="116.47315201792291">
        <ele>30.7</ele>
        <time>2023-08-02T12:15:18Z</time>
      </trkpt>
      <trkpt lat="39.949883950992685" lon="116.47317011812427">
        <ele>30.099999999999998</ele>
        <time>2023-08-02T12:15:30Z</time>
      </trkpt>
      <trkpt lat="39.94975802643487" lon="116.4731952243054">
        <ele>29.900000000000002</ele>
        <time>2023-08-02T12:15:36Z</time>
      </trkpt>
      <trkpt lat="39.9495483223206" lon="116.473297619486">
        <ele>28.900000000000002</ele>
        <time>2023-08-02T12:15:45Z</time>
      </trkpt>
      <trkpt lat="39.94939643269488" lon="116.47333477240345">
        <ele>24.0</ele>
        <time>2023-08-02T12:15:51Z</time>
      </trkpt>
      <trkpt lat="39.9493445419575" lon="116.47337291641558">
        <ele>22.9</ele>
        <time>2023-08-02T12:15:54Z</time>
      </trkpt>
      <trkpt lat="39.949081665237365" lon="116.47341309417584">
        <ele>18.099999999999998</ele>
        <time>2023-08-02T12:16:06Z</time>
      </trkpt>
      <trkpt lat="39.94901577510382" lon="116.4734512400034">
        <ele>18.0</ele>
        <time>2023-08-02T12:16:09Z</time>
      </trkpt>
      <trkpt lat="39.94895597511571" lon="116.47352150097991">
        <ele>19.8</ele>
        <time>2023-08-02T12:16:12Z</time>
      </trkpt>
      <trkpt lat="39.94891922515398" lon="116.47360982437986">
        <ele>20.599999999999998</ele>
        <time>2023-08-02T12:16:15Z</time>
      </trkpt>
      <trkpt lat="39.94891642874677" lon="116.4736820856713">
        <ele>21.099999999999998</ele>
        <time>2023-08-02T12:16:18Z</time>
      </trkpt>
      <trkpt lat="39.94902837785689" lon="116.47402029432467">
        <ele>17.3</ele>
        <time>2023-08-02T12:16:33Z</time>
      </trkpt>
      <trkpt lat="39.949128227142225" lon="116.47432237574778">
        <ele>17.8</ele>
        <time>2023-08-02T12:16:45Z</time>
      </trkpt>
      <trkpt lat="39.949334090732414" lon="116.47463046746255">
        <ele>12.899999999999999</ele>
        <time>2023-08-02T12:17:00Z</time>
      </trkpt>
      <trkpt lat="39.94946983049321" lon="116.47489340557044">
        <ele>15.899999999999999</ele>
        <time>2023-08-02T12:17:12Z</time>
      </trkpt>
      <trkpt lat="39.94953381362255" lon="116.4752406608526">
        <ele>19.2</ele>
        <time>2023-08-02T12:17:24Z</time>
      </trkpt>
      <trkpt lat="39.94959454738359" lon="116.47549959665761">
        <ele>21.4</ele>
        <time>2023-08-02T12:17:33Z</time>
      </trkpt>
      <trkpt lat="39.949646565622" lon="116.47585789752871">
        <ele>25.3</ele>
        <time>2023-08-02T12:17:45Z</time>
      </trkpt>
      <trkpt lat="39.949634889429234" lon="116.47597131328543">
        <ele>26.8</ele>
        <time>2023-08-02T12:17:48Z</time>
      </trkpt>
      <trkpt lat="39.94959406280864" lon="116.47603153847294">
        <ele>26.8</ele>
        <time>2023-08-02T12:17:51Z</time>
      </trkpt>
      <trkpt lat="39.94953512527046" lon="116.47605262290094">
        <ele>26.8</ele>
        <time>2023-08-02T12:17:54Z</time>
      </trkpt>
      <trkpt lat="39.94940909017002" lon="116.4760385873423">
        <ele>26.599999999999998</ele>
        <time>2023-08-02T12:18:00Z</time>
      </trkpt>
      <trkpt lat="39.94928314669496" lon="116.47605666916684">
        <ele>22.4</ele>
        <time>2023-08-02T12:18:06Z</time>
      </trkpt>
      <trkpt lat="39.94895882745738" lon="116.47594028437045">
        <ele>18.9</ele>
        <time>2023-08-02T12:18:21Z</time>
      </trkpt>
      <trkpt lat="39.94866642421908" lon="116.47579478954243">
        <ele>22.7</ele>
        <time>2023-08-02T12:18:33Z</time>
      </trkpt>
      <trkpt lat="39.94846919758105" lon="116.47571251386964">
        <ele>25.9</ele>
        <time>2023-08-02T12:18:42Z</time>
      </trkpt>
      <trkpt lat="39.948134867907456" lon="116.47559211639405">
        <ele>28.099999999999998</ele>
        <time>2023-08-02T12:18:57Z</time>
      </trkpt>
      <trkpt lat="39.94786956712318" lon="116.4754827507661">
        <ele>25.8</ele>
        <time>2023-08-02T12:19:09Z</time>
      </trkpt>
      <trkpt lat="39.947566230933234" lon="116.4753603425885">
        <ele>27.599999999999998</ele>
        <time>2023-08-02T12:19:24Z</time>
      </trkpt>
      <trkpt lat="39.94731684151252" lon="116.47521986214551">
        <ele>25.599999999999998</ele>
        <time>2023-08-02T12:19:36Z</time>
      </trkpt>
      <trkpt lat="39.9469946746891" lon="116.4751566723912">
        <ele>17.3</ele>
        <time>2023-08-02T12:19:51Z</time>
      </trkpt>
      <trkpt lat="39.94671433535102" lon="116.47503325840756">
        <ele>16.7</ele>
        <time>2023-08-02T12:20:06Z</time>
      </trkpt>
      <trkpt lat="39.94657939766623" lon="116.47505334834185">
        <ele>18.5</ele>
        <time>2023-08-02T12:20:12Z</time>
      </trkpt>
      <trkpt lat="39.946508352059446" lon="116.47503629519112">
        <ele>20.4</ele>
        <time>2023-08-02T12:20:15Z</time>
      </trkpt>
      <trkpt lat="39.94646321714968" lon="116.47498812565075">
        <ele>21.5</ele>
        <time>2023-08-02T12:20:18Z</time>
      </trkpt>
      <trkpt lat="39.94639380717354" lon="116.47484260536213">
        <ele>23.8</ele>
        <time>2023-08-02T12:20:24Z</time>
      </trkpt>
      <trkpt lat="39.94633315273793" lon="116.47461077103617">
        <ele>23.7</ele>
        <time>2023-08-02T12:20:33Z</time>
      </trkpt>
      <trkpt lat="39.946303997626785" lon="116.47455557438025">
        <ele>23.2</ele>
        <time>2023-08-02T12:20:36Z</time>
      </trkpt>
      <trkpt lat="39.94625400347333" lon="116.47420330364233">
        <ele>21.7</ele>
        <time>2023-08-02T12:20:48Z</time>
      </trkpt>
      <trkpt lat="39.946243754445504" lon="116.47411498513564">
        <ele>20.8</ele>
        <time>2023-08-02T12:20:51Z</time>
      </trkpt>
      <trkpt lat="39.94621960523577" lon="116.47406179563515">
        <ele>19.8</ele>
        <time>2023-08-02T12:20:54Z</time>
      </trkpt>
      <trkpt lat="39.945898348919265" lon="116.47396649097541">
        <ele>20.5</ele>
        <time>2023-08-02T12:21:09Z</time>
      </trkpt>
      <trkpt lat="39.94573943450579" lon="116.47399461256786">
        <ele>23.7</ele>
        <time>2023-08-02T12:21:15Z</time>
      </trkpt>
      <trkpt lat="39.94566455642641" lon="116.47403677447284">
        <ele>24.5</ele>
        <time>2023-08-02T12:21:18Z</time>
      </trkpt>
      <trkpt lat="39.945341699545104" lon="116.47408298205099">
        <ele>28.7</ele>
        <time>2023-08-02T12:21:33Z</time>
      </trkpt>
      <trkpt lat="39.94508688534756" lon="116.47414523926848">
        <ele>25.8</ele>
        <time>2023-08-02T12:21:45Z</time>
      </trkpt>
      <trkpt lat="39.94500786864358" lon="116.47413822374564">
        <ele>25.599999999999998</ele>
        <time>2023-08-02T12:21:48Z</time>
      </trkpt>
      <trkpt lat="39.94492593708442" lon="116.47416131760002">
        <ele>25.599999999999998</ele>
        <time>2023-08-02T12:21:51Z</time>
      </trkpt>
      <trkpt lat="39.94486905557036" lon="116.47420247374457">
        <ele>28.599999999999998</ele>
        <time>2023-08-02T12:21:54Z</time>
      </trkpt>
      <trkpt lat="39.94483622631995" lon="116.47461597700189">
        <ele>26.099999999999998</ele>
        <time>2023-08-02T12:22:09Z</time>
      </trkpt>
      <trkpt lat="39.94479401006448" lon="116.4748919847144">
        <ele>24.3</ele>
        <time>2023-08-02T12:22:18Z</time>
      </trkpt>
      <trkpt lat="39.94466610345308" lon="116.47527539551973">
        <ele>29.599999999999998</ele>
        <time>2023-08-02T12:22:33Z</time>
      </trkpt>
      <trkpt lat="39.94456004390633" lon="116.47560460852777">
        <ele>30.999999999999996</ele>
        <time>2023-08-02T12:22:45Z</time>
      </trkpt>
      <trkpt lat="39.944528410964104" lon="116.4757330811938">
        <ele>31.400000000000002</ele>
        <time>2023-08-02T12:22:51Z</time>
      </trkpt>
      <trkpt lat="39.94433436000906" lon="116.47606331154513">
        <ele>29.7</ele>
        <time>2023-08-02T12:23:06Z</time>
      </trkpt>
      <trkpt lat="39.944229854054036" lon="116.4762349522257">
        <ele>30.499999999999996</ele>
        <time>2023-08-02T12:23:12Z</time>
      </trkpt>
      <trkpt lat="39.94405629963328" lon="116.4763885359218">
        <ele>28.999999999999996</ele>
        <time>2023-08-02T12:23:21Z</time>
      </trkpt>
      <trkpt lat="39.943764566560816" lon="116.47647789954722">
        <ele>26.599999999999998</ele>
        <time>2023-08-02T12:23:36Z</time>
      </trkpt>
      <trkpt lat="39.94369461812542" lon="116.47649497080118">
        <ele>27.599999999999998</ele>
        <time>2023-08-02T12:23:39Z</time>
      </trkpt>
      <trkpt lat="39.943638462536434" lon="116.47643977568882">
        <ele>27.400000000000002</ele>
        <time>2023-08-02T12:23:42Z</time>
      </trkpt>
      <trkpt lat="39.94361004206825" lon="116.47629223921174">
        <ele>27.8</ele>
        <time>2023-08-02T12:23:48Z</time>
      </trkpt>
      <trkpt lat="39.943541700854006" lon="116.47617180720279">
        <ele>26.0</ele>
        <time>2023-08-02T12:23:54Z</time>
      </trkpt>
      <trkpt lat="39.943428378817934" lon="116.4760574030907">
        <ele>22.599999999999998</ele>
        <time>2023-08-02T12:24:00Z</time>
      </trkpt>
      <trkpt lat="39.94326317924632" lon="116.47598515971407">
        <ele>19.9</ele>
        <time>2023-08-02T12:24:09Z</time>
      </trkpt>
      <trkpt lat="39.94294711166773" lon="116.47595709665629">
        <ele>17.9</ele>
        <time>2023-08-02T12:24:24Z</time>
      </trkpt>
      <trkpt lat="39.94262302725388" lon="116.47592301262063">
        <ele>23.3</ele>
        <time>2023-08-02T12:24:36Z</time>
      </trkpt>
      <trkpt lat="39.94233904999749" lon="116.47592706287887">
        <ele>28.3</ele>
        <time>2023-08-02T12:24:48Z</time>
      </trkpt>
      <trkpt lat="39.942059969538214" lon="116.4758949805518">
        <ele>31.8</ele>
        <time>2023-08-02T12:25:00Z</time>
      </trkpt>
      <trkpt lat="39.94174430551048" lon="116.47600843443392">
        <ele>34.900000000000006</ele>
        <time>2023-08-02T12:25:15Z</time>
      </trkpt>
      <trkpt lat="39.94160845407986" lon="116.47605863485711">
        <ele>34.5</ele>
        <time>2023-08-02T12:25:21Z</time>
      </trkpt>
      <trkpt lat="39.941446944663156" lon="116.47622827529807">
        <ele>28.099999999999998</ele>
        <time>2023-08-02T12:25:30Z</time>
      </trkpt>
      <trkpt lat="39.94133006397143" lon="116.47626843680976">
        <ele>26.599999999999998</ele>
        <time>2023-08-02T12:25:36Z</time>
      </trkpt>
      <trkpt lat="39.94126719262071" lon="116.4763126062708">
        <ele>26.099999999999998</ele>
        <time>2023-08-02T12:25:39Z</time>
      </trkpt>
      <trkpt lat="39.94095916762091" lon="116.47629959712683">
        <ele>25.0</ele>
        <time>2023-08-02T12:25:54Z</time>
      </trkpt>
      <trkpt lat="39.940886150461886" lon="116.47629258056999">
        <ele>25.3</ele>
        <time>2023-08-02T12:25:57Z</time>
      </trkpt>
      <trkpt lat="39.94068683739833" lon="116.47618019435298">
        <ele>22.9</ele>
        <time>2023-08-02T12:26:09Z</time>
      </trkpt>
      <trkpt lat="39.940586577846396" lon="116.47608786931308">
        <ele>22.0</ele>
        <time>2023-08-02T12:26:15Z</time>
      </trkpt>
      <trkpt lat="39.94028935490062" lon="116.47600560577786">
        <ele>22.0</ele>
        <time>2023-08-02T12:26:27Z</time>
      </trkpt>
      <trkpt lat="39.94020436687899" lon="116.47600862743111">
        <ele>22.7</ele>
        <time>2023-08-02T12:26:30Z</time>
      </trkpt>
      <trkpt lat="39.94000714576698" lon="116.47592835880982">
        <ele>21.099999999999998</ele>
        <time>2023-08-02T12:26:39Z</time>
      </trkpt>
      <trkpt lat="39.93994181080058" lon="116.47580993452948">
        <ele>21.8</ele>
        <time>2023-08-02T12:26:45Z</time>
      </trkpt>
      <trkpt lat="39.93989488113214" lon="116.47548274690334">
        <ele>24.0</ele>
        <time>2023-08-02T12:26:57Z</time>
      </trkpt>
      <trkpt lat="39.93979828861317" lon="116.47527299484817">
        <ele>22.0</ele>
        <time>2023-08-02T12:27:06Z</time>
      </trkpt>
      <trkpt lat="39.93969205620002" lon="116.47518970491353">
        <ele>20.5</ele>
        <time>2023-08-02T12:27:12Z</time>
      </trkpt>
      <trkpt lat="39.9396269761366" lon="116.47516060714634">
        <ele>21.0</ele>
        <time>2023-08-02T12:27:15Z</time>
      </trkpt>
      <trkpt lat="39.93945397449286" lon="116.47515761787758">
        <ele>22.599999999999998</ele>
        <time>2023-08-02T12:27:24Z</time>
      </trkpt>
      <trkpt lat="39.93940603056219" lon="116.4751766932847">
        <ele>22.7</ele>
        <time>2023-08-02T12:27:27Z</time>
      </trkpt>
      <trkpt lat="39.93921402682836" lon="116.47517270274432">
        <ele>22.099999999999998</ele>
        <time>2023-08-02T12:27:36Z</time>
      </trkpt>
      <trkpt lat="39.93910225936954" lon="116.47525300901721">
        <ele>24.5</ele>
        <time>2023-08-02T12:27:45Z</time>
      </trkpt>
      <trkpt lat="39.93907845711509" lon="116.4753222641698">
        <ele>24.7</ele>
        <time>2023-08-02T12:27:48Z</time>
      </trkpt>
      <trkpt lat="39.93910675844777" lon="116.4754286481796">
        <ele>25.2</ele>
        <time>2023-08-02T12:27:54Z</time>
      </trkpt>
      <trkpt lat="39.93911729488844" lon="116.47561733472072">
        <ele>24.5</ele>
        <time>2023-08-02T12:28:03Z</time>
      </trkpt>
      <trkpt lat="39.93905983743444" lon="116.47580703407563">
        <ele>19.3</ele>
        <time>2023-08-02T12:28:12Z</time>
      </trkpt>
      <trkpt lat="39.939078423276726" lon="116.47601278320454">
        <ele>18.3</ele>
        <time>2023-08-02T12:28:18Z</time>
      </trkpt>
      <trkpt lat="39.939114908723056" lon="116.47618340234712">
        <ele>20.5</ele>
        <time>2023-08-02T12:28:24Z</time>
      </trkpt>
      <trkpt lat="39.93909364358354" lon="116.47644034518878">
        <ele>23.5</ele>
        <time>2023-08-02T12:28:33Z</time>
      </trkpt>
      <trkpt lat="39.93912830533537" lon="116.47667219016196">
        <ele>21.4</ele>
        <time>2023-08-02T12:28:42Z</time>
      </trkpt>
      <trkpt lat="39.93909945079997" lon="116.47707165918285">
        <ele>22.099999999999998</ele>
        <time>2023-08-02T12:28:57Z</time>
      </trkpt>
      <trkpt lat="39.939088442060076" lon="116.47741692922442">
        <ele>19.5</ele>
        <time>2023-08-02T12:29:09Z</time>
      </trkpt>
      <trkpt lat="39.939091506547676" lon="116.47778729179706">
        <ele>22.3</ele>
        <time>2023-08-02T12:29:24Z</time>
      </trkpt>
      <trkpt lat="39.939071617146006" lon="116.47817271489572">
        <ele>21.599999999999998</ele>
        <time>2023-08-02T12:29:39Z</time>
      </trkpt>
      <trkpt lat="39.93906730902278" lon="116.47841260074725">
        <ele>23.5</ele>
        <time>2023-08-02T12:29:48Z</time>
      </trkpt>
      <trkpt lat="39.93903352179241" lon="116.47848587555652">
        <ele>24.4</ele>
        <time>2023-08-02T12:29:51Z</time>
      </trkpt>
      <trkpt lat="39.93893670527612" lon="116.4785481175456">
        <ele>24.5</ele>
        <time>2023-08-02T12:29:57Z</time>
      </trkpt>
      <trkpt lat="39.93871980956622" lon="116.47858126706964">
        <ele>24.7</ele>
        <time>2023-08-02T12:30:09Z</time>
      </trkpt>
      <trkpt lat="39.938543749958015" lon="116.47855820381753">
        <ele>23.4</ele>
        <time>2023-08-02T12:30:18Z</time>
      </trkpt>
      <trkpt lat="39.93829235737594" lon="116.4784187199992">
        <ele>21.2</ele>
        <time>2023-08-02T12:30:30Z</time>
      </trkpt>
      <trkpt lat="39.93816927253661" lon="116.47838762052685">
        <ele>16.8</ele>
        <time>2023-08-02T12:30:36Z</time>
      </trkpt>
      <trkpt lat="39.93805501946978" lon="116.47829830509082">
        <ele>13.399999999999999</ele>
        <time>2023-08-02T12:30:42Z</time>
      </trkpt>
      <trkpt lat="39.93795145369983" lon="116.47810058860975">
        <ele>10.399999999999999</ele>
        <time>2023-08-02T12:30:51Z</time>
      </trkpt>
      <trkpt lat="39.937684750526465" lon="116.47785270825517">
        <ele>16.7</ele>
        <time>2023-08-02T12:31:03Z</time>
      </trkpt>
      <trkpt lat="39.93748742922957" lon="116.47773831155216">
        <ele>20.3</ele>
        <time>2023-08-02T12:31:15Z</time>
      </trkpt>
      <trkpt lat="39.937391372453554" lon="116.47771724597419">
        <ele>16.2</ele>
        <time>2023-08-02T12:31:21Z</time>
      </trkpt>
      <trkpt lat="39.93708194334642" lon="116.47756371951604">
        <ele>13.3</ele>
        <time>2023-08-02T12:31:36Z</time>
      </trkpt>
      <trkpt lat="39.936779909299226" lon="116.47754769825328">
        <ele>21.4</ele>
        <time>2023-08-02T12:31:51Z</time>
      </trkpt>
      <trkpt lat="39.93658880159622" lon="116.47750757449063">
        <ele>24.599999999999998</ele>
        <time>2023-08-02T12:32:03Z</time>
      </trkpt>
      <trkpt lat="39.936399797640995" lon="116.47750358339067">
        <ele>24.7</ele>
        <time>2023-08-02T12:32:12Z</time>
      </trkpt>
      <trkpt lat="39.93614494918817" lon="116.47755279622808">
        <ele>23.7</ele>
        <time>2023-08-02T12:32:24Z</time>
      </trkpt>
      <trkpt lat="39.935959893160245" lon="116.47753073816504">
        <ele>21.9</ele>
        <time>2023-08-02T12:32:33Z</time>
      </trkpt>
      <trkpt lat="39.93585971838896" lon="116.4774685218133">
        <ele>18.2</ele>
        <time>2023-08-02T12:32:39Z</time>
      </trkpt>
      <trkpt lat="39.93559201160962" lon="116.47721863668241">
        <ele>16.8</ele>
        <time>2023-08-02T12:32:54Z</time>
      </trkpt>
      <trkpt lat="39.9354449023321" lon="116.47717850762382">
        <ele>17.8</ele>
        <time>2023-08-02T12:33:03Z</time>
      </trkpt>
      <trkpt lat="39.93541372221014" lon="116.47711527929754">
        <ele>17.0</ele>
        <time>2023-08-02T12:33:06Z</time>
      </trkpt>
      <trkpt lat="39.93514963208265" lon="116.47708018338287">
        <ele>16.0</ele>
        <time>2023-08-02T12:33:18Z</time>
      </trkpt>
      <trkpt lat="39.934838825922945" lon="116.47714345450144">
        <ele>19.9</ele>
        <time>2023-08-02T12:33:33Z</time>
      </trkpt>
      <trkpt lat="39.93454709969628" lon="116.47723482653826">
        <ele>21.3</ele>
        <time>2023-08-02T12:33:48Z</time>
      </trkpt>
      <trkpt lat="39.93441424042565" lon="116.47728201650963">
        <ele>22.099999999999998</ele>
        <time>2023-08-02T12:33:54Z</time>
      </trkpt>
      <trkpt lat="39.93411515164615" lon="116.47724692488183">
        <ele>26.0</ele>
        <time>2023-08-02T12:34:12Z</time>
      </trkpt>
      <trkpt lat="39.933943319886495" lon="116.47730315293812">
        <ele>22.7</ele>
        <time>2023-08-02T12:34:18Z</time>
      </trkpt>
      <trkpt lat="39.9338644584899" lon="116.47735033619684">
        <ele>21.3</ele>
        <time>2023-08-02T12:34:21Z</time>
      </trkpt>
      <trkpt lat="39.93379943805603" lon="116.47734231482403">
        <ele>21.7</ele>
        <time>2023-08-02T12:34:24Z</time>
      </trkpt>
      <trkpt lat="39.933684134446075" lon="116.47723493460411">
        <ele>23.7</ele>
        <time>2023-08-02T12:34:30Z</time>
      </trkpt>
      <trkpt lat="39.93349320969099" lon="116.47690976460677">
        <ele>26.400000000000002</ele>
        <time>2023-08-02T12:34:45Z</time>
      </trkpt>
      <trkpt lat="39.933396406079794" lon="116.47662774267384">
        <ele>24.2</ele>
        <time>2023-08-02T12:34:54Z</time>
      </trkpt>
      <trkpt lat="39.933388193941525" lon="116.47655347160759">
        <ele>24.7</ele>
        <time>2023-08-02T12:34:57Z</time>
      </trkpt>
    </trkseg>
  </trk>
</gpx>