<?xml version="1.0" encoding="UTF-8"?>
<gpx xmlns="http://www.topografix.com/GPX/1/1" xmlns:gpxtpx="http://www.garmin.com/xmlschemas/TrackPointExtension/v1" xmlns:xsi="http://www.w3.org/2001/XMLSchema-instance" xsi:schemaLocation="http://www.topografix.com/GPX/1/1 http://www.topografix.com/GPX/1/1/gpx.xsd" version="1.1" creator="gpx.py -- https://github.com/tkrajina/gpxpy">
  <trk>
    <name>gpx from keep</name>
    <type>Run</type>
    <trkseg>
      <trkpt lat="40.08846696010695" lon="116.52870337773545">
        <ele>25.799999999999997</ele>
        <time>2023-05-11T00:59:03Z</time>
      </trkpt>
      <trkpt lat="40.08859784268399" lon="116.52866022690134">
        <ele>23.9</ele>
        <time>2023-05-11T00:59:09Z</time>
      </trkpt>
      <trkpt lat="40.08878257794991" lon="116.52855989062576">
        <ele>17.200000000000003</ele>
        <time>2023-05-11T00:59:18Z</time>
      </trkpt>
      <trkpt lat="40.08903208901453" lon="116.52837227264611">
        <ele>14.200000000000001</ele>
        <time>2023-05-11T00:59:30Z</time>
      </trkpt>
      <trkpt lat="40.08933760519944" lon="116.52818865907558">
        <ele>12.500000000000002</ele>
        <time>2023-05-11T00:59:45Z</time>
      </trkpt>
      <trkpt lat="40.08958815730973" lon="116.52801809210442">
        <ele>13.500000000000002</ele>
        <time>2023-05-11T00:59:57Z</time>
      </trkpt>
      <trkpt lat="40.08983474186952" lon="116.52786056568324">
        <ele>18.1</ele>
        <time>2023-05-11T01:00:09Z</time>
      </trkpt>
      <trkpt lat="40.090113226938215" lon="116.5276649140381">
        <ele>14.6</ele>
        <time>2023-05-11T01:00:21Z</time>
      </trkpt>
      <trkpt lat="40.090407717450454" lon="116.52747226857714">
        <ele>11.700000000000001</ele>
        <time>2023-05-11T01:00:33Z</time>
      </trkpt>
      <trkpt lat="40.09070020965408" lon="116.52728062522593">
        <ele>14.6</ele>
        <time>2023-05-11T01:00:48Z</time>
      </trkpt>
      <trkpt lat="40.09095175238615" lon="116.52710804622437">
        <ele>19.700000000000003</ele>
        <time>2023-05-11T01:01:00Z</time>
      </trkpt>
      <trkpt lat="40.091205248112914" lon="116.52691740841995">
        <ele>23.200000000000003</ele>
        <time>2023-05-11T01:01:12Z</time>
      </trkpt>
      <trkpt lat="40.09145284330373" lon="116.52676589492654">
        <ele>22.6</ele>
        <time>2023-05-11T01:01:24Z</time>
      </trkpt>
      <trkpt lat="40.09171246010829" lon="116.52662340799894">
        <ele>16.700000000000003</ele>
        <time>2023-05-11T01:01:36Z</time>
      </trkpt>
      <trkpt lat="40.09201486750075" lon="116.52640065811163">
        <ele>13.200000000000001</ele>
        <time>2023-05-11T01:01:51Z</time>
      </trkpt>
      <trkpt lat="40.09228535585327" lon="116.52620901029053">
        <ele>11.500000000000002</ele>
        <time>2023-05-11T01:02:03Z</time>
      </trkpt>
      <trkpt lat="40.092415220006096" lon="116.52615983642055">
        <ele>11.9</ele>
        <time>2023-05-11T01:02:09Z</time>
      </trkpt>
      <trkpt lat="40.09269472457224" lon="116.5259752084945">
        <ele>16.4</ele>
        <time>2023-05-11T01:02:21Z</time>
      </trkpt>
      <trkpt lat="40.09295819837294" lon="116.52577854256653">
        <ele>11.500000000000002</ele>
        <time>2023-05-11T01:02:36Z</time>
      </trkpt>
      <trkpt lat="40.093246658966855" lon="116.52557785926773">
        <ele>9.5</ele>
        <time>2023-05-11T01:02:51Z</time>
      </trkpt>
      <trkpt lat="40.09348811160641" lon="116.52537316742021">
        <ele>11.200000000000001</ele>
        <time>2023-05-11T01:03:03Z</time>
      </trkpt>
      <trkpt lat="40.09373674223324" lon="116.52523769782314">
        <ele>14.700000000000001</ele>
        <time>2023-05-11T01:03:15Z</time>
      </trkpt>
      <trkpt lat="40.09400023839555" lon="116.52505105958532">
        <ele>13.6</ele>
        <time>2023-05-11T01:03:27Z</time>
      </trkpt>
      <trkpt lat="40.09423989726706" lon="116.52492662553634">
        <ele>12.799999999999999</ele>
        <time>2023-05-11T01:03:39Z</time>
      </trkpt>
      <trkpt lat="40.09448747154307" lon="116.52477008540885">
        <ele>13.4</ele>
        <time>2023-05-11T01:03:51Z</time>
      </trkpt>
      <trkpt lat="40.094703963762846" lon="116.52458144352781">
        <ele>12.1</ele>
        <time>2023-05-11T01:04:03Z</time>
      </trkpt>
      <trkpt lat="40.09495851257209" lon="116.52441587122863">
        <ele>8.3</ele>
        <time>2023-05-11T01:04:15Z</time>
      </trkpt>
      <trkpt lat="40.09524900812245" lon="116.52423123114654">
        <ele>9.8</ele>
        <time>2023-05-11T01:04:30Z</time>
      </trkpt>
      <trkpt lat="40.09554643390808" lon="116.52402050347658">
        <ele>9.9</ele>
        <time>2023-05-11T01:04:45Z</time>
      </trkpt>
      <trkpt lat="40.09582295504907" lon="116.52384589573735">
        <ele>11.1</ele>
        <time>2023-05-11T01:05:00Z</time>
      </trkpt>
      <trkpt lat="40.09612242620512" lon="116.52365322468475">
        <ele>10.9</ele>
        <time>2023-05-11T01:05:15Z</time>
      </trkpt>
      <trkpt lat="40.096371995379386" lon="116.5234966778028">
        <ele>11.200000000000001</ele>
        <time>2023-05-11T01:05:27Z</time>
      </trkpt>
      <trkpt lat="40.096477662131505" lon="116.5233732573242">
        <ele>13.1</ele>
        <time>2023-05-11T01:05:33Z</time>
      </trkpt>
      <trkpt lat="40.096645329150135" lon="116.52325183532766">
        <ele>13.6</ele>
        <time>2023-05-11T01:05:42Z</time>
      </trkpt>
      <trkpt lat="40.096693153316714" lon="116.52318661366786">
        <ele>13.799999999999999</ele>
        <time>2023-05-11T01:05:45Z</time>
      </trkpt>
      <trkpt lat="40.09672390971504" lon="116.52309530759622">
        <ele>13.200000000000001</ele>
        <time>2023-05-11T01:05:48Z</time>
      </trkpt>
      <trkpt lat="40.096706103637494" lon="116.5227902981301">
        <ele>13.9</ele>
        <time>2023-05-11T01:05:57Z</time>
      </trkpt>
      <trkpt lat="40.096687868229644" lon="116.52270100365659">
        <ele>14.9</ele>
        <time>2023-05-11T01:06:00Z</time>
      </trkpt>
      <trkpt lat="40.096627803552266" lon="116.5226749243565">
        <ele>16.0</ele>
        <time>2023-05-11T01:06:03Z</time>
      </trkpt>
      <trkpt lat="40.09634719449919" lon="116.52281442250994">
        <ele>16.5</ele>
        <time>2023-05-11T01:06:15Z</time>
      </trkpt>
      <trkpt lat="40.09615839210935" lon="116.52288367569278">
        <ele>18.799999999999997</ele>
        <time>2023-05-11T01:06:24Z</time>
      </trkpt>
      <trkpt lat="40.0958609613676" lon="116.52309039773486">
        <ele>16.299999999999997</ele>
        <time>2023-05-11T01:06:39Z</time>
      </trkpt>
      <trkpt lat="40.095573473249374" lon="116.52327604754039">
        <ele>13.799999999999999</ele>
        <time>2023-05-11T01:06:54Z</time>
      </trkpt>
      <trkpt lat="40.09533291468122" lon="116.5234366076516">
        <ele>15.299999999999999</ele>
        <time>2023-05-11T01:07:06Z</time>
      </trkpt>
      <trkpt lat="40.0951402066326" lon="116.52354197908667">
        <ele>13.6</ele>
        <time>2023-05-11T01:07:15Z</time>
      </trkpt>
      <trkpt lat="40.094848761608304" lon="116.52374468284917">
        <ele>16.200000000000003</ele>
        <time>2023-05-11T01:07:30Z</time>
      </trkpt>
      <trkpt lat="40.09470410977909" lon="116.52387312316337">
        <ele>16.9</ele>
        <time>2023-05-11T01:07:39Z</time>
      </trkpt>
      <trkpt lat="40.09446355413581" lon="116.52403568677968">
        <ele>14.700000000000001</ele>
        <time>2023-05-11T01:07:54Z</time>
      </trkpt>
      <trkpt lat="40.094192989560746" lon="116.52419424009761">
        <ele>16.4</ele>
        <time>2023-05-11T01:08:09Z</time>
      </trkpt>
      <trkpt lat="40.09392543200105" lon="116.52435580207037">
        <ele>15.9</ele>
        <time>2023-05-11T01:08:24Z</time>
      </trkpt>
      <trkpt lat="40.093707851756086" lon="116.52451033406827">
        <ele>17.9</ele>
        <time>2023-05-11T01:08:36Z</time>
      </trkpt>
      <trkpt lat="40.09341036573138" lon="116.5246989863943">
        <ele>18.6</ele>
        <time>2023-05-11T01:08:51Z</time>
      </trkpt>
      <trkpt lat="40.09311282399323" lon="116.52486656898087">
        <ele>17.799999999999997</ele>
        <time>2023-05-11T01:09:06Z</time>
      </trkpt>
      <trkpt lat="40.092841370833206" lon="116.52506926148578">
        <ele>20.1</ele>
        <time>2023-05-11T01:09:18Z</time>
      </trkpt>
      <trkpt lat="40.09259781314152" lon="116.52523282231873">
        <ele>20.799999999999997</ele>
        <time>2023-05-11T01:09:27Z</time>
      </trkpt>
      <trkpt lat="40.092288342713665" lon="116.52542849431029">
        <ele>21.1</ele>
        <time>2023-05-11T01:09:39Z</time>
      </trkpt>
      <trkpt lat="40.09199290137861" lon="116.5256362021543">
        <ele>19.5</ele>
        <time>2023-05-11T01:09:51Z</time>
      </trkpt>
      <trkpt lat="40.0917273248036" lon="116.52579273993909">
        <ele>20.200000000000003</ele>
        <time>2023-05-11T01:10:03Z</time>
      </trkpt>
      <trkpt lat="40.09146178892622" lon="116.52596532854264">
        <ele>18.1</ele>
        <time>2023-05-11T01:10:18Z</time>
      </trkpt>
      <trkpt lat="40.091193309226725" lon="116.52615998737683">
        <ele>17.799999999999997</ele>
        <time>2023-05-11T01:10:33Z</time>
      </trkpt>
      <trkpt lat="40.091000629927215" lon="116.52627939432085">
        <ele>18.1</ele>
        <time>2023-05-11T01:10:42Z</time>
      </trkpt>
      <trkpt lat="40.090735210106914" lon="116.52649812772248">
        <ele>16.700000000000003</ele>
        <time>2023-05-11T01:10:57Z</time>
      </trkpt>
      <trkpt lat="40.09048361101873" lon="116.52664763670778">
        <ele>14.500000000000002</ele>
        <time>2023-05-11T01:11:09Z</time>
      </trkpt>
      <trkpt lat="40.09019117055783" lon="116.52685834506929">
        <ele>15.700000000000001</ele>
        <time>2023-05-11T01:11:24Z</time>
      </trkpt>
      <trkpt lat="40.08991160529299" lon="116.52702089712278">
        <ele>14.799999999999999</ele>
        <time>2023-05-11T01:11:36Z</time>
      </trkpt>
      <trkpt lat="40.08960814567354" lon="116.52722458179456">
        <ele>12.1</ele>
        <time>2023-05-11T01:11:48Z</time>
      </trkpt>
      <trkpt lat="40.08933758324991" lon="116.5273891369947">
        <ele>14.000000000000002</ele>
        <time>2023-05-11T01:12:00Z</time>
      </trkpt>
      <trkpt lat="40.0890480697644" lon="116.52757275385171">
        <ele>12.000000000000002</ele>
        <time>2023-05-11T01:12:12Z</time>
      </trkpt>
      <trkpt lat="40.08877664033953" lon="116.52779047488514">
        <ele>11.4</ele>
        <time>2023-05-11T01:12:27Z</time>
      </trkpt>
      <trkpt lat="40.088495111625015" lon="116.5279690723335">
        <ele>14.000000000000002</ele>
        <time>2023-05-11T01:12:42Z</time>
      </trkpt>
      <trkpt lat="40.08823261353404" lon="116.52816070725179">
        <ele>12.299999999999999</ele>
        <time>2023-05-11T01:12:57Z</time>
      </trkpt>
      <trkpt lat="40.088091737271114" lon="116.52820586640158">
        <ele>14.200000000000001</ele>
        <time>2023-05-11T01:13:03Z</time>
      </trkpt>
      <trkpt lat="40.087966970862915" lon="116.52829516195673">
        <ele>12.1</ele>
        <time>2023-05-11T01:13:09Z</time>
      </trkpt>
      <trkpt lat="40.08767531440765" lon="116.52842360036716">
        <ele>14.299999999999999</ele>
        <time>2023-05-11T01:13:24Z</time>
      </trkpt>
      <trkpt lat="40.08737765286653" lon="116.52855003264348">
        <ele>14.200000000000001</ele>
        <time>2023-05-11T01:13:39Z</time>
      </trkpt>
      <trkpt lat="40.08707201152931" lon="116.52868449037683">
        <ele>13.1</ele>
        <time>2023-05-11T01:13:54Z</time>
      </trkpt>
      <trkpt lat="40.08677832113372" lon="116.52879988655185">
        <ele>12.4</ele>
        <time>2023-05-11T01:14:09Z</time>
      </trkpt>
      <trkpt lat="40.086502641605975" lon="116.52892029563134">
        <ele>13.299999999999999</ele>
        <time>2023-05-11T01:14:24Z</time>
      </trkpt>
      <trkpt lat="40.08624297554733" lon="116.52904672091275">
        <ele>12.700000000000001</ele>
        <time>2023-05-11T01:14:39Z</time>
      </trkpt>
      <trkpt lat="40.08593733475495" lon="116.52918217929935">
        <ele>9.9</ele>
        <time>2023-05-11T01:14:54Z</time>
      </trkpt>
      <trkpt lat="40.085669620862326" lon="116.52928954527113">
        <ele>13.799999999999999</ele>
        <time>2023-05-11T01:15:06Z</time>
      </trkpt>
      <trkpt lat="40.08537794071992" lon="116.52940995414029">
        <ele>12.799999999999999</ele>
        <time>2023-05-11T01:15:21Z</time>
      </trkpt>
      <trkpt lat="40.08528014446887" lon="116.52948921139388">
        <ele>11.200000000000001</ele>
        <time>2023-05-11T01:15:27Z</time>
      </trkpt>
      <trkpt lat="40.08511132562096" lon="116.52955744308035">
        <ele>11.299999999999999</ele>
        <time>2023-05-11T01:15:36Z</time>
      </trkpt>
      <trkpt lat="40.08515635981494" lon="116.52957248401566">
        <ele>11.799999999999999</ele>
        <time>2023-05-11T01:15:42Z</time>
      </trkpt>
      <trkpt lat="40.08523919964554" lon="116.52951028158232">
        <ele>12.6</ele>
        <time>2023-05-11T01:15:48Z</time>
      </trkpt>
      <trkpt lat="40.085499867342094" lon="116.52938385835292">
        <ele>15.000000000000002</ele>
        <time>2023-05-11T01:16:03Z</time>
      </trkpt>
      <trkpt lat="40.08576560414307" lon="116.52928552099114">
        <ele>14.4</ele>
        <time>2023-05-11T01:16:15Z</time>
      </trkpt>
      <trkpt lat="40.08595734084898" lon="116.52918518617183">
        <ele>14.799999999999999</ele>
        <time>2023-05-11T01:16:24Z</time>
      </trkpt>
      <trkpt lat="40.086070232905996" lon="116.52914504767371">
        <ele>16.1</ele>
        <time>2023-05-11T01:16:30Z</time>
      </trkpt>
      <trkpt lat="40.08612011683542" lon="116.52909990130664">
        <ele>16.799999999999997</ele>
        <time>2023-05-11T01:16:33Z</time>
      </trkpt>
      <trkpt lat="40.086424784930465" lon="116.52897547696374">
        <ele>15.500000000000002</ele>
        <time>2023-05-11T01:16:48Z</time>
      </trkpt>
      <trkpt lat="40.08672249319328" lon="116.52886710291662">
        <ele>13.9</ele>
        <time>2023-05-11T01:17:00Z</time>
      </trkpt>
      <trkpt lat="40.086810366557614" lon="116.5288189420181">
        <ele>13.4</ele>
        <time>2023-05-11T01:17:06Z</time>
      </trkpt>
      <trkpt lat="40.08712306068793" lon="116.52870554984088">
        <ele>14.200000000000001</ele>
        <time>2023-05-11T01:17:22Z</time>
      </trkpt>
      <trkpt lat="40.08724193665917" lon="116.52865939109658">
        <ele>14.200000000000001</ele>
        <time>2023-05-11T01:17:28Z</time>
      </trkpt>
      <trkpt lat="40.087512605537896" lon="116.52853496893127">
        <ele>12.799999999999999</ele>
        <time>2023-05-11T01:17:43Z</time>
      </trkpt>
      <trkpt lat="40.08780819404848" lon="116.52837944570506">
        <ele>14.500000000000002</ele>
        <time>2023-05-11T01:17:58Z</time>
      </trkpt>
      <trkpt lat="40.08812780541822" lon="116.5282339501198">
        <ele>12.700000000000001</ele>
        <time>2023-05-11T01:18:13Z</time>
      </trkpt>
      <trkpt lat="40.08823267417427" lon="116.52818478285965">
        <ele>14.4</ele>
        <time>2023-05-11T01:18:19Z</time>
      </trkpt>
      <trkpt lat="40.088274547355674" lon="116.5281356232876">
        <ele>13.700000000000001</ele>
        <time>2023-05-11T01:18:22Z</time>
      </trkpt>
      <trkpt lat="40.0885381060211" lon="116.52796806386822">
        <ele>13.1</ele>
        <time>2023-05-11T01:18:34Z</time>
      </trkpt>
      <trkpt lat="40.08877967056394" lon="116.52780251248144">
        <ele>13.500000000000002</ele>
        <time>2023-05-11T01:18:46Z</time>
      </trkpt>
      <trkpt lat="40.08906316274146" lon="116.52760986933535">
        <ele>14.299999999999999</ele>
        <time>2023-05-11T01:19:01Z</time>
      </trkpt>
      <trkpt lat="40.08911700887658" lon="116.52755067554318">
        <ele>14.500000000000002</ele>
        <time>2023-05-11T01:19:04Z</time>
      </trkpt>
      <trkpt lat="40.08937962607845" lon="116.52740718901518">
        <ele>18.0</ele>
        <time>2023-05-11T01:19:16Z</time>
      </trkpt>
      <trkpt lat="40.089637171651304" lon="116.5272356132386">
        <ele>15.799999999999999</ele>
        <time>2023-05-11T01:19:31Z</time>
      </trkpt>
      <trkpt lat="40.08982979777618" lon="116.52709414012966">
        <ele>19.0</ele>
        <time>2023-05-11T01:19:43Z</time>
      </trkpt>
    </trkseg>
  </trk>
</gpx>