<?xml version="1.0" encoding="UTF-8"?>
<gpx xmlns="http://www.topografix.com/GPX/1/1" xmlns:gpxtpx="http://www.garmin.com/xmlschemas/TrackPointExtension/v1" xmlns:xsi="http://www.w3.org/2001/XMLSchema-instance" xsi:schemaLocation="http://www.topografix.com/GPX/1/1 http://www.topografix.com/GPX/1/1/gpx.xsd" version="1.1" creator="gpx.py -- https://github.com/tkrajina/gpxpy">
  <trk>
    <name>gpx from keep</name>
    <type>Run</type>
    <trkseg>
      <trkpt lat="39.92534578856753" lon="116.48489450301983">
        <ele>26.400000000000002</ele>
        <time>2023-05-18T13:04:52Z</time>
      </trkpt>
      <trkpt lat="39.92513176563908" lon="116.48547399340781">
        <ele>28.099999999999998</ele>
        <time>2023-05-18T13:05:04Z</time>
      </trkpt>
      <trkpt lat="39.925026469824324" lon="116.48586814700484">
        <ele>24.2</ele>
        <time>2023-05-18T13:05:10Z</time>
      </trkpt>
      <trkpt lat="39.92499179973113" lon="116.48607010429534">
        <ele>23.3</ele>
        <time>2023-05-18T13:05:13Z</time>
      </trkpt>
      <trkpt lat="39.92492218795915" lon="116.48615158001063">
        <ele>23.7</ele>
        <time>2023-05-18T13:05:16Z</time>
      </trkpt>
      <trkpt lat="39.9248830847574" lon="116.48625685214033">
        <ele>23.5</ele>
        <time>2023-05-18T13:05:19Z</time>
      </trkpt>
      <trkpt lat="39.92479821694829" lon="116.48632762674748">
        <ele>23.4</ele>
        <time>2023-05-18T13:05:25Z</time>
      </trkpt>
      <trkpt lat="39.92467717137216" lon="116.48638636807117">
        <ele>23.9</ele>
        <time>2023-05-18T13:05:31Z</time>
      </trkpt>
      <trkpt lat="39.9244784599212" lon="116.48633041238776">
        <ele>26.999999999999996</ele>
        <time>2023-05-18T13:05:43Z</time>
      </trkpt>
      <trkpt lat="39.92430196472782" lon="116.48628899341901">
        <ele>26.099999999999998</ele>
        <time>2023-05-18T13:05:46Z</time>
      </trkpt>
      <trkpt lat="39.92410906574684" lon="116.48633045178947">
        <ele>29.3</ele>
        <time>2023-05-18T13:05:52Z</time>
      </trkpt>
      <trkpt lat="39.92393396048282" lon="116.486432524299">
        <ele>27.599999999999998</ele>
        <time>2023-05-18T13:05:58Z</time>
      </trkpt>
      <trkpt lat="39.92378004566161" lon="116.48660338282875">
        <ele>28.599999999999998</ele>
        <time>2023-05-18T13:06:04Z</time>
      </trkpt>
      <trkpt lat="39.92361508496906" lon="116.48683639778609">
        <ele>28.8</ele>
        <time>2023-05-18T13:06:13Z</time>
      </trkpt>
      <trkpt lat="39.923412636977424" lon="116.48703155693623">
        <ele>28.8</ele>
        <time>2023-05-18T13:06:22Z</time>
      </trkpt>
      <trkpt lat="39.923141578409414" lon="116.48724338054247">
        <ele>30.099999999999998</ele>
        <time>2023-05-18T13:06:37Z</time>
      </trkpt>
      <trkpt lat="39.92298058179429" lon="116.48733421844088">
        <ele>30.499999999999996</ele>
        <time>2023-05-18T13:06:40Z</time>
      </trkpt>
      <trkpt lat="39.922866864811304" lon="116.48737892081118">
        <ele>30.099999999999998</ele>
        <time>2023-05-18T13:06:43Z</time>
      </trkpt>
      <trkpt lat="39.92283123506423" lon="116.48747881701419">
        <ele>26.0</ele>
        <time>2023-05-18T13:06:49Z</time>
      </trkpt>
      <trkpt lat="39.92278270284904" lon="116.487756761551">
        <ele>25.0</ele>
        <time>2023-05-18T13:07:01Z</time>
      </trkpt>
      <trkpt lat="39.922760365615446" lon="116.48798075663767">
        <ele>25.4</ele>
        <time>2023-05-18T13:07:07Z</time>
      </trkpt>
      <trkpt lat="39.92274967264489" lon="116.4881546481253">
        <ele>25.9</ele>
        <time>2023-05-18T13:07:13Z</time>
      </trkpt>
      <trkpt lat="39.9227441001739" lon="116.48829900862006">
        <ele>27.099999999999998</ele>
        <time>2023-05-18T13:07:19Z</time>
      </trkpt>
      <trkpt lat="39.92274026428892" lon="116.48846399340354">
        <ele>26.499999999999996</ele>
        <time>2023-05-18T13:07:25Z</time>
      </trkpt>
      <trkpt lat="39.92274953164569" lon="116.48858667479494">
        <ele>26.499999999999996</ele>
        <time>2023-05-18T13:07:31Z</time>
      </trkpt>
      <trkpt lat="39.922890628018074" lon="116.4887786633297">
        <ele>24.9</ele>
        <time>2023-05-18T13:07:43Z</time>
      </trkpt>
      <trkpt lat="39.92303679557379" lon="116.48885610009086">
        <ele>24.9</ele>
        <time>2023-05-18T13:07:49Z</time>
      </trkpt>
      <trkpt lat="39.923240663000264" lon="116.48888091676223">
        <ele>26.499999999999996</ele>
        <time>2023-05-18T13:07:58Z</time>
      </trkpt>
      <trkpt lat="39.92343138154716" lon="116.48889308365068">
        <ele>31.3</ele>
        <time>2023-05-18T13:08:10Z</time>
      </trkpt>
      <trkpt lat="39.92373449718083" lon="116.48889786354574">
        <ele>33.0</ele>
        <time>2023-05-18T13:08:31Z</time>
      </trkpt>
      <trkpt lat="39.92402007026358" lon="116.48889498430341">
        <ele>33.800000000000004</ele>
        <time>2023-05-18T13:08:40Z</time>
      </trkpt>
      <trkpt lat="39.92430187549681" lon="116.48889538974767">
        <ele>33.5</ele>
        <time>2023-05-18T13:08:52Z</time>
      </trkpt>
      <trkpt lat="39.92456848263296" lon="116.48889706771648">
        <ele>33.400000000000006</ele>
        <time>2023-05-18T13:09:07Z</time>
      </trkpt>
      <trkpt lat="39.924788015827055" lon="116.4888794197982">
        <ele>32.800000000000004</ele>
        <time>2023-05-18T13:09:13Z</time>
      </trkpt>
      <trkpt lat="39.92506779158155" lon="116.48881813339432">
        <ele>33.1</ele>
        <time>2023-05-18T13:09:22Z</time>
      </trkpt>
      <trkpt lat="39.925282898807744" lon="116.48882608619587">
        <ele>36.2</ele>
        <time>2023-05-18T13:09:31Z</time>
      </trkpt>
      <trkpt lat="39.92541674178954" lon="116.48883515282765">
        <ele>36.5</ele>
        <time>2023-05-18T13:09:34Z</time>
      </trkpt>
      <trkpt lat="39.92563565683231" lon="116.48878572154692">
        <ele>41.400000000000006</ele>
        <time>2023-05-18T13:09:46Z</time>
      </trkpt>
      <trkpt lat="39.92590747842425" lon="116.4887564719286">
        <ele>43.300000000000004</ele>
        <time>2023-05-18T13:10:01Z</time>
      </trkpt>
      <trkpt lat="39.926079881132715" lon="116.48871748405786">
        <ele>44.1</ele>
        <time>2023-05-18T13:10:07Z</time>
      </trkpt>
      <trkpt lat="39.9261830916542" lon="116.48867031459557">
        <ele>42.7</ele>
        <time>2023-05-18T13:10:10Z</time>
      </trkpt>
      <trkpt lat="39.926247881064405" lon="116.48860403920035">
        <ele>43.0</ele>
        <time>2023-05-18T13:10:13Z</time>
      </trkpt>
      <trkpt lat="39.92629146654394" lon="116.48839334053577">
        <ele>36.800000000000004</ele>
        <time>2023-05-18T13:10:28Z</time>
      </trkpt>
      <trkpt lat="39.926381983968206" lon="116.48823025594902">
        <ele>35.0</ele>
        <time>2023-05-18T13:10:34Z</time>
      </trkpt>
      <trkpt lat="39.92660819619939" lon="116.48816880783282">
        <ele>35.0</ele>
        <time>2023-05-18T13:10:49Z</time>
      </trkpt>
      <trkpt lat="39.92681079153499" lon="116.48815117029214">
        <ele>33.800000000000004</ele>
        <time>2023-05-18T13:10:58Z</time>
      </trkpt>
      <trkpt lat="39.92698629246594" lon="116.48806786011299">
        <ele>32.2</ele>
        <time>2023-05-18T13:11:07Z</time>
      </trkpt>
      <trkpt lat="39.92717098174918" lon="116.48792964530725">
        <ele>30.599999999999998</ele>
        <time>2023-05-18T13:11:16Z</time>
      </trkpt>
      <trkpt lat="39.92739326829273" lon="116.48772219321074">
        <ele>28.400000000000002</ele>
        <time>2023-05-18T13:11:28Z</time>
      </trkpt>
      <trkpt lat="39.92754496708322" lon="116.48756810484606">
        <ele>28.7</ele>
        <time>2023-05-18T13:11:34Z</time>
      </trkpt>
      <trkpt lat="39.92765263295056" lon="116.48743124302977">
        <ele>27.900000000000002</ele>
        <time>2023-05-18T13:11:40Z</time>
      </trkpt>
      <trkpt lat="39.92769728028328" lon="116.48732177444522">
        <ele>27.2</ele>
        <time>2023-05-18T13:11:43Z</time>
      </trkpt>
      <trkpt lat="39.92766840944687" lon="116.48708150130557">
        <ele>21.599999999999998</ele>
        <time>2023-05-18T13:11:55Z</time>
      </trkpt>
      <trkpt lat="39.92769687997439" lon="116.48675675234779">
        <ele>22.2</ele>
        <time>2023-05-18T13:12:04Z</time>
      </trkpt>
      <trkpt lat="39.927733127032106" lon="116.48646296117337">
        <ele>23.599999999999998</ele>
        <time>2023-05-18T13:12:16Z</time>
      </trkpt>
      <trkpt lat="39.9277554258405" lon="116.48624647846793">
        <ele>24.5</ele>
        <time>2023-05-18T13:12:19Z</time>
      </trkpt>
      <trkpt lat="39.92783260731463" lon="116.48605159793526">
        <ele>27.099999999999998</ele>
        <time>2023-05-18T13:12:28Z</time>
      </trkpt>
      <trkpt lat="39.927876092340426" lon="116.48592420781748">
        <ele>27.3</ele>
        <time>2023-05-18T13:12:31Z</time>
      </trkpt>
      <trkpt lat="39.927894221668076" lon="116.48570741783907">
        <ele>27.3</ele>
        <time>2023-05-18T13:12:43Z</time>
      </trkpt>
      <trkpt lat="39.9278869934439" lon="116.48539711871565">
        <ele>26.8</ele>
        <time>2023-05-18T13:12:55Z</time>
      </trkpt>
      <trkpt lat="39.92786655100624" lon="116.48517293117729">
        <ele>27.2</ele>
        <time>2023-05-18T13:13:01Z</time>
      </trkpt>
      <trkpt lat="39.92786096220407" lon="116.48503298969264">
        <ele>27.999999999999996</ele>
        <time>2023-05-18T13:13:04Z</time>
      </trkpt>
      <trkpt lat="39.9278744344208" lon="116.48479272507706">
        <ele>28.2</ele>
        <time>2023-05-18T13:13:13Z</time>
      </trkpt>
      <trkpt lat="39.928043094486355" lon="116.48464469770244">
        <ele>30.400000000000002</ele>
        <time>2023-05-18T13:13:28Z</time>
      </trkpt>
      <trkpt lat="39.92819540120112" lon="116.48453007126722">
        <ele>30.900000000000002</ele>
        <time>2023-05-18T13:13:34Z</time>
      </trkpt>
      <trkpt lat="39.92829139276316" lon="116.48443021427273">
        <ele>29.900000000000002</ele>
        <time>2023-05-18T13:13:37Z</time>
      </trkpt>
      <trkpt lat="39.928346248700656" lon="116.48434292123345">
        <ele>30.2</ele>
        <time>2023-05-18T13:13:43Z</time>
      </trkpt>
      <trkpt lat="39.928376070485896" lon="116.48427263984613">
        <ele>31.099999999999998</ele>
        <time>2023-05-18T13:13:49Z</time>
      </trkpt>
      <trkpt lat="39.92840825179008" lon="116.48414064717056">
        <ele>31.3</ele>
        <time>2023-05-18T13:13:58Z</time>
      </trkpt>
      <trkpt lat="39.92843789920187" lon="116.48400076982162">
        <ele>31.3</ele>
        <time>2023-05-18T13:14:04Z</time>
      </trkpt>
      <trkpt lat="39.92841739743493" lon="116.48380331344329">
        <ele>31.099999999999998</ele>
        <time>2023-05-18T13:14:07Z</time>
      </trkpt>
      <trkpt lat="39.9284220979174" lon="116.48365455948311">
        <ele>31.3</ele>
        <time>2023-05-18T13:14:10Z</time>
      </trkpt>
      <trkpt lat="39.92847669001406" lon="116.4835240171844">
        <ele>31.2</ele>
        <time>2023-05-18T13:14:16Z</time>
      </trkpt>
      <trkpt lat="39.928599236736964" lon="116.48335088837328">
        <ele>33.1</ele>
        <time>2023-05-18T13:14:28Z</time>
      </trkpt>
      <trkpt lat="39.92870212857319" lon="116.48324426937421">
        <ele>30.7</ele>
        <time>2023-05-18T13:14:34Z</time>
      </trkpt>
      <trkpt lat="39.92891429928273" lon="116.48318088060499">
        <ele>27.400000000000002</ele>
        <time>2023-05-18T13:14:49Z</time>
      </trkpt>
      <trkpt lat="39.92917787652465" lon="116.48315849887118">
        <ele>26.3</ele>
        <time>2023-05-18T13:15:04Z</time>
      </trkpt>
      <trkpt lat="39.92936014678595" lon="116.48314330585113">
        <ele>27.400000000000002</ele>
        <time>2023-05-18T13:15:10Z</time>
      </trkpt>
      <trkpt lat="39.929463492024176" lon="116.48313475564616">
        <ele>28.099999999999998</ele>
        <time>2023-05-18T13:15:13Z</time>
      </trkpt>
      <trkpt lat="39.9295087148262" lon="116.48309183487913">
        <ele>28.7</ele>
        <time>2023-05-18T13:15:16Z</time>
      </trkpt>
      <trkpt lat="39.92950626550136" lon="116.48293259582422">
        <ele>27.599999999999998</ele>
        <time>2023-05-18T13:15:31Z</time>
      </trkpt>
      <trkpt lat="39.92944318445158" lon="116.48271733783525">
        <ele>21.7</ele>
        <time>2023-05-18T13:15:46Z</time>
      </trkpt>
      <trkpt lat="39.9293583773663" lon="116.48257190132753">
        <ele>19.099999999999998</ele>
        <time>2023-05-18T13:15:52Z</time>
      </trkpt>
      <trkpt lat="39.929295943103014" lon="116.48247930515278">
        <ele>17.5</ele>
        <time>2023-05-18T13:15:55Z</time>
      </trkpt>
      <trkpt lat="39.92922064816556" lon="116.48237440882028">
        <ele>18.0</ele>
        <time>2023-05-18T13:16:01Z</time>
      </trkpt>
      <trkpt lat="39.92917397448182" lon="116.48219112878301">
        <ele>22.099999999999998</ele>
        <time>2023-05-18T13:16:07Z</time>
      </trkpt>
      <trkpt lat="39.92912980912719" lon="116.48200591133349">
        <ele>27.8</ele>
        <time>2023-05-18T13:16:16Z</time>
      </trkpt>
      <trkpt lat="39.929046886243626" lon="116.48187618012476">
        <ele>28.3</ele>
        <time>2023-05-18T13:16:22Z</time>
      </trkpt>
      <trkpt lat="39.9288697028507" lon="116.48180995188912">
        <ele>28.900000000000002</ele>
        <time>2023-05-18T13:16:34Z</time>
      </trkpt>
      <trkpt lat="39.92870001640448" lon="116.48184376073334">
        <ele>28.999999999999996</ele>
        <time>2023-05-18T13:16:43Z</time>
      </trkpt>
      <trkpt lat="39.928506975022714" lon="116.48190480282656">
        <ele>32.400000000000006</ele>
        <time>2023-05-18T13:16:55Z</time>
      </trkpt>
      <trkpt lat="39.92832590945026" lon="116.4819623764306">
        <ele>34.300000000000004</ele>
        <time>2023-05-18T13:17:04Z</time>
      </trkpt>
      <trkpt lat="39.92812111270508" lon="116.48210696342348">
        <ele>34.5</ele>
        <time>2023-05-18T13:17:19Z</time>
      </trkpt>
      <trkpt lat="39.9279808289655" lon="116.48227061934602">
        <ele>29.999999999999996</ele>
        <time>2023-05-18T13:17:28Z</time>
      </trkpt>
      <trkpt lat="39.927875460447694" lon="116.48248776577032">
        <ele>27.099999999999998</ele>
        <time>2023-05-18T13:17:40Z</time>
      </trkpt>
      <trkpt lat="39.927823136471275" lon="116.4826093674816">
        <ele>27.8</ele>
        <time>2023-05-18T13:17:43Z</time>
      </trkpt>
      <trkpt lat="39.92778033774535" lon="116.48268673754396">
        <ele>28.7</ele>
        <time>2023-05-18T13:17:46Z</time>
      </trkpt>
      <trkpt lat="39.92762083637026" lon="116.4826940263952">
        <ele>29.099999999999998</ele>
        <time>2023-05-18T13:18:01Z</time>
      </trkpt>
      <trkpt lat="39.9274224708177" lon="116.48271421257385">
        <ele>28.8</ele>
        <time>2023-05-18T13:18:10Z</time>
      </trkpt>
      <trkpt lat="39.92728466955104" lon="116.48281902784328">
        <ele>27.900000000000002</ele>
        <time>2023-05-18T13:18:16Z</time>
      </trkpt>
      <trkpt lat="39.92727740849758" lon="116.48311762760112">
        <ele>25.8</ele>
        <time>2023-05-18T13:18:34Z</time>
      </trkpt>
      <trkpt lat="39.927267177727835" lon="116.48329879208679">
        <ele>25.599999999999998</ele>
        <time>2023-05-18T13:18:40Z</time>
      </trkpt>
      <trkpt lat="39.927334542505044" lon="116.48337662383962">
        <ele>24.0</ele>
        <time>2023-05-18T13:18:46Z</time>
      </trkpt>
      <trkpt lat="39.92728410003915" lon="116.48383095197615">
        <ele>8.3</ele>
        <time>2023-05-18T13:19:10Z</time>
      </trkpt>
      <trkpt lat="39.92723819256125" lon="116.48408403377682">
        <ele>22.2</ele>
        <time>2023-05-18T13:19:13Z</time>
      </trkpt>
      <trkpt lat="39.92704286673009" lon="116.48424844176729">
        <ele>28.400000000000002</ele>
        <time>2023-05-18T13:19:31Z</time>
      </trkpt>
      <trkpt lat="39.92692888219971" lon="116.48431772762041">
        <ele>29.099999999999998</ele>
        <time>2023-05-18T13:19:34Z</time>
      </trkpt>
      <trkpt lat="39.9268029699545" lon="116.48434384730965">
        <ele>28.599999999999998</ele>
        <time>2023-05-18T13:19:40Z</time>
      </trkpt>
      <trkpt lat="39.92659038026182" lon="116.48434749073583">
        <ele>24.5</ele>
        <time>2023-05-18T13:19:55Z</time>
      </trkpt>
      <trkpt lat="39.92632000558241" lon="116.4843646862945">
        <ele>28.599999999999998</ele>
        <time>2023-05-18T13:20:10Z</time>
      </trkpt>
      <trkpt lat="39.92614646485624" lon="116.48437126723154">
        <ele>28.599999999999998</ele>
        <time>2023-05-18T13:20:16Z</time>
      </trkpt>
      <trkpt lat="39.92599471420224" lon="116.48437584790743">
        <ele>26.999999999999996</ele>
        <time>2023-05-18T13:20:22Z</time>
      </trkpt>
      <trkpt lat="39.92581050924682" lon="116.48436978572887">
        <ele>28.3</ele>
        <time>2023-05-18T13:20:34Z</time>
      </trkpt>
      <trkpt lat="39.9255972970525" lon="116.48436014044051">
        <ele>26.999999999999996</ele>
        <time>2023-05-18T13:20:46Z</time>
      </trkpt>
      <trkpt lat="39.92536687552122" lon="116.48434870529654">
        <ele>26.099999999999998</ele>
        <time>2023-05-18T13:21:01Z</time>
      </trkpt>
      <trkpt lat="39.925202559714926" lon="116.4843403615723">
        <ele>26.2</ele>
        <time>2023-05-18T13:21:07Z</time>
      </trkpt>
      <trkpt lat="39.92506823195852" lon="116.48433342917923">
        <ele>23.7</ele>
        <time>2023-05-18T13:21:16Z</time>
      </trkpt>
      <trkpt lat="39.92490971657349" lon="116.48444424102675">
        <ele>24.3</ele>
        <time>2023-05-18T13:21:25Z</time>
      </trkpt>
      <trkpt lat="39.924781992495404" lon="116.48459101902337">
        <ele>24.3</ele>
        <time>2023-05-18T13:21:34Z</time>
      </trkpt>
      <trkpt lat="39.92469698180387" lon="116.48483587986202">
        <ele>27.8</ele>
        <time>2023-05-18T13:21:52Z</time>
      </trkpt>
      <trkpt lat="39.924651025976644" lon="116.48500630658512">
        <ele>27.2</ele>
        <time>2023-05-18T13:21:58Z</time>
      </trkpt>
      <trkpt lat="39.924657481794426" lon="116.4852274703343">
        <ele>28.999999999999996</ele>
        <time>2023-05-18T13:22:07Z</time>
      </trkpt>
      <trkpt lat="39.92475408677301" lon="116.48549919424734">
        <ele>27.999999999999996</ele>
        <time>2023-05-18T13:22:22Z</time>
      </trkpt>
      <trkpt lat="39.924828283368015" lon="116.48577000802943">
        <ele>27.3</ele>
        <time>2023-05-18T13:22:37Z</time>
      </trkpt>
      <trkpt lat="39.92494775281044" lon="116.48590453990325">
        <ele>25.599999999999998</ele>
        <time>2023-05-18T13:22:46Z</time>
      </trkpt>
      <trkpt lat="39.9249397561304" lon="116.48603509146295">
        <ele>25.2</ele>
        <time>2023-05-18T13:22:55Z</time>
      </trkpt>
      <trkpt lat="39.92490834256657" lon="116.48612592949202">
        <ele>27.900000000000002</ele>
        <time>2023-05-18T13:23:01Z</time>
      </trkpt>
      <trkpt lat="39.92485229515064" lon="116.48621773594851">
        <ele>26.3</ele>
        <time>2023-05-18T13:23:10Z</time>
      </trkpt>
      <trkpt lat="39.92476418760316" lon="116.48633656831592">
        <ele>24.8</ele>
        <time>2023-05-18T13:23:19Z</time>
      </trkpt>
      <trkpt lat="39.92467244479002" lon="116.48639701884763">
        <ele>26.400000000000002</ele>
        <time>2023-05-18T13:23:25Z</time>
      </trkpt>
      <trkpt lat="39.92459784994048" lon="116.48639890406405">
        <ele>27.8</ele>
        <time>2023-05-18T13:23:34Z</time>
      </trkpt>
      <trkpt lat="39.92452616910437" lon="116.48638524759639">
        <ele>27.900000000000002</ele>
        <time>2023-05-18T13:23:37Z</time>
      </trkpt>
      <trkpt lat="39.92441864523004" lon="116.486333036297">
        <ele>28.999999999999996</ele>
        <time>2023-05-18T13:23:43Z</time>
      </trkpt>
      <trkpt lat="39.924260522289046" lon="116.4862980840065">
        <ele>31.499999999999996</ele>
        <time>2023-05-18T13:23:52Z</time>
      </trkpt>
      <trkpt lat="39.924042976196475" lon="116.48636356558404">
        <ele>34.300000000000004</ele>
        <time>2023-05-18T13:24:10Z</time>
      </trkpt>
      <trkpt lat="39.923853879520394" lon="116.48653020309924">
        <ele>30.499999999999996</ele>
        <time>2023-05-18T13:24:22Z</time>
      </trkpt>
      <trkpt lat="39.92372294721954" lon="116.48668198895807">
        <ele>26.999999999999996</ele>
        <time>2023-05-18T13:24:31Z</time>
      </trkpt>
      <trkpt lat="39.92359569759822" lon="116.48686185322426">
        <ele>25.5</ele>
        <time>2023-05-18T13:24:43Z</time>
      </trkpt>
      <trkpt lat="39.92344482855196" lon="116.48709450836594">
        <ele>24.0</ele>
        <time>2023-05-18T13:24:58Z</time>
      </trkpt>
      <trkpt lat="39.92330763728336" lon="116.48716981937206">
        <ele>26.599999999999998</ele>
        <time>2023-05-18T13:25:04Z</time>
      </trkpt>
      <trkpt lat="39.92308102685597" lon="116.48730275844709">
        <ele>31.400000000000002</ele>
        <time>2023-05-18T13:25:22Z</time>
      </trkpt>
      <trkpt lat="39.92297656876047" lon="116.48732122380095">
        <ele>32.400000000000006</ele>
        <time>2023-05-18T13:25:25Z</time>
      </trkpt>
      <trkpt lat="39.922913731438136" lon="116.48738572949239">
        <ele>34.1</ele>
        <time>2023-05-18T13:25:31Z</time>
      </trkpt>
      <trkpt lat="39.92284956912777" lon="116.48747065929392">
        <ele>35.0</ele>
        <time>2023-05-18T13:25:37Z</time>
      </trkpt>
      <trkpt lat="39.92279223539759" lon="116.48763558573764">
        <ele>38.900000000000006</ele>
        <time>2023-05-18T13:25:46Z</time>
      </trkpt>
      <trkpt lat="39.92276544123246" lon="116.48785891433563">
        <ele>40.400000000000006</ele>
        <time>2023-05-18T13:25:58Z</time>
      </trkpt>
      <trkpt lat="39.92275325147701" lon="116.48800245846827">
        <ele>39.400000000000006</ele>
        <time>2023-05-18T13:26:01Z</time>
      </trkpt>
      <trkpt lat="39.92274752018412" lon="116.4880990806199">
        <ele>37.800000000000004</ele>
        <time>2023-05-18T13:26:04Z</time>
      </trkpt>
      <trkpt lat="39.92274464946102" lon="116.48816962696043">
        <ele>35.300000000000004</ele>
        <time>2023-05-18T13:26:07Z</time>
      </trkpt>
      <trkpt lat="39.92274148966387" lon="116.48833761006138">
        <ele>33.300000000000004</ele>
        <time>2023-05-18T13:26:19Z</time>
      </trkpt>
      <trkpt lat="39.92274611836487" lon="116.4885203696932">
        <ele>31.8</ele>
        <time>2023-05-18T13:26:25Z</time>
      </trkpt>
      <trkpt lat="39.92276396230798" lon="116.48864702272269">
        <ele>30.7</ele>
        <time>2023-05-18T13:26:28Z</time>
      </trkpt>
      <trkpt lat="39.9227831540387" lon="116.488736399381">
        <ele>30.400000000000002</ele>
        <time>2023-05-18T13:26:31Z</time>
      </trkpt>
      <trkpt lat="39.92282306661469" lon="116.48880923077475">
        <ele>30.8</ele>
        <time>2023-05-18T13:26:37Z</time>
      </trkpt>
      <trkpt lat="39.92300332925221" lon="116.48886951428722">
        <ele>31.8</ele>
        <time>2023-05-18T13:26:55Z</time>
      </trkpt>
      <trkpt lat="39.92318179069195" lon="116.48888936631833">
        <ele>31.3</ele>
        <time>2023-05-18T13:27:04Z</time>
      </trkpt>
      <trkpt lat="39.923416338877836" lon="116.48889484042184">
        <ele>31.7</ele>
        <time>2023-05-18T13:27:28Z</time>
      </trkpt>
      <trkpt lat="39.92369261666749" lon="116.48889372555055">
        <ele>31.999999999999996</ele>
        <time>2023-05-18T13:27:46Z</time>
      </trkpt>
      <trkpt lat="39.923963990286644" lon="116.48889281064432">
        <ele>32.800000000000004</ele>
        <time>2023-05-18T13:27:58Z</time>
      </trkpt>
      <trkpt lat="39.924258581662755" lon="116.48889425646821">
        <ele>30.499999999999996</ele>
        <time>2023-05-18T13:28:13Z</time>
      </trkpt>
      <trkpt lat="39.92450274780905" lon="116.48889609300328">
        <ele>28.7</ele>
        <time>2023-05-18T13:28:25Z</time>
      </trkpt>
      <trkpt lat="39.92464759424102" lon="116.48889729477872">
        <ele>28.7</ele>
        <time>2023-05-18T13:28:28Z</time>
      </trkpt>
      <trkpt lat="39.924819900148975" lon="116.48887930918559">
        <ele>26.400000000000002</ele>
        <time>2023-05-18T13:28:34Z</time>
      </trkpt>
      <trkpt lat="39.924988726006745" lon="116.48888928804115">
        <ele>26.2</ele>
        <time>2023-05-18T13:28:40Z</time>
      </trkpt>
      <trkpt lat="39.925174214653964" lon="116.48882147537724">
        <ele>23.3</ele>
        <time>2023-05-18T13:28:52Z</time>
      </trkpt>
      <trkpt lat="39.92530179042417" lon="116.48879015691861">
        <ele>24.8</ele>
        <time>2023-05-18T13:28:55Z</time>
      </trkpt>
      <trkpt lat="39.92546189335933" lon="116.48881254118776">
        <ele>31.8</ele>
        <time>2023-05-18T13:29:07Z</time>
      </trkpt>
      <trkpt lat="39.925695182169235" lon="116.488770285731">
        <ele>37.6</ele>
        <time>2023-05-18T13:29:25Z</time>
      </trkpt>
      <trkpt lat="39.92597211457619" lon="116.48874063493177">
        <ele>36.400000000000006</ele>
        <time>2023-05-18T13:29:43Z</time>
      </trkpt>
      <trkpt lat="39.92612465251948" lon="116.48869291638702">
        <ele>33.7</ele>
        <time>2023-05-18T13:29:49Z</time>
      </trkpt>
      <trkpt lat="39.92620887494466" lon="116.48862954375129">
        <ele>34.0</ele>
        <time>2023-05-18T13:29:52Z</time>
      </trkpt>
      <trkpt lat="39.926258363361434" lon="116.48861178401285">
        <ele>35.300000000000004</ele>
        <time>2023-05-18T13:29:55Z</time>
      </trkpt>
      <trkpt lat="39.92627982920788" lon="116.48853488811916">
        <ele>34.6</ele>
        <time>2023-05-18T13:30:01Z</time>
      </trkpt>
      <trkpt lat="39.926294934841344" lon="116.4884070131632">
        <ele>33.800000000000004</ele>
        <time>2023-05-18T13:30:08Z</time>
      </trkpt>
      <trkpt lat="39.926343528979245" lon="116.48825413291496">
        <ele>32.7</ele>
        <time>2023-05-18T13:30:14Z</time>
      </trkpt>
      <trkpt lat="39.92641282837593" lon="116.48817099149204">
        <ele>33.800000000000004</ele>
        <time>2023-05-18T13:30:20Z</time>
      </trkpt>
      <trkpt lat="39.92661682343613" lon="116.4881427658629">
        <ele>34.300000000000004</ele>
        <time>2023-05-18T13:30:41Z</time>
      </trkpt>
      <trkpt lat="39.926801172970386" lon="116.48815569184794">
        <ele>33.300000000000004</ele>
        <time>2023-05-18T13:30:50Z</time>
      </trkpt>
      <trkpt lat="39.9269794754882" lon="116.48810214428563">
        <ele>33.5</ele>
        <time>2023-05-18T13:30:59Z</time>
      </trkpt>
      <trkpt lat="39.92719909879237" lon="116.4879157964127">
        <ele>29.499999999999996</ele>
        <time>2023-05-18T13:31:20Z</time>
      </trkpt>
      <trkpt lat="39.92734104360369" lon="116.48779061516562">
        <ele>28.900000000000002</ele>
        <time>2023-05-18T13:31:26Z</time>
      </trkpt>
      <trkpt lat="39.92753283676448" lon="116.48758558618745">
        <ele>23.5</ele>
        <time>2023-05-18T13:31:47Z</time>
      </trkpt>
      <trkpt lat="39.92763978951458" lon="116.48746218796114">
        <ele>22.9</ele>
        <time>2023-05-18T13:31:50Z</time>
      </trkpt>
      <trkpt lat="39.927691861565144" lon="116.4873383050712">
        <ele>22.5</ele>
        <time>2023-05-18T13:31:56Z</time>
      </trkpt>
      <trkpt lat="39.92771135777121" lon="116.48719685836052">
        <ele>23.3</ele>
        <time>2023-05-18T13:32:02Z</time>
      </trkpt>
      <trkpt lat="39.92766565435724" lon="116.48700872968533">
        <ele>23.7</ele>
        <time>2023-05-18T13:32:11Z</time>
      </trkpt>
      <trkpt lat="39.92765373023971" lon="116.48680707390758">
        <ele>25.4</ele>
        <time>2023-05-18T13:32:17Z</time>
      </trkpt>
      <trkpt lat="39.9277010423559" lon="116.48660947835799">
        <ele>29.499999999999996</ele>
        <time>2023-05-18T13:32:26Z</time>
      </trkpt>
      <trkpt lat="39.92773271562914" lon="116.4863521396257">
        <ele>34.400000000000006</ele>
        <time>2023-05-18T13:32:41Z</time>
      </trkpt>
      <trkpt lat="39.9278405031161" lon="116.48602222901349">
        <ele>35.5</ele>
        <time>2023-05-18T13:32:59Z</time>
      </trkpt>
      <trkpt lat="39.927856367374204" lon="116.48586950455298">
        <ele>35.1</ele>
        <time>2023-05-18T13:33:02Z</time>
      </trkpt>
      <trkpt lat="39.92786762433361" lon="116.48556493826827">
        <ele>31.900000000000002</ele>
        <time>2023-05-18T13:33:20Z</time>
      </trkpt>
      <trkpt lat="39.92787228561348" lon="116.48530969804176">
        <ele>29.3</ele>
        <time>2023-05-18T13:33:32Z</time>
      </trkpt>
      <trkpt lat="39.92786690452663" lon="116.48507491230781">
        <ele>27.7</ele>
        <time>2023-05-18T13:33:44Z</time>
      </trkpt>
      <trkpt lat="39.92786292672124" lon="116.48494121734535">
        <ele>26.999999999999996</ele>
        <time>2023-05-18T13:33:50Z</time>
      </trkpt>
      <trkpt lat="39.92790538121575" lon="116.48474499119283">
        <ele>25.9</ele>
        <time>2023-05-18T13:33:56Z</time>
      </trkpt>
      <trkpt lat="39.92805864909378" lon="116.48462354938607">
        <ele>27.599999999999998</ele>
        <time>2023-05-18T13:34:11Z</time>
      </trkpt>
      <trkpt lat="39.92818109140925" lon="116.4845558081137">
        <ele>30.400000000000002</ele>
        <time>2023-05-18T13:34:17Z</time>
      </trkpt>
      <trkpt lat="39.9282518476012" lon="116.48449666859533">
        <ele>31.7</ele>
        <time>2023-05-18T13:34:20Z</time>
      </trkpt>
      <trkpt lat="39.928302810667965" lon="116.48443718174136">
        <ele>31.999999999999996</ele>
        <time>2023-05-18T13:34:23Z</time>
      </trkpt>
      <trkpt lat="39.928338695427364" lon="116.48432786144274">
        <ele>32.300000000000004</ele>
        <time>2023-05-18T13:34:32Z</time>
      </trkpt>
      <trkpt lat="39.92838787803126" lon="116.48418699249581">
        <ele>32.400000000000006</ele>
        <time>2023-05-18T13:34:41Z</time>
      </trkpt>
      <trkpt lat="39.92838908507231" lon="116.48405910391531">
        <ele>33.2</ele>
        <time>2023-05-18T13:34:47Z</time>
      </trkpt>
      <trkpt lat="39.92833769189102" lon="116.48400390289206">
        <ele>33.900000000000006</ele>
        <time>2023-05-18T13:34:53Z</time>
      </trkpt>
      <trkpt lat="39.92835746310888" lon="116.48386398096224">
        <ele>34.6</ele>
        <time>2023-05-18T13:34:59Z</time>
      </trkpt>
      <trkpt lat="39.92838270685809" lon="116.48374402028153">
        <ele>35.0</ele>
        <time>2023-05-18T13:35:02Z</time>
      </trkpt>
      <trkpt lat="39.92841636049745" lon="116.48362908159682">
        <ele>34.800000000000004</ele>
        <time>2023-05-18T13:35:05Z</time>
      </trkpt>
      <trkpt lat="39.92846792564055" lon="116.48347204531633">
        <ele>34.800000000000004</ele>
        <time>2023-05-18T13:35:11Z</time>
      </trkpt>
      <trkpt lat="39.92855986344389" lon="116.48336107110738">
        <ele>36.2</ele>
        <time>2023-05-18T13:35:17Z</time>
      </trkpt>
      <trkpt lat="39.92866719651212" lon="116.4832535077043">
        <ele>37.1</ele>
        <time>2023-05-18T13:35:26Z</time>
      </trkpt>
      <trkpt lat="39.92888481691379" lon="116.48320482807716">
        <ele>35.6</ele>
        <time>2023-05-18T13:35:44Z</time>
      </trkpt>
      <trkpt lat="39.929135383482155" lon="116.48317120839273">
        <ele>35.300000000000004</ele>
        <time>2023-05-18T13:35:59Z</time>
      </trkpt>
      <trkpt lat="39.92930559525878" lon="116.48315170328104">
        <ele>34.7</ele>
        <time>2023-05-18T13:36:05Z</time>
      </trkpt>
      <trkpt lat="39.9294175969789" lon="116.48310506623378">
        <ele>33.900000000000006</ele>
        <time>2023-05-18T13:36:11Z</time>
      </trkpt>
      <trkpt lat="39.929483410969084" lon="116.48304331649965">
        <ele>33.800000000000004</ele>
        <time>2023-05-18T13:36:17Z</time>
      </trkpt>
      <trkpt lat="39.92947871646723" lon="116.48280848050535">
        <ele>36.5</ele>
        <time>2023-05-18T13:36:41Z</time>
      </trkpt>
      <trkpt lat="39.9294379593402" lon="116.48267001883983">
        <ele>34.7</ele>
        <time>2023-05-18T13:36:47Z</time>
      </trkpt>
      <trkpt lat="39.929317852916014" lon="116.48250546015632">
        <ele>29.7</ele>
        <time>2023-05-18T13:36:59Z</time>
      </trkpt>
      <trkpt lat="39.9292176133585" lon="116.48236131156138">
        <ele>29.099999999999998</ele>
        <time>2023-05-18T13:37:08Z</time>
      </trkpt>
      <trkpt lat="39.929169951837295" lon="116.48224559646032">
        <ele>28.499999999999996</ele>
        <time>2023-05-18T13:37:11Z</time>
      </trkpt>
      <trkpt lat="39.92915262152923" lon="116.48212566641315">
        <ele>27.8</ele>
        <time>2023-05-18T13:37:17Z</time>
      </trkpt>
      <trkpt lat="39.92910031739583" lon="116.4819571503839">
        <ele>27.7</ele>
        <time>2023-05-18T13:37:26Z</time>
      </trkpt>
      <trkpt lat="39.92903781787369" lon="116.48185764832283">
        <ele>26.599999999999998</ele>
        <time>2023-05-18T13:37:32Z</time>
      </trkpt>
      <trkpt lat="39.92893097645704" lon="116.4817840701042">
        <ele>26.3</ele>
        <time>2023-05-18T13:37:38Z</time>
      </trkpt>
      <trkpt lat="39.928758392000645" lon="116.48180737860623">
        <ele>29.599999999999998</ele>
        <time>2023-05-18T13:37:53Z</time>
      </trkpt>
      <trkpt lat="39.928626632021746" lon="116.48186276488096">
        <ele>31.099999999999998</ele>
        <time>2023-05-18T13:37:59Z</time>
      </trkpt>
      <trkpt lat="39.92842294101213" lon="116.48192419541346">
        <ele>34.6</ele>
        <time>2023-05-18T13:38:14Z</time>
      </trkpt>
      <trkpt lat="39.92831355642503" lon="116.48196022158706">
        <ele>34.900000000000006</ele>
        <time>2023-05-18T13:38:17Z</time>
      </trkpt>
      <trkpt lat="39.92822839473489" lon="116.48199252966263">
        <ele>35.300000000000004</ele>
        <time>2023-05-18T13:38:23Z</time>
      </trkpt>
      <trkpt lat="39.92811346732596" lon="116.48207581924059">
        <ele>33.6</ele>
        <time>2023-05-18T13:38:32Z</time>
      </trkpt>
      <trkpt lat="39.92797388756729" lon="116.48226451873504">
        <ele>30.2</ele>
        <time>2023-05-18T13:38:47Z</time>
      </trkpt>
      <trkpt lat="39.92787714287873" lon="116.48246633576431">
        <ele>26.0</ele>
        <time>2023-05-18T13:38:56Z</time>
      </trkpt>
      <trkpt lat="39.927827453815354" lon="116.48258567259512">
        <ele>25.4</ele>
        <time>2023-05-18T13:38:59Z</time>
      </trkpt>
      <trkpt lat="39.92780248598921" lon="116.48265148309399">
        <ele>25.2</ele>
        <time>2023-05-18T13:39:02Z</time>
      </trkpt>
      <trkpt lat="39.927721613296505" lon="116.48271639122095">
        <ele>27.099999999999998</ele>
        <time>2023-05-18T13:39:11Z</time>
      </trkpt>
      <trkpt lat="39.92758557755785" lon="116.482704310541">
        <ele>31.900000000000002</ele>
        <time>2023-05-18T13:39:20Z</time>
      </trkpt>
      <trkpt lat="39.927401264255295" lon="116.48272272058955">
        <ele>35.800000000000004</ele>
        <time>2023-05-18T13:39:32Z</time>
      </trkpt>
      <trkpt lat="39.92727563808788" lon="116.4828200194136">
        <ele>34.6</ele>
        <time>2023-05-18T13:39:38Z</time>
      </trkpt>
      <trkpt lat="39.92721444145783" lon="116.48307234129204">
        <ele>31.900000000000002</ele>
        <time>2023-05-18T13:39:56Z</time>
      </trkpt>
      <trkpt lat="39.92719217698706" lon="116.48322998048508">
        <ele>32.400000000000006</ele>
        <time>2023-05-18T13:40:02Z</time>
      </trkpt>
      <trkpt lat="39.927172297299144" lon="116.48331990588872">
        <ele>33.0</ele>
        <time>2023-05-18T13:40:05Z</time>
      </trkpt>
      <trkpt lat="39.927097469588816" lon="116.4833411873871">
        <ele>33.2</ele>
        <time>2023-05-18T13:40:14Z</time>
      </trkpt>
      <trkpt lat="39.92714829863159" lon="116.4838734238904">
        <ele>24.2</ele>
        <time>2023-05-18T13:40:38Z</time>
      </trkpt>
      <trkpt lat="39.927126647043835" lon="116.48406515568763">
        <ele>31.3</ele>
        <time>2023-05-18T13:40:41Z</time>
      </trkpt>
      <trkpt lat="39.92709888724934" lon="116.48418527249785">
        <ele>28.2</ele>
        <time>2023-05-18T13:40:47Z</time>
      </trkpt>
      <trkpt lat="39.92693246685702" lon="116.48428957168998">
        <ele>28.8</ele>
        <time>2023-05-18T13:41:02Z</time>
      </trkpt>
      <trkpt lat="39.92670177930159" lon="116.48432681256905">
        <ele>27.499999999999996</ele>
        <time>2023-05-18T13:41:14Z</time>
      </trkpt>
      <trkpt lat="39.926469948115475" lon="116.48436743606152">
        <ele>27.400000000000002</ele>
        <time>2023-05-18T13:41:23Z</time>
      </trkpt>
      <trkpt lat="39.92629501822738" lon="116.48437364825442">
        <ele>27.2</ele>
        <time>2023-05-18T13:41:29Z</time>
      </trkpt>
      <trkpt lat="39.926188921132024" lon="116.48437588073554">
        <ele>27.8</ele>
        <time>2023-05-18T13:41:32Z</time>
      </trkpt>
      <trkpt lat="39.92609509515753" lon="116.48437615415378">
        <ele>28.599999999999998</ele>
        <time>2023-05-18T13:41:38Z</time>
      </trkpt>
      <trkpt lat="39.925901783896705" lon="116.48438249428875">
        <ele>31.2</ele>
        <time>2023-05-18T13:41:50Z</time>
      </trkpt>
      <trkpt lat="39.92566230446009" lon="116.48436695950097">
        <ele>30.599999999999998</ele>
        <time>2023-05-18T13:42:02Z</time>
      </trkpt>
      <trkpt lat="39.92537507231399" lon="116.48435060024813">
        <ele>26.8</ele>
        <time>2023-05-18T13:42:17Z</time>
      </trkpt>
      <trkpt lat="39.925177355557125" lon="116.4843396675352">
        <ele>27.099999999999998</ele>
        <time>2023-05-18T13:42:23Z</time>
      </trkpt>
      <trkpt lat="39.92505569043625" lon="116.48433304134807">
        <ele>27.499999999999996</ele>
        <time>2023-05-18T13:42:26Z</time>
      </trkpt>
      <trkpt lat="39.92483981576127" lon="116.48455614263332">
        <ele>24.8</ele>
        <time>2023-05-18T13:42:44Z</time>
      </trkpt>
      <trkpt lat="39.924730966600784" lon="116.48475769608162">
        <ele>23.5</ele>
        <time>2023-05-18T13:42:50Z</time>
      </trkpt>
      <trkpt lat="39.92466946569818" lon="116.48494618010588">
        <ele>24.099999999999998</ele>
        <time>2023-05-18T13:42:56Z</time>
      </trkpt>
      <trkpt lat="39.92463666713495" lon="116.48507124558706">
        <ele>25.5</ele>
        <time>2023-05-18T13:42:59Z</time>
      </trkpt>
      <trkpt lat="39.924650099174386" lon="116.48525277337383">
        <ele>27.7</ele>
        <time>2023-05-18T13:43:05Z</time>
      </trkpt>
      <trkpt lat="39.92470749475706" lon="116.4854434679022">
        <ele>27.8</ele>
        <time>2023-05-18T13:43:14Z</time>
      </trkpt>
      <trkpt lat="39.92480512673579" lon="116.48563481685154">
        <ele>28.099999999999998</ele>
        <time>2023-05-18T13:43:23Z</time>
      </trkpt>
      <trkpt lat="39.92487098283673" lon="116.48575163851825">
        <ele>30.499999999999996</ele>
        <time>2023-05-18T13:43:26Z</time>
      </trkpt>
      <trkpt lat="39.924899311506564" lon="116.48580189052267">
        <ele>30.499999999999996</ele>
        <time>2023-05-18T13:43:28Z</time>
      </trkpt>
    </trkseg>
  </trk>
</gpx>