<?xml version="1.0" encoding="UTF-8"?>
<gpx xmlns="http://www.topografix.com/GPX/1/1" xmlns:gpxtpx="http://www.garmin.com/xmlschemas/TrackPointExtension/v1" xmlns:xsi="http://www.w3.org/2001/XMLSchema-instance" xsi:schemaLocation="http://www.topografix.com/GPX/1/1 http://www.topografix.com/GPX/1/1/gpx.xsd" version="1.1" creator="gpx.py -- https://github.com/tkrajina/gpxpy">
  <trk>
    <name>gpx from keep</name>
    <type>Run</type>
    <trkseg>
      <trkpt lat="39.922773744531256" lon="116.48822138704533">
        <ele>30.599999999999998</ele>
        <time>2023-05-24T11:01:00Z</time>
      </trkpt>
      <trkpt lat="39.92277930196033" lon="116.4884090971074">
        <ele>27.900000000000002</ele>
        <time>2023-05-24T11:01:03Z</time>
      </trkpt>
      <trkpt lat="39.922750562649405" lon="116.48849643141119">
        <ele>27.400000000000002</ele>
        <time>2023-05-24T11:01:06Z</time>
      </trkpt>
      <trkpt lat="39.922757956135214" lon="116.48862893233915">
        <ele>27.499999999999996</ele>
        <time>2023-05-24T11:01:12Z</time>
      </trkpt>
      <trkpt lat="39.92281230896395" lon="116.48874837805516">
        <ele>27.900000000000002</ele>
        <time>2023-05-24T11:01:18Z</time>
      </trkpt>
      <trkpt lat="39.92285445344762" lon="116.48879755914037">
        <ele>28.099999999999998</ele>
        <time>2023-05-24T11:01:21Z</time>
      </trkpt>
      <trkpt lat="39.92301768546076" lon="116.4888778430502">
        <ele>29.3</ele>
        <time>2023-05-24T11:01:33Z</time>
      </trkpt>
      <trkpt lat="39.923174553630744" lon="116.4888356637835">
        <ele>31.400000000000002</ele>
        <time>2023-05-24T11:01:39Z</time>
      </trkpt>
      <trkpt lat="39.92350047452148" lon="116.48881353952493">
        <ele>37.1</ele>
        <time>2023-05-24T11:01:54Z</time>
      </trkpt>
      <trkpt lat="39.92364445664503" lon="116.48880950638002">
        <ele>39.400000000000006</ele>
        <time>2023-05-24T11:02:03Z</time>
      </trkpt>
      <trkpt lat="39.9238405172027" lon="116.48883256942882">
        <ele>42.300000000000004</ele>
        <time>2023-05-24T11:02:12Z</time>
      </trkpt>
      <trkpt lat="39.92391244559698" lon="116.48880947300131">
        <ele>42.5</ele>
        <time>2023-05-24T11:02:15Z</time>
      </trkpt>
      <trkpt lat="39.92407255539295" lon="116.48884860137707">
        <ele>39.300000000000004</ele>
        <time>2023-05-24T11:02:21Z</time>
      </trkpt>
      <trkpt lat="39.92440042848382" lon="116.48881041602374">
        <ele>39.900000000000006</ele>
        <time>2023-05-24T11:02:33Z</time>
      </trkpt>
      <trkpt lat="39.92446550041594" lon="116.48883550299425">
        <ele>39.6</ele>
        <time>2023-05-24T11:02:36Z</time>
      </trkpt>
      <trkpt lat="39.92475448255934" lon="116.48883345939369">
        <ele>37.2</ele>
        <time>2023-05-24T11:02:51Z</time>
      </trkpt>
      <trkpt lat="39.92506938903664" lon="116.4888063174875">
        <ele>36.7</ele>
        <time>2023-05-24T11:03:03Z</time>
      </trkpt>
      <trkpt lat="39.925249435359305" lon="116.48882436351556">
        <ele>35.5</ele>
        <time>2023-05-24T11:03:09Z</time>
      </trkpt>
      <trkpt lat="39.92543426363419" lon="116.48876913132965">
        <ele>34.1</ele>
        <time>2023-05-24T11:03:18Z</time>
      </trkpt>
      <trkpt lat="39.92560720282212" lon="116.48875104133646">
        <ele>34.0</ele>
        <time>2023-05-24T11:03:27Z</time>
      </trkpt>
      <trkpt lat="39.92584704378452" lon="116.4887008213244">
        <ele>30.599999999999998</ele>
        <time>2023-05-24T11:03:39Z</time>
      </trkpt>
      <trkpt lat="39.92604504461862" lon="116.48870380806727">
        <ele>29.499999999999996</ele>
        <time>2023-05-24T11:03:45Z</time>
      </trkpt>
      <trkpt lat="39.926249860184" lon="116.48864455820367">
        <ele>31.599999999999998</ele>
        <time>2023-05-24T11:03:54Z</time>
      </trkpt>
      <trkpt lat="39.92632167524911" lon="116.48858331731745">
        <ele>31.8</ele>
        <time>2023-05-24T11:04:00Z</time>
      </trkpt>
      <trkpt lat="39.92635451877541" lon="116.48853111551871">
        <ele>33.6</ele>
        <time>2023-05-24T11:04:03Z</time>
      </trkpt>
      <trkpt lat="39.92638069453688" lon="116.48825406308251">
        <ele>31.7</ele>
        <time>2023-05-24T11:04:15Z</time>
      </trkpt>
      <trkpt lat="39.92641055019136" lon="116.48820587693162">
        <ele>30.8</ele>
        <time>2023-05-24T11:04:18Z</time>
      </trkpt>
      <trkpt lat="39.92669226735231" lon="116.48811449599836">
        <ele>28.099999999999998</ele>
        <time>2023-05-24T11:04:33Z</time>
      </trkpt>
      <trkpt lat="39.92694223029608" lon="116.48810543065018">
        <ele>28.3</ele>
        <time>2023-05-24T11:04:45Z</time>
      </trkpt>
      <trkpt lat="39.927227545023065" lon="116.48787853639145">
        <ele>26.900000000000002</ele>
        <time>2023-05-24T11:05:00Z</time>
      </trkpt>
      <trkpt lat="39.927452002513725" lon="116.48769882846838">
        <ele>27.3</ele>
        <time>2023-05-24T11:05:12Z</time>
      </trkpt>
      <trkpt lat="39.92765017537355" lon="116.48742275946982">
        <ele>26.999999999999996</ele>
        <time>2023-05-24T11:05:24Z</time>
      </trkpt>
      <trkpt lat="39.92769272407908" lon="116.48727118092235">
        <ele>28.099999999999998</ele>
        <time>2023-05-24T11:05:30Z</time>
      </trkpt>
      <trkpt lat="39.92764450901803" lon="116.48686063488674">
        <ele>29.2</ele>
        <time>2023-05-24T11:05:45Z</time>
      </trkpt>
      <trkpt lat="39.927630322219464" lon="116.48679739767465">
        <ele>29.499999999999996</ele>
        <time>2023-05-24T11:05:48Z</time>
      </trkpt>
      <trkpt lat="39.9277641811054" lon="116.48641393244813">
        <ele>27.900000000000002</ele>
        <time>2023-05-24T11:06:03Z</time>
      </trkpt>
      <trkpt lat="39.92777748535198" lon="116.4861790439279">
        <ele>27.499999999999996</ele>
        <time>2023-05-24T11:06:12Z</time>
      </trkpt>
      <trkpt lat="39.92790956840862" lon="116.48587086448163">
        <ele>29.999999999999996</ele>
        <time>2023-05-24T11:06:24Z</time>
      </trkpt>
      <trkpt lat="39.927937798718155" lon="116.48561088033512">
        <ele>28.2</ele>
        <time>2023-05-24T11:06:33Z</time>
      </trkpt>
      <trkpt lat="39.92786068697967" lon="116.48523346722553">
        <ele>24.7</ele>
        <time>2023-05-24T11:06:48Z</time>
      </trkpt>
      <trkpt lat="39.92782953589801" lon="116.48484300034451">
        <ele>18.5</ele>
        <time>2023-05-24T11:07:03Z</time>
      </trkpt>
      <trkpt lat="39.92798002947531" lon="116.48467334297261">
        <ele>16.2</ele>
        <time>2023-05-24T11:07:15Z</time>
      </trkpt>
      <trkpt lat="39.92820561784084" lon="116.48453680109372">
        <ele>19.8</ele>
        <time>2023-05-24T11:07:27Z</time>
      </trkpt>
      <trkpt lat="39.9282554057738" lon="116.48446552674667">
        <ele>21.4</ele>
        <time>2023-05-24T11:07:30Z</time>
      </trkpt>
      <trkpt lat="39.928308631838654" lon="116.48420353480333">
        <ele>25.5</ele>
        <time>2023-05-24T11:07:39Z</time>
      </trkpt>
      <trkpt lat="39.92839437712099" lon="116.48411820334542">
        <ele>26.0</ele>
        <time>2023-05-24T11:07:45Z</time>
      </trkpt>
      <trkpt lat="39.92842695032705" lon="116.48397365603014">
        <ele>27.599999999999998</ele>
        <time>2023-05-24T11:07:51Z</time>
      </trkpt>
      <trkpt lat="39.92845044730377" lon="116.48380301200312">
        <ele>29.499999999999996</ele>
        <time>2023-05-24T11:07:57Z</time>
      </trkpt>
      <trkpt lat="39.92839413371679" lon="116.48369561565886">
        <ele>29.8</ele>
        <time>2023-05-24T11:08:00Z</time>
      </trkpt>
      <trkpt lat="39.92839386515725" lon="116.48360427271959">
        <ele>30.099999999999998</ele>
        <time>2023-05-24T11:08:03Z</time>
      </trkpt>
      <trkpt lat="39.92842055426893" lon="116.48349887374664">
        <ele>30.400000000000002</ele>
        <time>2023-05-24T11:08:06Z</time>
      </trkpt>
      <trkpt lat="39.92841032460988" lon="116.4834205811878">
        <ele>30.099999999999998</ele>
        <time>2023-05-24T11:08:09Z</time>
      </trkpt>
      <trkpt lat="39.92846723676337" lon="116.4833914648494">
        <ele>29.3</ele>
        <time>2023-05-24T11:08:12Z</time>
      </trkpt>
      <trkpt lat="39.92852024050212" lon="116.48339346576383">
        <ele>25.0</ele>
        <time>2023-05-24T11:08:15Z</time>
      </trkpt>
      <trkpt lat="39.92856917657911" lon="116.4833723805588">
        <ele>23.4</ele>
        <time>2023-05-24T11:08:18Z</time>
      </trkpt>
      <trkpt lat="39.92871956316156" lon="116.48316558612815">
        <ele>26.599999999999998</ele>
        <time>2023-05-24T11:08:27Z</time>
      </trkpt>
      <trkpt lat="39.928997442812815" lon="116.48312841215326">
        <ele>27.400000000000002</ele>
        <time>2023-05-24T11:08:42Z</time>
      </trkpt>
      <trkpt lat="39.92916445664506" lon="116.48313541764328">
        <ele>27.2</ele>
        <time>2023-05-24T11:08:51Z</time>
      </trkpt>
      <trkpt lat="39.929310326952695" lon="116.48309324134597">
        <ele>27.400000000000002</ele>
        <time>2023-05-24T11:09:00Z</time>
      </trkpt>
      <trkpt lat="39.92947337925407" lon="116.48311329625648">
        <ele>26.499999999999996</ele>
        <time>2023-05-24T11:09:09Z</time>
      </trkpt>
      <trkpt lat="39.92952922377082" lon="116.48306109357743">
        <ele>28.8</ele>
        <time>2023-05-24T11:09:15Z</time>
      </trkpt>
      <trkpt lat="39.92955190471501" lon="116.48295268436804">
        <ele>30.400000000000002</ele>
        <time>2023-05-24T11:09:21Z</time>
      </trkpt>
      <trkpt lat="39.929518099450576" lon="116.48267765813232">
        <ele>34.6</ele>
        <time>2023-05-24T11:09:33Z</time>
      </trkpt>
      <trkpt lat="39.929385690010434" lon="116.48253614470491">
        <ele>34.2</ele>
        <time>2023-05-24T11:09:42Z</time>
      </trkpt>
      <trkpt lat="39.92927544745383" lon="116.4824518428517">
        <ele>29.599999999999998</ele>
        <time>2023-05-24T11:09:48Z</time>
      </trkpt>
      <trkpt lat="39.92922926115673" lon="116.48238760819622">
        <ele>27.900000000000002</ele>
        <time>2023-05-24T11:09:51Z</time>
      </trkpt>
      <trkpt lat="39.929202021222046" lon="116.48230530361887">
        <ele>26.3</ele>
        <time>2023-05-24T11:09:54Z</time>
      </trkpt>
      <trkpt lat="39.929169217593646" lon="116.48203027914414">
        <ele>22.4</ele>
        <time>2023-05-24T11:10:03Z</time>
      </trkpt>
      <trkpt lat="39.929099759513896" lon="116.48187269883339">
        <ele>21.099999999999998</ele>
        <time>2023-05-24T11:10:09Z</time>
      </trkpt>
      <trkpt lat="39.92900957536873" lon="116.4818084700846">
        <ele>21.4</ele>
        <time>2023-05-24T11:10:15Z</time>
      </trkpt>
      <trkpt lat="39.92889659170404" lon="116.48181249920236">
        <ele>23.599999999999998</ele>
        <time>2023-05-24T11:10:21Z</time>
      </trkpt>
      <trkpt lat="39.92863506316374" lon="116.48197012076119">
        <ele>27.400000000000002</ele>
        <time>2023-05-24T11:10:33Z</time>
      </trkpt>
      <trkpt lat="39.928520238138894" lon="116.48202835272555">
        <ele>28.599999999999998</ele>
        <time>2023-05-24T11:10:39Z</time>
      </trkpt>
      <trkpt lat="39.92827228641739" lon="116.48204143248635">
        <ele>29.900000000000002</ele>
        <time>2023-05-24T11:10:51Z</time>
      </trkpt>
      <trkpt lat="39.92810556929695" lon="116.48213580609715">
        <ele>31.999999999999996</ele>
        <time>2023-05-24T11:11:00Z</time>
      </trkpt>
      <trkpt lat="39.92793026409034" lon="116.48237070661717">
        <ele>31.499999999999996</ele>
        <time>2023-05-24T11:11:12Z</time>
      </trkpt>
      <trkpt lat="39.927889500966" lon="116.48245101222744">
        <ele>31.2</ele>
        <time>2023-05-24T11:11:15Z</time>
      </trkpt>
      <trkpt lat="39.92784431475843" lon="116.48272805517998">
        <ele>31.8</ele>
        <time>2023-05-24T11:11:24Z</time>
      </trkpt>
      <trkpt lat="39.92779447867846" lon="116.48278326820962">
        <ele>31.099999999999998</ele>
        <time>2023-05-24T11:11:27Z</time>
      </trkpt>
      <trkpt lat="39.9277375251584" lon="116.48279833172975">
        <ele>29.7</ele>
        <time>2023-05-24T11:11:30Z</time>
      </trkpt>
      <trkpt lat="39.92756045879452" lon="116.482773259835">
        <ele>28.599999999999998</ele>
        <time>2023-05-24T11:11:39Z</time>
      </trkpt>
      <trkpt lat="39.92734954688719" lon="116.48280038770773">
        <ele>27.099999999999998</ele>
        <time>2023-05-24T11:11:48Z</time>
      </trkpt>
      <trkpt lat="39.92729161696366" lon="116.48282348143766">
        <ele>27.400000000000002</ele>
        <time>2023-05-24T11:11:51Z</time>
      </trkpt>
      <trkpt lat="39.92725976547729" lon="116.48287367346654">
        <ele>27.8</ele>
        <time>2023-05-24T11:11:54Z</time>
      </trkpt>
      <trkpt lat="39.927232402814695" lon="116.48309048955552">
        <ele>26.2</ele>
        <time>2023-05-24T11:12:03Z</time>
      </trkpt>
      <trkpt lat="39.927241806176575" lon="116.48322800406841">
        <ele>26.599999999999998</ele>
        <time>2023-05-24T11:12:09Z</time>
      </trkpt>
      <trkpt lat="39.927195377137195" lon="116.48342173665792">
        <ele>28.7</ele>
        <time>2023-05-24T11:12:18Z</time>
      </trkpt>
      <trkpt lat="39.9271917784779" lon="116.48355824946715">
        <ele>29.499999999999996</ele>
        <time>2023-05-24T11:12:24Z</time>
      </trkpt>
      <trkpt lat="39.927231891916385" lon="116.48359739141821">
        <ele>28.8</ele>
        <time>2023-05-24T11:12:27Z</time>
      </trkpt>
      <trkpt lat="39.9273047155199" lon="116.48387843783922">
        <ele>26.3</ele>
        <time>2023-05-24T11:12:36Z</time>
      </trkpt>
      <trkpt lat="39.927357126914956" lon="116.48401895932436">
        <ele>25.599999999999998</ele>
        <time>2023-05-24T11:12:39Z</time>
      </trkpt>
      <trkpt lat="39.92730054587968" lon="116.4841604983653">
        <ele>25.2</ele>
        <time>2023-05-24T11:12:42Z</time>
      </trkpt>
      <trkpt lat="39.927234717049636" lon="116.4842177216871">
        <ele>22.2</ele>
        <time>2023-05-24T11:12:45Z</time>
      </trkpt>
      <trkpt lat="39.927097364309255" lon="116.4844355579981">
        <ele>25.3</ele>
        <time>2023-05-24T11:12:54Z</time>
      </trkpt>
      <trkpt lat="39.92679233833183" lon="116.48442254698114">
        <ele>26.900000000000002</ele>
        <time>2023-05-24T11:13:09Z</time>
      </trkpt>
      <trkpt lat="39.92659240270921" lon="116.48444164367505">
        <ele>26.400000000000002</ele>
        <time>2023-05-24T11:13:18Z</time>
      </trkpt>
      <trkpt lat="39.926354291193434" lon="116.48440051858668">
        <ele>28.400000000000002</ele>
        <time>2023-05-24T11:13:27Z</time>
      </trkpt>
      <trkpt lat="39.92621037990014" lon="116.48442864226617">
        <ele>27.400000000000002</ele>
        <time>2023-05-24T11:13:33Z</time>
      </trkpt>
      <trkpt lat="39.926057273786036" lon="116.48439051790034">
        <ele>26.2</ele>
        <time>2023-05-24T11:13:42Z</time>
      </trkpt>
      <trkpt lat="39.92577933841402" lon="116.4844086205466">
        <ele>32.5</ele>
        <time>2023-05-24T11:13:54Z</time>
      </trkpt>
      <trkpt lat="39.92552028989094" lon="116.48438857736575">
        <ele>28.8</ele>
        <time>2023-05-24T11:14:06Z</time>
      </trkpt>
      <trkpt lat="39.92524329238899" lon="116.48438560060866">
        <ele>24.599999999999998</ele>
        <time>2023-05-24T11:14:18Z</time>
      </trkpt>
      <trkpt lat="39.92512230622986" lon="116.48438862703365">
        <ele>25.8</ele>
        <time>2023-05-24T11:14:24Z</time>
      </trkpt>
      <trkpt lat="39.92505025595786" lon="116.48437056806978">
        <ele>25.5</ele>
        <time>2023-05-24T11:14:27Z</time>
      </trkpt>
      <trkpt lat="39.92492046831743" lon="116.48444084855389">
        <ele>25.4</ele>
        <time>2023-05-24T11:14:33Z</time>
      </trkpt>
      <trkpt lat="39.92473735169615" lon="116.48473798941863">
        <ele>26.499999999999996</ele>
        <time>2023-05-24T11:14:48Z</time>
      </trkpt>
      <trkpt lat="39.92468454740102" lon="116.48514251932356">
        <ele>27.3</ele>
        <time>2023-05-24T11:15:06Z</time>
      </trkpt>
      <trkpt lat="39.92468703038397" lon="116.48530613550916">
        <ele>26.099999999999998</ele>
        <time>2023-05-24T11:15:12Z</time>
      </trkpt>
      <trkpt lat="39.924715293072964" lon="116.48539546868379">
        <ele>27.499999999999996</ele>
        <time>2023-05-24T11:15:18Z</time>
      </trkpt>
      <trkpt lat="39.924904151370534" lon="116.48568855022415">
        <ele>26.400000000000002</ele>
        <time>2023-05-24T11:15:33Z</time>
      </trkpt>
      <trkpt lat="39.925029300894174" lon="116.486079007776">
        <ele>25.8</ele>
        <time>2023-05-24T11:15:45Z</time>
      </trkpt>
      <trkpt lat="39.925014758885595" lon="116.48623359308365">
        <ele>28.599999999999998</ele>
        <time>2023-05-24T11:15:51Z</time>
      </trkpt>
      <trkpt lat="39.92493209502855" lon="116.48634602785005">
        <ele>29.400000000000002</ele>
        <time>2023-05-24T11:15:57Z</time>
      </trkpt>
      <trkpt lat="39.92464446345574" lon="116.48646651858107">
        <ele>30.099999999999998</ele>
        <time>2023-05-24T11:16:15Z</time>
      </trkpt>
      <trkpt lat="39.92450237419813" lon="116.48643441499075">
        <ele>31.8</ele>
        <time>2023-05-24T11:16:24Z</time>
      </trkpt>
      <trkpt lat="39.924231981212564" lon="116.48629793322797">
        <ele>33.5</ele>
        <time>2023-05-24T11:16:36Z</time>
      </trkpt>
      <trkpt lat="39.924120113577935" lon="116.48634111014495">
        <ele>34.2</ele>
        <time>2023-05-24T11:16:42Z</time>
      </trkpt>
      <trkpt lat="39.92405727959548" lon="116.48639632644469">
        <ele>34.400000000000006</ele>
        <time>2023-05-24T11:16:45Z</time>
      </trkpt>
      <trkpt lat="39.92390539877899" lon="116.48643448942339">
        <ele>36.800000000000004</ele>
        <time>2023-05-24T11:16:51Z</time>
      </trkpt>
      <trkpt lat="39.92381955388978" lon="116.48648569346003">
        <ele>35.7</ele>
        <time>2023-05-24T11:16:54Z</time>
      </trkpt>
      <trkpt lat="39.92376971942305" lon="116.48654090818857">
        <ele>35.1</ele>
        <time>2023-05-24T11:16:57Z</time>
      </trkpt>
      <trkpt lat="39.923738964458" lon="116.48662322293569">
        <ele>31.599999999999998</ele>
        <time>2023-05-24T11:17:03Z</time>
      </trkpt>
      <trkpt lat="39.92352886827395" lon="116.48692539075776">
        <ele>21.8</ele>
        <time>2023-05-24T11:17:21Z</time>
      </trkpt>
      <trkpt lat="39.923330611411465" lon="116.48717335268935">
        <ele>22.7</ele>
        <time>2023-05-24T11:17:33Z</time>
      </trkpt>
      <trkpt lat="39.92324491855451" lon="116.4872757505006">
        <ele>24.9</ele>
        <time>2023-05-24T11:17:39Z</time>
      </trkpt>
      <trkpt lat="39.92306911038705" lon="116.4873380077543">
        <ele>26.3</ele>
        <time>2023-05-24T11:17:48Z</time>
      </trkpt>
      <trkpt lat="39.92290746542967" lon="116.48745547206978">
        <ele>27.900000000000002</ele>
        <time>2023-05-24T11:17:57Z</time>
      </trkpt>
      <trkpt lat="39.92276006123065" lon="116.48765424227632">
        <ele>33.0</ele>
        <time>2023-05-24T11:18:06Z</time>
      </trkpt>
      <trkpt lat="39.92273017989833" lon="116.48803067047864">
        <ele>36.800000000000004</ele>
        <time>2023-05-24T11:18:21Z</time>
      </trkpt>
      <trkpt lat="39.922712708292885" lon="116.48820834524426">
        <ele>34.2</ele>
        <time>2023-05-24T11:18:27Z</time>
      </trkpt>
      <trkpt lat="39.92273776901404" lon="116.48856569532582">
        <ele>27.8</ele>
        <time>2023-05-24T11:18:42Z</time>
      </trkpt>
      <trkpt lat="39.92273002591301" lon="116.48865202326877">
        <ele>29.599999999999998</ele>
        <time>2023-05-24T11:18:45Z</time>
      </trkpt>
      <trkpt lat="39.92278233109178" lon="116.4887554084075">
        <ele>29.599999999999998</ele>
        <time>2023-05-24T11:18:51Z</time>
      </trkpt>
      <trkpt lat="39.92289269062514" lon="116.48887785861761">
        <ele>29.3</ele>
        <time>2023-05-24T11:19:00Z</time>
      </trkpt>
      <trkpt lat="39.92303780700343" lon="116.48891899647684">
        <ele>30.499999999999996</ele>
        <time>2023-05-24T11:19:06Z</time>
      </trkpt>
      <trkpt lat="39.92332062221332" lon="116.48886074066739">
        <ele>29.499999999999996</ele>
        <time>2023-05-24T11:19:24Z</time>
      </trkpt>
      <trkpt lat="39.92339761306663" lon="116.48885872347215">
        <ele>30.499999999999996</ele>
        <time>2023-05-24T11:19:27Z</time>
      </trkpt>
      <trkpt lat="39.923580704005545" lon="116.48889182617332">
        <ele>33.6</ele>
        <time>2023-05-24T11:19:33Z</time>
      </trkpt>
      <trkpt lat="39.92376564265524" lon="116.48887373468177">
        <ele>32.800000000000004</ele>
        <time>2023-05-24T11:19:46Z</time>
      </trkpt>
      <trkpt lat="39.923845690094666" lon="116.48889078936664">
        <ele>30.8</ele>
        <time>2023-05-24T11:19:52Z</time>
      </trkpt>
      <trkpt lat="39.92390962776641" lon="116.48887070533895">
        <ele>30.599999999999998</ele>
        <time>2023-05-24T11:19:55Z</time>
      </trkpt>
      <trkpt lat="39.92404773549405" lon="116.4889088326614">
        <ele>28.900000000000002</ele>
        <time>2023-05-24T11:20:04Z</time>
      </trkpt>
      <trkpt lat="39.924432689795665" lon="116.48889874668211">
        <ele>26.2</ele>
        <time>2023-05-24T11:20:16Z</time>
      </trkpt>
      <trkpt lat="39.924574573525426" lon="116.48886158828998">
        <ele>27.2</ele>
        <time>2023-05-24T11:20:22Z</time>
      </trkpt>
      <trkpt lat="39.92472059438054" lon="116.48887060433127">
        <ele>29.900000000000002</ele>
        <time>2023-05-24T11:20:28Z</time>
      </trkpt>
      <trkpt lat="39.92480754603642" lon="116.48885553645306">
        <ele>31.3</ele>
        <time>2023-05-24T11:20:31Z</time>
      </trkpt>
      <trkpt lat="39.924875582038766" lon="116.48886857742033">
        <ele>33.6</ele>
        <time>2023-05-24T11:20:37Z</time>
      </trkpt>
      <trkpt lat="39.924922541309016" lon="116.4888555221297">
        <ele>34.0</ele>
        <time>2023-05-24T11:20:40Z</time>
      </trkpt>
      <trkpt lat="39.924982604501416" lon="116.4888775983193">
        <ele>33.2</ele>
        <time>2023-05-24T11:20:43Z</time>
      </trkpt>
      <trkpt lat="39.92512953280319" lon="116.48885549634748">
        <ele>32.2</ele>
        <time>2023-05-24T11:20:49Z</time>
      </trkpt>
      <trkpt lat="39.92533356322286" lon="116.48886852037575">
        <ele>34.5</ele>
        <time>2023-05-24T11:20:55Z</time>
      </trkpt>
      <trkpt lat="39.92545552836987" lon="116.48885846715164">
        <ele>35.6</ele>
        <time>2023-05-24T11:21:01Z</time>
      </trkpt>
      <trkpt lat="39.92559530178799" lon="116.48878416831363">
        <ele>35.400000000000006</ele>
        <time>2023-05-24T11:21:07Z</time>
      </trkpt>
      <trkpt lat="39.92572230254602" lon="116.48878616009978">
        <ele>32.6</ele>
        <time>2023-05-24T11:21:13Z</time>
      </trkpt>
      <trkpt lat="39.92599210348339" lon="116.48872288691305">
        <ele>36.6</ele>
        <time>2023-05-24T11:21:25Z</time>
      </trkpt>
      <trkpt lat="39.92624713779214" lon="116.48873791218479">
        <ele>35.6</ele>
        <time>2023-05-24T11:21:37Z</time>
      </trkpt>
      <trkpt lat="39.92630504888458" lon="116.48870879469152">
        <ele>36.900000000000006</ele>
        <time>2023-05-24T11:21:40Z</time>
      </trkpt>
      <trkpt lat="39.92635460230121" lon="116.48855922196459">
        <ele>37.1</ele>
        <time>2023-05-24T11:21:46Z</time>
      </trkpt>
      <trkpt lat="39.926348838975365" lon="116.48830224949278">
        <ele>35.0</ele>
        <time>2023-05-24T11:21:55Z</time>
      </trkpt>
      <trkpt lat="39.926360605906495" lon="116.48822395156498">
        <ele>35.2</ele>
        <time>2023-05-24T11:21:58Z</time>
      </trkpt>
      <trkpt lat="39.92639244657925" lon="116.48817074617138">
        <ele>34.6</ele>
        <time>2023-05-24T11:22:01Z</time>
      </trkpt>
      <trkpt lat="39.92668930921024" lon="116.48812854956927">
        <ele>31.8</ele>
        <time>2023-05-24T11:22:13Z</time>
      </trkpt>
      <trkpt lat="39.92689928273248" lon="116.48812250060419">
        <ele>31.2</ele>
        <time>2023-05-24T11:22:25Z</time>
      </trkpt>
      <trkpt lat="39.92703909517018" lon="116.48806125137973">
        <ele>30.900000000000002</ele>
        <time>2023-05-24T11:22:31Z</time>
      </trkpt>
      <trkpt lat="39.92719475199553" lon="116.48794780262338">
        <ele>31.2</ele>
        <time>2023-05-24T11:22:37Z</time>
      </trkpt>
      <trkpt lat="39.92743698823168" lon="116.48769381134895">
        <ele>31.2</ele>
        <time>2023-05-24T11:22:52Z</time>
      </trkpt>
      <trkpt lat="39.927633447042" lon="116.48751410707912">
        <ele>29.999999999999996</ele>
        <time>2023-05-24T11:23:01Z</time>
      </trkpt>
      <trkpt lat="39.927724957946474" lon="116.48735047679777">
        <ele>27.400000000000002</ele>
        <time>2023-05-24T11:23:07Z</time>
      </trkpt>
      <trkpt lat="39.92775271567663" lon="116.48726916585217">
        <ele>27.499999999999996</ele>
        <time>2023-05-24T11:23:10Z</time>
      </trkpt>
      <trkpt lat="39.92774011202215" lon="116.48706539697298">
        <ele>29.499999999999996</ele>
        <time>2023-05-24T11:23:16Z</time>
      </trkpt>
      <trkpt lat="39.927669308731566" lon="116.48679337764113">
        <ele>31.7</ele>
        <time>2023-05-24T11:23:25Z</time>
      </trkpt>
      <trkpt lat="39.92763006053573" lon="116.48670906393302">
        <ele>33.1</ele>
        <time>2023-05-24T11:23:28Z</time>
      </trkpt>
      <trkpt lat="39.92764187273272" lon="116.48664582353737">
        <ele>35.1</ele>
        <time>2023-05-24T11:23:31Z</time>
      </trkpt>
      <trkpt lat="39.92772058412483" lon="116.48654944969711">
        <ele>35.2</ele>
        <time>2023-05-24T11:23:37Z</time>
      </trkpt>
      <trkpt lat="39.92774190567129" lon="116.48632058271248">
        <ele>31.400000000000002</ele>
        <time>2023-05-24T11:23:46Z</time>
      </trkpt>
      <trkpt lat="39.92783018621015" lon="116.48607865846593">
        <ele>27.2</ele>
        <time>2023-05-24T11:23:55Z</time>
      </trkpt>
      <trkpt lat="39.92790382987122" lon="116.48595919849124">
        <ele>26.499999999999996</ele>
        <time>2023-05-24T11:24:01Z</time>
      </trkpt>
      <trkpt lat="39.927924606382376" lon="116.48588391183907">
        <ele>26.8</ele>
        <time>2023-05-24T11:24:04Z</time>
      </trkpt>
      <trkpt lat="39.92791970453378" lon="116.48557876146775">
        <ele>26.8</ele>
        <time>2023-05-24T11:24:13Z</time>
      </trkpt>
      <trkpt lat="39.92783754270775" lon="116.48518428478367">
        <ele>31.499999999999996</ele>
        <time>2023-05-24T11:24:28Z</time>
      </trkpt>
      <trkpt lat="39.9277857627342" lon="116.4849192930597">
        <ele>33.5</ele>
        <time>2023-05-24T11:24:37Z</time>
      </trkpt>
      <trkpt lat="39.927785442952576" lon="116.48481088491226">
        <ele>34.5</ele>
        <time>2023-05-24T11:24:40Z</time>
      </trkpt>
      <trkpt lat="39.927840147652844" lon="116.48471150399746">
        <ele>35.300000000000004</ele>
        <time>2023-05-24T11:24:43Z</time>
      </trkpt>
      <trkpt lat="39.927991937245515" lon="116.48464222437399">
        <ele>34.0</ele>
        <time>2023-05-24T11:24:52Z</time>
      </trkpt>
      <trkpt lat="39.92819382248024" lon="116.48460606318667">
        <ele>28.400000000000002</ele>
        <time>2023-05-24T11:25:01Z</time>
      </trkpt>
      <trkpt lat="39.92832031439172" lon="116.48443540536249">
        <ele>28.2</ele>
        <time>2023-05-24T11:25:10Z</time>
      </trkpt>
      <trkpt lat="39.92841233206193" lon="116.48410314450697">
        <ele>33.5</ele>
        <time>2023-05-24T11:25:28Z</time>
      </trkpt>
      <trkpt lat="39.92849013091878" lon="116.48403588201909">
        <ele>34.6</ele>
        <time>2023-05-24T11:25:34Z</time>
      </trkpt>
      <trkpt lat="39.92850042459937" lon="116.4837959793713">
        <ele>35.900000000000006</ele>
        <time>2023-05-24T11:25:40Z</time>
      </trkpt>
      <trkpt lat="39.928473988790515" lon="116.48364742477006">
        <ele>36.2</ele>
        <time>2023-05-24T11:25:43Z</time>
      </trkpt>
      <trkpt lat="39.92851746182353" lon="116.48346874862543">
        <ele>37.1</ele>
        <time>2023-05-24T11:25:46Z</time>
      </trkpt>
      <trkpt lat="39.92863194108445" lon="116.48329307521385">
        <ele>39.2</ele>
        <time>2023-05-24T11:25:52Z</time>
      </trkpt>
      <trkpt lat="39.928764584905494" lon="116.48317361062031">
        <ele>36.6</ele>
        <time>2023-05-24T11:25:58Z</time>
      </trkpt>
      <trkpt lat="39.928837499419394" lon="116.48314549611608">
        <ele>34.900000000000006</ele>
        <time>2023-05-24T11:26:01Z</time>
      </trkpt>
      <trkpt lat="39.929082504182794" lon="116.48315048433925">
        <ele>30.499999999999996</ele>
        <time>2023-05-24T11:26:10Z</time>
      </trkpt>
      <trkpt lat="39.929300371555485" lon="116.4831082990444">
        <ele>27.7</ele>
        <time>2023-05-24T11:26:19Z</time>
      </trkpt>
      <trkpt lat="39.92946744432361" lon="116.48313537980385">
        <ele>28.7</ele>
        <time>2023-05-24T11:26:25Z</time>
      </trkpt>
      <trkpt lat="39.929537373706076" lon="116.48311228450041">
        <ele>29.2</ele>
        <time>2023-05-24T11:26:28Z</time>
      </trkpt>
      <trkpt lat="39.92954912279733" lon="116.4830269631461">
        <ele>30.7</ele>
        <time>2023-05-24T11:26:31Z</time>
      </trkpt>
      <trkpt lat="39.92951068847095" lon="116.48287841114103">
        <ele>33.1</ele>
        <time>2023-05-24T11:26:37Z</time>
      </trkpt>
      <trkpt lat="39.929510397020586" lon="116.4827790388447">
        <ele>34.5</ele>
        <time>2023-05-24T11:26:40Z</time>
      </trkpt>
      <trkpt lat="39.92947892449977" lon="116.48261743748203">
        <ele>34.800000000000004</ele>
        <time>2023-05-24T11:26:46Z</time>
      </trkpt>
      <trkpt lat="39.92939965414722" lon="116.48252409786659">
        <ele>31.900000000000002</ele>
        <time>2023-05-24T11:26:52Z</time>
      </trkpt>
      <trkpt lat="39.92923692575448" lon="116.48227317909041">
        <ele>23.2</ele>
        <time>2023-05-24T11:27:04Z</time>
      </trkpt>
      <trkpt lat="39.92913701337428" lon="116.48196002052701">
        <ele>25.8</ele>
        <time>2023-05-24T11:27:16Z</time>
      </trkpt>
      <trkpt lat="39.92905965842927" lon="116.4818375725787">
        <ele>24.4</ele>
        <time>2023-05-24T11:27:22Z</time>
      </trkpt>
      <trkpt lat="39.928995487918044" lon="116.4817783593527">
        <ele>24.8</ele>
        <time>2023-05-24T11:27:25Z</time>
      </trkpt>
      <trkpt lat="39.928942446068035" lon="116.48176330973847">
        <ele>25.7</ele>
        <time>2023-05-24T11:27:28Z</time>
      </trkpt>
      <trkpt lat="39.92865688026925" lon="116.48190788545085">
        <ele>27.400000000000002</ele>
        <time>2023-05-24T11:27:43Z</time>
      </trkpt>
      <trkpt lat="39.928505188833554" lon="116.48201129081755">
        <ele>29.2</ele>
        <time>2023-05-24T11:27:52Z</time>
      </trkpt>
      <trkpt lat="39.92826523091155" lon="116.48202236207278">
        <ele>30.2</ele>
        <time>2023-05-24T11:28:07Z</time>
      </trkpt>
      <trkpt lat="39.92800875538957" lon="116.48219805093096">
        <ele>31.8</ele>
        <time>2023-05-24T11:28:22Z</time>
      </trkpt>
      <trkpt lat="39.92791536759607" lon="116.48240583994634">
        <ele>32.300000000000004</ele>
        <time>2023-05-24T11:28:31Z</time>
      </trkpt>
      <trkpt lat="39.92786680775939" lon="116.48255540583769">
        <ele>31.999999999999996</ele>
        <time>2023-05-24T11:28:37Z</time>
      </trkpt>
      <trkpt lat="39.927849117393244" lon="116.48266080269624">
        <ele>31.8</ele>
        <time>2023-05-24T11:28:40Z</time>
      </trkpt>
      <trkpt lat="39.92780431639049" lon="116.48272806017583">
        <ele>32.300000000000004</ele>
        <time>2023-05-24T11:28:43Z</time>
      </trkpt>
      <trkpt lat="39.92758044620434" lon="116.48276924229766">
        <ele>30.2</ele>
        <time>2023-05-24T11:28:55Z</time>
      </trkpt>
      <trkpt lat="39.9274524190539" lon="116.4827582169262">
        <ele>28.999999999999996</ele>
        <time>2023-05-24T11:29:01Z</time>
      </trkpt>
      <trkpt lat="39.92726560036265" lon="116.48281746212258">
        <ele>26.900000000000002</ele>
        <time>2023-05-24T11:29:10Z</time>
      </trkpt>
      <trkpt lat="39.92722394951581" lon="116.48293591115805">
        <ele>26.400000000000002</ele>
        <time>2023-05-24T11:29:16Z</time>
      </trkpt>
      <trkpt lat="39.92723287434012" lon="116.48325109177715">
        <ele>24.3</ele>
        <time>2023-05-24T11:29:28Z</time>
      </trkpt>
      <trkpt lat="39.927210349981436" lon="116.4834127008885">
        <ele>25.099999999999998</ele>
        <time>2023-05-24T11:29:34Z</time>
      </trkpt>
      <trkpt lat="39.9272750139021" lon="116.48356660000525">
        <ele>25.5</ele>
        <time>2023-05-24T11:29:43Z</time>
      </trkpt>
      <trkpt lat="39.92739206539211" lon="116.48365860130916">
        <ele>25.8</ele>
        <time>2023-05-24T11:29:49Z</time>
      </trkpt>
      <trkpt lat="39.92716914936771" lon="116.48402400165084">
        <ele>25.9</ele>
        <time>2023-05-24T11:29:55Z</time>
      </trkpt>
      <trkpt lat="39.927144809408226" lon="116.4842478461337">
        <ele>26.599999999999998</ele>
        <time>2023-05-24T11:29:58Z</time>
      </trkpt>
      <trkpt lat="39.927057212157855" lon="116.48438336667417">
        <ele>26.499999999999996</ele>
        <time>2023-05-24T11:30:01Z</time>
      </trkpt>
      <trkpt lat="39.926987354017925" lon="116.48443055284864">
        <ele>26.3</ele>
        <time>2023-05-24T11:30:04Z</time>
      </trkpt>
      <trkpt lat="39.926900404897864" lon="116.48444662411504">
        <ele>26.599999999999998</ele>
        <time>2023-05-24T11:30:07Z</time>
      </trkpt>
      <trkpt lat="39.92656438019389" lon="116.4844336169652">
        <ele>24.9</ele>
        <time>2023-05-24T11:30:19Z</time>
      </trkpt>
      <trkpt lat="39.926239405330854" lon="116.48443767262626">
        <ele>27.3</ele>
        <time>2023-05-24T11:30:31Z</time>
      </trkpt>
      <trkpt lat="39.926187499151936" lon="116.48446879616029">
        <ele>28.2</ele>
        <time>2023-05-24T11:30:34Z</time>
      </trkpt>
      <trkpt lat="39.92586543840265" lon="116.48444374195266">
        <ele>29.900000000000002</ele>
        <time>2023-05-24T11:30:49Z</time>
      </trkpt>
      <trkpt lat="39.92559732221956" lon="116.48440061305774">
        <ele>31.2</ele>
        <time>2023-05-24T11:31:01Z</time>
      </trkpt>
      <trkpt lat="39.92546932747149" lon="116.4844006290314">
        <ele>33.6</ele>
        <time>2023-05-24T11:31:07Z</time>
      </trkpt>
      <trkpt lat="39.925175404604815" lon="116.48442274877547">
        <ele>30.599999999999998</ele>
        <time>2023-05-24T11:31:19Z</time>
      </trkpt>
      <trkpt lat="39.92498046585196" lon="116.48444084106654">
        <ele>28.599999999999998</ele>
        <time>2023-05-24T11:31:28Z</time>
      </trkpt>
      <trkpt lat="39.92488964706638" lon="116.48450107896512">
        <ele>27.8</ele>
        <time>2023-05-24T11:31:34Z</time>
      </trkpt>
      <trkpt lat="39.924729440827925" lon="116.4847681037587">
        <ele>27.7</ele>
        <time>2023-05-24T11:31:49Z</time>
      </trkpt>
      <trkpt lat="39.924592370455365" lon="116.4850813001636">
        <ele>29.099999999999998</ele>
        <time>2023-05-24T11:32:04Z</time>
      </trkpt>
      <trkpt lat="39.92459174383594" lon="116.48520777671794">
        <ele>29.2</ele>
        <time>2023-05-24T11:32:10Z</time>
      </trkpt>
      <trkpt lat="39.92475955812598" lon="116.48548580370662">
        <ele>31.499999999999996</ele>
        <time>2023-05-24T11:32:22Z</time>
      </trkpt>
      <trkpt lat="39.92481973359915" lon="116.48554602326399">
        <ele>31.8</ele>
        <time>2023-05-24T11:32:25Z</time>
      </trkpt>
      <trkpt lat="39.92485193991195" lon="116.48561628418796">
        <ele>31.8</ele>
        <time>2023-05-24T11:32:28Z</time>
      </trkpt>
      <trkpt lat="39.924889039251426" lon="116.48565040825929">
        <ele>31.3</ele>
        <time>2023-05-24T11:32:31Z</time>
      </trkpt>
      <trkpt lat="39.92499569661623" lon="116.48587423927654">
        <ele>31.400000000000002</ele>
        <time>2023-05-24T11:32:40Z</time>
      </trkpt>
      <trkpt lat="39.9250291672748" lon="116.48603383732149">
        <ele>31.499999999999996</ele>
        <time>2023-05-24T11:32:46Z</time>
      </trkpt>
      <trkpt lat="39.92504571008529" lon="116.48621752859387">
        <ele>33.0</ele>
        <time>2023-05-24T11:32:52Z</time>
      </trkpt>
      <trkpt lat="39.92501397875871" lon="116.4863078736177">
        <ele>32.800000000000004</ele>
        <time>2023-05-24T11:32:58Z</time>
      </trkpt>
      <trkpt lat="39.92483518815366" lon="116.48637615364154">
        <ele>31.7</ele>
        <time>2023-05-24T11:33:07Z</time>
      </trkpt>
      <trkpt lat="39.9247124131092" lon="116.48645044945462">
        <ele>30.2</ele>
        <time>2023-05-24T11:33:13Z</time>
      </trkpt>
      <trkpt lat="39.9245794274946" lon="116.48645347740839">
        <ele>31.7</ele>
        <time>2023-05-24T11:33:19Z</time>
      </trkpt>
      <trkpt lat="39.92437428140132" lon="116.48640130587175">
        <ele>33.7</ele>
        <time>2023-05-24T11:33:28Z</time>
      </trkpt>
      <trkpt lat="39.92422510925433" lon="116.48634109705327">
        <ele>33.1</ele>
        <time>2023-05-24T11:33:37Z</time>
      </trkpt>
      <trkpt lat="39.92407817473197" lon="116.48636119117744">
        <ele>32.1</ele>
        <time>2023-05-24T11:33:43Z</time>
      </trkpt>
      <trkpt lat="39.92381462245474" lon="116.48650878126988">
        <ele>34.800000000000004</ele>
        <time>2023-05-24T11:33:55Z</time>
      </trkpt>
      <trkpt lat="39.923610302779586" lon="116.48673566370422">
        <ele>33.6</ele>
        <time>2023-05-24T11:34:07Z</time>
      </trkpt>
      <trkpt lat="39.92341522105648" lon="116.48704284882622">
        <ele>32.5</ele>
        <time>2023-05-24T11:34:19Z</time>
      </trkpt>
      <trkpt lat="39.923241909748306" lon="116.48727273948857">
        <ele>37.2</ele>
        <time>2023-05-24T11:34:31Z</time>
      </trkpt>
      <trkpt lat="39.92294917190846" lon="116.48735709482713">
        <ele>34.6</ele>
        <time>2023-05-24T11:34:46Z</time>
      </trkpt>
      <trkpt lat="39.9228802104854" lon="116.48736914897523">
        <ele>34.400000000000006</ele>
        <time>2023-05-24T11:34:49Z</time>
      </trkpt>
      <trkpt lat="39.92282231411036" lon="116.48740328526357">
        <ele>33.7</ele>
        <time>2023-05-24T11:34:52Z</time>
      </trkpt>
      <trkpt lat="39.922836900182865" lon="116.48760103143185">
        <ele>31.099999999999998</ele>
        <time>2023-05-24T11:35:01Z</time>
      </trkpt>
      <trkpt lat="39.92281404230236" lon="116.48798548905633">
        <ele>33.0</ele>
        <time>2023-05-24T11:35:13Z</time>
      </trkpt>
      <trkpt lat="39.92274925548185" lon="116.48839304003103">
        <ele>27.2</ele>
        <time>2023-05-24T11:35:28Z</time>
      </trkpt>
      <trkpt lat="39.922727420428814" lon="116.48844825182164">
        <ele>25.8</ele>
        <time>2023-05-24T11:35:31Z</time>
      </trkpt>
      <trkpt lat="39.92272266820932" lon="116.48853156794468">
        <ele>26.999999999999996</ele>
        <time>2023-05-24T11:35:34Z</time>
      </trkpt>
      <trkpt lat="39.92283243346769" lon="116.48879053526316">
        <ele>31.099999999999998</ele>
        <time>2023-05-24T11:35:46Z</time>
      </trkpt>
      <trkpt lat="39.92294472727565" lon="116.48889090157806">
        <ele>34.6</ele>
        <time>2023-05-24T11:35:52Z</time>
      </trkpt>
      <trkpt lat="39.92299672512735" lon="116.48889089510205">
        <ele>35.1</ele>
        <time>2023-05-24T11:35:55Z</time>
      </trkpt>
      <trkpt lat="39.923044797760234" lon="116.48891598419628">
        <ele>35.400000000000006</ele>
        <time>2023-05-24T11:35:58Z</time>
      </trkpt>
      <trkpt lat="39.923238736025596" lon="116.48889789158353">
        <ele>34.5</ele>
        <time>2023-05-24T11:36:07Z</time>
      </trkpt>
    </trkseg>
  </trk>
</gpx>