<?xml version="1.0" encoding="UTF-8"?>
<gpx xmlns="http://www.topografix.com/GPX/1/1" xmlns:gpxtpx="http://www.garmin.com/xmlschemas/TrackPointExtension/v1" xmlns:xsi="http://www.w3.org/2001/XMLSchema-instance" xsi:schemaLocation="http://www.topografix.com/GPX/1/1 http://www.topografix.com/GPX/1/1/gpx.xsd" version="1.1" creator="gpx.py -- https://github.com/tkrajina/gpxpy">
  <trk>
    <name>gpx from keep</name>
    <type>Walk</type>
    <trkseg>
      <trkpt lat="39.900342835822975" lon="116.66974430388854">
        <ele>15.3</ele>
        <time>2023-02-22T23:46:56Z</time>
      </trkpt>
      <trkpt lat="39.90006863953624" lon="116.66985302773621">
        <ele>15.8</ele>
        <time>2023-02-22T23:47:02Z</time>
      </trkpt>
      <trkpt lat="39.899970703269794" lon="116.669822127973">
        <ele>16.6</ele>
        <time>2023-02-22T23:47:20Z</time>
      </trkpt>
      <trkpt lat="39.8999328121539" lon="116.66976629190157">
        <ele>16.7</ele>
        <time>2023-02-22T23:47:26Z</time>
      </trkpt>
      <trkpt lat="39.89992092370548" lon="116.66970845831831">
        <ele>16.5</ele>
        <time>2023-02-22T23:47:32Z</time>
      </trkpt>
      <trkpt lat="39.89973094565968" lon="116.66970150166117">
        <ele>14.600000000000001</ele>
        <time>2023-02-22T23:47:47Z</time>
      </trkpt>
      <trkpt lat="39.89958505368997" lon="116.66964867039503">
        <ele>8.4</ele>
        <time>2023-02-22T23:47:59Z</time>
      </trkpt>
      <trkpt lat="39.8994863414942" lon="116.66950110353338">
        <ele>9.4</ele>
        <time>2023-02-22T23:48:08Z</time>
      </trkpt>
      <trkpt lat="39.899461491974655" lon="116.66942332847661">
        <ele>10.3</ele>
        <time>2023-02-22T23:48:14Z</time>
      </trkpt>
      <trkpt lat="39.89952309637708" lon="116.66910722274456">
        <ele>1.7000000000000002</ele>
        <time>2023-02-22T23:48:41Z</time>
      </trkpt>
      <trkpt lat="39.89952324197864" lon="116.66903143897541">
        <ele>-0.9000000000000004</ele>
        <time>2023-02-22T23:48:47Z</time>
      </trkpt>
      <trkpt lat="39.89946450330781" lon="116.66889683036976">
        <ele>2.5999999999999996</ele>
        <time>2023-02-22T23:48:56Z</time>
      </trkpt>
      <trkpt lat="39.89947968085003" lon="116.66880409315243">
        <ele>2.5</ele>
        <time>2023-02-22T23:49:02Z</time>
      </trkpt>
      <trkpt lat="39.89941078361977" lon="116.66875224963277">
        <ele>4.699999999999999</ele>
        <time>2023-02-22T23:49:08Z</time>
      </trkpt>
      <trkpt lat="39.89936279536803" lon="116.66874726977971">
        <ele>5.9</ele>
        <time>2023-02-22T23:49:11Z</time>
      </trkpt>
      <trkpt lat="39.899310726803165" lon="116.66878417090318">
        <ele>6.300000000000001</ele>
        <time>2023-02-22T23:49:17Z</time>
      </trkpt>
      <trkpt lat="39.89939149510325" lon="116.66890282229895">
        <ele>5.6</ele>
        <time>2023-02-22T23:49:29Z</time>
      </trkpt>
      <trkpt lat="39.89948597927585" lon="116.66916905091648">
        <ele>9.5</ele>
        <time>2023-02-22T23:49:47Z</time>
      </trkpt>
      <trkpt lat="39.899480232632904" lon="116.66955794215359">
        <ele>6.4</ele>
        <time>2023-02-22T23:50:11Z</time>
      </trkpt>
      <trkpt lat="39.89948843030432" lon="116.66997574956079">
        <ele>7.9</ele>
        <time>2023-02-22T23:50:38Z</time>
      </trkpt>
      <trkpt lat="39.89950889950934" lon="116.67025195954014">
        <ele>14.399999999999999</ele>
        <time>2023-02-22T23:50:53Z</time>
      </trkpt>
      <trkpt lat="39.89949373956026" lon="116.67033572264765">
        <ele>14.899999999999999</ele>
        <time>2023-02-22T23:50:59Z</time>
      </trkpt>
      <trkpt lat="39.89958800130585" lon="116.67071861981452">
        <ele>9.0</ele>
        <time>2023-02-22T23:51:23Z</time>
      </trkpt>
      <trkpt lat="39.89965528200451" lon="116.67109254637612">
        <ele>9.8</ele>
        <time>2023-02-22T23:51:44Z</time>
      </trkpt>
      <trkpt lat="39.899665155553784" lon="116.67115835774804">
        <ele>10.5</ele>
        <time>2023-02-22T23:51:47Z</time>
      </trkpt>
      <trkpt lat="39.899659869481724" lon="116.6713079325335">
        <ele>8.1</ele>
        <time>2023-02-22T23:51:59Z</time>
      </trkpt>
      <trkpt lat="39.89967973309924" lon="116.6713787285365">
        <ele>5.800000000000001</ele>
        <time>2023-02-22T23:52:05Z</time>
      </trkpt>
      <trkpt lat="39.89970037923993" lon="116.67156320093342">
        <ele>6.0</ele>
        <time>2023-02-22T23:52:17Z</time>
      </trkpt>
      <trkpt lat="39.89975098223998" lon="116.6717696073688">
        <ele>5.1</ele>
        <time>2023-02-22T23:52:29Z</time>
      </trkpt>
      <trkpt lat="39.89976619080304" lon="116.67218342861055">
        <ele>8.7</ele>
        <time>2023-02-22T23:52:53Z</time>
      </trkpt>
      <trkpt lat="39.89977300388504" lon="116.67228114997707">
        <ele>8.1</ele>
        <time>2023-02-22T23:52:59Z</time>
      </trkpt>
      <trkpt lat="39.89981062720885" lon="116.67247758705997">
        <ele>7.300000000000001</ele>
        <time>2023-02-22T23:53:11Z</time>
      </trkpt>
      <trkpt lat="39.89979137692962" lon="116.67260921547981">
        <ele>10.0</ele>
        <time>2023-02-22T23:53:17Z</time>
      </trkpt>
      <trkpt lat="39.89986569670682" lon="116.6729641982247">
        <ele>9.4</ele>
        <time>2023-02-22T23:53:38Z</time>
      </trkpt>
      <trkpt lat="39.899911153278566" lon="116.67324838610335">
        <ele>5.5</ele>
        <time>2023-02-22T23:53:56Z</time>
      </trkpt>
      <trkpt lat="39.899909948297704" lon="116.67335608075469">
        <ele>7.199999999999999</ele>
        <time>2023-02-22T23:54:02Z</time>
      </trkpt>
      <trkpt lat="39.899973160118414" lon="116.6737689025459">
        <ele>7.4</ele>
        <time>2023-02-22T23:54:26Z</time>
      </trkpt>
      <trkpt lat="39.89996781354886" lon="116.67395138620822">
        <ele>10.0</ele>
        <time>2023-02-22T23:54:38Z</time>
      </trkpt>
      <trkpt lat="39.90003013667886" lon="116.67430637341398">
        <ele>6.199999999999999</ele>
        <time>2023-02-22T23:54:59Z</time>
      </trkpt>
      <trkpt lat="39.90005983833256" lon="116.67446292676838">
        <ele>7.199999999999999</ele>
        <time>2023-02-22T23:55:08Z</time>
      </trkpt>
      <trkpt lat="39.90009005079057" lon="116.67487775016254">
        <ele>9.3</ele>
        <time>2023-02-22T23:55:32Z</time>
      </trkpt>
      <trkpt lat="39.90006259711584" lon="116.67511807467972">
        <ele>12.2</ele>
        <time>2023-02-22T23:55:53Z</time>
      </trkpt>
      <trkpt lat="39.900116034668805" lon="116.67541423208446">
        <ele>14.600000000000001</ele>
        <time>2023-02-22T23:56:11Z</time>
      </trkpt>
      <trkpt lat="39.90019630981024" lon="116.67579614516825">
        <ele>14.600000000000001</ele>
        <time>2023-02-22T23:56:35Z</time>
      </trkpt>
      <trkpt lat="39.90023587732257" lon="116.6760244969263">
        <ele>9.7</ele>
        <time>2023-02-22T23:56:50Z</time>
      </trkpt>
      <trkpt lat="39.90022957691706" lon="116.67618404847536">
        <ele>10.5</ele>
        <time>2023-02-22T23:56:59Z</time>
      </trkpt>
      <trkpt lat="39.90027787831245" lon="116.6765540017397">
        <ele>12.100000000000001</ele>
        <time>2023-02-22T23:57:20Z</time>
      </trkpt>
      <trkpt lat="39.90033843878504" lon="116.67678634126973">
        <ele>11.399999999999999</ele>
        <time>2023-02-22T23:57:35Z</time>
      </trkpt>
      <trkpt lat="39.90033825708107" lon="116.67688306960201">
        <ele>12.0</ele>
        <time>2023-02-22T23:57:41Z</time>
      </trkpt>
      <trkpt lat="39.90037153328156" lon="116.67726798523505">
        <ele>8.9</ele>
        <time>2023-02-22T23:58:02Z</time>
      </trkpt>
      <trkpt lat="39.90036434295322" lon="116.6773697009162">
        <ele>9.6</ele>
        <time>2023-02-22T23:58:08Z</time>
      </trkpt>
      <trkpt lat="39.90043579446893" lon="116.67766087618558">
        <ele>8.9</ele>
        <time>2023-02-22T23:58:26Z</time>
      </trkpt>
      <trkpt lat="39.900483221751344" lon="116.67796601625935">
        <ele>9.3</ele>
        <time>2023-02-22T23:58:44Z</time>
      </trkpt>
      <trkpt lat="39.90049163677409" lon="116.67827913987232">
        <ele>11.0</ele>
        <time>2023-02-22T23:59:02Z</time>
      </trkpt>
      <trkpt lat="39.9005064519863" lon="116.6783778622781">
        <ele>12.399999999999999</ele>
        <time>2023-02-22T23:59:08Z</time>
      </trkpt>
      <trkpt lat="39.900499180950675" lon="116.6785234566984">
        <ele>12.3</ele>
        <time>2023-02-22T23:59:14Z</time>
      </trkpt>
      <trkpt lat="39.900513002012914" lon="116.67861918784469">
        <ele>13.0</ele>
        <time>2023-02-22T23:59:20Z</time>
      </trkpt>
      <trkpt lat="39.90057872433367" lon="116.67876676807082">
        <ele>12.2</ele>
        <time>2023-02-22T23:59:32Z</time>
      </trkpt>
      <trkpt lat="39.90062004772265" lon="116.67912975161754">
        <ele>11.3</ele>
        <time>2023-02-22T23:59:50Z</time>
      </trkpt>
      <trkpt lat="39.90063876551313" lon="116.67928132744484">
        <ele>8.2</ele>
        <time>2023-02-22T23:59:59Z</time>
      </trkpt>
      <trkpt lat="39.90067644756569" lon="116.67945184852388">
        <ele>7.199999999999999</ele>
        <time>2023-02-23T00:00:11Z</time>
      </trkpt>
      <trkpt lat="39.90067663336272" lon="116.67989162706792">
        <ele>4.699999999999999</ele>
        <time>2023-02-23T00:00:32Z</time>
      </trkpt>
      <trkpt lat="39.90066346620302" lon="116.67998237695795">
        <ele>5.5</ele>
        <time>2023-02-23T00:00:38Z</time>
      </trkpt>
      <trkpt lat="39.90069596755211" lon="116.68025162663366">
        <ele>8.2</ele>
        <time>2023-02-23T00:00:53Z</time>
      </trkpt>
      <trkpt lat="39.900693752449726" lon="116.6803683038024">
        <ele>7.5</ele>
        <time>2023-02-23T00:00:59Z</time>
      </trkpt>
      <trkpt lat="39.90072863874549" lon="116.68042913109709">
        <ele>6.6</ele>
        <time>2023-02-23T00:01:05Z</time>
      </trkpt>
      <trkpt lat="39.90080547727169" lon="116.68051488426937">
        <ele>3.8000000000000007</ele>
        <time>2023-02-23T00:01:50Z</time>
      </trkpt>
      <trkpt lat="39.90081802697074" lon="116.68075920718228">
        <ele>3.5</ele>
        <time>2023-02-23T00:02:08Z</time>
      </trkpt>
      <trkpt lat="39.90079487213664" lon="116.68084397586826">
        <ele>3.1999999999999993</ele>
        <time>2023-02-23T00:02:14Z</time>
      </trkpt>
      <trkpt lat="39.900798348125335" lon="116.68112918820651">
        <ele>6.800000000000001</ele>
        <time>2023-02-23T00:02:32Z</time>
      </trkpt>
      <trkpt lat="39.90088668064613" lon="116.68149117971278">
        <ele>5.300000000000001</ele>
        <time>2023-02-23T00:02:53Z</time>
      </trkpt>
      <trkpt lat="39.90092339068492" lon="116.68164874154685">
        <ele>5.6</ele>
        <time>2023-02-23T00:03:02Z</time>
      </trkpt>
      <trkpt lat="39.90098521288159" lon="116.68174447059803">
        <ele>7.300000000000001</ele>
        <time>2023-02-23T00:03:08Z</time>
      </trkpt>
      <trkpt lat="39.901048128054384" lon="116.6817893394325">
        <ele>9.0</ele>
        <time>2023-02-23T00:03:14Z</time>
      </trkpt>
      <trkpt lat="39.90116066604342" lon="116.68203963788477">
        <ele>11.5</ele>
        <time>2023-02-23T00:03:32Z</time>
      </trkpt>
      <trkpt lat="39.90118826491391" lon="116.6822590325395">
        <ele>12.399999999999999</ele>
        <time>2023-02-23T00:03:47Z</time>
      </trkpt>
      <trkpt lat="39.90121814009469" lon="116.6823268429332">
        <ele>11.399999999999999</ele>
        <time>2023-02-23T00:03:53Z</time>
      </trkpt>
      <trkpt lat="39.901220012957936" lon="116.6823966514003">
        <ele>12.0</ele>
        <time>2023-02-23T00:03:56Z</time>
      </trkpt>
      <trkpt lat="39.90129832805798" lon="116.68277161540139">
        <ele>7.699999999999999</ele>
        <time>2023-02-23T00:04:17Z</time>
      </trkpt>
      <trkpt lat="39.90133678216715" lon="116.68307179061337">
        <ele>6.800000000000001</ele>
        <time>2023-02-23T00:04:32Z</time>
      </trkpt>
      <trkpt lat="39.90136161857633" lon="116.68316154261947">
        <ele>7.6</ele>
        <time>2023-02-23T00:04:38Z</time>
      </trkpt>
      <trkpt lat="39.901405499332995" lon="116.68322636037658">
        <ele>7.800000000000001</ele>
        <time>2023-02-23T00:04:44Z</time>
      </trkpt>
      <trkpt lat="39.9014261937401" lon="116.68339489843143">
        <ele>13.0</ele>
        <time>2023-02-23T00:04:53Z</time>
      </trkpt>
      <trkpt lat="39.901472053001925" lon="116.68347168359463">
        <ele>14.8</ele>
        <time>2023-02-23T00:04:59Z</time>
      </trkpt>
      <trkpt lat="39.90156795689965" lon="116.68352253323026">
        <ele>13.8</ele>
        <time>2023-02-23T00:05:08Z</time>
      </trkpt>
      <trkpt lat="39.901756860277395" lon="116.6835713768084">
        <ele>13.100000000000001</ele>
        <time>2023-02-23T00:05:26Z</time>
      </trkpt>
      <trkpt lat="39.90180393915564" lon="116.68352649312256">
        <ele>12.7</ele>
        <time>2023-02-23T00:05:32Z</time>
      </trkpt>
      <trkpt lat="39.901834072838604" lon="116.68345169304222">
        <ele>12.5</ele>
        <time>2023-02-23T00:05:38Z</time>
      </trkpt>
      <trkpt lat="39.901816181714594" lon="116.68339185824799">
        <ele>13.399999999999999</ele>
        <time>2023-02-23T00:05:50Z</time>
      </trkpt>
      <trkpt lat="39.901783554599795" lon="116.68318642231968">
        <ele>13.0</ele>
        <time>2023-02-23T00:06:11Z</time>
      </trkpt>
      <trkpt lat="39.90170941901113" lon="116.68326322209815">
        <ele>13.7</ele>
        <time>2023-02-23T00:06:14Z</time>
      </trkpt>
      <trkpt lat="39.90163106930178" lon="116.68345869919109">
        <ele>14.3</ele>
        <time>2023-02-23T00:06:20Z</time>
      </trkpt>
    </trkseg>
  </trk>
</gpx>