<?xml version="1.0" encoding="UTF-8"?>
<gpx xmlns="http://www.topografix.com/GPX/1/1" xmlns:gpxtpx="http://www.garmin.com/xmlschemas/TrackPointExtension/v1" xmlns:xsi="http://www.w3.org/2001/XMLSchema-instance" xsi:schemaLocation="http://www.topografix.com/GPX/1/1 http://www.topografix.com/GPX/1/1/gpx.xsd" version="1.1" creator="gpx.py -- https://github.com/tkrajina/gpxpy">
  <trk>
    <name>gpx from keep</name>
    <type>Run</type>
    <trkseg>
      <trkpt lat="40.06082733691191" lon="116.54146635586956">
        <ele>15.700000000000001</ele>
        <time>2023-12-21T12:48:45Z</time>
      </trkpt>
      <trkpt lat="40.060887561672914" lon="116.54110240261197">
        <ele>15.6</ele>
        <time>2023-12-21T12:48:54Z</time>
      </trkpt>
      <trkpt lat="40.06074770852449" lon="116.54116758959924">
        <ele>15.1</ele>
        <time>2023-12-21T12:49:00Z</time>
      </trkpt>
      <trkpt lat="40.06067965932711" lon="116.54114253265992">
        <ele>15.000000000000002</ele>
        <time>2023-12-21T12:49:03Z</time>
      </trkpt>
      <trkpt lat="40.06049766377804" lon="116.54113954716243">
        <ele>15.1</ele>
        <time>2023-12-21T12:49:12Z</time>
      </trkpt>
      <trkpt lat="40.060449602702036" lon="116.54110947466891">
        <ele>14.6</ele>
        <time>2023-12-21T12:49:15Z</time>
      </trkpt>
      <trkpt lat="40.0604254121442" lon="116.54101924220898">
        <ele>12.799999999999999</ele>
        <time>2023-12-21T12:49:18Z</time>
      </trkpt>
      <trkpt lat="40.06043290263087" lon="116.54078061690095">
        <ele>7.4</ele>
        <time>2023-12-21T12:49:27Z</time>
      </trkpt>
      <trkpt lat="40.060520000836654" lon="116.5403625059106">
        <ele>-1.5999999999999996</ele>
        <time>2023-12-21T12:49:42Z</time>
      </trkpt>
      <trkpt lat="40.060520804338516" lon="116.54027126463583">
        <ele>-1.1999999999999993</ele>
        <time>2023-12-21T12:49:45Z</time>
      </trkpt>
      <trkpt lat="40.06073228745586" lon="116.54003761942181">
        <ele>-1.7999999999999998</ele>
        <time>2023-12-21T12:49:57Z</time>
      </trkpt>
      <trkpt lat="40.0608658016607" lon="116.53981701605211">
        <ele>-1.1999999999999993</ele>
        <time>2023-12-21T12:50:03Z</time>
      </trkpt>
      <trkpt lat="40.06086764917113" lon="116.53974682859783">
        <ele>-0.8999999999999995</ele>
        <time>2023-12-21T12:50:06Z</time>
      </trkpt>
      <trkpt lat="40.06067488316201" lon="116.539389896644">
        <ele>-6.3</ele>
        <time>2023-12-21T12:50:21Z</time>
      </trkpt>
      <trkpt lat="40.06045324666682" lon="116.53909312493634">
        <ele>-12.3</ele>
        <time>2023-12-21T12:50:33Z</time>
      </trkpt>
      <trkpt lat="40.06024653783078" lon="116.53876526314521">
        <ele>-14.2</ele>
        <time>2023-12-21T12:50:42Z</time>
      </trkpt>
      <trkpt lat="40.06023539030061" lon="116.53869808214594">
        <ele>-14.0</ele>
        <time>2023-12-21T12:50:45Z</time>
      </trkpt>
      <trkpt lat="40.06034564055581" lon="116.53836215375217">
        <ele>-19.7</ele>
        <time>2023-12-21T12:51:00Z</time>
      </trkpt>
      <trkpt lat="40.06042437989401" lon="116.53824682887326">
        <ele>-21.799999999999997</ele>
        <time>2023-12-21T12:51:03Z</time>
      </trkpt>
      <trkpt lat="40.06065979896049" lon="116.53799210167632">
        <ele>-25.299999999999997</ele>
        <time>2023-12-21T12:51:15Z</time>
      </trkpt>
      <trkpt lat="40.060898339102636" lon="116.53779252329981">
        <ele>-30.9</ele>
        <time>2023-12-21T12:51:24Z</time>
      </trkpt>
      <trkpt lat="40.06104107246572" lon="116.53767718766456">
        <ele>-33.6</ele>
        <time>2023-12-21T12:51:30Z</time>
      </trkpt>
      <trkpt lat="40.06120063553873" lon="116.53748664123175">
        <ele>-37.2</ele>
        <time>2023-12-21T12:51:39Z</time>
      </trkpt>
      <trkpt lat="40.06125055144209" lon="116.53745053509955">
        <ele>-37.4</ele>
        <time>2023-12-21T12:51:42Z</time>
      </trkpt>
      <trkpt lat="40.061503704750045" lon="116.5370814785342">
        <ele>-35.5</ele>
        <time>2023-12-21T12:51:54Z</time>
      </trkpt>
      <trkpt lat="40.061576441910546" lon="116.53696715072863">
        <ele>-32.9</ele>
        <time>2023-12-21T12:51:57Z</time>
      </trkpt>
      <trkpt lat="40.06169583456529" lon="116.53670239546194">
        <ele>-17.299999999999997</ele>
        <time>2023-12-21T12:52:03Z</time>
      </trkpt>
      <trkpt lat="40.061738505974525" lon="116.53655898780372">
        <ele>-9.5</ele>
        <time>2023-12-21T12:52:06Z</time>
      </trkpt>
      <trkpt lat="40.06193888574828" lon="116.53629221228083">
        <ele>1.2000000000000002</ele>
        <time>2023-12-21T12:52:15Z</time>
      </trkpt>
      <trkpt lat="40.06200678543161" lon="116.53625008509347">
        <ele>-0.8999999999999995</ele>
        <time>2023-12-21T12:52:21Z</time>
      </trkpt>
      <trkpt lat="40.062071524637105" lon="116.53613775985855">
        <ele>-0.5999999999999996</ele>
        <time>2023-12-21T12:52:28Z</time>
      </trkpt>
      <trkpt lat="40.062326909055805" lon="116.5358759870098">
        <ele>-4.8999999999999995</ele>
        <time>2023-12-21T12:52:37Z</time>
      </trkpt>
      <trkpt lat="40.0624535093323" lon="116.53570548694445">
        <ele>-4.8999999999999995</ele>
        <time>2023-12-21T12:52:43Z</time>
      </trkpt>
      <trkpt lat="40.06266666084846" lon="116.53534342781874">
        <ele>-1.5</ele>
        <time>2023-12-21T12:52:55Z</time>
      </trkpt>
      <trkpt lat="40.062916852676146" lon="116.535001416307">
        <ele>12.299999999999999</ele>
        <time>2023-12-21T12:53:04Z</time>
      </trkpt>
      <trkpt lat="40.063159055415646" lon="116.53466541828146">
        <ele>13.000000000000002</ele>
        <time>2023-12-21T12:53:19Z</time>
      </trkpt>
      <trkpt lat="40.06332852227701" lon="116.53444175031372">
        <ele>10.200000000000001</ele>
        <time>2023-12-21T12:53:28Z</time>
      </trkpt>
      <trkpt lat="40.06359089952488" lon="116.53418296677246">
        <ele>7.6</ele>
        <time>2023-12-21T12:53:40Z</time>
      </trkpt>
      <trkpt lat="40.06383122168588" lon="116.53390111584143">
        <ele>6.1</ele>
        <time>2023-12-21T12:53:52Z</time>
      </trkpt>
      <trkpt lat="40.06408154082653" lon="116.53361926043372">
        <ele>3.0</ele>
        <time>2023-12-21T12:54:04Z</time>
      </trkpt>
      <trkpt lat="40.064229113719335" lon="116.53344272415026">
        <ele>4.6</ele>
        <time>2023-12-21T12:54:10Z</time>
      </trkpt>
      <trkpt lat="40.06428386525796" lon="116.53333941360751">
        <ele>5.300000000000001</ele>
        <time>2023-12-21T12:54:13Z</time>
      </trkpt>
      <trkpt lat="40.0645461597839" lon="116.53304952660378">
        <ele>4.9</ele>
        <time>2023-12-21T12:54:25Z</time>
      </trkpt>
      <trkpt lat="40.06475754843593" lon="116.5327987584838">
        <ele>7.1</ele>
        <time>2023-12-21T12:54:34Z</time>
      </trkpt>
      <trkpt lat="40.065011749751406" lon="116.53247175572146">
        <ele>6.0</ele>
        <time>2023-12-21T12:54:46Z</time>
      </trkpt>
      <trkpt lat="40.065151362930806" lon="116.53231426916285">
        <ele>5.5</ele>
        <time>2023-12-21T12:54:52Z</time>
      </trkpt>
      <trkpt lat="40.06523540359067" lon="116.53233331567041">
        <ele>5.200000000000001</ele>
        <time>2023-12-21T12:54:58Z</time>
      </trkpt>
      <trkpt lat="40.06533169642588" lon="116.53245767451571">
        <ele>5.700000000000001</ele>
        <time>2023-12-21T12:55:04Z</time>
      </trkpt>
      <trkpt lat="40.06546194585115" lon="116.53256497786671">
        <ele>5.5</ele>
        <time>2023-12-21T12:55:10Z</time>
      </trkpt>
      <trkpt lat="40.06549608555406" lon="116.53262414957877">
        <ele>4.4</ele>
        <time>2023-12-21T12:55:13Z</time>
      </trkpt>
      <trkpt lat="40.065775603390726" lon="116.53284777880936">
        <ele>0.20000000000000018</ele>
        <time>2023-12-21T12:55:25Z</time>
      </trkpt>
      <trkpt lat="40.06581072338308" lon="116.53289892598036">
        <ele>-3.4999999999999996</ele>
        <time>2023-12-21T12:55:28Z</time>
      </trkpt>
      <trkpt lat="40.06606910213586" lon="116.53306438358649">
        <ele>-4.8</ele>
        <time>2023-12-21T12:55:37Z</time>
      </trkpt>
      <trkpt lat="40.066214384472005" lon="116.53318672686615">
        <ele>-5.0</ele>
        <time>2023-12-21T12:55:43Z</time>
      </trkpt>
      <trkpt lat="40.066475966229135" lon="116.53343843582363">
        <ele>-5.8999999999999995</ele>
        <time>2023-12-21T12:55:58Z</time>
      </trkpt>
      <trkpt lat="40.06667619152767" lon="116.53353870574837">
        <ele>-2.9999999999999996</ele>
        <time>2023-12-21T12:56:04Z</time>
      </trkpt>
      <trkpt lat="40.067005674011206" lon="116.5337512883363">
        <ele>0.8000000000000007</ele>
        <time>2023-12-21T12:56:16Z</time>
      </trkpt>
      <trkpt lat="40.06717989521213" lon="116.53384955432962">
        <ele>4.1</ele>
        <time>2023-12-21T12:56:22Z</time>
      </trkpt>
      <trkpt lat="40.06743237807842" lon="116.53406114078692">
        <ele>4.4</ele>
        <time>2023-12-21T12:56:34Z</time>
      </trkpt>
      <trkpt lat="40.06767684830048" lon="116.53426771183261">
        <ele>1.6000000000000005</ele>
        <time>2023-12-21T12:56:46Z</time>
      </trkpt>
      <trkpt lat="40.067896154402675" lon="116.53440408074925">
        <ele>2.9000000000000004</ele>
        <time>2023-12-21T12:56:55Z</time>
      </trkpt>
      <trkpt lat="40.06800525092827" lon="116.53444819524744">
        <ele>5.200000000000001</ele>
        <time>2023-12-21T12:56:58Z</time>
      </trkpt>
      <trkpt lat="40.06824176364844" lon="116.53467381903981">
        <ele>6.5</ele>
        <time>2023-12-21T12:57:10Z</time>
      </trkpt>
      <trkpt lat="40.06841411067571" lon="116.53482724059975">
        <ele>4.1</ele>
        <time>2023-12-21T12:57:19Z</time>
      </trkpt>
      <trkpt lat="40.06868847854754" lon="116.53499268324069">
        <ele>5.200000000000001</ele>
        <time>2023-12-21T12:57:28Z</time>
      </trkpt>
      <trkpt lat="40.068831546480496" lon="116.5350257607819">
        <ele>6.5</ele>
        <time>2023-12-21T12:57:31Z</time>
      </trkpt>
      <trkpt lat="40.06896078518746" lon="116.53513205018412">
        <ele>8.200000000000001</ele>
        <time>2023-12-21T12:57:37Z</time>
      </trkpt>
      <trkpt lat="40.0691063567902" lon="116.53538275045808">
        <ele>4.700000000000001</ele>
        <time>2023-12-21T12:57:49Z</time>
      </trkpt>
      <trkpt lat="40.0694158051326" lon="116.5355852907583">
        <ele>1.9000000000000004</ele>
        <time>2023-12-21T12:58:01Z</time>
      </trkpt>
      <trkpt lat="40.06968900285416" lon="116.53567852285033">
        <ele>5.300000000000001</ele>
        <time>2023-12-21T12:58:07Z</time>
      </trkpt>
      <trkpt lat="40.069883221417285" lon="116.53577878424822">
        <ele>7.6</ele>
        <time>2023-12-21T12:58:13Z</time>
      </trkpt>
      <trkpt lat="40.069976393053736" lon="116.53585599217028">
        <ele>9.3</ele>
        <time>2023-12-21T12:58:16Z</time>
      </trkpt>
      <trkpt lat="40.07004157547935" lon="116.53593721465963">
        <ele>9.9</ele>
        <time>2023-12-21T12:58:19Z</time>
      </trkpt>
      <trkpt lat="40.070006791613075" lon="116.53603048324901">
        <ele>7.6</ele>
        <time>2023-12-21T12:58:25Z</time>
      </trkpt>
      <trkpt lat="40.069864174931716" lon="116.53619396315241">
        <ele>4.800000000000001</ele>
        <time>2023-12-21T12:58:34Z</time>
      </trkpt>
      <trkpt lat="40.06958864129832" lon="116.53639055149924">
        <ele>3.8000000000000007</ele>
        <time>2023-12-21T12:58:46Z</time>
      </trkpt>
      <trkpt lat="40.06951179019764" lon="116.53645373881876">
        <ele>5.200000000000001</ele>
        <time>2023-12-21T12:58:49Z</time>
      </trkpt>
      <trkpt lat="40.06931332297862" lon="116.53668240550874">
        <ele>10.799999999999999</ele>
        <time>2023-12-21T12:58:58Z</time>
      </trkpt>
      <trkpt lat="40.06904390168921" lon="116.53693013190708">
        <ele>8.700000000000001</ele>
        <time>2023-12-21T12:59:10Z</time>
      </trkpt>
      <trkpt lat="40.06880144051835" lon="116.53716180768113">
        <ele>9.0</ele>
        <time>2023-12-21T12:59:22Z</time>
      </trkpt>
      <trkpt lat="40.068556027402614" lon="116.5374155426648">
        <ele>6.6</ele>
        <time>2023-12-21T12:59:34Z</time>
      </trkpt>
      <trkpt lat="40.068265583554584" lon="116.537655241604">
        <ele>5.4</ele>
        <time>2023-12-21T12:59:46Z</time>
      </trkpt>
      <trkpt lat="40.067998163246905" lon="116.53790696830492">
        <ele>7.0</ele>
        <time>2023-12-21T12:59:58Z</time>
      </trkpt>
      <trkpt lat="40.067734820881256" lon="116.53819479060375">
        <ele>3.0999999999999996</ele>
        <time>2023-12-21T13:00:10Z</time>
      </trkpt>
      <trkpt lat="40.06745058804544" lon="116.53853274841711">
        <ele>-1.1999999999999993</ele>
        <time>2023-12-21T13:00:22Z</time>
      </trkpt>
      <trkpt lat="40.06724525600359" lon="116.53882958007169">
        <ele>-1.1999999999999993</ele>
        <time>2023-12-21T13:00:31Z</time>
      </trkpt>
      <trkpt lat="40.067081023988166" lon="116.53917453250804">
        <ele>-3.5999999999999996</ele>
        <time>2023-12-21T13:00:40Z</time>
      </trkpt>
      <trkpt lat="40.066897778265776" lon="116.53951446850803">
        <ele>-4.8</ele>
        <time>2023-12-21T13:00:52Z</time>
      </trkpt>
      <trkpt lat="40.06675058513753" lon="116.53988146698319">
        <ele>-5.0</ele>
        <time>2023-12-21T13:01:04Z</time>
      </trkpt>
      <trkpt lat="40.066705141089855" lon="116.54013715201906">
        <ele>-1.9999999999999996</ele>
        <time>2023-12-21T13:01:10Z</time>
      </trkpt>
      <trkpt lat="40.06659787751201" lon="116.54047606121335">
        <ele>3.5999999999999996</ele>
        <time>2023-12-21T13:01:22Z</time>
      </trkpt>
      <trkpt lat="40.066579115337206" lon="116.54058635398951">
        <ele>3.3000000000000007</ele>
        <time>2023-12-21T13:01:25Z</time>
      </trkpt>
      <trkpt lat="40.06648861872753" lon="116.54081897590464">
        <ele>5.700000000000001</ele>
        <time>2023-12-21T13:01:31Z</time>
      </trkpt>
      <trkpt lat="40.066294310059234" lon="116.54113783293622">
        <ele>10.3</ele>
        <time>2023-12-21T13:01:43Z</time>
      </trkpt>
      <trkpt lat="40.066171162974214" lon="116.54153688420644">
        <ele>4.200000000000001</ele>
        <time>2023-12-21T13:01:55Z</time>
      </trkpt>
      <trkpt lat="40.06598784152878" lon="116.54185372411081">
        <ele>2.700000000000001</ele>
        <time>2023-12-21T13:02:07Z</time>
      </trkpt>
      <trkpt lat="40.06595900116207" lon="116.54192892096617">
        <ele>1.4000000000000004</ele>
        <time>2023-12-21T13:02:10Z</time>
      </trkpt>
      <trkpt lat="40.06594422484051" lon="116.54203519554765">
        <ele>-0.5999999999999996</ele>
        <time>2023-12-21T13:02:13Z</time>
      </trkpt>
      <trkpt lat="40.06599692512731" lon="116.54237205020178">
        <ele>2.3000000000000007</ele>
        <time>2023-12-21T13:02:19Z</time>
      </trkpt>
      <trkpt lat="40.06597717039807" lon="116.54248935122901">
        <ele>2.700000000000001</ele>
        <time>2023-12-21T13:02:22Z</time>
      </trkpt>
      <trkpt lat="40.06590534142262" lon="116.5425695638436">
        <ele>0.20000000000000018</ele>
        <time>2023-12-21T13:02:28Z</time>
      </trkpt>
      <trkpt lat="40.06585241125981" lon="116.54260165177402">
        <ele>-1.0999999999999996</ele>
        <time>2023-12-21T13:02:31Z</time>
      </trkpt>
      <trkpt lat="40.06562430044427" lon="116.54254152703908">
        <ele>-4.699999999999999</ele>
        <time>2023-12-21T13:02:40Z</time>
      </trkpt>
      <trkpt lat="40.065289460438734" lon="116.5426087386674">
        <ele>-3.3</ele>
        <time>2023-12-21T13:02:52Z</time>
      </trkpt>
      <trkpt lat="40.06503767329347" lon="116.54270401100469">
        <ele>0.9000000000000004</ele>
        <time>2023-12-21T13:03:01Z</time>
      </trkpt>
      <trkpt lat="40.06481172865087" lon="116.5427240895056">
        <ele>-6.699999999999999</ele>
        <time>2023-12-21T13:03:13Z</time>
      </trkpt>
      <trkpt lat="40.064723682136055" lon="116.54269903683928">
        <ele>-7.6</ele>
        <time>2023-12-21T13:03:16Z</time>
      </trkpt>
      <trkpt lat="40.064458804179885" lon="116.5427501987915">
        <ele>-14.799999999999999</ele>
        <time>2023-12-21T13:03:25Z</time>
      </trkpt>
      <trkpt lat="40.06439076060617" lon="116.54272714877783">
        <ele>-17.9</ele>
        <time>2023-12-21T13:03:28Z</time>
      </trkpt>
      <trkpt lat="40.064123791414694" lon="116.54273419930291">
        <ele>-24.5</ele>
        <time>2023-12-21T13:03:37Z</time>
      </trkpt>
      <trkpt lat="40.06381173775345" lon="116.54269914874482">
        <ele>-23.6</ele>
        <time>2023-12-21T13:03:49Z</time>
      </trkpt>
      <trkpt lat="40.06362573452124" lon="116.54269215379202">
        <ele>-22.9</ele>
        <time>2023-12-21T13:03:55Z</time>
      </trkpt>
      <trkpt lat="40.06332456574536" lon="116.54260196198149">
        <ele>-19.7</ele>
        <time>2023-12-21T13:04:04Z</time>
      </trkpt>
      <trkpt lat="40.063234648127995" lon="116.5426390671099">
        <ele>-21.9</ele>
        <time>2023-12-21T13:04:10Z</time>
      </trkpt>
      <trkpt lat="40.06307751205369" lon="116.54256890832019">
        <ele>-25.700000000000003</ele>
        <time>2023-12-21T13:04:16Z</time>
      </trkpt>
      <trkpt lat="40.06295935885431" lon="116.54249172667191">
        <ele>-25.0</ele>
        <time>2023-12-21T13:04:19Z</time>
      </trkpt>
      <trkpt lat="40.0627027958008" lon="116.54221405021748">
        <ele>-24.0</ele>
        <time>2023-12-21T13:04:28Z</time>
      </trkpt>
      <trkpt lat="40.06258553672053" lon="116.5420867388184">
        <ele>-22.299999999999997</ele>
        <time>2023-12-21T13:04:34Z</time>
      </trkpt>
      <trkpt lat="40.062460105051635" lon="116.54187721641806">
        <ele>-20.799999999999997</ele>
        <time>2023-12-21T13:04:40Z</time>
      </trkpt>
      <trkpt lat="40.06221051868111" lon="116.54159151039192">
        <ele>-14.6</ele>
        <time>2023-12-21T13:04:52Z</time>
      </trkpt>
      <trkpt lat="40.06202796156149" lon="116.54132283661735">
        <ele>-13.7</ele>
        <time>2023-12-21T13:05:01Z</time>
      </trkpt>
      <trkpt lat="40.061915668424824" lon="116.54118148278289">
        <ele>-15.5</ele>
        <time>2023-12-21T13:05:07Z</time>
      </trkpt>
      <trkpt lat="40.06173806229105" lon="116.54089174821277">
        <ele>-19.2</ele>
        <time>2023-12-21T13:05:19Z</time>
      </trkpt>
      <trkpt lat="40.06153944809254" lon="116.54059900444751">
        <ele>-25.5</ele>
        <time>2023-12-21T13:05:28Z</time>
      </trkpt>
      <trkpt lat="40.06128270915915" lon="116.54024811007044">
        <ele>-28.0</ele>
        <time>2023-12-21T13:05:40Z</time>
      </trkpt>
      <trkpt lat="40.06105503382339" lon="116.53992929191507">
        <ele>-27.5</ele>
        <time>2023-12-21T13:05:52Z</time>
      </trkpt>
      <trkpt lat="40.06081639280638" lon="116.53962751609455">
        <ele>-26.4</ele>
        <time>2023-12-21T13:06:04Z</time>
      </trkpt>
      <trkpt lat="40.06061472678966" lon="116.5393167073661">
        <ele>-22.5</ele>
        <time>2023-12-21T13:06:13Z</time>
      </trkpt>
      <trkpt lat="40.060398113492646" lon="116.53903096386512">
        <ele>-18.799999999999997</ele>
        <time>2023-12-21T13:06:25Z</time>
      </trkpt>
      <trkpt lat="40.060310659975514" lon="116.53882241026007">
        <ele>-19.9</ele>
        <time>2023-12-21T13:06:34Z</time>
      </trkpt>
      <trkpt lat="40.060294495180955" lon="116.53874720827947">
        <ele>-20.6</ele>
        <time>2023-12-21T13:06:37Z</time>
      </trkpt>
      <trkpt lat="40.06036498372877" lon="116.53851757528716">
        <ele>-23.799999999999997</ele>
        <time>2023-12-21T13:06:46Z</time>
      </trkpt>
      <trkpt lat="40.06056327134119" lon="116.53820168830806">
        <ele>-30.299999999999997</ele>
        <time>2023-12-21T13:06:58Z</time>
      </trkpt>
      <trkpt lat="40.06072486885462" lon="116.53802518456345">
        <ele>-35.6</ele>
        <time>2023-12-21T13:07:07Z</time>
      </trkpt>
      <trkpt lat="40.06089527872358" lon="116.53776544904476">
        <ele>-36.2</ele>
        <time>2023-12-21T13:07:16Z</time>
      </trkpt>
      <trkpt lat="40.060974894359546" lon="116.53759597139718">
        <ele>-37.0</ele>
        <time>2023-12-21T13:07:22Z</time>
      </trkpt>
      <trkpt lat="40.06121124925406" lon="116.53731516443197">
        <ele>-36.1</ele>
        <time>2023-12-21T13:07:34Z</time>
      </trkpt>
      <trkpt lat="40.061426623254235" lon="116.53704338178261">
        <ele>-34.9</ele>
        <time>2023-12-21T13:07:46Z</time>
      </trkpt>
      <trkpt lat="40.06164191749771" lon="116.53673750044761">
        <ele>-29.799999999999997</ele>
        <time>2023-12-21T13:07:58Z</time>
      </trkpt>
      <trkpt lat="40.06194823528682" lon="116.53644564340627">
        <ele>-27.200000000000003</ele>
        <time>2023-12-21T13:08:10Z</time>
      </trkpt>
      <trkpt lat="40.062034042586085" lon="116.53636340130552">
        <ele>-26.0</ele>
        <time>2023-12-21T13:08:13Z</time>
      </trkpt>
      <trkpt lat="40.06217890796153" lon="116.53630822802434">
        <ele>-28.1</ele>
        <time>2023-12-21T13:08:19Z</time>
      </trkpt>
      <trkpt lat="40.06231555814938" lon="116.53615878938508">
        <ele>-33.9</ele>
        <time>2023-12-21T13:08:28Z</time>
      </trkpt>
      <trkpt lat="40.06248177527344" lon="116.53582181420093">
        <ele>-37.0</ele>
        <time>2023-12-21T13:08:37Z</time>
      </trkpt>
      <trkpt lat="40.0627069598022" lon="116.5354737954618">
        <ele>-19.9</ele>
        <time>2023-12-21T13:08:46Z</time>
      </trkpt>
      <trkpt lat="40.062793532484605" lon="116.53529126297597">
        <ele>-16.2</ele>
        <time>2023-12-21T13:08:52Z</time>
      </trkpt>
      <trkpt lat="40.06292218071252" lon="116.53514282177115">
        <ele>-13.5</ele>
        <time>2023-12-21T13:08:58Z</time>
      </trkpt>
      <trkpt lat="40.063132368151514" lon="116.53479880652891">
        <ele>1.6000000000000005</ele>
        <time>2023-12-21T13:09:10Z</time>
      </trkpt>
      <trkpt lat="40.06334361995618" lon="116.53448387049349">
        <ele>2.4000000000000004</ele>
        <time>2023-12-21T13:09:22Z</time>
      </trkpt>
      <trkpt lat="40.063551010290496" lon="116.53422910582779">
        <ele>2.1000000000000005</ele>
        <time>2023-12-21T13:09:31Z</time>
      </trkpt>
      <trkpt lat="40.06379429485347" lon="116.53393120822997">
        <ele>2.1000000000000005</ele>
        <time>2023-12-21T13:09:43Z</time>
      </trkpt>
      <trkpt lat="40.06402557745383" lon="116.53363330848067">
        <ele>6.200000000000001</ele>
        <time>2023-12-21T13:09:55Z</time>
      </trkpt>
      <trkpt lat="40.0642121551798" lon="116.53345977633833">
        <ele>12.200000000000001</ele>
        <time>2023-12-21T13:10:04Z</time>
      </trkpt>
      <trkpt lat="40.064268887602545" lon="116.53334844201409">
        <ele>13.299999999999999</ele>
        <time>2023-12-21T13:10:10Z</time>
      </trkpt>
      <trkpt lat="40.06449230641926" lon="116.53310971096111">
        <ele>6.1</ele>
        <time>2023-12-21T13:10:22Z</time>
      </trkpt>
      <trkpt lat="40.06474865204114" lon="116.53284188739921">
        <ele>1.5</ele>
        <time>2023-12-21T13:10:34Z</time>
      </trkpt>
      <trkpt lat="40.064879358693325" lon="116.532722517392">
        <ele>-0.6999999999999993</ele>
        <time>2023-12-21T13:10:40Z</time>
      </trkpt>
      <trkpt lat="40.06494114843075" lon="116.53263625365953">
        <ele>0.10000000000000053</ele>
        <time>2023-12-21T13:10:43Z</time>
      </trkpt>
      <trkpt lat="40.065111425660966" lon="116.53233934888613">
        <ele>4.1</ele>
        <time>2023-12-21T13:10:55Z</time>
      </trkpt>
      <trkpt lat="40.065387690579804" lon="116.53245666463471">
        <ele>5.200000000000001</ele>
        <time>2023-12-21T13:11:04Z</time>
      </trkpt>
      <trkpt lat="40.065473822464945" lon="116.53251382423024">
        <ele>5.200000000000001</ele>
        <time>2023-12-21T13:11:07Z</time>
      </trkpt>
      <trkpt lat="40.06555711063081" lon="116.53263617782817">
        <ele>4.0</ele>
        <time>2023-12-21T13:11:13Z</time>
      </trkpt>
      <trkpt lat="40.06562441133137" lon="116.5327635476743">
        <ele>1.8000000000000007</ele>
        <time>2023-12-21T13:11:19Z</time>
      </trkpt>
      <trkpt lat="40.06585364889239" lon="116.53286883159437">
        <ele>4.9</ele>
        <time>2023-12-21T13:11:25Z</time>
      </trkpt>
      <trkpt lat="40.065998924772984" lon="116.53298816693486">
        <ele>7.0</ele>
        <time>2023-12-21T13:11:31Z</time>
      </trkpt>
      <trkpt lat="40.06621046104816" lon="116.53321882198087">
        <ele>6.9</ele>
        <time>2023-12-21T13:11:43Z</time>
      </trkpt>
      <trkpt lat="40.06643577358464" lon="116.5333561989212">
        <ele>6.200000000000001</ele>
        <time>2023-12-21T13:11:52Z</time>
      </trkpt>
      <trkpt lat="40.06648898920619" lon="116.53344846369588">
        <ele>2.8000000000000007</ele>
        <time>2023-12-21T13:11:58Z</time>
      </trkpt>
      <trkpt lat="40.06666628475926" lon="116.53357782173929">
        <ele>-1.2999999999999998</ele>
        <time>2023-12-21T13:12:07Z</time>
      </trkpt>
      <trkpt lat="40.06696262455673" lon="116.5337292290544">
        <ele>3.3000000000000007</ele>
        <time>2023-12-21T13:12:16Z</time>
      </trkpt>
      <trkpt lat="40.06722506032008" lon="116.5339207567693">
        <ele>7.800000000000001</ele>
        <time>2023-12-21T13:12:28Z</time>
      </trkpt>
      <trkpt lat="40.0674764720551" lon="116.53410225514232">
        <ele>9.3</ele>
        <time>2023-12-21T13:12:40Z</time>
      </trkpt>
      <trkpt lat="40.06751861559557" lon="116.53416443095793">
        <ele>8.700000000000001</ele>
        <time>2023-12-21T13:12:43Z</time>
      </trkpt>
      <trkpt lat="40.06781203039682" lon="116.5343489310851">
        <ele>12.200000000000001</ele>
        <time>2023-12-21T13:12:55Z</time>
      </trkpt>
      <trkpt lat="40.06806434112862" lon="116.53448830420011">
        <ele>13.9</ele>
        <time>2023-12-21T13:13:04Z</time>
      </trkpt>
      <trkpt lat="40.068303939924924" lon="116.53475103434116">
        <ele>10.799999999999999</ele>
        <time>2023-12-21T13:13:22Z</time>
      </trkpt>
      <trkpt lat="40.06850626136597" lon="116.53489442284531">
        <ele>9.9</ele>
        <time>2023-12-21T13:13:31Z</time>
      </trkpt>
      <trkpt lat="40.06881554282499" lon="116.5350237569859">
        <ele>14.9</ele>
        <time>2023-12-21T13:13:40Z</time>
      </trkpt>
      <trkpt lat="40.068915641367674" lon="116.53506887434158">
        <ele>16.6</ele>
        <time>2023-12-21T13:13:43Z</time>
      </trkpt>
      <trkpt lat="40.06897074732684" lon="116.53511600290531">
        <ele>16.700000000000003</ele>
        <time>2023-12-21T13:13:46Z</time>
      </trkpt>
      <trkpt lat="40.069010926244204" lon="116.53519422236997">
        <ele>15.700000000000001</ele>
        <time>2023-12-21T13:13:49Z</time>
      </trkpt>
      <trkpt lat="40.069216312760325" lon="116.53536669104665">
        <ele>14.700000000000001</ele>
        <time>2023-12-21T13:14:01Z</time>
      </trkpt>
      <trkpt lat="40.06922645356165" lon="116.5354278646774">
        <ele>14.1</ele>
        <time>2023-12-21T13:14:04Z</time>
      </trkpt>
      <trkpt lat="40.069511803705026" lon="116.5355872846672">
        <ele>10.799999999999999</ele>
        <time>2023-12-21T13:14:16Z</time>
      </trkpt>
      <trkpt lat="40.0695669250715" lon="116.53564143220302">
        <ele>9.1</ele>
        <time>2023-12-21T13:14:19Z</time>
      </trkpt>
      <trkpt lat="40.069656212690234" lon="116.5357687836618">
        <ele>8.3</ele>
        <time>2023-12-21T13:14:25Z</time>
      </trkpt>
      <trkpt lat="40.06989364927571" lon="116.53596531247072">
        <ele>6.200000000000001</ele>
        <time>2023-12-21T13:14:34Z</time>
      </trkpt>
      <trkpt lat="40.069938786719476" lon="116.53602648025274">
        <ele>4.700000000000001</ele>
        <time>2023-12-21T13:14:37Z</time>
      </trkpt>
      <trkpt lat="40.069920973962276" lon="116.53610771236252">
        <ele>0.8000000000000007</ele>
        <time>2023-12-21T13:14:43Z</time>
      </trkpt>
      <trkpt lat="40.06982425542369" lon="116.53622806436228">
        <ele>-2.0999999999999996</ele>
        <time>2023-12-21T13:14:49Z</time>
      </trkpt>
      <trkpt lat="40.06958159141006" lon="116.53636849021316">
        <ele>-3.6999999999999997</ele>
        <time>2023-12-21T13:14:58Z</time>
      </trkpt>
      <trkpt lat="40.06930819338939" lon="116.53662524577896">
        <ele>-2.8</ele>
        <time>2023-12-21T13:15:10Z</time>
      </trkpt>
      <trkpt lat="40.06912571026686" lon="116.53684789198707">
        <ele>0.6000000000000005</ele>
        <time>2023-12-21T13:15:19Z</time>
      </trkpt>
      <trkpt lat="40.068893165241526" lon="116.53704246392493">
        <ele>1.8000000000000007</ele>
        <time>2023-12-21T13:15:31Z</time>
      </trkpt>
      <trkpt lat="40.06864366525197" lon="116.5372570920593">
        <ele>-4.5</ele>
        <time>2023-12-21T13:15:40Z</time>
      </trkpt>
      <trkpt lat="40.0684480386792" lon="116.53741756150065">
        <ele>-5.3999999999999995</ele>
        <time>2023-12-21T13:15:49Z</time>
      </trkpt>
      <trkpt lat="40.06819479008228" lon="116.5377454994092">
        <ele>12.299999999999999</ele>
        <time>2023-12-21T13:15:58Z</time>
      </trkpt>
      <trkpt lat="40.06792866603459" lon="116.53813059094387">
        <ele>13.299999999999999</ele>
        <time>2023-12-21T13:16:10Z</time>
      </trkpt>
      <trkpt lat="40.06770828999471" lon="116.53840536954927">
        <ele>14.700000000000001</ele>
        <time>2023-12-21T13:16:19Z</time>
      </trkpt>
      <trkpt lat="40.06749788206482" lon="116.53866710816175">
        <ele>21.5</ele>
        <time>2023-12-21T13:16:31Z</time>
      </trkpt>
      <trkpt lat="40.067423222847395" lon="116.53881953102454">
        <ele>19.1</ele>
        <time>2023-12-21T13:16:37Z</time>
      </trkpt>
      <trkpt lat="40.06724784214673" lon="116.53909630109531">
        <ele>19.5</ele>
        <time>2023-12-21T13:16:49Z</time>
      </trkpt>
      <trkpt lat="40.06713609964255" lon="116.53921062299572">
        <ele>18.299999999999997</ele>
        <time>2023-12-21T13:16:55Z</time>
      </trkpt>
      <trkpt lat="40.066965715022796" lon="116.53948738759729">
        <ele>9.700000000000001</ele>
        <time>2023-12-21T13:17:07Z</time>
      </trkpt>
      <trkpt lat="40.06680535769641" lon="116.53977818496806">
        <ele>5.4</ele>
        <time>2023-12-21T13:17:19Z</time>
      </trkpt>
      <trkpt lat="40.06676257570036" lon="116.53987745482867">
        <ele>5.200000000000001</ele>
        <time>2023-12-21T13:17:22Z</time>
      </trkpt>
      <trkpt lat="40.06667430310599" lon="116.54021135242482">
        <ele>6.700000000000001</ele>
        <time>2023-12-21T13:17:31Z</time>
      </trkpt>
      <trkpt lat="40.066576182140366" lon="116.54061743610936">
        <ele>6.9</ele>
        <time>2023-12-21T13:17:43Z</time>
      </trkpt>
      <trkpt lat="40.06652956692645" lon="116.54079591043384">
        <ele>10.500000000000002</ele>
        <time>2023-12-21T13:17:49Z</time>
      </trkpt>
      <trkpt lat="40.06647779276086" lon="116.54090018990237">
        <ele>12.4</ele>
        <time>2023-12-21T13:17:52Z</time>
      </trkpt>
      <trkpt lat="40.06638454716515" lon="116.54125211939878">
        <ele>13.4</ele>
        <time>2023-12-21T13:18:04Z</time>
      </trkpt>
      <trkpt lat="40.0662443678684" lon="116.54163613180752">
        <ele>5.4</ele>
        <time>2023-12-21T13:18:19Z</time>
      </trkpt>
      <trkpt lat="40.06611923294226" lon="116.5420441972016">
        <ele>6.300000000000001</ele>
        <time>2023-12-21T13:18:31Z</time>
      </trkpt>
      <trkpt lat="40.06606488961176" lon="116.54235700353102">
        <ele>8.5</ele>
        <time>2023-12-21T13:18:40Z</time>
      </trkpt>
      <trkpt lat="40.066010232942226" lon="116.54252042617962">
        <ele>10.700000000000001</ele>
        <time>2023-12-21T13:18:46Z</time>
      </trkpt>
      <trkpt lat="40.065925298564515" lon="116.542549510473">
        <ele>11.1</ele>
        <time>2023-12-21T13:18:49Z</time>
      </trkpt>
      <trkpt lat="40.06561736331631" lon="116.54257160427639">
        <ele>11.799999999999999</ele>
        <time>2023-12-21T13:19:04Z</time>
      </trkpt>
      <trkpt lat="40.065347321632586" lon="116.5425435661245">
        <ele>14.799999999999999</ele>
        <time>2023-12-21T13:19:13Z</time>
      </trkpt>
      <trkpt lat="40.06501936256931" lon="116.54255363183769">
        <ele>15.299999999999999</ele>
        <time>2023-12-21T13:19:25Z</time>
      </trkpt>
      <trkpt lat="40.06485439348786" lon="116.54256367754343">
        <ele>12.4</ele>
        <time>2023-12-21T13:19:31Z</time>
      </trkpt>
      <trkpt lat="40.064515266367174" lon="116.54249253828716">
        <ele>15.799999999999999</ele>
        <time>2023-12-21T13:19:43Z</time>
      </trkpt>
      <trkpt lat="40.06422228424695" lon="116.5424925742416">
        <ele>14.299999999999999</ele>
        <time>2023-12-21T13:19:55Z</time>
      </trkpt>
      <trkpt lat="40.063899276828515" lon="116.54247958073694">
        <ele>12.500000000000002</ele>
        <time>2023-12-21T13:20:07Z</time>
      </trkpt>
      <trkpt lat="40.06358521669251" lon="116.54244152235142">
        <ele>10.200000000000001</ele>
        <time>2023-12-21T13:20:19Z</time>
      </trkpt>
      <trkpt lat="40.06329418219871" lon="116.54241649426197">
        <ele>9.200000000000001</ele>
        <time>2023-12-21T13:20:31Z</time>
      </trkpt>
      <trkpt lat="40.06301705911073" lon="116.54234935712937">
        <ele>7.1</ele>
        <time>2023-12-21T13:20:43Z</time>
      </trkpt>
      <trkpt lat="40.062742766168384" lon="116.5422010119987">
        <ele>0.10000000000000053</ele>
        <time>2023-12-21T13:20:55Z</time>
      </trkpt>
      <trkpt lat="40.062547354269114" lon="116.54199851731502">
        <ele>-3.4999999999999996</ele>
        <time>2023-12-21T13:21:07Z</time>
      </trkpt>
      <trkpt lat="40.06243402027997" lon="116.54183611387836">
        <ele>-5.699999999999999</ele>
        <time>2023-12-21T13:21:13Z</time>
      </trkpt>
      <trkpt lat="40.06220041983892" lon="116.54154438978217">
        <ele>-6.199999999999999</ele>
        <time>2023-12-21T13:21:25Z</time>
      </trkpt>
      <trkpt lat="40.061975758468826" lon="116.54122559022379">
        <ele>-3.0999999999999996</ele>
        <time>2023-12-21T13:21:37Z</time>
      </trkpt>
      <trkpt lat="40.061770107422134" lon="116.54091380199348">
        <ele>-3.0999999999999996</ele>
        <time>2023-12-21T13:21:49Z</time>
      </trkpt>
      <trkpt lat="40.06156960737908" lon="116.54067419841876">
        <ele>-2.3999999999999995</ele>
        <time>2023-12-21T13:22:01Z</time>
      </trkpt>
      <trkpt lat="40.061337917481666" lon="116.54034636311049">
        <ele>-4.5</ele>
        <time>2023-12-21T13:22:13Z</time>
      </trkpt>
      <trkpt lat="40.061137343472346" lon="116.54007466818668">
        <ele>-5.699999999999999</ele>
        <time>2023-12-21T13:22:25Z</time>
      </trkpt>
      <trkpt lat="40.06098096873029" lon="116.53989721561105">
        <ele>-9.5</ele>
        <time>2023-12-21T13:22:37Z</time>
      </trkpt>
      <trkpt lat="40.06079134628784" lon="116.5396054601626">
        <ele>-11.0</ele>
        <time>2023-12-21T13:22:46Z</time>
      </trkpt>
      <trkpt lat="40.06059271933098" lon="116.53931269928582">
        <ele>-8.7</ele>
        <time>2023-12-21T13:22:58Z</time>
      </trkpt>
      <trkpt lat="40.06037292770732" lon="116.53894573657062">
        <ele>2.3000000000000007</ele>
        <time>2023-12-21T13:23:07Z</time>
      </trkpt>
      <trkpt lat="40.06023542791361" lon="116.53871512843295">
        <ele>4.6</ele>
        <time>2023-12-21T13:23:16Z</time>
      </trkpt>
      <trkpt lat="40.060208245787805" lon="116.53863190563747">
        <ele>3.5999999999999996</ele>
        <time>2023-12-21T13:23:19Z</time>
      </trkpt>
      <trkpt lat="40.0602080263416" lon="116.5385326355354">
        <ele>3.0</ele>
        <time>2023-12-21T13:23:22Z</time>
      </trkpt>
      <trkpt lat="40.06035316342106" lon="116.53814756580176">
        <ele>9.9</ele>
        <time>2023-12-21T13:23:34Z</time>
      </trkpt>
      <trkpt lat="40.060500607063254" lon="116.53790187313163">
        <ele>9.1</ele>
        <time>2023-12-21T13:23:43Z</time>
      </trkpt>
      <trkpt lat="40.0607329245414" lon="116.53760302053531">
        <ele>13.1</ele>
        <time>2023-12-21T13:23:55Z</time>
      </trkpt>
      <trkpt lat="40.06084057819118" lon="116.53745158826003">
        <ele>16.0</ele>
        <time>2023-12-21T13:24:01Z</time>
      </trkpt>
      <trkpt lat="40.060900448363995" lon="116.53739542524056">
        <ele>16.1</ele>
        <time>2023-12-21T13:24:04Z</time>
      </trkpt>
      <trkpt lat="40.06092831808753" lon="116.53733826323291">
        <ele>15.1</ele>
        <time>2023-12-21T13:24:07Z</time>
      </trkpt>
      <trkpt lat="40.06116861602526" lon="116.53703338552944">
        <ele>9.1</ele>
        <time>2023-12-21T13:24:22Z</time>
      </trkpt>
      <trkpt lat="40.06129618388928" lon="116.53684584611466">
        <ele>5.800000000000001</ele>
        <time>2023-12-21T13:24:31Z</time>
      </trkpt>
      <trkpt lat="40.06157159356266" lon="116.53659310408052">
        <ele>4.9</ele>
        <time>2023-12-21T13:24:43Z</time>
      </trkpt>
      <trkpt lat="40.061793079945154" lon="116.53637345918261">
        <ele>14.799999999999999</ele>
        <time>2023-12-21T13:24:52Z</time>
      </trkpt>
      <trkpt lat="40.06200549646643" lon="116.53612372827945">
        <ele>16.5</ele>
        <time>2023-12-21T13:25:04Z</time>
      </trkpt>
      <trkpt lat="40.062055309691935" lon="116.53604349515294">
        <ele>16.4</ele>
        <time>2023-12-21T13:25:07Z</time>
      </trkpt>
      <trkpt lat="40.06211618416553" lon="116.53599033712872">
        <ele>15.799999999999999</ele>
        <time>2023-12-21T13:25:10Z</time>
      </trkpt>
      <trkpt lat="40.06220206625128" lon="116.53594118728418">
        <ele>10.9</ele>
        <time>2023-12-21T13:25:16Z</time>
      </trkpt>
      <trkpt lat="40.06224693230117" lon="116.53588401961335">
        <ele>8.1</ele>
        <time>2023-12-21T13:25:19Z</time>
      </trkpt>
      <trkpt lat="40.06228171584378" lon="116.53579075047178">
        <ele>4.700000000000001</ele>
        <time>2023-12-21T13:25:25Z</time>
      </trkpt>
      <trkpt lat="40.06246899500563" lon="116.53548285049514">
        <ele>4.300000000000001</ele>
        <time>2023-12-21T13:25:34Z</time>
      </trkpt>
      <trkpt lat="40.06266036628868" lon="116.53521606390404">
        <ele>8.9</ele>
        <time>2023-12-21T13:25:46Z</time>
      </trkpt>
      <trkpt lat="40.06274220322099" lon="116.53514785829319">
        <ele>9.1</ele>
        <time>2023-12-21T13:25:49Z</time>
      </trkpt>
      <trkpt lat="40.062930618592645" lon="116.53490112608058">
        <ele>5.9</ele>
        <time>2023-12-21T13:26:01Z</time>
      </trkpt>
      <trkpt lat="40.06313407799842" lon="116.53467444742755">
        <ele>2.0</ele>
        <time>2023-12-21T13:26:13Z</time>
      </trkpt>
      <trkpt lat="40.06322072125335" lon="116.53452400177042">
        <ele>0.3000000000000007</ele>
        <time>2023-12-21T13:26:19Z</time>
      </trkpt>
      <trkpt lat="40.06348097686349" lon="116.53421306779427">
        <ele>2.3000000000000007</ele>
        <time>2023-12-21T13:26:31Z</time>
      </trkpt>
      <trkpt lat="40.06372133946527" lon="116.53394826696922">
        <ele>3.5</ele>
        <time>2023-12-21T13:26:43Z</time>
      </trkpt>
      <trkpt lat="40.06396562380531" lon="116.53365136876684">
        <ele>4.1</ele>
        <time>2023-12-21T13:26:55Z</time>
      </trkpt>
      <trkpt lat="40.06403047273299" lon="116.53358917849145">
        <ele>4.700000000000001</ele>
        <time>2023-12-21T13:26:58Z</time>
      </trkpt>
      <trkpt lat="40.06411513017915" lon="116.5334467499678">
        <ele>4.6</ele>
        <time>2023-12-21T13:27:04Z</time>
      </trkpt>
      <trkpt lat="40.06434151612798" lon="116.53319397809635">
        <ele>6.4</ele>
        <time>2023-12-21T13:27:16Z</time>
      </trkpt>
      <trkpt lat="40.064548822337315" lon="116.53290810804207">
        <ele>2.5999999999999996</ele>
        <time>2023-12-21T13:27:28Z</time>
      </trkpt>
      <trkpt lat="40.06475433514655" lon="116.53270949408537">
        <ele>2.1000000000000005</ele>
        <time>2023-12-21T13:27:37Z</time>
      </trkpt>
      <trkpt lat="40.064860944240095" lon="116.53254900412846">
        <ele>0.20000000000000018</ele>
        <time>2023-12-21T13:27:43Z</time>
      </trkpt>
      <trkpt lat="40.064996611023005" lon="116.53241358430218">
        <ele>-1.0</ele>
        <time>2023-12-21T13:27:49Z</time>
      </trkpt>
      <trkpt lat="40.06509758315503" lon="116.53240454496981">
        <ele>0.20000000000000018</ele>
        <time>2023-12-21T13:27:55Z</time>
      </trkpt>
      <trkpt lat="40.065360865487605" lon="116.53252888290497">
        <ele>8.0</ele>
        <time>2023-12-21T13:28:04Z</time>
      </trkpt>
      <trkpt lat="40.065614155160404" lon="116.53265623039643">
        <ele>12.1</ele>
        <time>2023-12-21T13:28:13Z</time>
      </trkpt>
      <trkpt lat="40.065751321957336" lon="116.53272943088173">
        <ele>13.1</ele>
        <time>2023-12-21T13:28:19Z</time>
      </trkpt>
      <trkpt lat="40.0660017834287" lon="116.53292899152605">
        <ele>8.700000000000001</ele>
        <time>2023-12-21T13:28:31Z</time>
      </trkpt>
      <trkpt lat="40.06625227473587" lon="116.53314158905604">
        <ele>9.6</ele>
        <time>2023-12-21T13:28:43Z</time>
      </trkpt>
      <trkpt lat="40.06651963740469" lon="116.53330102622938">
        <ele>12.4</ele>
        <time>2023-12-21T13:28:52Z</time>
      </trkpt>
      <trkpt lat="40.066660826310645" lon="116.53338425383382">
        <ele>14.6</ele>
        <time>2023-12-21T13:28:58Z</time>
      </trkpt>
      <trkpt lat="40.06692735403127" lon="116.53361389549539">
        <ele>15.500000000000002</ele>
        <time>2023-12-21T13:29:10Z</time>
      </trkpt>
      <trkpt lat="40.067230832885585" lon="116.53382447477269">
        <ele>15.200000000000001</ele>
        <time>2023-12-21T13:29:22Z</time>
      </trkpt>
      <trkpt lat="40.06750130298407" lon="116.53403104461579">
        <ele>15.6</ele>
        <time>2023-12-21T13:29:34Z</time>
      </trkpt>
      <trkpt lat="40.067753716379414" lon="116.5342135449647">
        <ele>12.1</ele>
        <time>2023-12-21T13:29:46Z</time>
      </trkpt>
      <trkpt lat="40.06801215185787" lon="116.53440607229201">
        <ele>12.6</ele>
        <time>2023-12-21T13:29:58Z</time>
      </trkpt>
      <trkpt lat="40.06824367454817" lon="116.53463570868567">
        <ele>12.1</ele>
        <time>2023-12-21T13:30:10Z</time>
      </trkpt>
      <trkpt lat="40.068488248488705" lon="116.53488840773333">
        <ele>13.4</ele>
        <time>2023-12-21T13:30:22Z</time>
      </trkpt>
      <trkpt lat="40.06872658801879" lon="116.53504081692667">
        <ele>12.299999999999999</ele>
        <time>2023-12-21T13:30:31Z</time>
      </trkpt>
      <trkpt lat="40.068948709141594" lon="116.53509895667335">
        <ele>16.9</ele>
        <time>2023-12-21T13:30:37Z</time>
      </trkpt>
      <trkpt lat="40.06905895577082" lon="116.53520825671241">
        <ele>17.200000000000003</ele>
        <time>2023-12-21T13:30:43Z</time>
      </trkpt>
      <trkpt lat="40.0691951864632" lon="116.53531153583387">
        <ele>17.700000000000003</ele>
        <time>2023-12-21T13:30:49Z</time>
      </trkpt>
      <trkpt lat="40.06937974726109" lon="116.53555922084726">
        <ele>12.9</ele>
        <time>2023-12-21T13:31:01Z</time>
      </trkpt>
      <trkpt lat="40.06967605448241" lon="116.53570058724284">
        <ele>13.200000000000001</ele>
        <time>2023-12-21T13:31:10Z</time>
      </trkpt>
      <trkpt lat="40.06998849134685" lon="116.5358991130848">
        <ele>13.4</ele>
        <time>2023-12-21T13:31:22Z</time>
      </trkpt>
      <trkpt lat="40.07004663269478" lon="116.53596228512524">
        <ele>13.4</ele>
        <time>2023-12-21T13:31:25Z</time>
      </trkpt>
      <trkpt lat="40.070023829611365" lon="116.53604752942839">
        <ele>12.700000000000001</ele>
        <time>2023-12-21T13:31:31Z</time>
      </trkpt>
      <trkpt lat="40.06989317080472" lon="116.53619295675313">
        <ele>12.4</ele>
        <time>2023-12-21T13:31:40Z</time>
      </trkpt>
      <trkpt lat="40.06958575124509" lon="116.5364386873891">
        <ele>14.4</ele>
        <time>2023-12-21T13:31:52Z</time>
      </trkpt>
      <trkpt lat="40.06933623721779" lon="116.53664529861331">
        <ele>17.1</ele>
        <time>2023-12-21T13:32:04Z</time>
      </trkpt>
      <trkpt lat="40.06920651868941" lon="116.53676565189804">
        <ele>16.200000000000003</ele>
        <time>2023-12-21T13:32:10Z</time>
      </trkpt>
      <trkpt lat="40.06899526759218" lon="116.53709058555503">
        <ele>15.4</ele>
        <time>2023-12-21T13:32:22Z</time>
      </trkpt>
      <trkpt lat="40.06875680046061" lon="116.53732025365751">
        <ele>16.200000000000003</ele>
        <time>2023-12-21T13:32:34Z</time>
      </trkpt>
      <trkpt lat="40.068513356676725" lon="116.53756095059141">
        <ele>16.700000000000003</ele>
        <time>2023-12-21T13:32:46Z</time>
      </trkpt>
      <trkpt lat="40.06821591437862" lon="116.53780165163026">
        <ele>16.200000000000003</ele>
        <time>2023-12-21T13:33:01Z</time>
      </trkpt>
      <trkpt lat="40.06806613437118" lon="116.5378959296018">
        <ele>17.700000000000003</ele>
        <time>2023-12-21T13:33:07Z</time>
      </trkpt>
      <trkpt lat="40.067866694447964" lon="116.53814162879507">
        <ele>15.1</ele>
        <time>2023-12-21T13:33:19Z</time>
      </trkpt>
      <trkpt lat="40.06764125638508" lon="116.53838833125691">
        <ele>13.299999999999999</ele>
        <time>2023-12-21T13:33:31Z</time>
      </trkpt>
      <trkpt lat="40.06741098264229" lon="116.53871023597503">
        <ele>17.0</ele>
        <time>2023-12-21T13:33:43Z</time>
      </trkpt>
      <trkpt lat="40.06722773556994" lon="116.5390471709259">
        <ele>14.9</ele>
        <time>2023-12-21T13:33:55Z</time>
      </trkpt>
      <trkpt lat="40.067002636176824" lon="116.53945228894655">
        <ele>12.000000000000002</ele>
        <time>2023-12-21T13:34:10Z</time>
      </trkpt>
      <trkpt lat="40.06684034246534" lon="116.53977216461972">
        <ele>10.0</ele>
        <time>2023-12-21T13:34:22Z</time>
      </trkpt>
      <trkpt lat="40.0667796550423" lon="116.53991455150923">
        <ele>6.6</ele>
        <time>2023-12-21T13:34:28Z</time>
      </trkpt>
      <trkpt lat="40.06667953611666" lon="116.54031963828825">
        <ele>2.4000000000000004</ele>
        <time>2023-12-21T13:34:43Z</time>
      </trkpt>
      <trkpt lat="40.06657430896159" lon="116.54067659182404">
        <ele>16.299999999999997</ele>
        <time>2023-12-21T13:35:01Z</time>
      </trkpt>
      <trkpt lat="40.06643994687722" lon="116.54097138071255">
        <ele>19.799999999999997</ele>
        <time>2023-12-21T13:35:25Z</time>
      </trkpt>
      <trkpt lat="40.066352702175934" lon="116.541324310918">
        <ele>21.799999999999997</ele>
        <time>2023-12-21T13:35:49Z</time>
      </trkpt>
      <trkpt lat="40.06627428144964" lon="116.54159602451857">
        <ele>22.4</ele>
        <time>2023-12-21T13:36:07Z</time>
      </trkpt>
      <trkpt lat="40.066207830060286" lon="116.54185469968618">
        <ele>27.299999999999997</ele>
        <time>2023-12-21T13:36:25Z</time>
      </trkpt>
      <trkpt lat="40.066090572264194" lon="116.54220561393798">
        <ele>25.9</ele>
        <time>2023-12-21T13:36:49Z</time>
      </trkpt>
      <trkpt lat="40.06606001307301" lon="116.54241615483005">
        <ele>24.299999999999997</ele>
        <time>2023-12-21T13:37:01Z</time>
      </trkpt>
      <trkpt lat="40.066079149520256" lon="116.5424823208664">
        <ele>21.799999999999997</ele>
        <time>2023-12-21T13:37:07Z</time>
      </trkpt>
      <trkpt lat="40.06606731686671" lon="116.54256252614482">
        <ele>18.9</ele>
        <time>2023-12-21T13:37:13Z</time>
      </trkpt>
      <trkpt lat="40.06597749711135" lon="116.54264675085845">
        <ele>17.6</ele>
        <time>2023-12-21T13:37:25Z</time>
      </trkpt>
      <trkpt lat="40.06591050955388" lon="116.54265076924668">
        <ele>15.700000000000001</ele>
        <time>2023-12-21T13:37:31Z</time>
      </trkpt>
      <trkpt lat="40.065625317036904" lon="116.54254954728808">
        <ele>18.700000000000003</ele>
        <time>2023-12-21T13:37:55Z</time>
      </trkpt>
      <trkpt lat="40.06553528301442" lon="116.54253050994477">
        <ele>21.4</ele>
        <time>2023-12-21T13:38:01Z</time>
      </trkpt>
      <trkpt lat="40.06534736742454" lon="116.54256562213713">
        <ele>24.700000000000003</ele>
        <time>2023-12-21T13:38:19Z</time>
      </trkpt>
      <trkpt lat="40.0651372970404" lon="116.54252554604903">
        <ele>25.200000000000003</ele>
        <time>2023-12-21T13:38:37Z</time>
      </trkpt>
      <trkpt lat="40.06502246225637" lon="116.542601753626">
        <ele>29.699999999999996</ele>
        <time>2023-12-21T13:38:49Z</time>
      </trkpt>
      <trkpt lat="40.06496560086118" lon="116.54266692586626">
        <ele>31.1</ele>
        <time>2023-12-21T13:38:55Z</time>
      </trkpt>
      <trkpt lat="40.06484072064935" lon="116.54272107833297">
        <ele>29.299999999999997</ele>
        <time>2023-12-21T13:39:10Z</time>
      </trkpt>
      <trkpt lat="40.0647037311067" lon="116.5427220976817">
        <ele>27.799999999999997</ele>
        <time>2023-12-21T13:39:22Z</time>
      </trkpt>
      <trkpt lat="40.064639693501256" lon="116.54270205476384">
        <ele>27.0</ele>
        <time>2023-12-21T13:39:28Z</time>
      </trkpt>
      <trkpt lat="40.06439468562493" lon="116.54269105689444">
        <ele>20.4</ele>
        <time>2023-12-21T13:39:52Z</time>
      </trkpt>
      <trkpt lat="40.06409958934292" lon="116.54263595334616">
        <ele>17.4</ele>
        <time>2023-12-21T13:40:16Z</time>
      </trkpt>
      <trkpt lat="40.063772476139754" lon="116.5425718306769">
        <ele>16.9</ele>
        <time>2023-12-21T13:40:46Z</time>
      </trkpt>
      <trkpt lat="40.06345439136505" lon="116.54252174237993">
        <ele>14.500000000000002</ele>
        <time>2023-12-21T13:41:04Z</time>
      </trkpt>
      <trkpt lat="40.0632852849309" lon="116.54246562038168">
        <ele>16.6</ele>
        <time>2023-12-21T13:41:28Z</time>
      </trkpt>
      <trkpt lat="40.0630942735665" lon="116.54245461576383">
        <ele>16.799999999999997</ele>
        <time>2023-12-21T13:41:46Z</time>
      </trkpt>
      <trkpt lat="40.062907193106064" lon="116.54241052643398">
        <ele>14.6</ele>
        <time>2023-12-21T13:41:55Z</time>
      </trkpt>
      <trkpt lat="40.06285706460835" lon="116.54234737165139">
        <ele>14.000000000000002</ele>
        <time>2023-12-21T13:41:58Z</time>
      </trkpt>
      <trkpt lat="40.06278277003367" lon="116.54220401477787">
        <ele>14.200000000000001</ele>
        <time>2023-12-21T13:42:04Z</time>
      </trkpt>
      <trkpt lat="40.062537256091595" lon="116.54195139759939">
        <ele>10.799999999999999</ele>
        <time>2023-12-21T13:42:19Z</time>
      </trkpt>
      <trkpt lat="40.062485061435126" lon="116.54185716178392">
        <ele>10.3</ele>
        <time>2023-12-21T13:42:22Z</time>
      </trkpt>
      <trkpt lat="40.06224948037312" lon="116.54157446154852">
        <ele>15.4</ele>
        <time>2023-12-21T13:42:34Z</time>
      </trkpt>
      <trkpt lat="40.06219536721288" lon="116.54151932554683">
        <ele>15.4</ele>
        <time>2023-12-21T13:42:37Z</time>
      </trkpt>
      <trkpt lat="40.062095948975006" lon="116.5413188178558">
        <ele>13.1</ele>
        <time>2023-12-21T13:42:46Z</time>
      </trkpt>
      <trkpt lat="40.06188236131823" lon="116.54103610786049">
        <ele>7.700000000000001</ele>
        <time>2023-12-21T13:42:58Z</time>
      </trkpt>
      <trkpt lat="40.06166577752186" lon="116.54075640243875">
        <ele>9.0</ele>
        <time>2023-12-21T13:43:10Z</time>
      </trkpt>
      <trkpt lat="40.06156042749077" lon="116.54058997813351">
        <ele>10.700000000000001</ele>
        <time>2023-12-21T13:43:16Z</time>
      </trkpt>
      <trkpt lat="40.061349858494076" lon="116.54031929010559">
        <ele>8.0</ele>
        <time>2023-12-21T13:43:28Z</time>
      </trkpt>
      <trkpt lat="40.061113193144145" lon="116.54000448474429">
        <ele>5.1</ele>
        <time>2023-12-21T13:43:40Z</time>
      </trkpt>
      <trkpt lat="40.060900459778" lon="116.53966059424127">
        <ele>5.200000000000001</ele>
        <time>2023-12-21T13:43:52Z</time>
      </trkpt>
      <trkpt lat="40.06064870503164" lon="116.53930767892986">
        <ele>7.0</ele>
        <time>2023-12-21T13:44:04Z</time>
      </trkpt>
      <trkpt lat="40.06042107689102" lon="116.53901491770223">
        <ele>6.9</ele>
        <time>2023-12-21T13:44:16Z</time>
      </trkpt>
      <trkpt lat="40.06024951554486" lon="116.53875523557299">
        <ele>9.700000000000001</ele>
        <time>2023-12-21T13:44:25Z</time>
      </trkpt>
      <trkpt lat="40.06016304010649" lon="116.53853765471506">
        <ele>10.500000000000002</ele>
        <time>2023-12-21T13:44:31Z</time>
      </trkpt>
      <trkpt lat="40.06017477298441" lon="116.53841732528562">
        <ele>12.4</ele>
        <time>2023-12-21T13:44:34Z</time>
      </trkpt>
      <trkpt lat="40.06020254450001" lon="116.53831504257992">
        <ele>14.299999999999999</ele>
        <time>2023-12-21T13:44:37Z</time>
      </trkpt>
      <trkpt lat="40.060402861213234" lon="116.53801319108486">
        <ele>11.799999999999999</ele>
        <time>2023-12-21T13:44:49Z</time>
      </trkpt>
      <trkpt lat="40.06052144900985" lon="116.53783167735368">
        <ele>14.9</ele>
        <time>2023-12-21T13:44:55Z</time>
      </trkpt>
      <trkpt lat="40.06072984149987" lon="116.53756591832658">
        <ele>18.700000000000003</ele>
        <time>2023-12-21T13:45:04Z</time>
      </trkpt>
      <trkpt lat="40.06086945697999" lon="116.53739843739166">
        <ele>19.1</ele>
        <time>2023-12-21T13:45:10Z</time>
      </trkpt>
      <trkpt lat="40.06111489558127" lon="116.53715573300052">
        <ele>14.1</ele>
        <time>2023-12-21T13:45:22Z</time>
      </trkpt>
      <trkpt lat="40.06134116755788" lon="116.53683982375594">
        <ele>17.5</ele>
        <time>2023-12-21T13:45:34Z</time>
      </trkpt>
      <trkpt lat="40.06146182126044" lon="116.53669039049284">
        <ele>19.1</ele>
        <time>2023-12-21T13:45:40Z</time>
      </trkpt>
      <trkpt lat="40.06171816907893" lon="116.53641057289214">
        <ele>22.299999999999997</ele>
        <time>2023-12-21T13:45:52Z</time>
      </trkpt>
      <trkpt lat="40.06186170473698" lon="116.53621099251161">
        <ele>22.4</ele>
        <time>2023-12-21T13:46:01Z</time>
      </trkpt>
      <trkpt lat="40.06211305779609" lon="116.53593518116608">
        <ele>23.799999999999997</ele>
        <time>2023-12-21T13:46:13Z</time>
      </trkpt>
      <trkpt lat="40.06237838219019" lon="116.53564833345848">
        <ele>21.0</ele>
        <time>2023-12-21T13:46:25Z</time>
      </trkpt>
      <trkpt lat="40.062571775598215" lon="116.53539057427915">
        <ele>19.799999999999997</ele>
        <time>2023-12-21T13:46:37Z</time>
      </trkpt>
      <trkpt lat="40.06276909920292" lon="116.53510372835194">
        <ele>18.200000000000003</ele>
        <time>2023-12-21T13:46:49Z</time>
      </trkpt>
      <trkpt lat="40.06299047020216" lon="116.53483893961776">
        <ele>14.200000000000001</ele>
        <time>2023-12-21T13:47:01Z</time>
      </trkpt>
      <trkpt lat="40.06324577836621" lon="116.53454907125268">
        <ele>16.1</ele>
        <time>2023-12-21T13:47:13Z</time>
      </trkpt>
      <trkpt lat="40.0634740596926" lon="116.53424817067855">
        <ele>23.9</ele>
        <time>2023-12-21T13:47:25Z</time>
      </trkpt>
      <trkpt lat="40.06372438889845" lon="116.53396932804858">
        <ele>23.1</ele>
        <time>2023-12-21T13:47:37Z</time>
      </trkpt>
      <trkpt lat="40.063936784419674" lon="116.5337185691353">
        <ele>21.200000000000003</ele>
        <time>2023-12-21T13:47:49Z</time>
      </trkpt>
      <trkpt lat="40.064137166883356" lon="116.53346279440726">
        <ele>23.4</ele>
        <time>2023-12-21T13:48:01Z</time>
      </trkpt>
      <trkpt lat="40.064376454344185" lon="116.53316889984518">
        <ele>22.299999999999997</ele>
        <time>2023-12-21T13:48:13Z</time>
      </trkpt>
      <trkpt lat="40.064630711960675" lon="116.53286396728505">
        <ele>24.9</ele>
        <time>2023-12-21T13:48:25Z</time>
      </trkpt>
      <trkpt lat="40.06489393741065" lon="116.5325469940997">
        <ele>25.299999999999997</ele>
        <time>2023-12-21T13:48:37Z</time>
      </trkpt>
      <trkpt lat="40.065100315410646" lon="116.53229321259171">
        <ele>24.6</ele>
        <time>2023-12-21T13:48:46Z</time>
      </trkpt>
      <trkpt lat="40.06517723348749" lon="116.53226110730641">
        <ele>24.0</ele>
        <time>2023-12-21T13:48:49Z</time>
      </trkpt>
      <trkpt lat="40.0652442631565" lon="116.53227514097733">
        <ele>22.6</ele>
        <time>2023-12-21T13:48:52Z</time>
      </trkpt>
      <trkpt lat="40.065538794412" lon="116.53250378638079">
        <ele>17.799999999999997</ele>
        <time>2023-12-21T13:49:04Z</time>
      </trkpt>
      <trkpt lat="40.065777221960744" lon="116.5326883056337">
        <ele>16.4</ele>
        <time>2023-12-21T13:49:13Z</time>
      </trkpt>
      <trkpt lat="40.06602763577253" lon="116.53286780720514">
        <ele>6.6</ele>
        <time>2023-12-21T13:49:25Z</time>
      </trkpt>
      <trkpt lat="40.06630615200782" lon="116.53309143438781">
        <ele>10.799999999999999</ele>
        <time>2023-12-21T13:49:37Z</time>
      </trkpt>
      <trkpt lat="40.066558570656994" lon="116.53327394168359">
        <ele>11.1</ele>
        <time>2023-12-21T13:49:49Z</time>
      </trkpt>
      <trkpt lat="40.06663165905943" lon="116.53331304787721">
        <ele>10.4</ele>
        <time>2023-12-21T13:49:52Z</time>
      </trkpt>
      <trkpt lat="40.06686414662161" lon="116.53352464139941">
        <ele>15.799999999999999</ele>
        <time>2023-12-21T13:50:01Z</time>
      </trkpt>
      <trkpt lat="40.06691426938988" lon="116.53357779121751">
        <ele>15.299999999999999</ele>
        <time>2023-12-21T13:50:04Z</time>
      </trkpt>
      <trkpt lat="40.06717359960889" lon="116.53372418840866">
        <ele>12.299999999999999</ele>
        <time>2023-12-21T13:50:16Z</time>
      </trkpt>
      <trkpt lat="40.067444037245" lon="116.53391671810753">
        <ele>14.500000000000002</ele>
        <time>2023-12-21T13:50:28Z</time>
      </trkpt>
      <trkpt lat="40.067701413226395" lon="116.53408317196046">
        <ele>20.1</ele>
        <time>2023-12-21T13:50:40Z</time>
      </trkpt>
      <trkpt lat="40.0678256247361" lon="116.53417642819194">
        <ele>19.799999999999997</ele>
        <time>2023-12-21T13:50:46Z</time>
      </trkpt>
      <trkpt lat="40.067860754442485" lon="116.5342325871912">
        <ele>18.700000000000003</ele>
        <time>2023-12-21T13:50:49Z</time>
      </trkpt>
      <trkpt lat="40.06813216784844" lon="116.53441608660343">
        <ele>16.5</ele>
        <time>2023-12-21T13:51:01Z</time>
      </trkpt>
      <trkpt lat="40.06822439447155" lon="116.53451536291938">
        <ele>15.1</ele>
        <time>2023-12-21T13:51:07Z</time>
      </trkpt>
      <trkpt lat="40.068465864291554" lon="116.53472293337317">
        <ele>14.000000000000002</ele>
        <time>2023-12-21T13:51:19Z</time>
      </trkpt>
      <trkpt lat="40.068534012024195" lon="116.53478811307815">
        <ele>14.1</ele>
        <time>2023-12-21T13:51:22Z</time>
      </trkpt>
      <trkpt lat="40.06881537964179" lon="116.53495355512725">
        <ele>14.9</ele>
        <time>2023-12-21T13:51:34Z</time>
      </trkpt>
      <trkpt lat="40.069048819205875" lon="116.53514908827331">
        <ele>18.9</ele>
        <time>2023-12-21T13:51:46Z</time>
      </trkpt>
      <trkpt lat="40.06926818650973" lon="116.53531353259417">
        <ele>15.4</ele>
        <time>2023-12-21T13:51:58Z</time>
      </trkpt>
      <trkpt lat="40.069376467288265" lon="116.53543787487685">
        <ele>11.4</ele>
        <time>2023-12-21T13:52:04Z</time>
      </trkpt>
      <trkpt lat="40.06966686560045" lon="116.53561835419703">
        <ele>13.700000000000001</ele>
        <time>2023-12-21T13:52:16Z</time>
      </trkpt>
      <trkpt lat="40.069787105188915" lon="116.53572564492121">
        <ele>14.200000000000001</ele>
        <time>2023-12-21T13:52:22Z</time>
      </trkpt>
      <trkpt lat="40.070011439221005" lon="116.53587704764739">
        <ele>10.700000000000001</ele>
        <time>2023-12-21T13:52:31Z</time>
      </trkpt>
      <trkpt lat="40.07006856686531" lon="116.53593420280735">
        <ele>9.6</ele>
        <time>2023-12-21T13:52:34Z</time>
      </trkpt>
      <trkpt lat="40.070081713290726" lon="116.53599838312977">
        <ele>8.8</ele>
        <time>2023-12-21T13:52:37Z</time>
      </trkpt>
      <trkpt lat="40.06986828244257" lon="116.53624109575512">
        <ele>8.4</ele>
        <time>2023-12-21T13:52:49Z</time>
      </trkpt>
      <trkpt lat="40.06961177931772" lon="116.53645172087842">
        <ele>10.4</ele>
        <time>2023-12-21T13:53:01Z</time>
      </trkpt>
      <trkpt lat="40.06935622000189" lon="116.53663827645903">
        <ele>11.700000000000001</ele>
        <time>2023-12-21T13:53:13Z</time>
      </trkpt>
      <trkpt lat="40.06913576417653" lon="116.53687195805749">
        <ele>5.9</ele>
        <time>2023-12-21T13:53:25Z</time>
      </trkpt>
      <trkpt lat="40.068911227563255" lon="116.53707053999001">
        <ele>9.700000000000001</ele>
        <time>2023-12-21T13:53:34Z</time>
      </trkpt>
      <trkpt lat="40.06863685313671" lon="116.53734032408373">
        <ele>11.299999999999999</ele>
        <time>2023-12-21T13:53:46Z</time>
      </trkpt>
      <trkpt lat="40.06840134569237" lon="116.53755294216776">
        <ele>9.3</ele>
        <time>2023-12-21T13:53:58Z</time>
      </trkpt>
      <trkpt lat="40.068148050859115" lon="116.53786082293357">
        <ele>16.0</ele>
        <time>2023-12-21T13:54:10Z</time>
      </trkpt>
      <trkpt lat="40.06789277535144" lon="116.53817872724927">
        <ele>14.6</ele>
        <time>2023-12-21T13:54:22Z</time>
      </trkpt>
      <trkpt lat="40.06764047413983" lon="116.53848659940866">
        <ele>15.500000000000002</ele>
        <time>2023-12-21T13:54:34Z</time>
      </trkpt>
      <trkpt lat="40.0674282070741" lon="116.53881251138338">
        <ele>19.5</ele>
        <time>2023-12-21T13:54:46Z</time>
      </trkpt>
      <trkpt lat="40.06731959331083" lon="116.53898499165514">
        <ele>16.799999999999997</ele>
        <time>2023-12-21T13:54:52Z</time>
      </trkpt>
      <trkpt lat="40.06715624983015" lon="116.53927980676052">
        <ele>16.1</ele>
        <time>2023-12-21T13:55:01Z</time>
      </trkpt>
      <trkpt lat="40.0670049245409" lon="116.53958464332403">
        <ele>17.6</ele>
        <time>2023-12-21T13:55:10Z</time>
      </trkpt>
      <trkpt lat="40.066882572608606" lon="116.53987944543057">
        <ele>17.799999999999997</ele>
        <time>2023-12-21T13:55:19Z</time>
      </trkpt>
      <trkpt lat="40.066803829394225" lon="116.53999576456667">
        <ele>17.1</ele>
        <time>2023-12-21T13:55:25Z</time>
      </trkpt>
      <trkpt lat="40.06669053111824" lon="116.54031763163714">
        <ele>13.9</ele>
        <time>2023-12-21T13:55:34Z</time>
      </trkpt>
      <trkpt lat="40.066595249696384" lon="116.54064951811849">
        <ele>17.700000000000003</ele>
        <time>2023-12-21T13:55:46Z</time>
      </trkpt>
      <trkpt lat="40.06648904208178" lon="116.54101749517247">
        <ele>18.5</ele>
        <time>2023-12-21T13:55:58Z</time>
      </trkpt>
      <trkpt lat="40.06638979544365" lon="116.5413694234973">
        <ele>23.5</ele>
        <time>2023-12-21T13:56:10Z</time>
      </trkpt>
      <trkpt lat="40.066374993628784" lon="116.54146266709077">
        <ele>19.9</ele>
        <time>2023-12-21T13:56:13Z</time>
      </trkpt>
      <trkpt lat="40.06625274301849" lon="116.541814590965">
        <ele>21.6</ele>
        <time>2023-12-21T13:56:25Z</time>
      </trkpt>
      <trkpt lat="40.0661505350585" lon="116.5421895655677">
        <ele>23.299999999999997</ele>
        <time>2023-12-21T13:56:37Z</time>
      </trkpt>
      <trkpt lat="40.06607212911053" lon="116.5424722962284">
        <ele>21.9</ele>
        <time>2023-12-21T13:56:47Z</time>
      </trkpt>
      <trkpt lat="40.0660593298466" lon="116.54256854239976">
        <ele>20.0</ele>
        <time>2023-12-21T13:56:50Z</time>
      </trkpt>
      <trkpt lat="40.066027491949896" lon="116.54264574218101">
        <ele>19.6</ele>
        <time>2023-12-21T13:56:53Z</time>
      </trkpt>
      <trkpt lat="40.065957581444714" lon="116.54268685494213">
        <ele>18.9</ele>
        <time>2023-12-21T13:56:56Z</time>
      </trkpt>
      <trkpt lat="40.06565761445771" lon="116.54269390953303">
        <ele>18.0</ele>
        <time>2023-12-21T13:57:08Z</time>
      </trkpt>
      <trkpt lat="40.065329547371284" lon="116.54265184308404">
        <ele>21.4</ele>
        <time>2023-12-21T13:57:20Z</time>
      </trkpt>
      <trkpt lat="40.065017456323204" lon="116.54259874660798">
        <ele>29.699999999999996</ele>
        <time>2023-12-21T13:57:32Z</time>
      </trkpt>
      <trkpt lat="40.064732394709345" lon="116.54256068487723">
        <ele>26.0</ele>
        <time>2023-12-21T13:57:44Z</time>
      </trkpt>
      <trkpt lat="40.064452359778194" lon="116.54253565557845">
        <ele>23.0</ele>
        <time>2023-12-21T13:57:56Z</time>
      </trkpt>
      <trkpt lat="40.06411730939753" lon="116.54250161006459">
        <ele>22.4</ele>
        <time>2023-12-21T13:58:08Z</time>
      </trkpt>
      <trkpt lat="40.06394529486859" lon="116.54248960058527">
        <ele>20.200000000000003</ele>
        <time>2023-12-21T13:58:14Z</time>
      </trkpt>
      <trkpt lat="40.0638652392928" lon="116.54246053645942">
        <ele>21.799999999999997</ele>
        <time>2023-12-21T13:58:17Z</time>
      </trkpt>
      <trkpt lat="40.06358223564208" lon="116.54245054567951">
        <ele>19.0</ele>
        <time>2023-12-21T13:58:29Z</time>
      </trkpt>
      <trkpt lat="40.06343217174503" lon="116.54241547477564">
        <ele>17.9</ele>
        <time>2023-12-21T13:58:35Z</time>
      </trkpt>
      <trkpt lat="40.063272171013494" lon="116.54241048164575">
        <ele>19.200000000000003</ele>
        <time>2023-12-21T13:58:41Z</time>
      </trkpt>
      <trkpt lat="40.062962010210285" lon="116.54232429997231">
        <ele>19.9</ele>
        <time>2023-12-21T13:58:53Z</time>
      </trkpt>
      <trkpt lat="40.06269068343152" lon="116.54215991327217">
        <ele>18.299999999999997</ele>
        <time>2023-12-21T13:59:05Z</time>
      </trkpt>
      <trkpt lat="40.062482198420135" lon="116.54192232967301">
        <ele>17.0</ele>
        <time>2023-12-21T13:59:14Z</time>
      </trkpt>
      <trkpt lat="40.062305635573985" lon="116.54164964894225">
        <ele>17.700000000000003</ele>
        <time>2023-12-21T13:59:23Z</time>
      </trkpt>
      <trkpt lat="40.06210508220405" lon="116.5413819807026">
        <ele>16.799999999999997</ele>
        <time>2023-12-21T13:59:32Z</time>
      </trkpt>
      <trkpt lat="40.061920499813965" lon="116.54110227581516">
        <ele>14.799999999999999</ele>
        <time>2023-12-21T13:59:41Z</time>
      </trkpt>
      <trkpt lat="40.06172295405318" lon="116.54084061618836">
        <ele>13.9</ele>
        <time>2023-12-21T13:59:50Z</time>
      </trkpt>
      <trkpt lat="40.061529407853236" lon="116.54057995556163">
        <ele>15.500000000000002</ele>
        <time>2023-12-21T13:59:59Z</time>
      </trkpt>
      <trkpt lat="40.0614532338621" lon="116.54049674578013">
        <ele>16.299999999999997</ele>
        <time>2023-12-21T14:00:02Z</time>
      </trkpt>
      <trkpt lat="40.06125757444513" lon="116.54018494589793">
        <ele>15.200000000000001</ele>
        <time>2023-12-21T14:00:11Z</time>
      </trkpt>
      <trkpt lat="40.0610649963011" lon="116.53991224532935">
        <ele>16.1</ele>
        <time>2023-12-21T14:00:20Z</time>
      </trkpt>
      <trkpt lat="40.06084834070452" lon="116.53960445048064">
        <ele>14.700000000000001</ele>
        <time>2023-12-21T14:00:29Z</time>
      </trkpt>
      <trkpt lat="40.06064271415931" lon="116.53931169044971">
        <ele>14.200000000000001</ele>
        <time>2023-12-21T14:00:38Z</time>
      </trkpt>
      <trkpt lat="40.060490277456445" lon="116.53910816096928">
        <ele>14.500000000000002</ele>
        <time>2023-12-21T14:00:44Z</time>
      </trkpt>
    </trkseg>
  </trk>
</gpx>