<?xml version="1.0" encoding="UTF-8"?>
<gpx xmlns="http://www.topografix.com/GPX/1/1" xmlns:gpxtpx="http://www.garmin.com/xmlschemas/TrackPointExtension/v1" xmlns:xsi="http://www.w3.org/2001/XMLSchema-instance" xsi:schemaLocation="http://www.topografix.com/GPX/1/1 http://www.topografix.com/GPX/1/1/gpx.xsd" version="1.1" creator="gpx.py -- https://github.com/tkrajina/gpxpy">
  <trk>
    <name>gpx from keep</name>
    <type>Run</type>
    <trkseg>
      <trkpt lat="39.924766786108606" lon="116.45963776775577">
        <ele>-13.100000000000001</ele>
        <time>2023-04-09T03:15:00Z</time>
      </trkpt>
      <trkpt lat="39.92491146741633" lon="116.45991063545308">
        <ele>-13.100000000000001</ele>
        <time>2023-04-09T03:15:06Z</time>
      </trkpt>
      <trkpt lat="39.92502431607334" lon="116.45985243211388">
        <ele>-13.0</ele>
        <time>2023-04-09T03:15:12Z</time>
      </trkpt>
      <trkpt lat="39.92504147220098" lon="116.45991463211455">
        <ele>-12.600000000000001</ele>
        <time>2023-04-09T03:15:15Z</time>
      </trkpt>
      <trkpt lat="39.92514955887578" lon="116.4599507359347">
        <ele>-11.8</ele>
        <time>2023-04-09T03:15:21Z</time>
      </trkpt>
      <trkpt lat="39.9252595720823" lon="116.45995774491034">
        <ele>-12.3</ele>
        <time>2023-04-09T03:15:27Z</time>
      </trkpt>
      <trkpt lat="39.925321531571335" lon="116.4599426881581">
        <ele>-12.4</ele>
        <time>2023-04-09T03:15:30Z</time>
      </trkpt>
      <trkpt lat="39.92533017206687" lon="116.45980022410463">
        <ele>-11.8</ele>
        <time>2023-04-09T03:15:33Z</time>
      </trkpt>
      <trkpt lat="39.925430150276306" lon="116.45979318869801">
        <ele>-12.4</ele>
        <time>2023-04-09T03:15:42Z</time>
      </trkpt>
      <trkpt lat="39.92545898993577" lon="116.45972997988918">
        <ele>-12.600000000000001</ele>
        <time>2023-04-09T03:15:45Z</time>
      </trkpt>
      <trkpt lat="39.92573619695738" lon="116.45941893726413">
        <ele>-11.3</ele>
        <time>2023-04-09T03:15:57Z</time>
      </trkpt>
      <trkpt lat="39.92578405407568" lon="116.45936274953682">
        <ele>-9.9</ele>
        <time>2023-04-09T03:16:00Z</time>
      </trkpt>
      <trkpt lat="39.925887098340745" lon="116.45898250960798">
        <ele>15.6</ele>
        <time>2023-04-09T03:16:12Z</time>
      </trkpt>
      <trkpt lat="39.92592099174688" lon="116.45894036966332">
        <ele>23.4</ele>
        <time>2023-04-09T03:16:15Z</time>
      </trkpt>
      <trkpt lat="39.92594960023026" lon="116.45878386265308">
        <ele>31.1</ele>
        <time>2023-04-09T03:16:21Z</time>
      </trkpt>
      <trkpt lat="39.925924675597614" lon="116.45841167190102">
        <ele>40.2</ele>
        <time>2023-04-09T03:16:33Z</time>
      </trkpt>
      <trkpt lat="39.925947661056334" lon="116.45800236144768">
        <ele>42.7</ele>
        <time>2023-04-09T03:16:48Z</time>
      </trkpt>
      <trkpt lat="39.92595865656062" lon="116.45759506459497">
        <ele>40.2</ele>
        <time>2023-04-09T03:17:03Z</time>
      </trkpt>
      <trkpt lat="39.92594265533291" lon="116.45718677370071">
        <ele>40.800000000000004</ele>
        <time>2023-04-09T03:17:15Z</time>
      </trkpt>
      <trkpt lat="39.92592143037982" lon="116.4570944849259">
        <ele>40.9</ele>
        <time>2023-04-09T03:17:18Z</time>
      </trkpt>
      <trkpt lat="39.92575076378994" lon="116.4568186370464">
        <ele>43.5</ele>
        <time>2023-04-09T03:17:27Z</time>
      </trkpt>
      <trkpt lat="39.925685610007676" lon="116.45675444331476">
        <ele>45.4</ele>
        <time>2023-04-09T03:17:30Z</time>
      </trkpt>
      <trkpt lat="39.92551564629851" lon="116.456766502616">
        <ele>45.800000000000004</ele>
        <time>2023-04-09T03:17:36Z</time>
      </trkpt>
      <trkpt lat="39.92538754648507" lon="116.45672338315647">
        <ele>43.800000000000004</ele>
        <time>2023-04-09T03:17:42Z</time>
      </trkpt>
      <trkpt lat="39.92535145516087" lon="116.45668526791208">
        <ele>40.300000000000004</ele>
        <time>2023-04-09T03:17:45Z</time>
      </trkpt>
      <trkpt lat="39.925187239822584" lon="116.45659400195647">
        <ele>33.4</ele>
        <time>2023-04-09T03:17:54Z</time>
      </trkpt>
      <trkpt lat="39.9249266270578" lon="116.45633722995109">
        <ele>39.2</ele>
        <time>2023-04-09T03:18:06Z</time>
      </trkpt>
      <trkpt lat="39.92474637443144" lon="116.45622991697364">
        <ele>38.800000000000004</ele>
        <time>2023-04-09T03:18:15Z</time>
      </trkpt>
      <trkpt lat="39.92460738985493" lon="116.45623394705649">
        <ele>40.6</ele>
        <time>2023-04-09T03:18:21Z</time>
      </trkpt>
      <trkpt lat="39.924548455433076" lon="116.45626003603766">
        <ele>41.7</ele>
        <time>2023-04-09T03:18:24Z</time>
      </trkpt>
      <trkpt lat="39.924426436154064" lon="116.45625002007039">
        <ele>41.7</ele>
        <time>2023-04-09T03:18:30Z</time>
      </trkpt>
      <trkpt lat="39.92428362429575" lon="116.45632527342296">
        <ele>45.2</ele>
        <time>2023-04-09T03:18:36Z</time>
      </trkpt>
      <trkpt lat="39.92415104105915" lon="116.45649482116748">
        <ele>48.4</ele>
        <time>2023-04-09T03:18:42Z</time>
      </trkpt>
      <trkpt lat="39.92407717813328" lon="116.45655000352244">
        <ele>49.300000000000004</ele>
        <time>2023-04-09T03:18:45Z</time>
      </trkpt>
      <trkpt lat="39.92376222035151" lon="116.45656208103134">
        <ele>45.5</ele>
        <time>2023-04-09T03:18:57Z</time>
      </trkpt>
      <trkpt lat="39.92345833529607" lon="116.4566042516">
        <ele>44.4</ele>
        <time>2023-04-09T03:19:09Z</time>
      </trkpt>
      <trkpt lat="39.92337741426462" lon="116.45663535944489">
        <ele>43.4</ele>
        <time>2023-04-09T03:19:12Z</time>
      </trkpt>
      <trkpt lat="39.923224449855404" lon="116.45664741654814">
        <ele>41.2</ele>
        <time>2023-04-09T03:19:18Z</time>
      </trkpt>
      <trkpt lat="39.923120566436566" lon="116.45669357461448">
        <ele>38.300000000000004</ele>
        <time>2023-04-09T03:19:24Z</time>
      </trkpt>
      <trkpt lat="39.92307353907554" lon="116.4566815427253">
        <ele>37.7</ele>
        <time>2023-04-09T03:19:27Z</time>
      </trkpt>
      <trkpt lat="39.92286673813686" lon="116.45675981475505">
        <ele>35.1</ele>
        <time>2023-04-09T03:19:36Z</time>
      </trkpt>
      <trkpt lat="39.92282088426267" lon="116.45681900671303">
        <ele>33.5</ele>
        <time>2023-04-09T03:19:39Z</time>
      </trkpt>
      <trkpt lat="39.922755325164864" lon="116.45699858056557">
        <ele>30.0</ele>
        <time>2023-04-09T03:19:45Z</time>
      </trkpt>
      <trkpt lat="39.92268419983803" lon="116.45735471455438">
        <ele>24.6</ele>
        <time>2023-04-09T03:20:00Z</time>
      </trkpt>
      <trkpt lat="39.9226466324271" lon="116.45753027549979">
        <ele>27.700000000000003</ele>
        <time>2023-04-09T03:20:06Z</time>
      </trkpt>
      <trkpt lat="39.922641852167864" lon="116.45761955938232">
        <ele>29.800000000000004</ele>
        <time>2023-04-09T03:20:09Z</time>
      </trkpt>
      <trkpt lat="39.92271945199376" lon="116.45786432763518">
        <ele>34.300000000000004</ele>
        <time>2023-04-09T03:20:15Z</time>
      </trkpt>
      <trkpt lat="39.92297104629675" lon="116.45810907600124">
        <ele>40.9</ele>
        <time>2023-04-09T03:20:27Z</time>
      </trkpt>
      <trkpt lat="39.92302415828883" lon="116.45815521659993">
        <ele>41.0</ele>
        <time>2023-04-09T03:20:30Z</time>
      </trkpt>
      <trkpt lat="39.92305609497857" lon="116.4585334224862">
        <ele>37.2</ele>
        <time>2023-04-09T03:20:45Z</time>
      </trkpt>
      <trkpt lat="39.92307427131956" lon="116.45860464859696">
        <ele>35.7</ele>
        <time>2023-04-09T03:20:48Z</time>
      </trkpt>
      <trkpt lat="39.9230627513783" lon="116.45879726855529">
        <ele>34.800000000000004</ele>
        <time>2023-04-09T03:20:54Z</time>
      </trkpt>
      <trkpt lat="39.92316952843599" lon="116.45911026281294">
        <ele>33.5</ele>
        <time>2023-04-09T03:21:06Z</time>
      </trkpt>
      <trkpt lat="39.92315887787483" lon="116.45924971415663">
        <ele>32.9</ele>
        <time>2023-04-09T03:21:12Z</time>
      </trkpt>
      <trkpt lat="39.9232395035552" lon="116.45950051496632">
        <ele>28.700000000000003</ele>
        <time>2023-04-09T03:21:21Z</time>
      </trkpt>
      <trkpt lat="39.92333899881269" lon="116.45969914618499">
        <ele>30.4</ele>
        <time>2023-04-09T03:21:30Z</time>
      </trkpt>
      <trkpt lat="39.92336233386568" lon="116.45983257639318">
        <ele>34.0</ele>
        <time>2023-04-09T03:21:33Z</time>
      </trkpt>
      <trkpt lat="39.92341448598525" lon="116.45989376867722">
        <ele>35.1</ele>
        <time>2023-04-09T03:21:36Z</time>
      </trkpt>
      <trkpt lat="39.92346956468281" lon="116.45992586610292">
        <ele>34.6</ele>
        <time>2023-04-09T03:21:39Z</time>
      </trkpt>
      <trkpt lat="39.92350671503914" lon="116.45998605719969">
        <ele>33.5</ele>
        <time>2023-04-09T03:21:42Z</time>
      </trkpt>
      <trkpt lat="39.92369705689932" lon="116.4601244839502">
        <ele>32.6</ele>
        <time>2023-04-09T03:21:51Z</time>
      </trkpt>
      <trkpt lat="39.923781149819035" lon="116.46016259757832">
        <ele>33.6</ele>
        <time>2023-04-09T03:21:54Z</time>
      </trkpt>
      <trkpt lat="39.92385033223358" lon="116.46023582763547">
        <ele>33.6</ele>
        <time>2023-04-09T03:21:57Z</time>
      </trkpt>
      <trkpt lat="39.924104662202296" lon="116.4603702343374">
        <ele>36.4</ele>
        <time>2023-04-09T03:22:06Z</time>
      </trkpt>
      <trkpt lat="39.924156591432784" lon="116.46034313934197">
        <ele>37.1</ele>
        <time>2023-04-09T03:22:09Z</time>
      </trkpt>
      <trkpt lat="39.924197419523935" lon="116.46027591480723">
        <ele>37.6</ele>
        <time>2023-04-09T03:22:12Z</time>
      </trkpt>
      <trkpt lat="39.92429123540177" lon="116.46020467065568">
        <ele>36.9</ele>
        <time>2023-04-09T03:22:18Z</time>
      </trkpt>
      <trkpt lat="39.924357192085175" lon="116.46018861001059">
        <ele>36.300000000000004</ele>
        <time>2023-04-09T03:22:21Z</time>
      </trkpt>
      <trkpt lat="39.92449230328719" lon="116.46023474346522">
        <ele>35.2</ele>
        <time>2023-04-09T03:22:27Z</time>
      </trkpt>
      <trkpt lat="39.924537392847235" lon="116.46027085559902">
        <ele>34.800000000000004</ele>
        <time>2023-04-09T03:22:30Z</time>
      </trkpt>
      <trkpt lat="39.9246995614877" lon="116.46034006109477">
        <ele>35.300000000000004</ele>
        <time>2023-04-09T03:22:39Z</time>
      </trkpt>
      <trkpt lat="39.92490948425467" lon="116.46031294621493">
        <ele>34.9</ele>
        <time>2023-04-09T03:22:48Z</time>
      </trkpt>
      <trkpt lat="39.92507921572145" lon="116.46020958771082">
        <ele>33.1</ele>
        <time>2023-04-09T03:22:57Z</time>
      </trkpt>
      <trkpt lat="39.92517175802168" lon="116.46002999100725">
        <ele>32.7</ele>
        <time>2023-04-09T03:23:06Z</time>
      </trkpt>
      <trkpt lat="39.92522439638482" lon="116.45988752100519">
        <ele>31.9</ele>
        <time>2023-04-09T03:23:12Z</time>
      </trkpt>
      <trkpt lat="39.925309319552625" lon="116.4598584157512">
        <ele>31.5</ele>
        <time>2023-04-09T03:23:18Z</time>
      </trkpt>
      <trkpt lat="39.92545732612805" lon="116.45986341339642">
        <ele>31.9</ele>
        <time>2023-04-09T03:23:24Z</time>
      </trkpt>
      <trkpt lat="39.92557418480955" lon="116.45980922267195">
        <ele>33.800000000000004</ele>
        <time>2023-04-09T03:23:30Z</time>
      </trkpt>
      <trkpt lat="39.92578739884084" lon="116.45950019380139">
        <ele>34.0</ele>
        <time>2023-04-09T03:23:45Z</time>
      </trkpt>
      <trkpt lat="39.92589708718437" lon="116.45937778394534">
        <ele>34.5</ele>
        <time>2023-04-09T03:23:51Z</time>
      </trkpt>
      <trkpt lat="39.92594664022667" lon="116.4592002040102">
        <ele>34.300000000000004</ele>
        <time>2023-04-09T03:23:57Z</time>
      </trkpt>
      <trkpt lat="39.92603113754565" lon="116.45900054961015">
        <ele>38.9</ele>
        <time>2023-04-09T03:24:06Z</time>
      </trkpt>
      <trkpt lat="39.92604454884601" lon="116.45876478942475">
        <ele>41.300000000000004</ele>
        <time>2023-04-09T03:24:15Z</time>
      </trkpt>
      <trkpt lat="39.92596765889842" lon="116.45840564721053">
        <ele>42.1</ele>
        <time>2023-04-09T03:24:27Z</time>
      </trkpt>
      <trkpt lat="39.92600372073648" lon="116.4580274343329">
        <ele>34.6</ele>
        <time>2023-04-09T03:24:42Z</time>
      </trkpt>
      <trkpt lat="39.92603363868719" lon="116.45758903603421">
        <ele>29.9</ele>
        <time>2023-04-09T03:25:00Z</time>
      </trkpt>
      <trkpt lat="39.9260387742276" lon="116.45723692009689">
        <ele>29.9</ele>
        <time>2023-04-09T03:25:12Z</time>
      </trkpt>
      <trkpt lat="39.925991361288176" lon="116.45706739062418">
        <ele>33.2</ele>
        <time>2023-04-09T03:25:18Z</time>
      </trkpt>
      <trkpt lat="39.92586387167884" lon="116.45686476801782">
        <ele>36.300000000000004</ele>
        <time>2023-04-09T03:25:27Z</time>
      </trkpt>
      <trkpt lat="39.92581578069143" lon="116.45682665409691">
        <ele>37.1</ele>
        <time>2023-04-09T03:25:30Z</time>
      </trkpt>
      <trkpt lat="39.92554050113446" lon="116.45670731340851">
        <ele>38.4</ele>
        <time>2023-04-09T03:25:42Z</time>
      </trkpt>
      <trkpt lat="39.925271243694255" lon="116.45659700080252">
        <ele>31.9</ele>
        <time>2023-04-09T03:25:57Z</time>
      </trkpt>
      <trkpt lat="39.925206185392966" lon="116.4565719303035">
        <ele>31.1</ele>
        <time>2023-04-09T03:26:00Z</time>
      </trkpt>
      <trkpt lat="39.92496570328314" lon="116.45636932550333">
        <ele>36.9</ele>
        <time>2023-04-09T03:26:12Z</time>
      </trkpt>
      <trkpt lat="39.92482060223221" lon="116.45632520565918">
        <ele>37.2</ele>
        <time>2023-04-09T03:26:18Z</time>
      </trkpt>
      <trkpt lat="39.92469830113261" lon="116.45619882585122">
        <ele>37.300000000000004</ele>
        <time>2023-04-09T03:26:24Z</time>
      </trkpt>
      <trkpt lat="39.924626216714394" lon="116.45616272212676">
        <ele>38.9</ele>
        <time>2023-04-09T03:26:27Z</time>
      </trkpt>
      <trkpt lat="39.9245723014532" lon="116.45619683548338">
        <ele>40.800000000000004</ele>
        <time>2023-04-09T03:26:30Z</time>
      </trkpt>
      <trkpt lat="39.92438441359085" lon="116.45623999401134">
        <ele>43.6</ele>
        <time>2023-04-09T03:26:42Z</time>
      </trkpt>
      <trkpt lat="39.92414602908454" lon="116.45648980607483">
        <ele>45.6</ele>
        <time>2023-04-09T03:26:54Z</time>
      </trkpt>
      <trkpt lat="39.924092050794485" lon="116.45649783804663">
        <ele>46.2</ele>
        <time>2023-04-09T03:26:57Z</time>
      </trkpt>
      <trkpt lat="39.923949212654286" lon="116.45656205743659">
        <ele>47.300000000000004</ele>
        <time>2023-04-09T03:27:03Z</time>
      </trkpt>
      <trkpt lat="39.923839207429644" lon="116.45655805872747">
        <ele>49.5</ele>
        <time>2023-04-09T03:27:09Z</time>
      </trkpt>
      <trkpt lat="39.92370411305656" lon="116.45651694676306">
        <ele>50.300000000000004</ele>
        <time>2023-04-09T03:27:15Z</time>
      </trkpt>
      <trkpt lat="39.923569160045595" lon="116.45653401727643">
        <ele>48.2</ele>
        <time>2023-04-09T03:27:21Z</time>
      </trkpt>
      <trkpt lat="39.92344439686321" lon="116.45662933209368">
        <ele>47.800000000000004</ele>
        <time>2023-04-09T03:27:27Z</time>
      </trkpt>
      <trkpt lat="39.923391440530914" lon="116.45664639232787">
        <ele>47.9</ele>
        <time>2023-04-09T03:27:30Z</time>
      </trkpt>
      <trkpt lat="39.9233273821663" lon="116.45662132166042">
        <ele>48.2</ele>
        <time>2023-04-09T03:27:33Z</time>
      </trkpt>
      <trkpt lat="39.92325356339412" lon="116.45669456098626">
        <ele>47.6</ele>
        <time>2023-04-09T03:27:36Z</time>
      </trkpt>
      <trkpt lat="39.922991774525684" lon="116.45677685261015">
        <ele>41.4</ele>
        <time>2023-04-09T03:27:48Z</time>
      </trkpt>
      <trkpt lat="39.922891766431434" lon="116.45677184945302">
        <ele>39.800000000000004</ele>
        <time>2023-04-09T03:27:51Z</time>
      </trkpt>
      <trkpt lat="39.92276607246355" lon="116.45689525362526">
        <ele>37.7</ele>
        <time>2023-04-09T03:27:57Z</time>
      </trkpt>
      <trkpt lat="39.92262205481857" lon="116.45729453193981">
        <ele>37.9</ele>
        <time>2023-04-09T03:28:09Z</time>
      </trkpt>
      <trkpt lat="39.92260120080518" lon="116.45735372184848">
        <ele>37.5</ele>
        <time>2023-04-09T03:28:12Z</time>
      </trkpt>
      <trkpt lat="39.92262150775917" lon="116.45747911646416">
        <ele>39.300000000000004</ele>
        <time>2023-04-09T03:28:18Z</time>
      </trkpt>
    </trkseg>
  </trk>
</gpx>