<?xml version="1.0" encoding="UTF-8"?>
<gpx xmlns="http://www.topografix.com/GPX/1/1" xmlns:gpxtpx="http://www.garmin.com/xmlschemas/TrackPointExtension/v1" xmlns:xsi="http://www.w3.org/2001/XMLSchema-instance" xsi:schemaLocation="http://www.topografix.com/GPX/1/1 http://www.topografix.com/GPX/1/1/gpx.xsd" version="1.1" creator="gpx.py -- https://github.com/tkrajina/gpxpy">
  <trk>
    <name>gpx from keep</name>
    <type>Run</type>
    <trkseg>
      <trkpt lat="36.67235954731804" lon="117.01061993633648">
        <ele>6.3999999999999995</ele>
        <time>2023-06-19T01:02:09Z</time>
      </trkpt>
      <trkpt lat="36.67246035891629" lon="117.01066274407113">
        <ele>5.7</ele>
        <time>2023-06-19T01:02:21Z</time>
      </trkpt>
      <trkpt lat="36.67237038542575" lon="117.01067271211295">
        <ele>3.2</ele>
        <time>2023-06-19T01:02:24Z</time>
      </trkpt>
      <trkpt lat="36.67226907363385" lon="117.0108001851218">
        <ele>1.5</ele>
        <time>2023-06-19T01:02:33Z</time>
      </trkpt>
      <trkpt lat="36.672281294160086" lon="117.01106307422761">
        <ele>0.7000000000000002</ele>
        <time>2023-06-19T01:02:42Z</time>
      </trkpt>
      <trkpt lat="36.67211001775758" lon="117.01187666763136">
        <ele>11.8</ele>
        <time>2023-06-19T01:02:54Z</time>
      </trkpt>
      <trkpt lat="36.672199032018234" lon="117.0121953190728">
        <ele>11.5</ele>
        <time>2023-06-19T01:03:06Z</time>
      </trkpt>
      <trkpt lat="36.672309408886974" lon="117.01238550861153">
        <ele>6.000000000000001</ele>
        <time>2023-06-19T01:03:15Z</time>
      </trkpt>
      <trkpt lat="36.67248879860421" lon="117.01255677035307">
        <ele>3.2</ele>
        <time>2023-06-19T01:03:27Z</time>
      </trkpt>
      <trkpt lat="36.67254649607066" lon="117.012648380003">
        <ele>3.8</ele>
        <time>2023-06-19T01:03:33Z</time>
      </trkpt>
      <trkpt lat="36.67273682463557" lon="117.0128385621751">
        <ele>6.500000000000001</ele>
        <time>2023-06-19T01:03:42Z</time>
      </trkpt>
      <trkpt lat="36.67290044520406" lon="117.01293414373382">
        <ele>16.2</ele>
        <time>2023-06-19T01:03:51Z</time>
      </trkpt>
      <trkpt lat="36.67317928955616" lon="117.01292813734733">
        <ele>7.7</ele>
        <time>2023-06-19T01:04:06Z</time>
      </trkpt>
      <trkpt lat="36.673254098423" lon="117.01297792064369">
        <ele>5.8999999999999995</ele>
        <time>2023-06-19T01:04:12Z</time>
      </trkpt>
      <trkpt lat="36.67330176219025" lon="117.01308347387625">
        <ele>7.000000000000001</ele>
        <time>2023-06-19T01:04:21Z</time>
      </trkpt>
      <trkpt lat="36.6733123624286" lon="117.01321890667431">
        <ele>6.6000000000000005</ele>
        <time>2023-06-19T01:04:27Z</time>
      </trkpt>
      <trkpt lat="36.67335020312947" lon="117.01326570689261">
        <ele>5.6000000000000005</ele>
        <time>2023-06-19T01:04:33Z</time>
      </trkpt>
      <trkpt lat="36.673399802647175" lon="117.01339316904262">
        <ele>9.0</ele>
        <time>2023-06-19T01:04:39Z</time>
      </trkpt>
      <trkpt lat="36.67353156207929" lon="117.01344792560018">
        <ele>14.099999999999998</ele>
        <time>2023-06-19T01:04:48Z</time>
      </trkpt>
      <trkpt lat="36.67359033224084" lon="117.01351464057633">
        <ele>15.3</ele>
        <time>2023-06-19T01:04:51Z</time>
      </trkpt>
      <trkpt lat="36.673634871970265" lon="117.01366401258406">
        <ele>17.4</ele>
        <time>2023-06-19T01:04:57Z</time>
      </trkpt>
      <trkpt lat="36.67361668150013" lon="117.01373372406273">
        <ele>18.8</ele>
        <time>2023-06-19T01:05:00Z</time>
      </trkpt>
      <trkpt lat="36.673579580633174" lon="117.0137765497962">
        <ele>18.9</ele>
        <time>2023-06-19T01:05:03Z</time>
      </trkpt>
      <trkpt lat="36.67356031032704" lon="117.01387414541891">
        <ele>15.7</ele>
        <time>2023-06-19T01:05:09Z</time>
      </trkpt>
      <trkpt lat="36.67357176502894" lon="117.01406036890924">
        <ele>10.5</ele>
        <time>2023-06-19T01:05:18Z</time>
      </trkpt>
      <trkpt lat="36.67362746875137" lon="117.01415098564716">
        <ele>11.8</ele>
        <time>2023-06-19T01:05:24Z</time>
      </trkpt>
      <trkpt lat="36.673630239957376" lon="117.01422965819604">
        <ele>11.899999999999999</ele>
        <time>2023-06-19T01:05:27Z</time>
      </trkpt>
      <trkpt lat="36.67352024611273" lon="117.01459814012817">
        <ele>12.899999999999999</ele>
        <time>2023-06-19T01:05:45Z</time>
      </trkpt>
      <trkpt lat="36.67341034892264" lon="117.01493376104001">
        <ele>12.600000000000001</ele>
        <time>2023-06-19T01:05:57Z</time>
      </trkpt>
      <trkpt lat="36.67333503235189" lon="117.0150602457677">
        <ele>14.8</ele>
        <time>2023-06-19T01:06:03Z</time>
      </trkpt>
      <trkpt lat="36.67304381574199" lon="117.01519870572783">
        <ele>15.3</ele>
        <time>2023-06-19T01:06:22Z</time>
      </trkpt>
      <trkpt lat="36.672989697905656" lon="117.0152514935099">
        <ele>15.899999999999999</ele>
        <time>2023-06-19T01:06:28Z</time>
      </trkpt>
      <trkpt lat="36.67292042392842" lon="117.01536204428491">
        <ele>14.5</ele>
        <time>2023-06-19T01:06:34Z</time>
      </trkpt>
      <trkpt lat="36.67291819985697" lon="117.01544071942386">
        <ele>13.8</ele>
        <time>2023-06-19T01:06:37Z</time>
      </trkpt>
      <trkpt lat="36.67295549531964" lon="117.01567873248155">
        <ele>13.2</ele>
        <time>2023-06-19T01:06:43Z</time>
      </trkpt>
      <trkpt lat="36.672971600157744" lon="117.01598845374832">
        <ele>10.2</ele>
        <time>2023-06-19T01:06:55Z</time>
      </trkpt>
      <trkpt lat="36.67296711413176" lon="117.0161597489697">
        <ele>9.3</ele>
        <time>2023-06-19T01:07:01Z</time>
      </trkpt>
      <trkpt lat="36.67300076956462" lon="117.01627327808455">
        <ele>7.8999999999999995</ele>
        <time>2023-06-19T01:07:07Z</time>
      </trkpt>
      <trkpt lat="36.67301706177533" lon="117.0165182693117">
        <ele>4.7</ele>
        <time>2023-06-19T01:07:16Z</time>
      </trkpt>
      <trkpt lat="36.673005703405636" lon="117.01664674311377">
        <ele>4.6000000000000005</ele>
        <time>2023-06-19T01:07:22Z</time>
      </trkpt>
      <trkpt lat="36.672864397669436" lon="117.01678519110443">
        <ele>7.500000000000001</ele>
        <time>2023-06-19T01:07:31Z</time>
      </trkpt>
      <trkpt lat="36.67254536645912" lon="117.01686589632455">
        <ele>13.0</ele>
        <time>2023-06-19T01:07:46Z</time>
      </trkpt>
      <trkpt lat="36.67224522751273" lon="117.01698046084273">
        <ele>18.599999999999998</ele>
        <time>2023-06-19T01:08:01Z</time>
      </trkpt>
      <trkpt lat="36.67215915374618" lon="117.01702528698334">
        <ele>17.7</ele>
        <time>2023-06-19T01:08:07Z</time>
      </trkpt>
      <trkpt lat="36.672112953658974" lon="117.01710596189407">
        <ele>12.7</ele>
        <time>2023-06-19T01:08:13Z</time>
      </trkpt>
      <trkpt lat="36.672079145465" lon="117.01739876813147">
        <ele>13.8</ele>
        <time>2023-06-19T01:08:25Z</time>
      </trkpt>
      <trkpt lat="36.672024410925545" lon="117.01767066409519">
        <ele>17.099999999999998</ele>
        <time>2023-06-19T01:08:34Z</time>
      </trkpt>
      <trkpt lat="36.67202935460533" lon="117.0180441414233">
        <ele>16.3</ele>
        <time>2023-06-19T01:08:49Z</time>
      </trkpt>
      <trkpt lat="36.67216925094064" lon="117.01840565546915">
        <ele>13.5</ele>
        <time>2023-06-19T01:09:07Z</time>
      </trkpt>
      <trkpt lat="36.67223983802285" lon="117.0185371136947">
        <ele>11.8</ele>
        <time>2023-06-19T01:09:13Z</time>
      </trkpt>
      <trkpt lat="36.672350520695026" lon="117.01862574152914">
        <ele>11.0</ele>
        <time>2023-06-19T01:09:19Z</time>
      </trkpt>
      <trkpt lat="36.672519678985246" lon="117.01888865668973">
        <ele>14.0</ele>
        <time>2023-06-19T01:09:34Z</time>
      </trkpt>
      <trkpt lat="36.67259461609921" lon="117.01925217762182">
        <ele>12.7</ele>
        <time>2023-06-19T01:09:49Z</time>
      </trkpt>
      <trkpt lat="36.67269961216173" lon="117.01958880694875">
        <ele>8.399999999999999</ele>
        <time>2023-06-19T01:10:04Z</time>
      </trkpt>
      <trkpt lat="36.67277469553448" lon="117.01990153875687">
        <ele>2.3</ele>
        <time>2023-06-19T01:10:16Z</time>
      </trkpt>
      <trkpt lat="36.67280468469751" lon="117.02025909825598">
        <ele>9.5</ele>
        <time>2023-06-19T01:10:28Z</time>
      </trkpt>
      <trkpt lat="36.67285885429958" lon="117.020546937696">
        <ele>12.0</ele>
        <time>2023-06-19T01:10:40Z</time>
      </trkpt>
      <trkpt lat="36.67300483958396" lon="117.02088158180037">
        <ele>8.8</ele>
        <time>2023-06-19T01:10:58Z</time>
      </trkpt>
      <trkpt lat="36.67301448766753" lon="117.02100707921224">
        <ele>8.399999999999999</ele>
        <time>2023-06-19T01:11:04Z</time>
      </trkpt>
      <trkpt lat="36.67299585222095" lon="117.02124214315623">
        <ele>6.8</ele>
        <time>2023-06-19T01:11:13Z</time>
      </trkpt>
      <trkpt lat="36.67306591699221" lon="117.02156684179316">
        <ele>10.399999999999999</ele>
        <time>2023-06-19T01:11:25Z</time>
      </trkpt>
      <trkpt lat="36.67316097403764" lon="117.02188954842876">
        <ele>9.3</ele>
        <time>2023-06-19T01:11:40Z</time>
      </trkpt>
      <trkpt lat="36.67318273718069" lon="117.02197122181529">
        <ele>10.3</ele>
        <time>2023-06-19T01:11:43Z</time>
      </trkpt>
      <trkpt lat="36.67325270953845" lon="117.02233178512783">
        <ele>15.8</ele>
        <time>2023-06-19T01:11:58Z</time>
      </trkpt>
      <trkpt lat="36.67331982468554" lon="117.02264155299704">
        <ele>13.7</ele>
        <time>2023-06-19T01:12:10Z</time>
      </trkpt>
      <trkpt lat="36.67343326995081" lon="117.0228198366122">
        <ele>11.5</ele>
        <time>2023-06-19T01:12:19Z</time>
      </trkpt>
      <trkpt lat="36.67346545879325" lon="117.02311168331792">
        <ele>13.599999999999998</ele>
        <time>2023-06-19T01:12:31Z</time>
      </trkpt>
      <trkpt lat="36.673447844675884" lon="117.02334277675966">
        <ele>15.599999999999998</ele>
        <time>2023-06-19T01:12:40Z</time>
      </trkpt>
      <trkpt lat="36.673479776946785" lon="117.0237312493729">
        <ele>18.099999999999998</ele>
        <time>2023-06-19T01:12:55Z</time>
      </trkpt>
      <trkpt lat="36.673500941436714" lon="117.02403705063733">
        <ele>11.399999999999999</ele>
        <time>2023-06-19T01:13:10Z</time>
      </trkpt>
      <trkpt lat="36.67357488871234" lon="117.02441257697558">
        <ele>8.3</ele>
        <time>2023-06-19T01:13:25Z</time>
      </trkpt>
      <trkpt lat="36.6735875211681" lon="117.02454705187289">
        <ele>12.600000000000001</ele>
        <time>2023-06-19T01:13:31Z</time>
      </trkpt>
      <trkpt lat="36.67364815085787" lon="117.02467156061795">
        <ele>14.0</ele>
        <time>2023-06-19T01:13:37Z</time>
      </trkpt>
      <trkpt lat="36.67364527888277" lon="117.02499928828249">
        <ele>14.5</ele>
        <time>2023-06-19T01:13:52Z</time>
      </trkpt>
      <trkpt lat="36.67365797415291" lon="117.0251108543516">
        <ele>11.899999999999999</ele>
        <time>2023-06-19T01:13:58Z</time>
      </trkpt>
      <trkpt lat="36.67373864868783" lon="117.02521444396123">
        <ele>10.2</ele>
        <time>2023-06-19T01:14:04Z</time>
      </trkpt>
      <trkpt lat="36.6739903574124" lon="117.02526521881597">
        <ele>6.3999999999999995</ele>
        <time>2023-06-19T01:14:19Z</time>
      </trkpt>
      <trkpt lat="36.674306375412925" lon="117.02518449540435">
        <ele>8.600000000000001</ele>
        <time>2023-06-19T01:14:37Z</time>
      </trkpt>
      <trkpt lat="36.67451051338779" lon="117.02508485820893">
        <ele>7.2</ele>
        <time>2023-06-19T01:14:49Z</time>
      </trkpt>
      <trkpt lat="36.67478633926559" lon="117.02508582312356">
        <ele>7.6000000000000005</ele>
        <time>2023-06-19T01:15:01Z</time>
      </trkpt>
      <trkpt lat="36.67507315560286" lon="117.025087782933">
        <ele>7.8999999999999995</ele>
        <time>2023-06-19T01:15:13Z</time>
      </trkpt>
      <trkpt lat="36.67528497614998" lon="117.02510568946711">
        <ele>8.8</ele>
        <time>2023-06-19T01:15:22Z</time>
      </trkpt>
      <trkpt lat="36.6754399962858" lon="117.02506184179076">
        <ele>9.0</ele>
        <time>2023-06-19T01:15:28Z</time>
      </trkpt>
      <trkpt lat="36.675537879725205" lon="117.02508274962625">
        <ele>11.899999999999999</ele>
        <time>2023-06-19T01:15:34Z</time>
      </trkpt>
      <trkpt lat="36.6758417912712" lon="117.02504486195343">
        <ele>18.3</ele>
        <time>2023-06-19T01:15:49Z</time>
      </trkpt>
      <trkpt lat="36.67600279707669" lon="117.02500499822979">
        <ele>18.0</ele>
        <time>2023-06-19T01:15:58Z</time>
      </trkpt>
      <trkpt lat="36.67617596249393" lon="117.02490237669856">
        <ele>17.7</ele>
        <time>2023-06-19T01:16:07Z</time>
      </trkpt>
      <trkpt lat="36.6764459403483" lon="117.02484755883228">
        <ele>12.600000000000001</ele>
        <time>2023-06-19T01:16:22Z</time>
      </trkpt>
      <trkpt lat="36.67672500025333" lon="117.02475986774833">
        <ele>13.5</ele>
        <time>2023-06-19T01:16:37Z</time>
      </trkpt>
      <trkpt lat="36.67687499448888" lon="117.02472697851987">
        <ele>15.8</ele>
        <time>2023-06-19T01:16:43Z</time>
      </trkpt>
      <trkpt lat="36.6770978555665" lon="117.02472695329259">
        <ele>17.7</ele>
        <time>2023-06-19T01:16:55Z</time>
      </trkpt>
      <trkpt lat="36.67732066082107" lon="117.02474784677128">
        <ele>14.399999999999999</ele>
        <time>2023-06-19T01:17:10Z</time>
      </trkpt>
      <trkpt lat="36.677365428314" lon="117.02482454371736">
        <ele>13.3</ele>
        <time>2023-06-19T01:17:16Z</time>
      </trkpt>
      <trkpt lat="36.67740348958391" lon="117.02479266322531">
        <ele>13.3</ele>
        <time>2023-06-19T01:17:19Z</time>
      </trkpt>
      <trkpt lat="36.6774830357145" lon="117.02456952180644">
        <ele>13.8</ele>
        <time>2023-06-19T01:17:31Z</time>
      </trkpt>
      <trkpt lat="36.67751093289177" lon="117.02422785006875">
        <ele>12.5</ele>
        <time>2023-06-19T01:17:46Z</time>
      </trkpt>
      <trkpt lat="36.67747598460685" lon="117.02384435265563">
        <ele>14.5</ele>
        <time>2023-06-19T01:18:01Z</time>
      </trkpt>
      <trkpt lat="36.67740642752265" lon="117.02369594169235">
        <ele>13.8</ele>
        <time>2023-06-19T01:18:07Z</time>
      </trkpt>
      <trkpt lat="36.6773129127656" lon="117.02353757316212">
        <ele>14.8</ele>
        <time>2023-06-19T01:18:16Z</time>
      </trkpt>
      <trkpt lat="36.67724097225506" lon="117.02316205641773">
        <ele>17.7</ele>
        <time>2023-06-19T01:18:31Z</time>
      </trkpt>
      <trkpt lat="36.677165907195814" lon="117.02283435556865">
        <ele>17.599999999999998</ele>
        <time>2023-06-19T01:18:43Z</time>
      </trkpt>
      <trkpt lat="36.67710895261932" lon="117.02246282902304">
        <ele>20.8</ele>
        <time>2023-06-19T01:18:58Z</time>
      </trkpt>
      <trkpt lat="36.677088383326236" lon="117.02230943818222">
        <ele>20.0</ele>
        <time>2023-06-19T01:19:04Z</time>
      </trkpt>
      <trkpt lat="36.67706257052487" lon="117.02224668954325">
        <ele>19.8</ele>
        <time>2023-06-19T01:19:07Z</time>
      </trkpt>
      <trkpt lat="36.67710556677739" lon="117.0218721697586">
        <ele>18.5</ele>
        <time>2023-06-19T01:19:22Z</time>
      </trkpt>
      <trkpt lat="36.677115507519794" lon="117.02152654265126">
        <ele>20.5</ele>
        <time>2023-06-19T01:19:37Z</time>
      </trkpt>
      <trkpt lat="36.677136022560624" lon="117.02133430598623">
        <ele>19.7</ele>
        <time>2023-06-19T01:19:46Z</time>
      </trkpt>
      <trkpt lat="36.67710492164369" lon="117.02101458518989">
        <ele>18.8</ele>
        <time>2023-06-19T01:20:01Z</time>
      </trkpt>
      <trkpt lat="36.67706249731396" lon="117.02081538621108">
        <ele>17.3</ele>
        <time>2023-06-19T01:20:10Z</time>
      </trkpt>
      <trkpt lat="36.6770798274591" lon="117.02069187845194">
        <ele>14.399999999999999</ele>
        <time>2023-06-19T01:20:16Z</time>
      </trkpt>
      <trkpt lat="36.67704978548596" lon="117.02035224300097">
        <ele>11.0</ele>
        <time>2023-06-19T01:20:31Z</time>
      </trkpt>
      <trkpt lat="36.67702082273035" lon="117.01998472264249">
        <ele>11.8</ele>
        <time>2023-06-19T01:20:49Z</time>
      </trkpt>
      <trkpt lat="36.67699752660324" lon="117.01973672352615">
        <ele>15.399999999999999</ele>
        <time>2023-06-19T01:20:58Z</time>
      </trkpt>
      <trkpt lat="36.676930175940036" lon="117.01951861043368">
        <ele>14.7</ele>
        <time>2023-06-19T01:21:10Z</time>
      </trkpt>
      <trkpt lat="36.67694224130479" lon="117.01913416186926">
        <ele>16.099999999999998</ele>
        <time>2023-06-19T01:21:25Z</time>
      </trkpt>
      <trkpt lat="36.67699927885494" lon="117.01875070794716">
        <ele>16.0</ele>
        <time>2023-06-19T01:21:43Z</time>
      </trkpt>
      <trkpt lat="36.6770488038113" lon="117.01855250627457">
        <ele>13.899999999999999</ele>
        <time>2023-06-19T01:21:52Z</time>
      </trkpt>
      <trkpt lat="36.67704453945679" lon="117.01829156666862">
        <ele>13.8</ele>
        <time>2023-06-19T01:22:01Z</time>
      </trkpt>
      <trkpt lat="36.67705773009964" lon="117.01822085269761">
        <ele>15.399999999999999</ele>
        <time>2023-06-19T01:22:04Z</time>
      </trkpt>
      <trkpt lat="36.67699507464954" lon="117.01811230140731">
        <ele>14.0</ele>
        <time>2023-06-19T01:22:10Z</time>
      </trkpt>
      <trkpt lat="36.67691713944965" lon="117.01775177898787">
        <ele>17.0</ele>
        <time>2023-06-19T01:22:25Z</time>
      </trkpt>
      <trkpt lat="36.67695513449888" lon="117.01739124662019">
        <ele>16.7</ele>
        <time>2023-06-19T01:22:40Z</time>
      </trkpt>
      <trkpt lat="36.67692021701258" lon="117.01701678267172">
        <ele>15.899999999999999</ele>
        <time>2023-06-19T01:22:55Z</time>
      </trkpt>
      <trkpt lat="36.67690689527992" lon="117.01678075158304">
        <ele>16.599999999999998</ele>
        <time>2023-06-19T01:23:04Z</time>
      </trkpt>
      <trkpt lat="36.67676500051994" lon="117.01642323543716">
        <ele>15.399999999999999</ele>
        <time>2023-06-19T01:23:22Z</time>
      </trkpt>
      <trkpt lat="36.6767296837147" lon="117.01619119365586">
        <ele>16.8</ele>
        <time>2023-06-19T01:23:31Z</time>
      </trkpt>
      <trkpt lat="36.67674209646782" lon="117.01604379901383">
        <ele>18.4</ele>
        <time>2023-06-19T01:23:37Z</time>
      </trkpt>
      <trkpt lat="36.6767923750693" lon="117.01593524052683">
        <ele>17.9</ele>
        <time>2023-06-19T01:23:43Z</time>
      </trkpt>
      <trkpt lat="36.67679187911506" lon="117.0157589673">
        <ele>16.599999999999998</ele>
        <time>2023-06-19T01:23:52Z</time>
      </trkpt>
      <trkpt lat="36.67681734188049" lon="117.01559165483343">
        <ele>15.7</ele>
        <time>2023-06-19T01:23:58Z</time>
      </trkpt>
      <trkpt lat="36.67677681772979" lon="117.01543430927136">
        <ele>18.2</ele>
        <time>2023-06-19T01:24:04Z</time>
      </trkpt>
      <trkpt lat="36.6767450116305" lon="117.01537356390031">
        <ele>17.4</ele>
        <time>2023-06-19T01:24:07Z</time>
      </trkpt>
      <trkpt lat="36.67675745792664" lon="117.015215217237">
        <ele>12.899999999999999</ele>
        <time>2023-06-19T01:24:19Z</time>
      </trkpt>
      <trkpt lat="36.67681198139841" lon="117.01502101481655">
        <ele>10.100000000000001</ele>
        <time>2023-06-19T01:24:28Z</time>
      </trkpt>
      <trkpt lat="36.67679525791024" lon="117.0149284003009">
        <ele>10.600000000000001</ele>
        <time>2023-06-19T01:24:34Z</time>
      </trkpt>
      <trkpt lat="36.67673062170076" lon="117.01481587392463">
        <ele>12.5</ele>
        <time>2023-06-19T01:24:40Z</time>
      </trkpt>
      <trkpt lat="36.67671003850247" lon="117.01467545851547">
        <ele>12.399999999999999</ele>
        <time>2023-06-19T01:24:46Z</time>
      </trkpt>
      <trkpt lat="36.6767352922683" lon="117.01458184408331">
        <ele>13.399999999999999</ele>
        <time>2023-06-19T01:24:52Z</time>
      </trkpt>
      <trkpt lat="36.67682387987502" lon="117.014358760426">
        <ele>14.099999999999998</ele>
        <time>2023-06-19T01:25:04Z</time>
      </trkpt>
      <trkpt lat="36.6768265994611" lon="117.01410879932772">
        <ele>14.099999999999998</ele>
        <time>2023-06-19T01:25:16Z</time>
      </trkpt>
      <trkpt lat="36.676778982968926" lon="117.01398631441411">
        <ele>15.099999999999998</ele>
        <time>2023-06-19T01:25:22Z</time>
      </trkpt>
      <trkpt lat="36.67672916061793" lon="117.01358997146703">
        <ele>18.5</ele>
        <time>2023-06-19T01:25:37Z</time>
      </trkpt>
      <trkpt lat="36.67668158265005" lon="117.01345454186148">
        <ele>20.0</ele>
        <time>2023-06-19T01:25:43Z</time>
      </trkpt>
      <trkpt lat="36.67667702149788" lon="117.01330417016061">
        <ele>18.8</ele>
        <time>2023-06-19T01:25:49Z</time>
      </trkpt>
      <trkpt lat="36.6766189886116" lon="117.01298351690468">
        <ele>16.2</ele>
        <time>2023-06-19T01:26:04Z</time>
      </trkpt>
      <trkpt lat="36.67655875004055" lon="117.01273456560283">
        <ele>13.399999999999999</ele>
        <time>2023-06-19T01:26:16Z</time>
      </trkpt>
      <trkpt lat="36.67651663750678" lon="117.01243880968683">
        <ele>9.399999999999999</ele>
        <time>2023-06-19T01:26:31Z</time>
      </trkpt>
      <trkpt lat="36.67651885672025" lon="117.01236312684273">
        <ele>9.899999999999999</ele>
        <time>2023-06-19T01:26:34Z</time>
      </trkpt>
      <trkpt lat="36.67642356676138" lon="117.0121400737026">
        <ele>15.099999999999998</ele>
        <time>2023-06-19T01:26:46Z</time>
      </trkpt>
      <trkpt lat="36.67614138229459" lon="117.01192102577254">
        <ele>16.4</ele>
        <time>2023-06-19T01:27:04Z</time>
      </trkpt>
      <trkpt lat="36.675845055829235" lon="117.01175376249265">
        <ele>19.5</ele>
        <time>2023-06-19T01:27:19Z</time>
      </trkpt>
      <trkpt lat="36.675554656075114" lon="117.01161039846401">
        <ele>21.3</ele>
        <time>2023-06-19T01:27:37Z</time>
      </trkpt>
      <trkpt lat="36.67526030859304" lon="117.011450106538">
        <ele>16.599999999999998</ele>
        <time>2023-06-19T01:27:55Z</time>
      </trkpt>
      <trkpt lat="36.67497381936117" lon="117.01133661696312">
        <ele>13.8</ele>
        <time>2023-06-19T01:28:10Z</time>
      </trkpt>
      <trkpt lat="36.674727422131696" lon="117.0111832910298">
        <ele>16.3</ele>
        <time>2023-06-19T01:28:22Z</time>
      </trkpt>
      <trkpt lat="36.67450449646086" lon="117.01120522373773">
        <ele>16.599999999999998</ele>
        <time>2023-06-19T01:28:37Z</time>
      </trkpt>
      <trkpt lat="36.67429167835995" lon="117.01118831904019">
        <ele>17.9</ele>
        <time>2023-06-19T01:28:49Z</time>
      </trkpt>
      <trkpt lat="36.67424376653854" lon="117.01116840839866">
        <ele>18.9</ele>
        <time>2023-06-19T01:28:55Z</time>
      </trkpt>
      <trkpt lat="36.67398892193996" lon="117.01116943285831">
        <ele>16.599999999999998</ele>
        <time>2023-06-19T01:29:10Z</time>
      </trkpt>
      <trkpt lat="36.673849099327825" lon="117.01113857874871">
        <ele>13.8</ele>
        <time>2023-06-19T01:29:19Z</time>
      </trkpt>
      <trkpt lat="36.673641602177476" lon="117.01101113972135">
        <ele>12.3</ele>
        <time>2023-06-19T01:29:31Z</time>
      </trkpt>
      <trkpt lat="36.67333003238545" lon="117.01093051512558">
        <ele>10.100000000000001</ele>
        <time>2023-06-19T01:29:49Z</time>
      </trkpt>
      <trkpt lat="36.67314657327486" lon="117.01078514954501">
        <ele>12.7</ele>
        <time>2023-06-19T01:30:01Z</time>
      </trkpt>
      <trkpt lat="36.673111729501784" lon="117.01073934692462">
        <ele>13.8</ele>
        <time>2023-06-19T01:30:04Z</time>
      </trkpt>
      <trkpt lat="36.67306382653909" lon="117.01071644905473">
        <ele>14.2</ele>
        <time>2023-06-19T01:30:07Z</time>
      </trkpt>
      <trkpt lat="36.67292678864701" lon="117.01075828780408">
        <ele>12.0</ele>
        <time>2023-06-19T01:30:16Z</time>
      </trkpt>
      <trkpt lat="36.672823966566625" lon="117.01071946340123">
        <ele>11.3</ele>
        <time>2023-06-19T01:30:22Z</time>
      </trkpt>
      <trkpt lat="36.672804703457786" lon="117.01081307023911">
        <ele>14.5</ele>
        <time>2023-06-19T01:30:34Z</time>
      </trkpt>
      <trkpt lat="36.67266436352635" lon="117.01095847229959">
        <ele>12.899999999999999</ele>
        <time>2023-06-19T01:30:43Z</time>
      </trkpt>
      <trkpt lat="36.67256032573232" lon="117.0109933369279">
        <ele>14.0</ele>
        <time>2023-06-19T01:30:49Z</time>
      </trkpt>
      <trkpt lat="36.672344497554086" lon="117.01098041581791">
        <ele>15.5</ele>
        <time>2023-06-19T01:30:58Z</time>
      </trkpt>
      <trkpt lat="36.67216238832072" lon="117.01105611700075">
        <ele>14.399999999999999</ele>
        <time>2023-06-19T01:31:07Z</time>
      </trkpt>
      <trkpt lat="36.672075161923765" lon="117.01115172363559">
        <ele>11.8</ele>
        <time>2023-06-19T01:31:13Z</time>
      </trkpt>
      <trkpt lat="36.6720571341928" lon="117.01150623197861">
        <ele>13.3</ele>
        <time>2023-06-19T01:31:28Z</time>
      </trkpt>
      <trkpt lat="36.67207446486121" lon="117.01173128296256">
        <ele>17.4</ele>
        <time>2023-06-19T01:31:37Z</time>
      </trkpt>
      <trkpt lat="36.6720620358541" lon="117.01188065628516">
        <ele>20.099999999999998</ele>
        <time>2023-06-19T01:31:43Z</time>
      </trkpt>
      <trkpt lat="36.67210541266483" lon="117.01208479369939">
        <ele>19.4</ele>
        <time>2023-06-19T01:31:52Z</time>
      </trkpt>
      <trkpt lat="36.672189935967516" lon="117.01223017380721">
        <ele>15.3</ele>
        <time>2023-06-19T01:32:01Z</time>
      </trkpt>
      <trkpt lat="36.672241514840735" lon="117.01236360813701">
        <ele>12.0</ele>
        <time>2023-06-19T01:32:07Z</time>
      </trkpt>
      <trkpt lat="36.67244864371796" lon="117.01261851616742">
        <ele>8.3</ele>
        <time>2023-06-19T01:32:22Z</time>
      </trkpt>
      <trkpt lat="36.67260504249158" lon="117.01279177291627">
        <ele>9.100000000000001</ele>
        <time>2023-06-19T01:32:34Z</time>
      </trkpt>
      <trkpt lat="36.672876679968155" lon="117.01285846308213">
        <ele>11.2</ele>
        <time>2023-06-19T01:32:49Z</time>
      </trkpt>
      <trkpt lat="36.67303438526117" lon="117.01292616198822">
        <ele>13.7</ele>
        <time>2023-06-19T01:32:58Z</time>
      </trkpt>
      <trkpt lat="36.67316523460245" lon="117.01295004727835">
        <ele>16.3</ele>
        <time>2023-06-19T01:33:07Z</time>
      </trkpt>
      <trkpt lat="36.67330223290363" lon="117.01326571229247">
        <ele>12.3</ele>
        <time>2023-06-19T01:33:25Z</time>
      </trkpt>
      <trkpt lat="36.67335191899348" lon="117.01336329915412">
        <ele>12.5</ele>
        <time>2023-06-19T01:33:31Z</time>
      </trkpt>
      <trkpt lat="36.67338878927325" lon="117.01340014118341">
        <ele>12.100000000000001</ele>
        <time>2023-06-19T01:33:34Z</time>
      </trkpt>
      <trkpt lat="36.67357655435096" lon="117.01344094962754">
        <ele>8.3</ele>
        <time>2023-06-19T01:33:46Z</time>
      </trkpt>
      <trkpt lat="36.673610285229934" lon="117.01352658847532">
        <ele>8.399999999999999</ele>
        <time>2023-06-19T01:33:49Z</time>
      </trkpt>
      <trkpt lat="36.67361988127799" lon="117.01366401427187">
        <ele>10.8</ele>
        <time>2023-06-19T01:33:55Z</time>
      </trkpt>
      <trkpt lat="36.673583779742366" lon="117.01370683983237">
        <ele>14.099999999999998</ele>
        <time>2023-06-19T01:33:58Z</time>
      </trkpt>
      <trkpt lat="36.673550230207" lon="117.01390402213947">
        <ele>19.0</ele>
        <time>2023-06-19T01:34:07Z</time>
      </trkpt>
      <trkpt lat="36.6735935243282" lon="117.01413903917305">
        <ele>12.600000000000001</ele>
        <time>2023-06-19T01:34:19Z</time>
      </trkpt>
      <trkpt lat="36.67363638272324" lon="117.01417886868064">
        <ele>11.600000000000001</ele>
        <time>2023-06-19T01:34:22Z</time>
      </trkpt>
      <trkpt lat="36.673680125651956" lon="117.01425853252086">
        <ele>10.8</ele>
        <time>2023-06-19T01:34:28Z</time>
      </trkpt>
      <trkpt lat="36.673653926474664" lon="117.01433322505959">
        <ele>12.600000000000001</ele>
        <time>2023-06-19T01:34:31Z</time>
      </trkpt>
      <trkpt lat="36.673554589106104" lon="117.01447166125875">
        <ele>14.399999999999999</ele>
        <time>2023-06-19T01:34:40Z</time>
      </trkpt>
      <trkpt lat="36.67341274539977" lon="117.01479533440887">
        <ele>16.599999999999998</ele>
        <time>2023-06-19T01:34:52Z</time>
      </trkpt>
      <trkpt lat="36.67334729648933" lon="117.01496563614073">
        <ele>21.099999999999998</ele>
        <time>2023-06-19T01:35:01Z</time>
      </trkpt>
      <trkpt lat="36.67324932868195" lon="117.01497560593145">
        <ele>22.3</ele>
        <time>2023-06-19T01:35:07Z</time>
      </trkpt>
      <trkpt lat="36.67314726328778" lon="117.01502043184821">
        <ele>23.4</ele>
        <time>2023-06-19T01:35:13Z</time>
      </trkpt>
      <trkpt lat="36.67310217686346" lon="117.01506027200232">
        <ele>20.9</ele>
        <time>2023-06-19T01:35:19Z</time>
      </trkpt>
      <trkpt lat="36.67306495408852" lon="117.01514592172214">
        <ele>21.3</ele>
        <time>2023-06-19T01:35:25Z</time>
      </trkpt>
      <trkpt lat="36.67302185794033" lon="117.01518874940024">
        <ele>21.5</ele>
        <time>2023-06-19T01:35:28Z</time>
      </trkpt>
      <trkpt lat="36.67299461773623" lon="117.01527838176145">
        <ele>21.599999999999998</ele>
        <time>2023-06-19T01:35:37Z</time>
      </trkpt>
      <trkpt lat="36.67301935113357" lon="117.01536601667316">
        <ele>21.099999999999998</ele>
        <time>2023-06-19T01:35:40Z</time>
      </trkpt>
      <trkpt lat="36.6729587839635" lon="117.01557715137044">
        <ele>24.099999999999998</ele>
        <time>2023-06-19T01:35:46Z</time>
      </trkpt>
      <trkpt lat="36.67294432280223" lon="117.01574147490021">
        <ele>24.8</ele>
        <time>2023-06-19T01:35:52Z</time>
      </trkpt>
      <trkpt lat="36.6729702201519" lon="117.01612190438136">
        <ele>23.0</ele>
        <time>2023-06-19T01:36:10Z</time>
      </trkpt>
      <trkpt lat="36.672963775487496" lon="117.01627925767923">
        <ele>22.3</ele>
        <time>2023-06-19T01:36:16Z</time>
      </trkpt>
      <trkpt lat="36.67299439618145" lon="117.01640573423275">
        <ele>21.599999999999998</ele>
        <time>2023-06-19T01:36:22Z</time>
      </trkpt>
      <trkpt lat="36.67299986562105" lon="117.01659097270829">
        <ele>20.0</ele>
        <time>2023-06-19T01:36:31Z</time>
      </trkpt>
      <trkpt lat="36.672982703518514" lon="117.01665172526975">
        <ele>20.7</ele>
        <time>2023-06-19T01:36:34Z</time>
      </trkpt>
      <trkpt lat="36.67293956891905" lon="117.01670849718904">
        <ele>21.2</ele>
        <time>2023-06-19T01:36:37Z</time>
      </trkpt>
      <trkpt lat="36.67282246329011" lon="117.01677125301548">
        <ele>20.5</ele>
        <time>2023-06-19T01:36:43Z</time>
      </trkpt>
      <trkpt lat="36.67259245037392" lon="117.01682605433125">
        <ele>18.4</ele>
        <time>2023-06-19T01:36:55Z</time>
      </trkpt>
      <trkpt lat="36.67248231791288" lon="117.01689677688962">
        <ele>21.5</ele>
        <time>2023-06-19T01:37:01Z</time>
      </trkpt>
      <trkpt lat="36.672249343641454" lon="117.01693863174889">
        <ele>19.9</ele>
        <time>2023-06-19T01:37:13Z</time>
      </trkpt>
      <trkpt lat="36.672120282358684" lon="117.01698844229483">
        <ele>21.8</ele>
        <time>2023-06-19T01:37:22Z</time>
      </trkpt>
      <trkpt lat="36.672059377536385" lon="117.0173210878874">
        <ele>20.9</ele>
        <time>2023-06-19T01:37:37Z</time>
      </trkpt>
      <trkpt lat="36.6720619645693" lon="117.01746649336835">
        <ele>20.2</ele>
        <time>2023-06-19T01:37:43Z</time>
      </trkpt>
      <trkpt lat="36.6720275468068" lon="117.01762186287965">
        <ele>17.599999999999998</ele>
        <time>2023-06-19T01:37:49Z</time>
      </trkpt>
      <trkpt lat="36.67203069894192" lon="117.01792164015276">
        <ele>14.5</ele>
        <time>2023-06-19T01:38:01Z</time>
      </trkpt>
      <trkpt lat="36.67204542880407" lon="117.01801426125448">
        <ele>15.099999999999998</ele>
        <time>2023-06-19T01:38:04Z</time>
      </trkpt>
      <trkpt lat="36.67203916343404" lon="117.01810987277501">
        <ele>16.2</ele>
        <time>2023-06-19T01:38:07Z</time>
      </trkpt>
      <trkpt lat="36.6720974465665" lon="117.01835188207103">
        <ele>18.0</ele>
        <time>2023-06-19T01:38:16Z</time>
      </trkpt>
      <trkpt lat="36.67229064722036" lon="117.01859387758486">
        <ele>16.8</ele>
        <time>2023-06-19T01:38:31Z</time>
      </trkpt>
      <trkpt lat="36.67246090229729" lon="117.01882193363363">
        <ele>18.0</ele>
        <time>2023-06-19T01:38:43Z</time>
      </trkpt>
      <trkpt lat="36.67256391890481" lon="117.01915059171434">
        <ele>16.3</ele>
        <time>2023-06-19T01:38:55Z</time>
      </trkpt>
      <trkpt lat="36.6726648779063" lon="117.01950116436552">
        <ele>15.899999999999999</ele>
        <time>2023-06-19T01:39:10Z</time>
      </trkpt>
      <trkpt lat="36.672775794500886" lon="117.01986568292946">
        <ele>8.399999999999999</ele>
        <time>2023-06-19T01:39:25Z</time>
      </trkpt>
      <trkpt lat="36.67282075754034" lon="117.02022921640486">
        <ele>10.600000000000001</ele>
        <time>2023-06-19T01:39:37Z</time>
      </trkpt>
      <trkpt lat="36.672812547358426" lon="117.02030690547443">
        <ele>10.100000000000001</ele>
        <time>2023-06-19T01:39:40Z</time>
      </trkpt>
      <trkpt lat="36.67284304591752" lon="117.02048120293148">
        <ele>10.0</ele>
        <time>2023-06-19T01:39:46Z</time>
      </trkpt>
      <trkpt lat="36.67295804171272" lon="117.02081883799616">
        <ele>10.600000000000001</ele>
        <time>2023-06-19T01:40:01Z</time>
      </trkpt>
      <trkpt lat="36.67297467705429" lon="117.02094732246546">
        <ele>10.899999999999999</ele>
        <time>2023-06-19T01:40:07Z</time>
      </trkpt>
      <trkpt lat="36.67294214036724" lon="117.02114951874454">
        <ele>10.100000000000001</ele>
        <time>2023-06-19T01:40:16Z</time>
      </trkpt>
      <trkpt lat="36.67304114551573" lon="117.02148915380306">
        <ele>7.7</ele>
        <time>2023-06-19T01:40:31Z</time>
      </trkpt>
      <trkpt lat="36.673130513763724" lon="117.02169930763434">
        <ele>7.500000000000001</ele>
        <time>2023-06-19T01:40:40Z</time>
      </trkpt>
      <trkpt lat="36.67319949269707" lon="117.02205688015631">
        <ele>6.6000000000000005</ele>
        <time>2023-06-19T01:40:55Z</time>
      </trkpt>
      <trkpt lat="36.6732684067334" lon="117.02243935780028">
        <ele>3.9000000000000004</ele>
        <time>2023-06-19T01:41:10Z</time>
      </trkpt>
      <trkpt lat="36.673406383986105" lon="117.0227839810766">
        <ele>4.6000000000000005</ele>
        <time>2023-06-19T01:41:25Z</time>
      </trkpt>
      <trkpt lat="36.67341128752606" lon="117.0231873916445">
        <ele>10.399999999999999</ele>
        <time>2023-06-19T01:41:40Z</time>
      </trkpt>
      <trkpt lat="36.67347134868055" lon="117.02352107417566">
        <ele>14.399999999999999</ele>
        <time>2023-06-19T01:41:55Z</time>
      </trkpt>
      <trkpt lat="36.673477957847076" lon="117.0236645110387">
        <ele>16.0</ele>
        <time>2023-06-19T01:42:01Z</time>
      </trkpt>
      <trkpt lat="36.67351129903851" lon="117.02390157909721">
        <ele>14.5</ele>
        <time>2023-06-19T01:42:13Z</time>
      </trkpt>
      <trkpt lat="36.67352048556582" lon="117.02420240270773">
        <ele>15.2</ele>
        <time>2023-06-19T01:42:25Z</time>
      </trkpt>
      <trkpt lat="36.67356595291994" lon="117.02439066337797">
        <ele>14.399999999999999</ele>
        <time>2023-06-19T01:42:34Z</time>
      </trkpt>
      <trkpt lat="36.673580517528265" lon="117.02455004103454">
        <ele>12.0</ele>
        <time>2023-06-19T01:42:40Z</time>
      </trkpt>
      <trkpt lat="36.67363859611359" lon="117.02488174511623">
        <ele>10.2</ele>
        <time>2023-06-19T01:42:55Z</time>
      </trkpt>
      <trkpt lat="36.673625445043164" lon="117.02494151464809">
        <ele>8.399999999999999</ele>
        <time>2023-06-19T01:42:58Z</time>
      </trkpt>
      <trkpt lat="36.673670907848624" lon="117.0251327679784">
        <ele>5.8999999999999995</ele>
        <time>2023-06-19T01:43:10Z</time>
      </trkpt>
      <trkpt lat="36.67386767178902" lon="117.02517557978803">
        <ele>3.7</ele>
        <time>2023-06-19T01:43:25Z</time>
      </trkpt>
      <trkpt lat="36.67399267357887" lon="117.02514568138685">
        <ele>1.7000000000000002</ele>
        <time>2023-06-19T01:43:31Z</time>
      </trkpt>
      <trkpt lat="36.67425349564446" lon="117.02515162870827">
        <ele>3.7</ele>
        <time>2023-06-19T01:43:43Z</time>
      </trkpt>
      <trkpt lat="36.67437052621089" lon="117.02511276596914">
        <ele>3.8</ele>
        <time>2023-06-19T01:43:49Z</time>
      </trkpt>
      <trkpt lat="36.67468337943307" lon="117.02509480003445">
        <ele>8.5</ele>
        <time>2023-06-19T01:44:04Z</time>
      </trkpt>
      <trkpt lat="36.67500127980551" lon="117.02505790690194">
        <ele>4.4</ele>
        <time>2023-06-19T01:44:22Z</time>
      </trkpt>
      <trkpt lat="36.675350081386014" lon="117.02505089444726">
        <ele>2.4000000000000004</ele>
        <time>2023-06-19T01:44:40Z</time>
      </trkpt>
      <trkpt lat="36.67570282476704" lon="117.02506480045236">
        <ele>16.9</ele>
        <time>2023-06-19T01:45:01Z</time>
      </trkpt>
      <trkpt lat="36.67591286102747" lon="117.02500202000087">
        <ele>14.5</ele>
        <time>2023-06-19T01:45:13Z</time>
      </trkpt>
      <trkpt lat="36.67616997949111" lon="117.02489739670798">
        <ele>19.5</ele>
        <time>2023-06-19T01:45:25Z</time>
      </trkpt>
      <trkpt lat="36.67645095846699" lon="117.02483958920948">
        <ele>22.2</ele>
        <time>2023-06-19T01:45:40Z</time>
      </trkpt>
      <trkpt lat="36.67673592169974" lon="117.02478676201359">
        <ele>20.9</ele>
        <time>2023-06-19T01:45:55Z</time>
      </trkpt>
      <trkpt lat="36.67700286427836" lon="117.02474589048785">
        <ele>17.8</ele>
        <time>2023-06-19T01:46:10Z</time>
      </trkpt>
      <trkpt lat="36.677136703768866" lon="117.02477476308628">
        <ele>16.5</ele>
        <time>2023-06-19T01:46:19Z</time>
      </trkpt>
      <trkpt lat="36.677212709530245" lon="117.0247548318943">
        <ele>16.3</ele>
        <time>2023-06-19T01:46:25Z</time>
      </trkpt>
      <trkpt lat="36.677355070267474" lon="117.02458647039437">
        <ele>15.8</ele>
        <time>2023-06-19T01:46:34Z</time>
      </trkpt>
      <trkpt lat="36.67745089290444" lon="117.02425674415836">
        <ele>17.2</ele>
        <time>2023-06-19T01:46:46Z</time>
      </trkpt>
      <trkpt lat="36.677480497158534" lon="117.02402464704561">
        <ele>17.0</ele>
        <time>2023-06-19T01:46:55Z</time>
      </trkpt>
      <trkpt lat="36.6774640188679" lon="117.02383439299359">
        <ele>14.7</ele>
        <time>2023-06-19T01:47:04Z</time>
      </trkpt>
      <trkpt lat="36.677332712391134" lon="117.02360729748334">
        <ele>11.3</ele>
        <time>2023-06-19T01:47:16Z</time>
      </trkpt>
      <trkpt lat="36.67727815484661" lon="117.02345589759035">
        <ele>13.0</ele>
        <time>2023-06-19T01:47:22Z</time>
      </trkpt>
      <trkpt lat="36.67725025234354" lon="117.02305647086409">
        <ele>16.099999999999998</ele>
        <time>2023-06-19T01:47:37Z</time>
      </trkpt>
      <trkpt lat="36.677198705677334" lon="117.02290108876738">
        <ele>16.099999999999998</ele>
        <time>2023-06-19T01:47:43Z</time>
      </trkpt>
      <trkpt lat="36.677129975557335" lon="117.02281742640751">
        <ele>16.599999999999998</ele>
        <time>2023-06-19T01:47:49Z</time>
      </trkpt>
      <trkpt lat="36.6771151768024" lon="117.02274670705422">
        <ele>16.4</ele>
        <time>2023-06-19T01:47:52Z</time>
      </trkpt>
      <trkpt lat="36.67711811236983" lon="117.02240206827634">
        <ele>15.899999999999999</ele>
        <time>2023-06-19T01:48:07Z</time>
      </trkpt>
      <trkpt lat="36.67709119444278" lon="117.0220116179686">
        <ele>15.0</ele>
        <time>2023-06-19T01:48:25Z</time>
      </trkpt>
      <trkpt lat="36.67710058895693" lon="117.02186519800637">
        <ele>16.4</ele>
        <time>2023-06-19T01:48:31Z</time>
      </trkpt>
      <trkpt lat="36.67716457258966" lon="117.02149167587895">
        <ele>17.3</ele>
        <time>2023-06-19T01:48:46Z</time>
      </trkpt>
      <trkpt lat="36.67714455958841" lon="117.02113709156531">
        <ele>18.099999999999998</ele>
        <time>2023-06-19T01:49:01Z</time>
      </trkpt>
      <trkpt lat="36.677104528828906" lon="117.02079446512793">
        <ele>15.899999999999999</ele>
        <time>2023-06-19T01:49:19Z</time>
      </trkpt>
      <trkpt lat="36.677044513063" lon="117.020451844112">
        <ele>17.599999999999998</ele>
        <time>2023-06-19T01:49:31Z</time>
      </trkpt>
      <trkpt lat="36.67702460745921" lon="117.02006141384405">
        <ele>16.7</ele>
        <time>2023-06-19T01:49:49Z</time>
      </trkpt>
      <trkpt lat="36.67699570235786" lon="117.01967397655586">
        <ele>12.399999999999999</ele>
        <time>2023-06-19T01:50:04Z</time>
      </trkpt>
      <trkpt lat="36.67697530049969" lon="117.01946382636027">
        <ele>12.3</ele>
        <time>2023-06-19T01:50:13Z</time>
      </trkpt>
      <trkpt lat="36.67700728983719" lon="117.01910228342385">
        <ele>14.099999999999998</ele>
        <time>2023-06-19T01:50:28Z</time>
      </trkpt>
      <trkpt lat="36.67705575829199" lon="117.0189239994544">
        <ele>14.2</ele>
        <time>2023-06-19T01:50:37Z</time>
      </trkpt>
      <trkpt lat="36.677107602280415" lon="117.01861126118791">
        <ele>14.2</ele>
        <time>2023-06-19T01:50:52Z</time>
      </trkpt>
      <trkpt lat="36.67706772946934" lon="117.01821885967">
        <ele>15.099999999999998</ele>
        <time>2023-06-19T01:51:07Z</time>
      </trkpt>
      <trkpt lat="36.67694275824926" lon="117.01788124826983">
        <ele>16.3</ele>
        <time>2023-06-19T01:51:22Z</time>
      </trkpt>
      <trkpt lat="36.67691720406113" lon="117.01772887240753">
        <ele>16.2</ele>
        <time>2023-06-19T01:51:28Z</time>
      </trkpt>
      <trkpt lat="36.676975262856466" lon="117.01734144789707">
        <ele>20.2</ele>
        <time>2023-06-19T01:51:43Z</time>
      </trkpt>
      <trkpt lat="36.676967648278975" lon="117.01720699862773">
        <ele>21.0</ele>
        <time>2023-06-19T01:51:49Z</time>
      </trkpt>
      <trkpt lat="36.676910245825354" lon="117.0170088164303">
        <ele>18.7</ele>
        <time>2023-06-19T01:51:58Z</time>
      </trkpt>
      <trkpt lat="36.67692799530491" lon="117.01674091260693">
        <ele>16.9</ele>
        <time>2023-06-19T01:52:10Z</time>
      </trkpt>
      <trkpt lat="36.67688250781659" lon="117.01657061669934">
        <ele>16.5</ele>
        <time>2023-06-19T01:52:19Z</time>
      </trkpt>
      <trkpt lat="36.67679303125938" lon="117.01640630185754">
        <ele>15.599999999999998</ele>
        <time>2023-06-19T01:52:28Z</time>
      </trkpt>
      <trkpt lat="36.676745602804935" lon="117.01621608941666">
        <ele>16.8</ele>
        <time>2023-06-19T01:52:37Z</time>
      </trkpt>
      <trkpt lat="36.67679552672876" lon="117.0158814618085">
        <ele>16.0</ele>
        <time>2023-06-19T01:52:52Z</time>
      </trkpt>
      <trkpt lat="36.67676707969669" lon="117.01569423714226">
        <ele>15.5</ele>
        <time>2023-06-19T01:53:01Z</time>
      </trkpt>
      <trkpt lat="36.67678263723563" lon="117.01549605353826">
        <ele>16.9</ele>
        <time>2023-06-19T01:53:10Z</time>
      </trkpt>
      <trkpt lat="36.676889115955156" lon="117.01530582760796">
        <ele>17.3</ele>
        <time>2023-06-19T01:53:19Z</time>
      </trkpt>
      <trkpt lat="36.67691449435747" lon="117.01516839318433">
        <ele>17.599999999999998</ele>
        <time>2023-06-19T01:53:28Z</time>
      </trkpt>
      <trkpt lat="36.67687184970314" lon="117.01505387199857">
        <ele>17.099999999999998</ele>
        <time>2023-06-19T01:53:34Z</time>
      </trkpt>
      <trkpt lat="36.67688683947434" lon="117.01470631054359">
        <ele>15.399999999999999</ele>
        <time>2023-06-19T01:53:49Z</time>
      </trkpt>
      <trkpt lat="36.67688021915645" lon="117.01457585255508">
        <ele>13.899999999999999</ele>
        <time>2023-06-19T01:53:55Z</time>
      </trkpt>
      <trkpt lat="36.67689738916812" lon="117.01451311105177">
        <ele>13.7</ele>
        <time>2023-06-19T01:53:58Z</time>
      </trkpt>
      <trkpt lat="36.67686944911626" lon="117.01415161637811">
        <ele>11.600000000000001</ele>
        <time>2023-06-19T01:54:13Z</time>
      </trkpt>
      <trkpt lat="36.67677660065105" lon="117.01377320224861">
        <ele>14.5</ele>
        <time>2023-06-19T01:54:31Z</time>
      </trkpt>
      <trkpt lat="36.676673754957385" lon="117.01339678382587">
        <ele>19.099999999999998</ele>
        <time>2023-06-19T01:54:46Z</time>
      </trkpt>
      <trkpt lat="36.676624403924166" lon="117.0131836794672">
        <ele>20.7</ele>
        <time>2023-06-19T01:54:55Z</time>
      </trkpt>
      <trkpt lat="36.67658440962893" lon="117.01284609578745">
        <ele>20.0</ele>
        <time>2023-06-19T01:55:10Z</time>
      </trkpt>
      <trkpt lat="36.676540129747636" lon="117.01260809744971">
        <ele>16.3</ele>
        <time>2023-06-19T01:55:22Z</time>
      </trkpt>
      <trkpt lat="36.67650247803674" lon="117.01249656912263">
        <ele>14.8</ele>
        <time>2023-06-19T01:55:28Z</time>
      </trkpt>
      <trkpt lat="36.67648886959537" lon="117.01236512186308">
        <ele>12.8</ele>
        <time>2023-06-19T01:55:34Z</time>
      </trkpt>
      <trkpt lat="36.67641745141736" lon="117.01218090297462">
        <ele>10.600000000000001</ele>
        <time>2023-06-19T01:55:46Z</time>
      </trkpt>
      <trkpt lat="36.67617509657581" lon="117.01201164119416">
        <ele>9.3</ele>
        <time>2023-06-19T01:56:01Z</time>
      </trkpt>
      <trkpt lat="36.675939542886496" lon="117.01190909870512">
        <ele>7.7</ele>
        <time>2023-06-19T01:56:16Z</time>
      </trkpt>
      <trkpt lat="36.675829890565744" lon="117.01181351293204">
        <ele>8.5</ele>
        <time>2023-06-19T01:56:22Z</time>
      </trkpt>
      <trkpt lat="36.67555946659942" lon="117.01167412974208">
        <ele>10.399999999999999</ele>
        <time>2023-06-19T01:56:37Z</time>
      </trkpt>
      <trkpt lat="36.67531203439018" lon="117.01153275269905">
        <ele>14.2</ele>
        <time>2023-06-19T01:56:49Z</time>
      </trkpt>
      <trkpt lat="36.675026628959" lon="117.01139038447795">
        <ele>13.8</ele>
        <time>2023-06-19T01:57:07Z</time>
      </trkpt>
      <trkpt lat="36.67491871648877" lon="117.01138342597903">
        <ele>11.8</ele>
        <time>2023-06-19T01:57:13Z</time>
      </trkpt>
      <trkpt lat="36.67461525244174" lon="117.01126495942957">
        <ele>11.5</ele>
        <time>2023-06-19T01:57:28Z</time>
      </trkpt>
      <trkpt lat="36.674338532445695" lon="117.01122814585098">
        <ele>15.399999999999999</ele>
        <time>2023-06-19T01:57:43Z</time>
      </trkpt>
      <trkpt lat="36.674288575167694" lon="117.01122416825983">
        <ele>15.7</ele>
        <time>2023-06-19T01:57:46Z</time>
      </trkpt>
      <trkpt lat="36.674216739524645" lon="117.01118334845945">
        <ele>15.2</ele>
        <time>2023-06-19T01:57:52Z</time>
      </trkpt>
      <trkpt lat="36.67392697793893" lon="117.01116346501644">
        <ele>15.8</ele>
        <time>2023-06-19T01:58:10Z</time>
      </trkpt>
      <trkpt lat="36.67364857738759" lon="117.01101810952751">
        <ele>13.5</ele>
        <time>2023-06-19T01:58:25Z</time>
      </trkpt>
      <trkpt lat="36.6734788698284" lon="117.0109543975281">
        <ele>15.099999999999998</ele>
        <time>2023-06-19T01:58:34Z</time>
      </trkpt>
      <trkpt lat="36.67337687175216" lon="117.01097532075018">
        <ele>17.3</ele>
        <time>2023-06-19T01:58:40Z</time>
      </trkpt>
      <trkpt lat="36.673242107423086" lon="117.01092355443163">
        <ele>16.3</ele>
        <time>2023-06-19T01:58:49Z</time>
      </trkpt>
      <trkpt lat="36.67308674792959" lon="117.01073835393929">
        <ele>13.7</ele>
        <time>2023-06-19T01:59:01Z</time>
      </trkpt>
      <trkpt lat="36.67280702390658" lon="117.01070353261083">
        <ele>14.8</ele>
        <time>2023-06-19T01:59:16Z</time>
      </trkpt>
      <trkpt lat="36.67276695217846" lon="117.01073639830435">
        <ele>15.3</ele>
        <time>2023-06-19T01:59:19Z</time>
      </trkpt>
      <trkpt lat="36.672759623185925" lon="117.0108499197413">
        <ele>15.399999999999999</ele>
        <time>2023-06-19T01:59:25Z</time>
      </trkpt>
      <trkpt lat="36.67270733687394" lon="117.01095846746786">
        <ele>14.899999999999999</ele>
        <time>2023-06-19T01:59:31Z</time>
      </trkpt>
      <trkpt lat="36.67265931403749" lon="117.01097639722899">
        <ele>15.399999999999999</ele>
        <time>2023-06-19T01:59:34Z</time>
      </trkpt>
      <trkpt lat="36.67265931403749" lon="117.01097639722899">
        <ele>15.399999999999999</ele>
        <time>2023-06-19T01:59:37Z</time>
      </trkpt>
    </trkseg>
  </trk>
</gpx>