<?xml version="1.0" encoding="UTF-8"?>
<gpx xmlns="http://www.topografix.com/GPX/1/1" xmlns:gpxtpx="http://www.garmin.com/xmlschemas/TrackPointExtension/v1" xmlns:xsi="http://www.w3.org/2001/XMLSchema-instance" xsi:schemaLocation="http://www.topografix.com/GPX/1/1 http://www.topografix.com/GPX/1/1/gpx.xsd" version="1.1" creator="gpx.py -- https://github.com/tkrajina/gpxpy">
  <trk>
    <name>gpx from keep</name>
    <type>Walk</type>
    <trkseg>
      <trkpt lat="39.92277673441917" lon="116.4579796878232">
        <ele>26.800000000000004</ele>
        <time>2023-03-01T04:01:57Z</time>
      </trkpt>
      <trkpt lat="39.9228788293485" lon="116.4580198028503">
        <ele>23.0</ele>
        <time>2023-03-01T04:02:03Z</time>
      </trkpt>
      <trkpt lat="39.922953992411664" lon="116.45808700773141">
        <ele>25.4</ele>
        <time>2023-03-01T04:02:09Z</time>
      </trkpt>
      <trkpt lat="39.922976135442774" lon="116.4581451906287">
        <ele>25.5</ele>
        <time>2023-03-01T04:02:12Z</time>
      </trkpt>
      <trkpt lat="39.92307227799827" lon="116.45820436751438">
        <ele>29.200000000000003</ele>
        <time>2023-03-01T04:02:24Z</time>
      </trkpt>
      <trkpt lat="39.92308670510046" lon="116.45837691738524">
        <ele>31.9</ele>
        <time>2023-03-01T04:02:36Z</time>
      </trkpt>
      <trkpt lat="39.923060850574174" lon="116.45843510690767">
        <ele>32.0</ele>
        <time>2023-03-01T04:02:39Z</time>
      </trkpt>
      <trkpt lat="39.92310182979455" lon="116.45882936683374">
        <ele>26.700000000000003</ele>
        <time>2023-03-01T04:03:06Z</time>
      </trkpt>
      <trkpt lat="39.92317146564174" lon="116.45908518170172">
        <ele>25.299999999999997</ele>
        <time>2023-03-01T04:03:24Z</time>
      </trkpt>
      <trkpt lat="39.92317472650996" lon="116.45918951783466">
        <ele>25.0</ele>
        <time>2023-03-01T04:03:30Z</time>
      </trkpt>
      <trkpt lat="39.92314222304891" lon="116.45938716041175">
        <ele>24.799999999999997</ele>
        <time>2023-03-01T04:03:42Z</time>
      </trkpt>
      <trkpt lat="39.92314740659979" lon="116.45946039667977">
        <ele>25.0</ele>
        <time>2023-03-01T04:03:45Z</time>
      </trkpt>
      <trkpt lat="39.923182568895804" lon="116.45952560335378">
        <ele>24.700000000000003</ele>
        <time>2023-03-01T04:03:51Z</time>
      </trkpt>
      <trkpt lat="39.9232316475269" lon="116.45955770114831">
        <ele>24.299999999999997</ele>
        <time>2023-03-01T04:03:57Z</time>
      </trkpt>
      <trkpt lat="39.92336236673311" lon="116.4598456187581">
        <ele>25.700000000000003</ele>
        <time>2023-03-01T04:04:15Z</time>
      </trkpt>
      <trkpt lat="39.92342248312583" lon="116.45989276440844">
        <ele>25.299999999999997</ele>
        <time>2023-03-01T04:04:21Z</time>
      </trkpt>
      <trkpt lat="39.92349652561485" lon="116.45991081377888">
        <ele>24.1</ele>
        <time>2023-03-01T04:04:27Z</time>
      </trkpt>
      <trkpt lat="39.92353171907339" lon="116.45998806057659">
        <ele>23.1</ele>
        <time>2023-03-01T04:04:33Z</time>
      </trkpt>
      <trkpt lat="39.92380534424128" lon="116.46023984639312">
        <ele>25.0</ele>
        <time>2023-03-01T04:05:03Z</time>
      </trkpt>
      <trkpt lat="39.92405760567195" lon="116.46034716491764">
        <ele>24.0</ele>
        <time>2023-03-01T04:05:27Z</time>
      </trkpt>
      <trkpt lat="39.924177590568966" lon="116.46034313669587">
        <ele>25.799999999999997</ele>
        <time>2023-03-01T04:05:36Z</time>
      </trkpt>
      <trkpt lat="39.92421953293458" lon="116.46032105935615">
        <ele>25.700000000000003</ele>
        <time>2023-03-01T04:05:39Z</time>
      </trkpt>
      <trkpt lat="39.92427234533661" lon="116.46024781372316">
        <ele>24.0</ele>
        <time>2023-03-01T04:05:45Z</time>
      </trkpt>
      <trkpt lat="39.92439724373336" lon="116.46020967365266">
        <ele>23.299999999999997</ele>
        <time>2023-03-01T04:05:57Z</time>
      </trkpt>
      <trkpt lat="39.924707352849836" lon="116.46025779163176">
        <ele>24.4</ele>
        <time>2023-03-01T04:06:27Z</time>
      </trkpt>
      <trkpt lat="39.92487223183261" lon="116.46021262360912">
        <ele>26.5</ele>
        <time>2023-03-01T04:06:39Z</time>
      </trkpt>
      <trkpt lat="39.92494427202811" lon="116.4602296701488">
        <ele>25.6</ele>
        <time>2023-03-01T04:06:45Z</time>
      </trkpt>
      <trkpt lat="39.92500437366763" lon="116.46027079675153">
        <ele>25.5</ele>
        <time>2023-03-01T04:06:51Z</time>
      </trkpt>
      <trkpt lat="39.925111354039124" lon="116.46026476363096">
        <ele>26.800000000000004</ele>
        <time>2023-03-01T04:07:00Z</time>
      </trkpt>
      <trkpt lat="39.92517921161823" lon="116.46020957510916">
        <ele>26.200000000000003</ele>
        <time>2023-03-01T04:07:06Z</time>
      </trkpt>
      <trkpt lat="39.92523481877799" lon="116.46005506470674">
        <ele>25.9</ele>
        <time>2023-03-01T04:07:18Z</time>
      </trkpt>
      <trkpt lat="39.925226613941746" lon="116.45997380127835">
        <ele>24.799999999999997</ele>
        <time>2023-03-01T04:07:24Z</time>
      </trkpt>
      <trkpt lat="39.925252407884315" lon="116.45989253377928">
        <ele>24.200000000000003</ele>
        <time>2023-03-01T04:07:30Z</time>
      </trkpt>
      <trkpt lat="39.92545221761442" lon="116.45982027388813">
        <ele>28.300000000000004</ele>
        <time>2023-03-01T04:07:48Z</time>
      </trkpt>
      <trkpt lat="39.925616261452795" lon="116.45984031839139">
        <ele>27.300000000000004</ele>
        <time>2023-03-01T04:08:00Z</time>
      </trkpt>
      <trkpt lat="39.925686111987595" lon="116.45978212060223">
        <ele>25.700000000000003</ele>
        <time>2023-03-01T04:08:06Z</time>
      </trkpt>
      <trkpt lat="39.92579655471809" lon="116.45956239409632">
        <ele>23.299999999999997</ele>
        <time>2023-03-01T04:08:24Z</time>
      </trkpt>
      <trkpt lat="39.92595107742523" lon="116.45937476740689">
        <ele>22.299999999999997</ele>
        <time>2023-03-01T04:08:42Z</time>
      </trkpt>
      <trkpt lat="39.92601464246504" lon="116.4592022019135">
        <ele>22.6</ele>
        <time>2023-03-01T04:08:54Z</time>
      </trkpt>
      <trkpt lat="39.926026004978056" lon="116.45894737903058">
        <ele>22.1</ele>
        <time>2023-03-01T04:09:12Z</time>
      </trkpt>
      <trkpt lat="39.926042786500425" lon="116.4588600960488">
        <ele>23.1</ele>
        <time>2023-03-01T04:09:18Z</time>
      </trkpt>
      <trkpt lat="39.92602068411662" lon="116.45841667585272">
        <ele>23.1</ele>
        <time>2023-03-01T04:09:45Z</time>
      </trkpt>
      <trkpt lat="39.92596996522928" lon="116.45812575222413">
        <ele>25.5</ele>
        <time>2023-03-01T04:10:03Z</time>
      </trkpt>
      <trkpt lat="39.925996312322795" lon="116.45786190795593">
        <ele>23.700000000000003</ele>
        <time>2023-03-01T04:10:21Z</time>
      </trkpt>
      <trkpt lat="39.9260806639029" lon="116.45760006512357">
        <ele>20.6</ele>
        <time>2023-03-01T04:10:42Z</time>
      </trkpt>
      <trkpt lat="39.926076740730906" lon="116.45722387408253">
        <ele>22.700000000000003</ele>
        <time>2023-03-01T04:11:00Z</time>
      </trkpt>
      <trkpt lat="39.92605736103886" lon="116.45706838546242">
        <ele>22.799999999999997</ele>
        <time>2023-03-01T04:11:09Z</time>
      </trkpt>
      <trkpt lat="39.92602721272031" lon="116.45700719623989">
        <ele>24.200000000000003</ele>
        <time>2023-03-01T04:11:12Z</time>
      </trkpt>
      <trkpt lat="39.92583165779203" lon="116.45677649429113">
        <ele>40.1</ele>
        <time>2023-03-01T04:11:27Z</time>
      </trkpt>
      <trkpt lat="39.925786576549854" lon="116.45674239272455">
        <ele>43.2</ele>
        <time>2023-03-01T04:11:30Z</time>
      </trkpt>
      <trkpt lat="39.925713584426596" lon="116.45674440824287">
        <ele>44.300000000000004</ele>
        <time>2023-03-01T04:11:36Z</time>
      </trkpt>
      <trkpt lat="39.92567165701369" lon="116.45677350501494">
        <ele>44.6</ele>
        <time>2023-03-01T04:11:39Z</time>
      </trkpt>
      <trkpt lat="39.92538729016393" lon="116.45661805229146">
        <ele>30.6</ele>
        <time>2023-03-01T04:12:09Z</time>
      </trkpt>
      <trkpt lat="39.92511592834776" lon="116.45646460507218">
        <ele>17.799999999999997</ele>
        <time>2023-03-01T04:12:33Z</time>
      </trkpt>
      <trkpt lat="39.925075839904" lon="116.45642749382452">
        <ele>17.5</ele>
        <time>2023-03-01T04:12:36Z</time>
      </trkpt>
      <trkpt lat="39.92498576085123" lon="116.45639339835883">
        <ele>20.9</ele>
        <time>2023-03-01T04:12:45Z</time>
      </trkpt>
      <trkpt lat="39.92487655131371" lon="116.4563051358237">
        <ele>20.799999999999997</ele>
        <time>2023-03-01T04:12:57Z</time>
      </trkpt>
      <trkpt lat="39.924828521687914" lon="116.45629210108889">
        <ele>19.0</ele>
        <time>2023-03-01T04:13:00Z</time>
      </trkpt>
      <trkpt lat="39.92478841642475" lon="116.4562479681163">
        <ele>19.6</ele>
        <time>2023-03-01T04:13:06Z</time>
      </trkpt>
      <trkpt lat="39.924751092712796" lon="116.45611355287892">
        <ele>23.0</ele>
        <time>2023-03-01T04:13:15Z</time>
      </trkpt>
      <trkpt lat="39.92470003418732" lon="116.45608848104578">
        <ele>24.799999999999997</ele>
        <time>2023-03-01T04:13:18Z</time>
      </trkpt>
      <trkpt lat="39.924643743343104" lon="116.45596710960774">
        <ele>27.0</ele>
        <time>2023-03-01T04:13:30Z</time>
      </trkpt>
      <trkpt lat="39.9245766662208" lon="116.4559340149265">
        <ele>25.799999999999997</ele>
        <time>2023-03-01T04:13:36Z</time>
      </trkpt>
      <trkpt lat="39.924261691267525" lon="116.45593907030566">
        <ele>25.0</ele>
        <time>2023-03-01T04:14:03Z</time>
      </trkpt>
      <trkpt lat="39.92397560866916" lon="116.45589998455554">
        <ele>30.0</ele>
        <time>2023-03-01T04:14:30Z</time>
      </trkpt>
      <trkpt lat="39.923756656390424" lon="116.45591606217504">
        <ele>34.800000000000004</ele>
        <time>2023-03-01T04:14:48Z</time>
      </trkpt>
      <trkpt lat="39.92361160672195" lon="116.45589300863024">
        <ele>39.9</ele>
        <time>2023-03-01T04:15:00Z</time>
      </trkpt>
      <trkpt lat="39.92337384402075" lon="116.45598733241007">
        <ele>44.2</ele>
        <time>2023-03-01T04:15:21Z</time>
      </trkpt>
      <trkpt lat="39.92325883907522" lon="116.45598333441662">
        <ele>43.4</ele>
        <time>2023-03-01T04:15:30Z</time>
      </trkpt>
      <trkpt lat="39.92313861412223" lon="116.45588805270818">
        <ele>39.300000000000004</ele>
        <time>2023-03-01T04:15:42Z</time>
      </trkpt>
      <trkpt lat="39.923084606675026" lon="116.45588404703115">
        <ele>39.4</ele>
        <time>2023-03-01T04:15:48Z</time>
      </trkpt>
      <trkpt lat="39.92297678775901" lon="116.45595728872817">
        <ele>40.7</ele>
        <time>2023-03-01T04:16:00Z</time>
      </trkpt>
      <trkpt lat="39.92284677375925" lon="116.45594928013071">
        <ele>42.2</ele>
        <time>2023-03-01T04:16:12Z</time>
      </trkpt>
      <trkpt lat="39.92277883708515" lon="116.45597436685412">
        <ele>42.7</ele>
        <time>2023-03-01T04:16:18Z</time>
      </trkpt>
      <trkpt lat="39.92252861511405" lon="116.45587809846141">
        <ele>43.0</ele>
        <time>2023-03-01T04:16:36Z</time>
      </trkpt>
      <trkpt lat="39.922393584419794" lon="116.45586306866242">
        <ele>37.800000000000004</ele>
        <time>2023-03-01T04:16:48Z</time>
      </trkpt>
      <trkpt lat="39.922250704003595" lon="116.45591023348734">
        <ele>30.9</ele>
        <time>2023-03-01T04:17:00Z</time>
      </trkpt>
      <trkpt lat="39.92195169459683" lon="116.45590124310684">
        <ele>24.9</ele>
        <time>2023-03-01T04:17:24Z</time>
      </trkpt>
      <trkpt lat="39.92169677773409" lon="116.45593136900582">
        <ele>28.6</ele>
        <time>2023-03-01T04:17:48Z</time>
      </trkpt>
      <trkpt lat="39.92159173127093" lon="116.45591031664874">
        <ele>31.700000000000003</ele>
        <time>2023-03-01T04:17:57Z</time>
      </trkpt>
      <trkpt lat="39.92149675698049" lon="116.45591935675225">
        <ele>34.0</ele>
        <time>2023-03-01T04:18:03Z</time>
      </trkpt>
      <trkpt lat="39.9213286962062" lon="116.455891290492">
        <ele>36.9</ele>
        <time>2023-03-01T04:18:15Z</time>
      </trkpt>
      <trkpt lat="39.92111385755666" lon="116.45595451444751">
        <ele>36.9</ele>
        <time>2023-03-01T04:18:33Z</time>
      </trkpt>
      <trkpt lat="39.920988843377984" lon="116.45594650521933">
        <ele>38.9</ele>
        <time>2023-03-01T04:18:45Z</time>
      </trkpt>
      <trkpt lat="39.92085691421431" lon="116.45597360626506">
        <ele>41.0</ele>
        <time>2023-03-01T04:18:57Z</time>
      </trkpt>
      <trkpt lat="39.92080389946704" lon="116.45596659107164">
        <ele>39.2</ele>
        <time>2023-03-01T04:19:03Z</time>
      </trkpt>
      <trkpt lat="39.920746204714014" lon="116.45609198939111">
        <ele>36.9</ele>
        <time>2023-03-01T04:19:18Z</time>
      </trkpt>
      <trkpt lat="39.920692286981186" lon="116.45612509952271">
        <ele>37.800000000000004</ele>
        <time>2023-03-01T04:19:24Z</time>
      </trkpt>
      <trkpt lat="39.920539147858435" lon="116.45606493100644">
        <ele>37.5</ele>
        <time>2023-03-01T04:19:36Z</time>
      </trkpt>
      <trkpt lat="39.92040140339154" lon="116.45616827092455">
        <ele>32.0</ele>
        <time>2023-03-01T04:19:48Z</time>
      </trkpt>
      <trkpt lat="39.920330462164756" lon="116.45619135195062">
        <ele>30.800000000000004</ele>
        <time>2023-03-01T04:19:54Z</time>
      </trkpt>
      <trkpt lat="39.92028864118743" lon="116.45626458611225">
        <ele>32.9</ele>
        <time>2023-03-01T04:20:00Z</time>
      </trkpt>
      <trkpt lat="39.92022175089903" lon="116.4563087326021">
        <ele>34.1</ele>
        <time>2023-03-01T04:20:06Z</time>
      </trkpt>
      <trkpt lat="39.920176755200956" lon="116.45630974141757">
        <ele>34.0</ele>
        <time>2023-03-01T04:20:09Z</time>
      </trkpt>
      <trkpt lat="39.920086902411555" lon="116.45636893797746">
        <ele>30.5</ele>
        <time>2023-03-01T04:20:18Z</time>
      </trkpt>
      <trkpt lat="39.92001094449685" lon="116.4563849978123">
        <ele>30.200000000000003</ele>
        <time>2023-03-01T04:20:24Z</time>
      </trkpt>
      <trkpt lat="39.9199419230396" lon="116.45637497511235">
        <ele>28.5</ele>
        <time>2023-03-01T04:20:30Z</time>
      </trkpt>
      <trkpt lat="39.91975496001743" lon="116.45638703639092">
        <ele>27.9</ele>
        <time>2023-03-01T04:20:45Z</time>
      </trkpt>
      <trkpt lat="39.919566201591515" lon="116.45648336191081">
        <ele>30.4</ele>
        <time>2023-03-01T04:21:00Z</time>
      </trkpt>
      <trkpt lat="39.91952630802327" lon="116.45652650218906">
        <ele>28.9</ele>
        <time>2023-03-01T04:21:06Z</time>
      </trkpt>
      <trkpt lat="39.91952047161801" lon="116.45659371378757">
        <ele>27.6</ele>
        <time>2023-03-01T04:21:18Z</time>
      </trkpt>
      <trkpt lat="39.91950361871442" lon="116.45665390488088">
        <ele>28.0</ele>
        <time>2023-03-01T04:21:36Z</time>
      </trkpt>
      <trkpt lat="39.91943856041543" lon="116.4566288343363">
        <ele>26.9</ele>
        <time>2023-03-01T04:21:42Z</time>
      </trkpt>
      <trkpt lat="39.91944040911056" lon="116.4565666388944">
        <ele>26.200000000000003</ele>
        <time>2023-03-01T04:21:45Z</time>
      </trkpt>
      <trkpt lat="39.91936556589796" lon="116.4566298466944">
        <ele>26.200000000000003</ele>
        <time>2023-03-01T04:21:48Z</time>
      </trkpt>
      <trkpt lat="39.918983119739956" lon="116.45519442457754">
        <ele>0.0</ele>
        <time>2023-03-01T04:22:41Z</time>
      </trkpt>
    </trkseg>
  </trk>
</gpx>