<?xml version="1.0" encoding="UTF-8"?>
<gpx xmlns="http://www.topografix.com/GPX/1/1" xmlns:gpxtpx="http://www.garmin.com/xmlschemas/TrackPointExtension/v1" xmlns:xsi="http://www.w3.org/2001/XMLSchema-instance" xsi:schemaLocation="http://www.topografix.com/GPX/1/1 http://www.topografix.com/GPX/1/1/gpx.xsd" version="1.1" creator="gpx.py -- https://github.com/tkrajina/gpxpy">
  <trk>
    <name>gpx from keep</name>
    <type>Walk</type>
    <trkseg>
      <trkpt lat="39.89992781237895" lon="116.66976629251833">
        <ele>66.1</ele>
        <time>2023-02-17T23:16:59Z</time>
      </trkpt>
      <trkpt lat="39.89991795638025" lon="116.66969150703339">
        <ele>66.1</ele>
        <time>2023-02-17T23:17:05Z</time>
      </trkpt>
      <trkpt lat="39.90015607392597" lon="116.66962466822008">
        <ele>66.1</ele>
        <time>2023-02-17T23:17:11Z</time>
      </trkpt>
      <trkpt lat="39.90011801437798" lon="116.6696565819">
        <ele>66.1</ele>
        <time>2023-02-17T23:17:14Z</time>
      </trkpt>
      <trkpt lat="39.900065123963245" lon="116.66960074770157">
        <ele>65.1</ele>
        <time>2023-02-17T23:17:17Z</time>
      </trkpt>
      <trkpt lat="39.8997631509578" lon="116.66959380486001">
        <ele>61.8</ele>
        <time>2023-02-17T23:17:32Z</time>
      </trkpt>
      <trkpt lat="39.89964021393298" lon="116.66956390535422">
        <ele>53.3</ele>
        <time>2023-02-17T23:17:38Z</time>
      </trkpt>
      <trkpt lat="39.899586206794325" lon="116.66956889779401">
        <ele>45.7</ele>
        <time>2023-02-17T23:17:41Z</time>
      </trkpt>
      <trkpt lat="39.89950531766155" lon="116.66951306705884">
        <ele>31.5</ele>
        <time>2023-02-17T23:17:47Z</time>
      </trkpt>
      <trkpt lat="39.89942577511625" lon="116.66927675107199">
        <ele>20.4</ele>
        <time>2023-02-17T23:18:05Z</time>
      </trkpt>
      <trkpt lat="39.89943290121484" lon="116.66921093796618">
        <ele>18.4</ele>
        <time>2023-02-17T23:18:08Z</time>
      </trkpt>
      <trkpt lat="39.89940821842673" lon="116.66904641047907">
        <ele>17.4</ele>
        <time>2023-02-17T23:18:20Z</time>
      </trkpt>
      <trkpt lat="39.899417702810815" lon="116.66879412925337">
        <ele>15.0</ele>
        <time>2023-02-17T23:18:35Z</time>
      </trkpt>
      <trkpt lat="39.89943988964198" lon="116.66869640541597">
        <ele>12.600000000000001</ele>
        <time>2023-02-17T23:18:41Z</time>
      </trkpt>
      <trkpt lat="39.899325821953035" lon="116.66873431133568">
        <ele>6.1</ele>
        <time>2023-02-17T23:18:59Z</time>
      </trkpt>
      <trkpt lat="39.8994044178703" lon="116.6689427068803">
        <ele>-0.2999999999999998</ele>
        <time>2023-02-17T23:19:14Z</time>
      </trkpt>
      <trkpt lat="39.899406233843955" lon="116.66903843348719">
        <ele>-3.2</ele>
        <time>2023-02-17T23:19:20Z</time>
      </trkpt>
      <trkpt lat="39.89943507352575" lon="116.66912119376599">
        <ele>-8.6</ele>
        <time>2023-02-17T23:19:26Z</time>
      </trkpt>
      <trkpt lat="39.89941770269826" lon="116.66931464395978">
        <ele>-7.0</ele>
        <time>2023-02-17T23:19:38Z</time>
      </trkpt>
      <trkpt lat="39.89947496102639" lon="116.6696995389256">
        <ele>0.7000000000000002</ele>
        <time>2023-02-17T23:20:02Z</time>
      </trkpt>
      <trkpt lat="39.89948117618511" lon="116.67010837231697">
        <ele>7.5</ele>
        <time>2023-02-17T23:20:26Z</time>
      </trkpt>
      <trkpt lat="39.8994866366295" lon="116.67038957004505">
        <ele>5.699999999999999</ele>
        <time>2023-02-17T23:20:44Z</time>
      </trkpt>
      <trkpt lat="39.89947651855081" lon="116.67045139508814">
        <ele>3.1999999999999993</ele>
        <time>2023-02-17T23:21:08Z</time>
      </trkpt>
      <trkpt lat="39.89956579596564" lon="116.67082631574341">
        <ele>0.5999999999999996</ele>
        <time>2023-02-17T23:21:32Z</time>
      </trkpt>
      <trkpt lat="39.89960105345155" lon="116.67121320949771">
        <ele>7.9</ele>
        <time>2023-02-17T23:21:56Z</time>
      </trkpt>
      <trkpt lat="39.89963268179382" lon="116.67140665486686">
        <ele>9.4</ele>
        <time>2023-02-17T23:22:08Z</time>
      </trkpt>
      <trkpt lat="39.89962830810547" lon="116.67160209916088">
        <ele>10.2</ele>
        <time>2023-02-17T23:22:20Z</time>
      </trkpt>
      <trkpt lat="39.899664925114955" lon="116.67180152721582">
        <ele>11.5</ele>
        <time>2023-02-17T23:22:32Z</time>
      </trkpt>
      <trkpt lat="39.899691211321034" lon="116.67217446338134">
        <ele>13.2</ele>
        <time>2023-02-17T23:22:53Z</time>
      </trkpt>
      <trkpt lat="39.89974768903792" lon="116.67244668266758">
        <ele>10.5</ele>
        <time>2023-02-17T23:23:08Z</time>
      </trkpt>
      <trkpt lat="39.89977787742028" lon="116.67287147234738">
        <ele>11.100000000000001</ele>
        <time>2023-02-17T23:23:32Z</time>
      </trkpt>
      <trkpt lat="39.899835504256494" lon="116.67306591325395">
        <ele>9.0</ele>
        <time>2023-02-17T23:23:44Z</time>
      </trkpt>
      <trkpt lat="39.89986873190307" lon="116.67347076062588">
        <ele>10.6</ele>
        <time>2023-02-17T23:24:08Z</time>
      </trkpt>
      <trkpt lat="39.89990636410332" lon="116.67366321036077">
        <ele>10.2</ele>
        <time>2023-02-17T23:24:23Z</time>
      </trkpt>
      <trkpt lat="39.89988300685442" lon="116.67385167916957">
        <ele>10.9</ele>
        <time>2023-02-17T23:24:35Z</time>
      </trkpt>
      <trkpt lat="39.899951306773666" lon="116.67421863152188">
        <ele>10.1</ele>
        <time>2023-02-17T23:24:59Z</time>
      </trkpt>
      <trkpt lat="39.900015549149494" lon="116.67461649790278">
        <ele>8.0</ele>
        <time>2023-02-17T23:25:23Z</time>
      </trkpt>
      <trkpt lat="39.900003039597934" lon="116.67488573837245">
        <ele>12.100000000000001</ele>
        <time>2023-02-17T23:25:38Z</time>
      </trkpt>
      <trkpt lat="39.900041715046825" lon="116.67505625186558">
        <ele>9.5</ele>
        <time>2023-02-17T23:25:50Z</time>
      </trkpt>
      <trkpt lat="39.90006599546057" lon="116.67543617637237">
        <ele>9.0</ele>
        <time>2023-02-17T23:26:14Z</time>
      </trkpt>
      <trkpt lat="39.90013539723393" lon="116.67575127917354">
        <ele>7.6</ele>
        <time>2023-02-17T23:26:32Z</time>
      </trkpt>
      <trkpt lat="39.90017069229916" lon="116.67612422418972">
        <ele>5.199999999999999</ele>
        <time>2023-02-17T23:26:53Z</time>
      </trkpt>
      <trkpt lat="39.900227998738046" lon="116.67649118455154">
        <ele>2.5999999999999996</ele>
        <time>2023-02-17T23:27:17Z</time>
      </trkpt>
      <trkpt lat="39.90023820913949" lon="116.67691100356491">
        <ele>12.0</ele>
        <time>2023-02-17T23:27:41Z</time>
      </trkpt>
      <trkpt lat="39.90024989225462" lon="116.67707952902694">
        <ele>10.5</ele>
        <time>2023-02-17T23:27:50Z</time>
      </trkpt>
      <trkpt lat="39.900318232920235" lon="116.6774295388989">
        <ele>13.100000000000001</ele>
        <time>2023-02-17T23:28:14Z</time>
      </trkpt>
      <trkpt lat="39.90037577850478" lon="116.67767085568325">
        <ele>18.9</ele>
        <time>2023-02-17T23:28:29Z</time>
      </trkpt>
      <trkpt lat="39.90040663906122" lon="116.67774464524624">
        <ele>16.6</ele>
        <time>2023-02-17T23:28:35Z</time>
      </trkpt>
      <trkpt lat="39.90040043980503" lon="116.67785134735377">
        <ele>14.399999999999999</ele>
        <time>2023-02-17T23:28:41Z</time>
      </trkpt>
      <trkpt lat="39.90048281766365" lon="116.67818241125836">
        <ele>5.0</ele>
        <time>2023-02-17T23:29:02Z</time>
      </trkpt>
      <trkpt lat="39.900536766852724" lon="116.6782083321236">
        <ele>3.8000000000000007</ele>
        <time>2023-02-17T23:29:08Z</time>
      </trkpt>
      <trkpt lat="39.900565624150765" lon="116.67828411678863">
        <ele>2.5</ele>
        <time>2023-02-17T23:29:14Z</time>
      </trkpt>
      <trkpt lat="39.900605832611184" lon="116.6787079287869">
        <ele>3.5</ele>
        <time>2023-02-17T23:29:38Z</time>
      </trkpt>
      <trkpt lat="39.90062053509762" lon="116.67886748212351">
        <ele>4.0</ele>
        <time>2023-02-17T23:29:47Z</time>
      </trkpt>
      <trkpt lat="39.90058322905642" lon="116.67903302552793">
        <ele>4.800000000000001</ele>
        <time>2023-02-17T23:29:56Z</time>
      </trkpt>
      <trkpt lat="39.900606609715" lon="116.67936609563873">
        <ele>5.1</ele>
        <time>2023-02-17T23:30:17Z</time>
      </trkpt>
      <trkpt lat="39.900645168107964" lon="116.67960343113165">
        <ele>1.4000000000000004</ele>
        <time>2023-02-17T23:30:32Z</time>
      </trkpt>
      <trkpt lat="39.90064357400332" lon="116.67992453985794">
        <ele>1.0999999999999996</ele>
        <time>2023-02-17T23:30:50Z</time>
      </trkpt>
      <trkpt lat="39.900663372232295" lon="116.68003323593041">
        <ele>3.8000000000000007</ele>
        <time>2023-02-17T23:30:56Z</time>
      </trkpt>
      <trkpt lat="39.900680745678685" lon="116.68037229436956">
        <ele>4.199999999999999</ele>
        <time>2023-02-17T23:31:17Z</time>
      </trkpt>
      <trkpt lat="39.900720675865074" lon="116.68040918728616">
        <ele>6.0</ele>
        <time>2023-02-17T23:31:26Z</time>
      </trkpt>
      <trkpt lat="39.90075121528742" lon="116.68065849384334">
        <ele>8.7</ele>
        <time>2023-02-17T23:31:38Z</time>
      </trkpt>
      <trkpt lat="39.90077612241312" lon="116.68070835292633">
        <ele>8.7</ele>
        <time>2023-02-17T23:31:41Z</time>
      </trkpt>
      <trkpt lat="39.90077601418109" lon="116.6807671903398">
        <ele>8.4</ele>
        <time>2023-02-17T23:31:44Z</time>
      </trkpt>
      <trkpt lat="39.90075083744785" lon="116.68086392623374">
        <ele>8.1</ele>
        <time>2023-02-17T23:31:50Z</time>
      </trkpt>
      <trkpt lat="39.9007830817538" lon="116.68127478865672">
        <ele>11.5</ele>
        <time>2023-02-17T23:32:14Z</time>
      </trkpt>
      <trkpt lat="39.90078893161075" lon="116.68135656259552">
        <ele>11.3</ele>
        <time>2023-02-17T23:32:20Z</time>
      </trkpt>
      <trkpt lat="39.90082172920531" lon="116.6814662564003">
        <ele>9.7</ele>
        <time>2023-02-17T23:32:26Z</time>
      </trkpt>
      <trkpt lat="39.900833538833695" lon="116.6815699694411">
        <ele>7.699999999999999</ele>
        <time>2023-02-17T23:32:32Z</time>
      </trkpt>
      <trkpt lat="39.90090124945506" lon="116.6817265303553">
        <ele>6.1</ele>
        <time>2023-02-17T23:32:44Z</time>
      </trkpt>
      <trkpt lat="39.90096352393576" lon="116.68212243513318">
        <ele>4.1</ele>
        <time>2023-02-17T23:33:02Z</time>
      </trkpt>
      <trkpt lat="39.90095601933961" lon="116.68239967591057">
        <ele>5.199999999999999</ele>
        <time>2023-02-17T23:33:14Z</time>
      </trkpt>
      <trkpt lat="39.90098982917793" lon="116.68250338764463">
        <ele>7.300000000000001</ele>
        <time>2023-02-17T23:33:20Z</time>
      </trkpt>
      <trkpt lat="39.90104168002284" lon="116.6825841600808">
        <ele>11.3</ele>
        <time>2023-02-17T23:33:26Z</time>
      </trkpt>
      <trkpt lat="39.90107048851902" lon="116.68268886999688">
        <ele>14.5</ele>
        <time>2023-02-17T23:33:32Z</time>
      </trkpt>
      <trkpt lat="39.901124339467344" lon="116.68276964241365">
        <ele>15.8</ele>
        <time>2023-02-17T23:33:38Z</time>
      </trkpt>
      <trkpt lat="39.901183803462565" lon="116.68306383134727">
        <ele>18.1</ele>
        <time>2023-02-17T23:33:56Z</time>
      </trkpt>
      <trkpt lat="39.901245726654324" lon="116.68310471208008">
        <ele>15.600000000000001</ele>
        <time>2023-02-17T23:34:02Z</time>
      </trkpt>
      <trkpt lat="39.901295612506544" lon="116.68316653719668">
        <ele>13.8</ele>
        <time>2023-02-17T23:34:08Z</time>
      </trkpt>
      <trkpt lat="39.90136514242805" lon="116.68342482449856">
        <ele>3.6999999999999993</ele>
        <time>2023-02-17T23:34:23Z</time>
      </trkpt>
      <trkpt lat="39.901490908152205" lon="116.68355146405615">
        <ele>2.0999999999999996</ele>
        <time>2023-02-17T23:34:35Z</time>
      </trkpt>
      <trkpt lat="39.90169177683526" lon="116.68361925461865">
        <ele>7.1</ele>
        <time>2023-02-17T23:34:53Z</time>
      </trkpt>
      <trkpt lat="39.90174384286679" lon="116.683581351282">
        <ele>6.9</ele>
        <time>2023-02-17T23:34:59Z</time>
      </trkpt>
      <trkpt lat="39.90178498500338" lon="116.6835015633466">
        <ele>7.9</ele>
        <time>2023-02-17T23:35:08Z</time>
      </trkpt>
      <trkpt lat="39.901819044697284" lon="116.68346765145097">
        <ele>8.1</ele>
        <time>2023-02-17T23:35:11Z</time>
      </trkpt>
    </trkseg>
  </trk>
</gpx>