<?xml version="1.0" encoding="UTF-8"?>
<gpx xmlns="http://www.topografix.com/GPX/1/1" xmlns:gpxtpx="http://www.garmin.com/xmlschemas/TrackPointExtension/v1" xmlns:xsi="http://www.w3.org/2001/XMLSchema-instance" xsi:schemaLocation="http://www.topografix.com/GPX/1/1 http://www.topografix.com/GPX/1/1/gpx.xsd" version="1.1" creator="gpx.py -- https://github.com/tkrajina/gpxpy">
  <trk>
    <name>gpx from keep</name>
    <type>Run</type>
    <trkseg>
      <trkpt lat="39.92346998955293" lon="116.4990513410984">
        <ele>25.6</ele>
        <time>2023-07-25T00:03:12Z</time>
      </trkpt>
      <trkpt lat="39.92344563234458" lon="116.49893088969263">
        <ele>25.400000000000002</ele>
        <time>2023-07-25T00:03:15Z</time>
      </trkpt>
      <trkpt lat="39.92346934176656" lon="116.498833519351">
        <ele>25.5</ele>
        <time>2023-07-25T00:03:21Z</time>
      </trkpt>
      <trkpt lat="39.92334528669747" lon="116.49847718957754">
        <ele>25.6</ele>
        <time>2023-07-25T00:03:27Z</time>
      </trkpt>
      <trkpt lat="39.92344520995882" lon="116.49811681603356">
        <ele>24.900000000000002</ele>
        <time>2023-07-25T00:03:45Z</time>
      </trkpt>
      <trkpt lat="39.92349313791545" lon="116.4977574519419">
        <ele>22.6</ele>
        <time>2023-07-25T00:04:03Z</time>
      </trkpt>
      <trkpt lat="39.92348957297589" lon="116.49756773507423">
        <ele>21.400000000000002</ele>
        <time>2023-07-25T00:04:09Z</time>
      </trkpt>
      <trkpt lat="39.92347233147469" lon="116.4974864297341">
        <ele>20.7</ele>
        <time>2023-07-25T00:04:12Z</time>
      </trkpt>
      <trkpt lat="39.92348582849011" lon="116.49731779021084">
        <ele>19.5</ele>
        <time>2023-07-25T00:04:18Z</time>
      </trkpt>
      <trkpt lat="39.92351457007846" lon="116.49723146006859">
        <ele>18.7</ele>
        <time>2023-07-25T00:04:21Z</time>
      </trkpt>
      <trkpt lat="39.92345241489058" lon="116.49684299772919">
        <ele>14.900000000000002</ele>
        <time>2023-07-25T00:04:36Z</time>
      </trkpt>
      <trkpt lat="39.92342497017626" lon="116.49669343495322">
        <ele>13.3</ele>
        <time>2023-07-25T00:04:42Z</time>
      </trkpt>
      <trkpt lat="39.923455157901195" lon="116.49642140117903">
        <ele>13.2</ele>
        <time>2023-07-25T00:04:51Z</time>
      </trkpt>
      <trkpt lat="39.92351487707791" lon="116.4963280402134">
        <ele>12.2</ele>
        <time>2023-07-25T00:04:57Z</time>
      </trkpt>
      <trkpt lat="39.92356006997614" lon="116.49605801176091">
        <ele>15.399999999999999</ele>
        <time>2023-07-25T00:05:12Z</time>
      </trkpt>
      <trkpt lat="39.92354584902548" lon="116.49598373209953">
        <ele>15.399999999999999</ele>
        <time>2023-07-25T00:05:18Z</time>
      </trkpt>
      <trkpt lat="39.92349976111227" lon="116.49595362372399">
        <ele>15.2</ele>
        <time>2023-07-25T00:05:21Z</time>
      </trkpt>
      <trkpt lat="39.92319969865339" lon="116.49592856589719">
        <ele>12.7</ele>
        <time>2023-07-25T00:05:36Z</time>
      </trkpt>
      <trkpt lat="39.92293753284214" lon="116.49586937404241">
        <ele>13.0</ele>
        <time>2023-07-25T00:05:51Z</time>
      </trkpt>
      <trkpt lat="39.92282233400888" lon="116.49580112969285">
        <ele>14.5</ele>
        <time>2023-07-25T00:05:57Z</time>
      </trkpt>
      <trkpt lat="39.92257023065846" lon="116.49576301644785">
        <ele>12.599999999999998</ele>
        <time>2023-07-25T00:06:12Z</time>
      </trkpt>
      <trkpt lat="39.922380361275025" lon="116.49580419598337">
        <ele>12.599999999999998</ele>
        <time>2023-07-25T00:06:21Z</time>
      </trkpt>
      <trkpt lat="39.92217516018106" lon="116.4957339551873">
        <ele>14.2</ele>
        <time>2023-07-25T00:06:30Z</time>
      </trkpt>
      <trkpt lat="39.92212903932796" lon="116.49569280494494">
        <ele>12.7</ele>
        <time>2023-07-25T00:06:33Z</time>
      </trkpt>
      <trkpt lat="39.92210480976958" lon="116.49561551502003">
        <ele>9.7</ele>
        <time>2023-07-25T00:06:36Z</time>
      </trkpt>
      <trkpt lat="39.92212405734628" lon="116.49536355760384">
        <ele>2.500000000000001</ele>
        <time>2023-07-25T00:06:48Z</time>
      </trkpt>
      <trkpt lat="39.922105902075806" lon="116.49497609079094">
        <ele>-5.8</ele>
        <time>2023-07-25T00:07:03Z</time>
      </trkpt>
      <trkpt lat="39.92208263947149" lon="116.49488775870414">
        <ele>-5.1</ele>
        <time>2023-07-25T00:07:06Z</time>
      </trkpt>
      <trkpt lat="39.92209447982013" lon="116.49449928386565">
        <ele>-5.0</ele>
        <time>2023-07-25T00:07:21Z</time>
      </trkpt>
      <trkpt lat="39.92210523075935" lon="116.49441596649078">
        <ele>-8.9</ele>
        <time>2023-07-25T00:07:27Z</time>
      </trkpt>
      <trkpt lat="39.92209029081507" lon="116.49410077260094">
        <ele>-19.4</ele>
        <time>2023-07-25T00:07:42Z</time>
      </trkpt>
      <trkpt lat="39.9220991047318" lon="116.49403853538102">
        <ele>-21.4</ele>
        <time>2023-07-25T00:07:45Z</time>
      </trkpt>
      <trkpt lat="39.922079167982254" lon="116.49372434571346">
        <ele>-25.7</ele>
        <time>2023-07-25T00:07:54Z</time>
      </trkpt>
      <trkpt lat="39.92208890398229" lon="116.49363600930573">
        <ele>-25.3</ele>
        <time>2023-07-25T00:07:57Z</time>
      </trkpt>
      <trkpt lat="39.922069467461924" lon="116.4934894555762">
        <ele>-27.7</ele>
        <time>2023-07-25T00:08:03Z</time>
      </trkpt>
      <trkpt lat="39.922119605739326" lon="116.49320135603197">
        <ele>-29.900000000000002</ele>
        <time>2023-07-25T00:08:15Z</time>
      </trkpt>
      <trkpt lat="39.92212424612826" lon="116.49308089829933">
        <ele>-25.2</ele>
        <time>2023-07-25T00:08:18Z</time>
      </trkpt>
      <trkpt lat="39.92207706208551" lon="116.49268339549072">
        <ele>-16.5</ele>
        <time>2023-07-25T00:08:30Z</time>
      </trkpt>
      <trkpt lat="39.92206078724748" lon="116.49259104700577">
        <ele>-16.5</ele>
        <time>2023-07-25T00:08:33Z</time>
      </trkpt>
      <trkpt lat="39.92207503204592" lon="116.49233808514126">
        <ele>-21.4</ele>
        <time>2023-07-25T00:08:45Z</time>
      </trkpt>
      <trkpt lat="39.92208983980844" lon="116.49193856698207">
        <ele>-26.5</ele>
        <time>2023-07-25T00:09:03Z</time>
      </trkpt>
      <trkpt lat="39.92208243897308" lon="116.49180405739924">
        <ele>-27.400000000000002</ele>
        <time>2023-07-25T00:09:09Z</time>
      </trkpt>
      <trkpt lat="39.922097109094146" lon="116.49169363651359">
        <ele>-29.0</ele>
        <time>2023-07-25T00:09:15Z</time>
      </trkpt>
      <trkpt lat="39.92207569992089" lon="116.49155611726913">
        <ele>-28.900000000000002</ele>
        <time>2023-07-25T00:09:18Z</time>
      </trkpt>
      <trkpt lat="39.922094073667694" lon="116.49134631882387">
        <ele>-30.8</ele>
        <time>2023-07-25T00:09:27Z</time>
      </trkpt>
      <trkpt lat="39.92206226109259" lon="116.49107328670998">
        <ele>-34.699999999999996</ele>
        <time>2023-07-25T00:09:39Z</time>
      </trkpt>
      <trkpt lat="39.922064979749045" lon="116.4909789283417">
        <ele>-35.199999999999996</ele>
        <time>2023-07-25T00:09:42Z</time>
      </trkpt>
      <trkpt lat="39.922045621564905" lon="116.49085847371119">
        <ele>-34.0</ele>
        <time>2023-07-25T00:09:45Z</time>
      </trkpt>
      <trkpt lat="39.92203196707867" lon="116.49063864137831">
        <ele>-32.0</ele>
        <time>2023-07-25T00:09:51Z</time>
      </trkpt>
      <trkpt lat="39.922074861890906" lon="116.49026823096871">
        <ele>-26.1</ele>
        <time>2023-07-25T00:10:03Z</time>
      </trkpt>
      <trkpt lat="39.9220997877539" lon="116.48990786117679">
        <ele>-25.5</ele>
        <time>2023-07-25T00:10:18Z</time>
      </trkpt>
      <trkpt lat="39.92207569218591" lon="116.48953946739495">
        <ele>-26.2</ele>
        <time>2023-07-25T00:10:30Z</time>
      </trkpt>
      <trkpt lat="39.92207758708162" lon="116.48916805938526">
        <ele>-25.3</ele>
        <time>2023-07-25T00:10:45Z</time>
      </trkpt>
      <trkpt lat="39.92206939043208" lon="116.48876553522943">
        <ele>-28.0</ele>
        <time>2023-07-25T00:11:00Z</time>
      </trkpt>
      <trkpt lat="39.922052263445" lon="116.48838610024583">
        <ele>-26.7</ele>
        <time>2023-07-25T00:11:18Z</time>
      </trkpt>
      <trkpt lat="39.92205508438867" lon="116.48832587183644">
        <ele>-27.3</ele>
        <time>2023-07-25T00:11:21Z</time>
      </trkpt>
      <trkpt lat="39.92216476376169" lon="116.48821945530969">
        <ele>-25.900000000000002</ele>
        <time>2023-07-25T00:11:27Z</time>
      </trkpt>
      <trkpt lat="39.922374388374344" lon="116.48809596178376">
        <ele>-24.1</ele>
        <time>2023-07-25T00:11:39Z</time>
      </trkpt>
      <trkpt lat="39.922409273653095" lon="116.48805781304813">
        <ele>-24.7</ele>
        <time>2023-07-25T00:11:45Z</time>
      </trkpt>
      <trkpt lat="39.92244497113048" lon="116.48795642486168">
        <ele>-17.6</ele>
        <time>2023-07-25T00:11:54Z</time>
      </trkpt>
      <trkpt lat="39.92248687402677" lon="116.48792429807037">
        <ele>-13.8</ele>
        <time>2023-07-25T00:11:57Z</time>
      </trkpt>
      <trkpt lat="39.922674797710634" lon="116.48790118728023">
        <ele>0.6000000000000005</ele>
        <time>2023-07-25T00:12:06Z</time>
      </trkpt>
      <trkpt lat="39.92273886062598" lon="116.48792326287534">
        <ele>6.1000000000000005</ele>
        <time>2023-07-25T00:12:12Z</time>
      </trkpt>
      <trkpt lat="39.92271715957137" lon="116.48802364550428">
        <ele>8.600000000000001</ele>
        <time>2023-07-25T00:12:18Z</time>
      </trkpt>
      <trkpt lat="39.92261279292993" lon="116.48823546030245">
        <ele>8.399999999999999</ele>
        <time>2023-07-25T00:12:30Z</time>
      </trkpt>
      <trkpt lat="39.922612010643235" lon="116.48830873784563">
        <ele>8.8</ele>
        <time>2023-07-25T00:12:33Z</time>
      </trkpt>
      <trkpt lat="39.92266753923536" lon="116.48848740753864">
        <ele>10.8</ele>
        <time>2023-07-25T00:12:39Z</time>
      </trkpt>
      <trkpt lat="39.92268903954225" lon="116.48865604358286">
        <ele>13.0</ele>
        <time>2023-07-25T00:12:45Z</time>
      </trkpt>
      <trkpt lat="39.92276041853884" lon="116.48878452141572">
        <ele>15.7</ele>
        <time>2023-07-25T00:12:54Z</time>
      </trkpt>
      <trkpt lat="39.922867560343526" lon="116.48883369441263">
        <ele>18.0</ele>
        <time>2023-07-25T00:13:00Z</time>
      </trkpt>
      <trkpt lat="39.9230105902475" lon="116.48884572223484">
        <ele>19.5</ele>
        <time>2023-07-25T00:13:06Z</time>
      </trkpt>
      <trkpt lat="39.92316249742456" lon="116.48881659302872">
        <ele>20.9</ele>
        <time>2023-07-25T00:13:12Z</time>
      </trkpt>
      <trkpt lat="39.92329459344224" lon="116.48885070587832">
        <ele>22.5</ele>
        <time>2023-07-25T00:13:18Z</time>
      </trkpt>
      <trkpt lat="39.92361745775852" lon="116.4888095097428">
        <ele>27.599999999999998</ele>
        <time>2023-07-25T00:13:36Z</time>
      </trkpt>
      <trkpt lat="39.92388546759937" lon="116.48881650298219">
        <ele>29.599999999999998</ele>
        <time>2023-07-25T00:13:51Z</time>
      </trkpt>
      <trkpt lat="39.923934570031705" lon="116.48885162997267">
        <ele>30.2</ele>
        <time>2023-07-25T00:13:54Z</time>
      </trkpt>
      <trkpt lat="39.924258565639484" lon="116.48885460102775">
        <ele>31.2</ele>
        <time>2023-07-25T00:14:09Z</time>
      </trkpt>
      <trkpt lat="39.92447761333005" lon="116.4888736460051">
        <ele>28.499999999999996</ele>
        <time>2023-07-25T00:14:18Z</time>
      </trkpt>
      <trkpt lat="39.92460449469711" lon="116.48883548568178">
        <ele>30.7</ele>
        <time>2023-07-25T00:14:30Z</time>
      </trkpt>
      <trkpt lat="39.92491232983685" lon="116.48878425338599">
        <ele>30.3</ele>
        <time>2023-07-25T00:14:48Z</time>
      </trkpt>
      <trkpt lat="39.92519539281325" lon="116.48880931320147">
        <ele>29.599999999999998</ele>
        <time>2023-07-25T00:14:57Z</time>
      </trkpt>
      <trkpt lat="39.92536446346466" lon="116.48883539102175">
        <ele>30.400000000000002</ele>
        <time>2023-07-25T00:15:03Z</time>
      </trkpt>
      <trkpt lat="39.92552526885138" lon="116.4887721314023">
        <ele>31.400000000000002</ele>
        <time>2023-07-25T00:15:09Z</time>
      </trkpt>
      <trkpt lat="39.92582709831296" lon="116.48871889225677">
        <ele>33.300000000000004</ele>
        <time>2023-07-25T00:15:24Z</time>
      </trkpt>
      <trkpt lat="39.926034985354" lon="116.48868373326836">
        <ele>30.7</ele>
        <time>2023-07-25T00:15:36Z</time>
      </trkpt>
      <trkpt lat="39.926117026749104" lon="116.48869878008722">
        <ele>30.099999999999998</ele>
        <time>2023-07-25T00:15:42Z</time>
      </trkpt>
      <trkpt lat="39.92630964889168" lon="116.48857428459634">
        <ele>28.099999999999998</ele>
        <time>2023-07-25T00:15:51Z</time>
      </trkpt>
      <trkpt lat="39.92638531765503" lon="116.48846385696035">
        <ele>26.2</ele>
        <time>2023-07-25T00:15:57Z</time>
      </trkpt>
      <trkpt lat="39.926399738485145" lon="116.48826911772149">
        <ele>24.9</ele>
        <time>2023-07-25T00:16:06Z</time>
      </trkpt>
      <trkpt lat="39.926427570365796" lon="116.48821290141478">
        <ele>23.7</ele>
        <time>2023-07-25T00:16:12Z</time>
      </trkpt>
      <trkpt lat="39.92648239817487" lon="116.48815567795808">
        <ele>23.099999999999998</ele>
        <time>2023-07-25T00:16:18Z</time>
      </trkpt>
      <trkpt lat="39.92681233100801" lon="116.48813756844211">
        <ele>24.099999999999998</ele>
        <time>2023-07-25T00:16:39Z</time>
      </trkpt>
      <trkpt lat="39.92703910113177" lon="116.48806325897881">
        <ele>21.9</ele>
        <time>2023-07-25T00:16:51Z</time>
      </trkpt>
      <trkpt lat="39.92732049354537" lon="116.48786246402395">
        <ele>19.9</ele>
        <time>2023-07-25T00:17:03Z</time>
      </trkpt>
      <trkpt lat="39.927485215664454" lon="116.4877710978095">
        <ele>17.0</ele>
        <time>2023-07-25T00:17:12Z</time>
      </trkpt>
      <trkpt lat="39.92766764519097" lon="116.48758135724162">
        <ele>12.099999999999998</ele>
        <time>2023-07-25T00:17:24Z</time>
      </trkpt>
      <trkpt lat="39.927729936902814" lon="116.4873434496029">
        <ele>8.3</ele>
        <time>2023-07-25T00:17:36Z</time>
      </trkpt>
      <trkpt lat="39.92773252302244" lon="116.4872039216481">
        <ele>8.7</ele>
        <time>2023-07-25T00:17:42Z</time>
      </trkpt>
      <trkpt lat="39.927671814301476" lon="116.48696402224849">
        <ele>9.100000000000001</ele>
        <time>2023-07-25T00:17:51Z</time>
      </trkpt>
      <trkpt lat="39.92770216761691" lon="116.4867461952735">
        <ele>8.100000000000001</ele>
        <time>2023-07-25T00:18:00Z</time>
      </trkpt>
      <trkpt lat="39.92778452206502" lon="116.48652936589285">
        <ele>8.899999999999999</ele>
        <time>2023-07-25T00:18:09Z</time>
      </trkpt>
      <trkpt lat="39.92779601637065" lon="116.48635871999548">
        <ele>9.3</ele>
        <time>2023-07-25T00:18:18Z</time>
      </trkpt>
      <trkpt lat="39.92783758092072" lon="116.48621216148129">
        <ele>7.3999999999999995</ele>
        <time>2023-07-25T00:18:24Z</time>
      </trkpt>
      <trkpt lat="39.927972097274164" lon="116.48605053468944">
        <ele>0.20000000000000018</ele>
        <time>2023-07-25T00:18:39Z</time>
      </trkpt>
      <trkpt lat="39.927985574212485" lon="116.48587386636255">
        <ele>-0.8999999999999995</ele>
        <time>2023-07-25T00:18:48Z</time>
      </trkpt>
      <trkpt lat="39.92793951686748" lon="116.4855155205542">
        <ele>-1.7000000000000002</ele>
        <time>2023-07-25T00:19:00Z</time>
      </trkpt>
      <trkpt lat="39.92790359631886" lon="116.48520334840248">
        <ele>2.0</ele>
        <time>2023-07-25T00:19:12Z</time>
      </trkpt>
      <trkpt lat="39.92790932939423" lon="116.48511300732109">
        <ele>2.7</ele>
        <time>2023-07-25T00:19:15Z</time>
      </trkpt>
      <trkpt lat="39.92786867939375" lon="116.48489218065721">
        <ele>5.3999999999999995</ele>
        <time>2023-07-25T00:19:24Z</time>
      </trkpt>
      <trkpt lat="39.927874246902434" lon="116.48474562820773">
        <ele>8.100000000000001</ele>
        <time>2023-07-25T00:19:30Z</time>
      </trkpt>
      <trkpt lat="39.92790209184847" lon="116.48469342825967">
        <ele>9.899999999999999</ele>
        <time>2023-07-25T00:19:33Z</time>
      </trkpt>
      <trkpt lat="39.92795198030734" lon="116.48465628224912">
        <ele>11.0</ele>
        <time>2023-07-25T00:19:36Z</time>
      </trkpt>
      <trkpt lat="39.928036891022295" lon="116.48462716209926">
        <ele>12.899999999999999</ele>
        <time>2023-07-25T00:19:42Z</time>
      </trkpt>
      <trkpt lat="39.92827931606287" lon="116.48443541047959">
        <ele>13.8</ele>
        <time>2023-07-25T00:19:57Z</time>
      </trkpt>
      <trkpt lat="39.92835493149628" lon="116.48430591401353">
        <ele>13.399999999999999</ele>
        <time>2023-07-25T00:20:06Z</time>
      </trkpt>
      <trkpt lat="39.928392551567484" lon="116.484177426208">
        <ele>13.7</ele>
        <time>2023-07-25T00:20:12Z</time>
      </trkpt>
      <trkpt lat="39.92835904171926" lon="116.4840037776691">
        <ele>13.399999999999999</ele>
        <time>2023-07-25T00:20:18Z</time>
      </trkpt>
      <trkpt lat="39.92842964894862" lon="116.48387127100536">
        <ele>12.399999999999999</ele>
        <time>2023-07-25T00:20:27Z</time>
      </trkpt>
      <trkpt lat="39.92841525093153" lon="116.48373576380422">
        <ele>10.7</ele>
        <time>2023-07-25T00:20:30Z</time>
      </trkpt>
      <trkpt lat="39.92853862026175" lon="116.48352294942751">
        <ele>17.5</ele>
        <time>2023-07-25T00:20:39Z</time>
      </trkpt>
      <trkpt lat="39.928621912010996" lon="116.48328303881141">
        <ele>23.3</ele>
        <time>2023-07-25T00:20:45Z</time>
      </trkpt>
      <trkpt lat="39.928669836358225" lon="116.48325793869397">
        <ele>22.099999999999998</ele>
        <time>2023-07-25T00:20:48Z</time>
      </trkpt>
      <trkpt lat="39.9287126842806" lon="116.48320674133119">
        <ele>22.5</ele>
        <time>2023-07-25T00:20:51Z</time>
      </trkpt>
      <trkpt lat="39.92882452941714" lon="116.48315553537724">
        <ele>21.8</ele>
        <time>2023-07-25T00:20:57Z</time>
      </trkpt>
      <trkpt lat="39.92911044410835" lon="116.48313040556882">
        <ele>20.8</ele>
        <time>2023-07-25T00:21:12Z</time>
      </trkpt>
      <trkpt lat="39.92937944200785" lon="116.48313338326628">
        <ele>22.7</ele>
        <time>2023-07-25T00:21:27Z</time>
      </trkpt>
      <trkpt lat="39.92947234982995" lon="116.48310325874746">
        <ele>21.8</ele>
        <time>2023-07-25T00:21:33Z</time>
      </trkpt>
      <trkpt lat="39.92952667898746" lon="116.4828753978595">
        <ele>16.7</ele>
        <time>2023-07-25T00:21:45Z</time>
      </trkpt>
      <trkpt lat="39.92951819655975" lon="116.48271078218536">
        <ele>15.0</ele>
        <time>2023-07-25T00:21:51Z</time>
      </trkpt>
      <trkpt lat="39.92948697713186" lon="116.4826355041353">
        <ele>13.5</ele>
        <time>2023-07-25T00:21:54Z</time>
      </trkpt>
      <trkpt lat="39.929379675548375" lon="116.48253112666691">
        <ele>11.3</ele>
        <time>2023-07-25T00:22:00Z</time>
      </trkpt>
      <trkpt lat="39.929287526360866" lon="116.48247894278538">
        <ele>8.100000000000001</ele>
        <time>2023-07-25T00:22:09Z</time>
      </trkpt>
      <trkpt lat="39.92924431934493" lon="116.48240768144323">
        <ele>6.3</ele>
        <time>2023-07-25T00:22:15Z</time>
      </trkpt>
      <trkpt lat="39.92920172442922" lon="116.48220392441448">
        <ele>0.6000000000000005</ele>
        <time>2023-07-25T00:22:27Z</time>
      </trkpt>
      <trkpt lat="39.92911022880282" lon="116.4820332977718">
        <ele>1.6000000000000005</ele>
        <time>2023-07-25T00:22:33Z</time>
      </trkpt>
      <trkpt lat="39.92905204325374" lon="116.48196906490895">
        <ele>3.1000000000000005</ele>
        <time>2023-07-25T00:22:36Z</time>
      </trkpt>
      <trkpt lat="39.92893289838533" lon="116.48191788847315">
        <ele>4.8999999999999995</ele>
        <time>2023-07-25T00:22:42Z</time>
      </trkpt>
      <trkpt lat="39.928706925196956" lon="116.48192393921545">
        <ele>12.599999999999998</ele>
        <time>2023-07-25T00:22:54Z</time>
      </trkpt>
      <trkpt lat="39.92855509284433" lon="116.48197916451895">
        <ele>16.2</ele>
        <time>2023-07-25T00:23:03Z</time>
      </trkpt>
      <trkpt lat="39.92845928467016" lon="116.48204341662763">
        <ele>20.7</ele>
        <time>2023-07-25T00:23:09Z</time>
      </trkpt>
      <trkpt lat="39.92817235216174" lon="116.48206252377655">
        <ele>27.3</ele>
        <time>2023-07-25T00:23:24Z</time>
      </trkpt>
      <trkpt lat="39.92809442288807" lon="116.48208561982801">
        <ele>26.999999999999996</ele>
        <time>2023-07-25T00:23:30Z</time>
      </trkpt>
      <trkpt lat="39.92795487511965" lon="116.48223820783831">
        <ele>25.0</ele>
        <time>2023-07-25T00:23:39Z</time>
      </trkpt>
      <trkpt lat="39.927858540456974" lon="116.48246406493556">
        <ele>21.2</ele>
        <time>2023-07-25T00:23:51Z</time>
      </trkpt>
      <trkpt lat="39.927871728140886" lon="116.4825283037607">
        <ele>18.3</ele>
        <time>2023-07-25T00:23:57Z</time>
      </trkpt>
      <trkpt lat="39.927809069005974" lon="116.48264374379514">
        <ele>17.9</ele>
        <time>2023-07-25T00:24:03Z</time>
      </trkpt>
      <trkpt lat="39.92762940005413" lon="116.48275417978124">
        <ele>21.099999999999998</ele>
        <time>2023-07-25T00:24:12Z</time>
      </trkpt>
      <trkpt lat="39.92732963601882" lon="116.48283050301494">
        <ele>18.2</ele>
        <time>2023-07-25T00:24:30Z</time>
      </trkpt>
      <trkpt lat="39.92723700788492" lon="116.48295598476736">
        <ele>13.099999999999998</ele>
        <time>2023-07-25T00:24:42Z</time>
      </trkpt>
      <trkpt lat="39.927202242006665" lon="116.48303528634705">
        <ele>10.899999999999999</ele>
        <time>2023-07-25T00:24:48Z</time>
      </trkpt>
      <trkpt lat="39.927207557056875" lon="116.48314268837143">
        <ele>9.0</ele>
        <time>2023-07-25T00:24:54Z</time>
      </trkpt>
      <trkpt lat="39.927103873716284" lon="116.48324910035538">
        <ele>7.3999999999999995</ele>
        <time>2023-07-25T00:25:00Z</time>
      </trkpt>
      <trkpt lat="39.92718998516984" lon="116.48328823644601">
        <ele>4.8999999999999995</ele>
        <time>2023-07-25T00:25:06Z</time>
      </trkpt>
      <trkpt lat="39.92724523354063" lon="116.48337354964225">
        <ele>2.3999999999999995</ele>
        <time>2023-07-25T00:25:12Z</time>
      </trkpt>
      <trkpt lat="39.92717477032136" lon="116.4835552402867">
        <ele>0.20000000000000018</ele>
        <time>2023-07-25T00:25:18Z</time>
      </trkpt>
      <trkpt lat="39.927155184278085" lon="116.48369577034086">
        <ele>-0.7000000000000002</ele>
        <time>2023-07-25T00:25:21Z</time>
      </trkpt>
      <trkpt lat="39.927195746551966" lon="116.48388748538176">
        <ele>-1.5</ele>
        <time>2023-07-25T00:25:27Z</time>
      </trkpt>
      <trkpt lat="39.92712392079417" lon="116.48394571308503">
        <ele>-0.2999999999999998</ele>
        <time>2023-07-25T00:25:30Z</time>
      </trkpt>
      <trkpt lat="39.927117092407954" lon="116.48400393270491">
        <ele>0.10000000000000053</ele>
        <time>2023-07-25T00:25:33Z</time>
      </trkpt>
      <trkpt lat="39.92713037551438" lon="116.48410029321141">
        <ele>0.2999999999999998</ele>
        <time>2023-07-25T00:25:36Z</time>
      </trkpt>
      <trkpt lat="39.927121825129085" lon="116.48425286787402">
        <ele>2.2</ele>
        <time>2023-07-25T00:25:39Z</time>
      </trkpt>
      <trkpt lat="39.92707505765709" lon="116.48433116813503">
        <ele>4.1000000000000005</ele>
        <time>2023-07-25T00:25:42Z</time>
      </trkpt>
      <trkpt lat="39.926955331665766" lon="116.48442252663868">
        <ele>8.8</ele>
        <time>2023-07-25T00:25:48Z</time>
      </trkpt>
      <trkpt lat="39.92677454907298" lon="116.48449381730279">
        <ele>11.899999999999999</ele>
        <time>2023-07-25T00:25:57Z</time>
      </trkpt>
      <trkpt lat="39.92655245462804" lon="116.48445871285263">
        <ele>12.399999999999999</ele>
        <time>2023-07-25T00:26:09Z</time>
      </trkpt>
      <trkpt lat="39.926363477154375" lon="116.48446375531766">
        <ele>11.599999999999998</ele>
        <time>2023-07-25T00:26:18Z</time>
      </trkpt>
      <trkpt lat="39.92605439220661" lon="116.48443066928519">
        <ele>13.399999999999999</ele>
        <time>2023-07-25T00:26:33Z</time>
      </trkpt>
      <trkpt lat="39.925939367344114" lon="116.48442064588278">
        <ele>14.599999999999998</ele>
        <time>2023-07-25T00:26:39Z</time>
      </trkpt>
      <trkpt lat="39.92566444664507" lon="116.4844437670361">
        <ele>16.8</ele>
        <time>2023-07-25T00:26:51Z</time>
      </trkpt>
      <trkpt lat="39.92554743665638" lon="116.48443876275931">
        <ele>17.2</ele>
        <time>2023-07-25T00:26:57Z</time>
      </trkpt>
      <trkpt lat="39.92542948586439" lon="116.48445383411776">
        <ele>17.5</ele>
        <time>2023-07-25T00:27:03Z</time>
      </trkpt>
      <trkpt lat="39.92511436274797" lon="116.48440769975896">
        <ele>18.0</ele>
        <time>2023-07-25T00:27:19Z</time>
      </trkpt>
      <trkpt lat="39.92495251728416" lon="116.4844579087447">
        <ele>18.3</ele>
        <time>2023-07-25T00:27:28Z</time>
      </trkpt>
      <trkpt lat="39.92474223605716" lon="116.48469884146142">
        <ele>19.2</ele>
        <time>2023-07-25T00:27:43Z</time>
      </trkpt>
      <trkpt lat="39.9246826263081" lon="116.48483034388605">
        <ele>19.8</ele>
        <time>2023-07-25T00:27:49Z</time>
      </trkpt>
      <trkpt lat="39.9246441609564" lon="116.48501102904717">
        <ele>20.7</ele>
        <time>2023-07-25T00:27:55Z</time>
      </trkpt>
      <trkpt lat="39.92462184040058" lon="116.48524089777523">
        <ele>24.4</ele>
        <time>2023-07-25T00:28:04Z</time>
      </trkpt>
      <trkpt lat="39.92462184040058" lon="116.48524089777523">
        <ele>24.4</ele>
        <time>2023-07-25T00:28:06Z</time>
      </trkpt>
      <trkpt lat="39.924992756103116" lon="116.48589431538439">
        <ele>30.499999999999996</ele>
        <time>2023-07-25T00:35:04Z</time>
      </trkpt>
      <trkpt lat="39.924992456835554" lon="116.48613120937672">
        <ele>29.2</ele>
        <time>2023-07-25T00:35:16Z</time>
      </trkpt>
      <trkpt lat="39.92498066523101" lon="116.48620147607645">
        <ele>28.2</ele>
        <time>2023-07-25T00:35:19Z</time>
      </trkpt>
      <trkpt lat="39.924929872290065" lon="116.48627074388251">
        <ele>26.2</ele>
        <time>2023-07-25T00:35:25Z</time>
      </trkpt>
      <trkpt lat="39.92477292330479" lon="116.48628582029914">
        <ele>20.099999999999998</ele>
        <time>2023-07-25T00:35:37Z</time>
      </trkpt>
      <trkpt lat="39.924662156639414" lon="116.48636312594259">
        <ele>20.2</ele>
        <time>2023-07-25T00:35:43Z</time>
      </trkpt>
      <trkpt lat="39.92453026903931" lon="116.48639927884125">
        <ele>20.099999999999998</ele>
        <time>2023-07-25T00:35:49Z</time>
      </trkpt>
      <trkpt lat="39.92425994440976" lon="116.48628588426381">
        <ele>24.0</ele>
        <time>2023-07-25T00:36:04Z</time>
      </trkpt>
      <trkpt lat="39.92408098743056" lon="116.48629795205538">
        <ele>25.099999999999998</ele>
        <time>2023-07-25T00:36:13Z</time>
      </trkpt>
      <trkpt lat="39.92386735279793" lon="116.48641843351679">
        <ele>29.7</ele>
        <time>2023-07-25T00:36:25Z</time>
      </trkpt>
      <trkpt lat="39.92365908667713" lon="116.48666338457392">
        <ele>29.3</ele>
        <time>2023-07-25T00:36:40Z</time>
      </trkpt>
      <trkpt lat="39.923458909833165" lon="116.48693844879678">
        <ele>22.7</ele>
        <time>2023-07-25T00:36:55Z</time>
      </trkpt>
      <trkpt lat="39.92326764377319" lon="116.48718339848894">
        <ele>21.8</ele>
        <time>2023-07-25T00:37:10Z</time>
      </trkpt>
      <trkpt lat="39.92313689622341" lon="116.48726672980278">
        <ele>21.7</ele>
        <time>2023-07-25T00:37:19Z</time>
      </trkpt>
      <trkpt lat="39.92302498122015" lon="116.48729384623476">
        <ele>24.2</ele>
        <time>2023-07-25T00:37:25Z</time>
      </trkpt>
      <trkpt lat="39.92282894466673" lon="116.48727881373095">
        <ele>27.599999999999998</ele>
        <time>2023-07-25T00:37:37Z</time>
      </trkpt>
      <trkpt lat="39.92275436455986" lon="116.48741935447399">
        <ele>25.599999999999998</ele>
        <time>2023-07-25T00:37:43Z</time>
      </trkpt>
      <trkpt lat="39.92275580822292" lon="116.48756892002284">
        <ele>23.7</ele>
        <time>2023-07-25T00:37:49Z</time>
      </trkpt>
      <trkpt lat="39.922735002690494" lon="116.48763416944647">
        <ele>23.4</ele>
        <time>2023-07-25T00:37:52Z</time>
      </trkpt>
      <trkpt lat="39.92276021613175" lon="116.48770643974294">
        <ele>24.5</ele>
        <time>2023-07-25T00:37:55Z</time>
      </trkpt>
      <trkpt lat="39.922754609653246" lon="116.48783894181331">
        <ele>25.8</ele>
        <time>2023-07-25T00:38:01Z</time>
      </trkpt>
      <trkpt lat="39.92269023520435" lon="116.48804874384746">
        <ele>22.8</ele>
        <time>2023-07-25T00:38:10Z</time>
      </trkpt>
      <trkpt lat="39.92268943496573" lon="116.48811599853138">
        <ele>18.099999999999998</ele>
        <time>2023-07-25T00:38:16Z</time>
      </trkpt>
      <trkpt lat="39.9227257405523" lon="116.4882193854248">
        <ele>14.5</ele>
        <time>2023-07-25T00:38:22Z</time>
      </trkpt>
      <trkpt lat="39.92272477850095" lon="116.48856870834962">
        <ele>14.3</ele>
        <time>2023-07-25T00:38:34Z</time>
      </trkpt>
      <trkpt lat="39.92278942032425" lon="116.48878552160639">
        <ele>14.899999999999999</ele>
        <time>2023-07-25T00:38:46Z</time>
      </trkpt>
      <trkpt lat="39.92290870488665" lon="116.48888287563894">
        <ele>17.0</ele>
        <time>2023-07-25T00:38:55Z</time>
      </trkpt>
      <trkpt lat="39.92320981482397" lon="116.48892399407111">
        <ele>21.9</ele>
        <time>2023-07-25T00:39:10Z</time>
      </trkpt>
      <trkpt lat="39.92327085707684" lon="116.48893904351931">
        <ele>23.2</ele>
        <time>2023-07-25T00:39:16Z</time>
      </trkpt>
      <trkpt lat="39.9235987301245" lon="116.48890085815755">
        <ele>25.9</ele>
        <time>2023-07-25T00:39:31Z</time>
      </trkpt>
      <trkpt lat="39.923943689040506" lon="116.48889178096424">
        <ele>26.8</ele>
        <time>2023-07-25T00:39:46Z</time>
      </trkpt>
      <trkpt lat="39.92412176826199" lon="116.48892086908099">
        <ele>27.599999999999998</ele>
        <time>2023-07-25T00:39:52Z</time>
      </trkpt>
      <trkpt lat="39.9242006993462" lon="116.48889877557669">
        <ele>28.099999999999998</ele>
        <time>2023-07-25T00:39:55Z</time>
      </trkpt>
      <trkpt lat="39.92448772931726" lon="116.48891279307365">
        <ele>33.6</ele>
        <time>2023-07-25T00:40:13Z</time>
      </trkpt>
      <trkpt lat="39.92473467737211" lon="116.4888987090689">
        <ele>33.800000000000004</ele>
        <time>2023-07-25T00:40:31Z</time>
      </trkpt>
      <trkpt lat="39.924885477173596" lon="116.4888334430774">
        <ele>33.400000000000006</ele>
        <time>2023-07-25T00:40:37Z</time>
      </trkpt>
      <trkpt lat="39.92516938492853" lon="116.488806305032">
        <ele>36.0</ele>
        <time>2023-07-25T00:40:46Z</time>
      </trkpt>
      <trkpt lat="39.925384382068046" lon="116.4888082858578">
        <ele>37.7</ele>
        <time>2023-07-25T00:40:55Z</time>
      </trkpt>
      <trkpt lat="39.925517319909424" lon="116.48878919704204">
        <ele>38.6</ele>
        <time>2023-07-25T00:41:01Z</time>
      </trkpt>
      <trkpt lat="39.925709377683745" lon="116.48881125678471">
        <ele>33.5</ele>
        <time>2023-07-25T00:41:10Z</time>
      </trkpt>
      <trkpt lat="39.92578945796266" lon="116.48883935329661">
        <ele>31.400000000000002</ele>
        <time>2023-07-25T00:41:16Z</time>
      </trkpt>
      <trkpt lat="39.92602440356282" lon="116.48882426698404">
        <ele>30.499999999999996</ele>
        <time>2023-07-25T00:41:28Z</time>
      </trkpt>
      <trkpt lat="39.926070446442274" lon="116.48883931829593">
        <ele>29.8</ele>
        <time>2023-07-25T00:41:31Z</time>
      </trkpt>
      <trkpt lat="39.926164278457385" lon="116.48878409743881">
        <ele>30.400000000000002</ele>
        <time>2023-07-25T00:41:37Z</time>
      </trkpt>
      <trkpt lat="39.92626272539814" lon="116.48859938549649">
        <ele>29.3</ele>
        <time>2023-07-25T00:41:43Z</time>
      </trkpt>
      <trkpt lat="39.92635064805857" lon="116.48823800601477">
        <ele>25.2</ele>
        <time>2023-07-25T00:41:58Z</time>
      </trkpt>
      <trkpt lat="39.926435537241765" lon="116.48820185861612">
        <ele>25.4</ele>
        <time>2023-07-25T00:42:04Z</time>
      </trkpt>
      <trkpt lat="39.92676446712888" lon="116.48818274542182">
        <ele>25.2</ele>
        <time>2023-07-25T00:42:22Z</time>
      </trkpt>
      <trkpt lat="39.92691549971043" lon="116.48819577600905">
        <ele>27.3</ele>
        <time>2023-07-25T00:42:31Z</time>
      </trkpt>
      <trkpt lat="39.92709414657659" lon="116.48807931291881">
        <ele>25.7</ele>
        <time>2023-07-25T00:42:40Z</time>
      </trkpt>
      <trkpt lat="39.927245612826056" lon="116.48790162151903">
        <ele>25.7</ele>
        <time>2023-07-25T00:42:49Z</time>
      </trkpt>
      <trkpt lat="39.9274920813138" lon="116.4877259260254">
        <ele>20.4</ele>
        <time>2023-07-25T00:43:04Z</time>
      </trkpt>
      <trkpt lat="39.92768551043607" lon="116.48753618412974">
        <ele>18.9</ele>
        <time>2023-07-25T00:43:16Z</time>
      </trkpt>
      <trkpt lat="39.92772227962762" lon="116.48745888716786">
        <ele>19.599999999999998</ele>
        <time>2023-07-25T00:43:19Z</time>
      </trkpt>
      <trkpt lat="39.92774201084125" lon="116.48736854300708">
        <ele>20.4</ele>
        <time>2023-07-25T00:43:22Z</time>
      </trkpt>
      <trkpt lat="39.927699833983034" lon="116.48697104531439">
        <ele>17.3</ele>
        <time>2023-07-25T00:43:37Z</time>
      </trkpt>
      <trkpt lat="39.92766739505934" lon="116.48682248788319">
        <ele>15.5</ele>
        <time>2023-07-25T00:43:43Z</time>
      </trkpt>
      <trkpt lat="39.92767018379145" lon="116.48675121822572">
        <ele>14.0</ele>
        <time>2023-07-25T00:43:46Z</time>
      </trkpt>
      <trkpt lat="39.92769401926914" lon="116.48669600665463">
        <ele>11.899999999999999</ele>
        <time>2023-07-25T00:43:49Z</time>
      </trkpt>
      <trkpt lat="39.92780480661999" lon="116.48662572737749">
        <ele>9.3</ele>
        <time>2023-07-25T00:43:55Z</time>
      </trkpt>
      <trkpt lat="39.92784261184302" lon="116.48656047618913">
        <ele>8.3</ele>
        <time>2023-07-25T00:43:58Z</time>
      </trkpt>
      <trkpt lat="39.927835089062555" lon="116.48638380988533">
        <ele>8.399999999999999</ele>
        <time>2023-07-25T00:44:04Z</time>
      </trkpt>
      <trkpt lat="39.92779882312979" lon="116.4862934732823">
        <ele>9.399999999999999</ele>
        <time>2023-07-25T00:44:07Z</time>
      </trkpt>
      <trkpt lat="39.927782556432525" lon="116.48620313423888">
        <ele>9.7</ele>
        <time>2023-07-25T00:44:10Z</time>
      </trkpt>
      <trkpt lat="39.927840135322164" lon="116.48606159282063">
        <ele>11.3</ele>
        <time>2023-07-25T00:44:16Z</time>
      </trkpt>
      <trkpt lat="39.927960685056945" lon="116.48591100959626">
        <ele>10.7</ele>
        <time>2023-07-25T00:44:25Z</time>
      </trkpt>
      <trkpt lat="39.92797545590141" lon="116.48583371614446">
        <ele>10.599999999999998</ele>
        <time>2023-07-25T00:44:28Z</time>
      </trkpt>
      <trkpt lat="39.92794768559502" lon="116.48557273526711">
        <ele>8.600000000000001</ele>
        <time>2023-07-25T00:44:37Z</time>
      </trkpt>
      <trkpt lat="39.927890287566605" lon="116.4854372315229">
        <ele>8.5</ele>
        <time>2023-07-25T00:44:43Z</time>
      </trkpt>
      <trkpt lat="39.92781318814384" lon="116.48506383403354">
        <ele>15.0</ele>
        <time>2023-07-25T00:44:58Z</time>
      </trkpt>
      <trkpt lat="39.92778578938664" lon="116.48492832707626">
        <ele>15.399999999999999</ele>
        <time>2023-07-25T00:45:04Z</time>
      </trkpt>
      <trkpt lat="39.92779451067956" lon="116.48483397070156">
        <ele>14.8</ele>
        <time>2023-07-25T00:45:07Z</time>
      </trkpt>
      <trkpt lat="39.92786212899667" lon="116.48470547858486">
        <ele>14.8</ele>
        <time>2023-07-25T00:45:13Z</time>
      </trkpt>
      <trkpt lat="39.92795200694184" lon="116.48466531624642">
        <ele>15.399999999999999</ele>
        <time>2023-07-25T00:45:19Z</time>
      </trkpt>
      <trkpt lat="39.92800706684797" lon="116.48468638871249">
        <ele>15.7</ele>
        <time>2023-07-25T00:45:22Z</time>
      </trkpt>
      <trkpt lat="39.92816492131273" lon="116.48463919145246">
        <ele>19.099999999999998</ele>
        <time>2023-07-25T00:45:31Z</time>
      </trkpt>
      <trkpt lat="39.92827959115702" lon="116.484528761647">
        <ele>19.8</ele>
        <time>2023-07-25T00:45:37Z</time>
      </trkpt>
      <trkpt lat="39.928325352637856" lon="116.48444845382195">
        <ele>18.9</ele>
        <time>2023-07-25T00:45:40Z</time>
      </trkpt>
      <trkpt lat="39.92833991732466" lon="116.48430089701344">
        <ele>16.8</ele>
        <time>2023-07-25T00:45:46Z</time>
      </trkpt>
      <trkpt lat="39.92841037055881" lon="116.48411619380255">
        <ele>13.599999999999998</ele>
        <time>2023-07-25T00:45:55Z</time>
      </trkpt>
      <trkpt lat="39.92840418760392" lon="116.48405396065377">
        <ele>13.399999999999999</ele>
        <time>2023-07-25T00:45:58Z</time>
      </trkpt>
      <trkpt lat="39.928432023973784" lon="116.48399874969746">
        <ele>12.8</ele>
        <time>2023-07-25T00:46:01Z</time>
      </trkpt>
      <trkpt lat="39.9284048183057" lon="116.48392848906617">
        <ele>11.5</ele>
        <time>2023-07-25T00:46:04Z</time>
      </trkpt>
      <trkpt lat="39.92849529195191" lon="116.48375081035816">
        <ele>8.100000000000001</ele>
        <time>2023-07-25T00:46:13Z</time>
      </trkpt>
      <trkpt lat="39.928614909269875" lon="116.48362231295522">
        <ele>2.1000000000000005</ele>
        <time>2023-07-25T00:46:19Z</time>
      </trkpt>
      <trkpt lat="39.928623705306904" lon="116.4835530518402">
        <ele>1.1000000000000005</ele>
        <time>2023-07-25T00:46:22Z</time>
      </trkpt>
      <trkpt lat="39.928699478008205" lon="116.48347675603594">
        <ele>-0.5</ele>
        <time>2023-07-25T00:46:28Z</time>
      </trkpt>
      <trkpt lat="39.92880488392332" lon="116.48327598960466">
        <ele>2.7</ele>
        <time>2023-07-25T00:46:37Z</time>
      </trkpt>
      <trkpt lat="39.92892062276198" lon="116.48318864760057">
        <ele>11.3</ele>
        <time>2023-07-25T00:46:46Z</time>
      </trkpt>
      <trkpt lat="39.92896956771974" lon="116.48317057372833">
        <ele>14.2</ele>
        <time>2023-07-25T00:46:49Z</time>
      </trkpt>
      <trkpt lat="39.92925049734884" lon="116.48315046335924">
        <ele>19.3</ele>
        <time>2023-07-25T00:47:04Z</time>
      </trkpt>
      <trkpt lat="39.92951640107862" lon="116.48312132099427">
        <ele>23.0</ele>
        <time>2023-07-25T00:47:22Z</time>
      </trkpt>
      <trkpt lat="39.92954224386502" lon="116.4830681182946">
        <ele>24.0</ele>
        <time>2023-07-25T00:47:25Z</time>
      </trkpt>
      <trkpt lat="39.92951741145361" lon="116.48278405677081">
        <ele>26.8</ele>
        <time>2023-07-25T00:47:37Z</time>
      </trkpt>
      <trkpt lat="39.929457090160035" lon="116.48267365071575">
        <ele>27.599999999999998</ele>
        <time>2023-07-25T00:47:43Z</time>
      </trkpt>
      <trkpt lat="39.92924268994296" lon="116.48253415505268">
        <ele>26.999999999999996</ele>
        <time>2023-07-25T00:47:55Z</time>
      </trkpt>
      <trkpt lat="39.92911494834946" lon="116.48227921685998">
        <ele>25.8</ele>
        <time>2023-07-25T00:48:07Z</time>
      </trkpt>
      <trkpt lat="39.92911551641285" lon="116.48213166490305">
        <ele>23.9</ele>
        <time>2023-07-25T00:48:13Z</time>
      </trkpt>
      <trkpt lat="39.92907394548404" lon="116.48193593837166">
        <ele>21.4</ele>
        <time>2023-07-25T00:48:22Z</time>
      </trkpt>
      <trkpt lat="39.92892754056237" lon="116.48179543158756">
        <ele>23.599999999999998</ele>
        <time>2023-07-25T00:48:31Z</time>
      </trkpt>
      <trkpt lat="39.92879048746016" lon="116.48177537372045">
        <ele>24.5</ele>
        <time>2023-07-25T00:48:37Z</time>
      </trkpt>
      <trkpt lat="39.928732598380144" lon="116.48181251969423">
        <ele>22.599999999999998</ele>
        <time>2023-07-25T00:48:40Z</time>
      </trkpt>
      <trkpt lat="39.92845557445213" lon="116.48180050931121">
        <ele>24.5</ele>
        <time>2023-07-25T00:48:58Z</time>
      </trkpt>
      <trkpt lat="39.92817959450245" lon="116.48180355504525">
        <ele>25.8</ele>
        <time>2023-07-25T00:49:13Z</time>
      </trkpt>
      <trkpt lat="39.92801864507993" lon="116.48181863140452">
        <ele>25.0</ele>
        <time>2023-07-25T00:49:22Z</time>
      </trkpt>
      <trkpt lat="39.92780694426898" lon="116.48191802915822">
        <ele>23.2</ele>
        <time>2023-07-25T00:49:37Z</time>
      </trkpt>
      <trkpt lat="39.927755237029515" lon="116.4820174070303">
        <ele>24.5</ele>
        <time>2023-07-25T00:49:43Z</time>
      </trkpt>
      <trkpt lat="39.927743678064914" lon="116.48216797142679">
        <ele>25.3</ele>
        <time>2023-07-25T00:49:49Z</time>
      </trkpt>
      <trkpt lat="39.92775485389586" lon="116.48222819528092">
        <ele>25.8</ele>
        <time>2023-07-25T00:49:52Z</time>
      </trkpt>
      <trkpt lat="39.927738486544406" lon="116.48244400479354">
        <ele>26.7</ele>
        <time>2023-07-25T00:50:01Z</time>
      </trkpt>
      <trkpt lat="39.92776689420267" lon="116.48258352354615">
        <ele>25.0</ele>
        <time>2023-07-25T00:50:07Z</time>
      </trkpt>
      <trkpt lat="39.92775510063227" lon="116.48265378812589">
        <ele>24.5</ele>
        <time>2023-07-25T00:50:10Z</time>
      </trkpt>
      <trkpt lat="39.927670218859134" lon="116.48269294533807">
        <ele>23.3</ele>
        <time>2023-07-25T00:50:16Z</time>
      </trkpt>
      <trkpt lat="39.92750016106232" lon="116.48267088387374">
        <ele>21.5</ele>
        <time>2023-07-25T00:50:25Z</time>
      </trkpt>
      <trkpt lat="39.92726438552775" lon="116.48274418777079">
        <ele>20.7</ele>
        <time>2023-07-25T00:50:37Z</time>
      </trkpt>
      <trkpt lat="39.92719956773388" lon="116.482805425242">
        <ele>21.2</ele>
        <time>2023-07-25T00:50:40Z</time>
      </trkpt>
      <trkpt lat="39.92713702669687" lon="116.48296101606421">
        <ele>21.4</ele>
        <time>2023-07-25T00:50:46Z</time>
      </trkpt>
      <trkpt lat="39.92716995650683" lon="116.4832782012934">
        <ele>22.0</ele>
        <time>2023-07-25T00:50:58Z</time>
      </trkpt>
      <trkpt lat="39.92713211431543" lon="116.48333140559356">
        <ele>22.0</ele>
        <time>2023-07-25T00:51:01Z</time>
      </trkpt>
      <trkpt lat="39.92706526743642" lon="116.48338260600983">
        <ele>21.9</ele>
        <time>2023-07-25T00:51:04Z</time>
      </trkpt>
      <trkpt lat="39.927080490965004" lon="116.48345889037691">
        <ele>22.3</ele>
        <time>2023-07-25T00:51:07Z</time>
      </trkpt>
      <trkpt lat="39.92713458904814" lon="116.48349301170764">
        <ele>22.099999999999998</ele>
        <time>2023-07-25T00:51:10Z</time>
      </trkpt>
      <trkpt lat="39.927174006421346" lon="116.48363554185023">
        <ele>21.8</ele>
        <time>2023-07-25T00:51:16Z</time>
      </trkpt>
      <trkpt lat="39.92712925322957" lon="116.48371886027442">
        <ele>21.7</ele>
        <time>2023-07-25T00:51:19Z</time>
      </trkpt>
      <trkpt lat="39.92712971971758" lon="116.48387745591411">
        <ele>23.3</ele>
        <time>2023-07-25T00:51:25Z</time>
      </trkpt>
      <trkpt lat="39.927058858471916" lon="116.48392363823422">
        <ele>23.4</ele>
        <time>2023-07-25T00:51:28Z</time>
      </trkpt>
      <trkpt lat="39.927035048494155" lon="116.48398788259375">
        <ele>23.599999999999998</ele>
        <time>2023-07-25T00:51:31Z</time>
      </trkpt>
      <trkpt lat="39.926960240635424" lon="116.48405213335606">
        <ele>22.0</ele>
        <time>2023-07-25T00:51:34Z</time>
      </trkpt>
      <trkpt lat="39.92698541099158" lon="116.4841103490366">
        <ele>21.2</ele>
        <time>2023-07-25T00:51:37Z</time>
      </trkpt>
      <trkpt lat="39.9269896383899" lon="116.48418763906096">
        <ele>21.099999999999998</ele>
        <time>2023-07-25T00:51:40Z</time>
      </trkpt>
      <trkpt lat="39.92696889937799" lon="116.48427597377312">
        <ele>18.5</ele>
        <time>2023-07-25T00:51:43Z</time>
      </trkpt>
      <trkpt lat="39.9269320635034" lon="116.48433118598228">
        <ele>18.3</ele>
        <time>2023-07-25T00:51:46Z</time>
      </trkpt>
      <trkpt lat="39.92660322185497" lon="116.48438041200924">
        <ele>18.099999999999998</ele>
        <time>2023-07-25T00:52:01Z</time>
      </trkpt>
      <trkpt lat="39.92627743630916" lon="116.48444870941508">
        <ele>23.5</ele>
        <time>2023-07-25T00:52:16Z</time>
      </trkpt>
      <trkpt lat="39.92620948937709" lon="116.48446578208755">
        <ele>25.099999999999998</ele>
        <time>2023-07-25T00:52:19Z</time>
      </trkpt>
      <trkpt lat="39.92592446556143" lon="116.48445377234563">
        <ele>26.999999999999996</ele>
        <time>2023-07-25T00:52:37Z</time>
      </trkpt>
      <trkpt lat="39.92571433220735" lon="116.48440561733263">
        <ele>19.9</ele>
        <time>2023-07-25T00:52:46Z</time>
      </trkpt>
      <trkpt lat="39.92538536049301" lon="116.48441067726588">
        <ele>25.7</ele>
        <time>2023-07-25T00:53:04Z</time>
      </trkpt>
      <trkpt lat="39.92515228133982" lon="116.48438059308995">
        <ele>27.900000000000002</ele>
        <time>2023-07-25T00:53:16Z</time>
      </trkpt>
      <trkpt lat="39.924899483968936" lon="116.48444587005184">
        <ele>20.599999999999998</ele>
        <time>2023-07-25T00:53:31Z</time>
      </trkpt>
      <trkpt lat="39.924774826337924" lon="116.48456031611201">
        <ele>17.5</ele>
        <time>2023-07-25T00:53:40Z</time>
      </trkpt>
      <trkpt lat="39.92471222841161" lon="116.48469583387184">
        <ele>17.2</ele>
        <time>2023-07-25T00:53:46Z</time>
      </trkpt>
      <trkpt lat="39.92469941541985" lon="116.48475907349847">
        <ele>17.5</ele>
        <time>2023-07-25T00:53:49Z</time>
      </trkpt>
      <trkpt lat="39.924644775914246" lon="116.48488053757183">
        <ele>18.8</ele>
        <time>2023-07-25T00:53:55Z</time>
      </trkpt>
      <trkpt lat="39.924590574971035" lon="116.48515056129963">
        <ele>24.2</ele>
        <time>2023-07-25T00:54:07Z</time>
      </trkpt>
      <trkpt lat="39.924635106629104" lon="116.48533123655898">
        <ele>26.099999999999998</ele>
        <time>2023-07-25T00:54:19Z</time>
      </trkpt>
      <trkpt lat="39.92473562731999" lon="116.48550889372942">
        <ele>28.099999999999998</ele>
        <time>2023-07-25T00:54:31Z</time>
      </trkpt>
      <trkpt lat="39.92490567656996" lon="116.48586622020797">
        <ele>31.8</ele>
        <time>2023-07-25T00:54:46Z</time>
      </trkpt>
      <trkpt lat="39.92494529543739" lon="116.48607600688685">
        <ele>31.3</ele>
        <time>2023-07-25T00:54:55Z</time>
      </trkpt>
      <trkpt lat="39.92488182970299" lon="116.48625569302877">
        <ele>30.499999999999996</ele>
        <time>2023-07-25T00:55:04Z</time>
      </trkpt>
      <trkpt lat="39.92479693717219" lon="116.48629083625372">
        <ele>30.599999999999998</ele>
        <time>2023-07-25T00:55:10Z</time>
      </trkpt>
      <trkpt lat="39.92467537005388" lon="116.48643539721151">
        <ele>29.099999999999998</ele>
        <time>2023-07-25T00:55:16Z</time>
      </trkpt>
      <trkpt lat="39.9244674469616" lon="116.48645851032482">
        <ele>28.499999999999996</ele>
        <time>2023-07-25T00:55:28Z</time>
      </trkpt>
      <trkpt lat="39.92438235536225" lon="116.48642639962966">
        <ele>28.3</ele>
        <time>2023-07-25T00:55:31Z</time>
      </trkpt>
      <trkpt lat="39.92431220075285" lon="116.48637320748084">
        <ele>28.3</ele>
        <time>2023-07-25T00:55:34Z</time>
      </trkpt>
      <trkpt lat="39.92422213017605" lon="116.48634812395562">
        <ele>29.3</ele>
        <time>2023-07-25T00:55:37Z</time>
      </trkpt>
      <trkpt lat="39.92399923741291" lon="116.48638127682558">
        <ele>29.999999999999996</ele>
        <time>2023-07-25T00:55:46Z</time>
      </trkpt>
      <trkpt lat="39.92383441359189" lon="116.48643851343668">
        <ele>27.499999999999996</ele>
        <time>2023-07-25T00:55:55Z</time>
      </trkpt>
      <trkpt lat="39.923602193091284" lon="116.48669852439461">
        <ele>27.3</ele>
        <time>2023-07-25T00:56:10Z</time>
      </trkpt>
      <trkpt lat="39.923485584503815" lon="116.48682903198599">
        <ele>22.599999999999998</ele>
        <time>2023-07-25T00:56:19Z</time>
      </trkpt>
      <trkpt lat="39.92332039160689" lon="116.48709907314013">
        <ele>24.4</ele>
        <time>2023-07-25T00:56:31Z</time>
      </trkpt>
      <trkpt lat="39.92315693707111" lon="116.48728078044438">
        <ele>22.4</ele>
        <time>2023-07-25T00:56:40Z</time>
      </trkpt>
      <trkpt lat="39.92297222752494" lon="116.48737616408094">
        <ele>19.5</ele>
        <time>2023-07-25T00:56:49Z</time>
      </trkpt>
      <trkpt lat="39.9228301351461" lon="116.48734305651725">
        <ele>23.099999999999998</ele>
        <time>2023-07-25T00:56:58Z</time>
      </trkpt>
      <trkpt lat="39.92277015251127" lon="116.48734808297287">
        <ele>25.5</ele>
        <time>2023-07-25T00:57:01Z</time>
      </trkpt>
      <trkpt lat="39.92267949569693" lon="116.48746252705595">
        <ele>25.8</ele>
        <time>2023-07-25T00:57:07Z</time>
      </trkpt>
      <trkpt lat="39.922664692857886" lon="116.4875287794922">
        <ele>25.7</ele>
        <time>2023-07-25T00:57:10Z</time>
      </trkpt>
      <trkpt lat="39.92261489446784" lon="116.48759604010954">
        <ele>25.099999999999998</ele>
        <time>2023-07-25T00:57:16Z</time>
      </trkpt>
      <trkpt lat="39.922350358211304" lon="116.48774865033042">
        <ele>18.099999999999998</ele>
        <time>2023-07-25T00:57:31Z</time>
      </trkpt>
      <trkpt lat="39.92229050072351" lon="116.48779583630623">
        <ele>17.2</ele>
        <time>2023-07-25T00:57:34Z</time>
      </trkpt>
      <trkpt lat="39.92220584095399" lon="116.48790927610074">
        <ele>15.0</ele>
        <time>2023-07-25T00:57:40Z</time>
      </trkpt>
      <trkpt lat="39.92212899016997" lon="116.48795847182818">
        <ele>12.399999999999999</ele>
        <time>2023-07-25T00:57:46Z</time>
      </trkpt>
      <trkpt lat="39.922019932099126" lon="116.48793740563474">
        <ele>10.599999999999998</ele>
        <time>2023-07-25T00:57:52Z</time>
      </trkpt>
      <trkpt lat="39.92200921569443" lon="116.48803276790034">
        <ele>13.3</ele>
        <time>2023-07-25T00:57:58Z</time>
      </trkpt>
      <trkpt lat="39.922029891600104" lon="116.48826062792993">
        <ele>15.7</ele>
        <time>2023-07-25T00:58:07Z</time>
      </trkpt>
      <trkpt lat="39.92201759298017" lon="116.48849652271129">
        <ele>17.4</ele>
        <time>2023-07-25T00:58:16Z</time>
      </trkpt>
      <trkpt lat="39.92197723311098" lon="116.48871134136911">
        <ele>18.5</ele>
        <time>2023-07-25T00:58:25Z</time>
      </trkpt>
      <trkpt lat="39.921974427139936" lon="116.48911286300758">
        <ele>18.7</ele>
        <time>2023-07-25T00:58:40Z</time>
      </trkpt>
      <trkpt lat="39.921972514244025" lon="116.48947824811803">
        <ele>17.4</ele>
        <time>2023-07-25T00:58:52Z</time>
      </trkpt>
      <trkpt lat="39.92200411041527" lon="116.48967900528625">
        <ele>19.7</ele>
        <time>2023-07-25T00:59:01Z</time>
      </trkpt>
      <trkpt lat="39.92201721558322" lon="116.4900504120006">
        <ele>22.3</ele>
        <time>2023-07-25T00:59:10Z</time>
      </trkpt>
      <trkpt lat="39.92201774765991" lon="116.49022908959167">
        <ele>24.599999999999998</ele>
        <time>2023-07-25T00:59:16Z</time>
      </trkpt>
      <trkpt lat="39.92197518593778" lon="116.49037565077658">
        <ele>24.9</ele>
        <time>2023-07-25T00:59:25Z</time>
      </trkpt>
      <trkpt lat="39.921964014756234" lon="116.49065370695716">
        <ele>24.9</ele>
        <time>2023-07-25T00:59:37Z</time>
      </trkpt>
      <trkpt lat="39.92192256982695" lon="116.49083941666055">
        <ele>23.7</ele>
        <time>2023-07-25T00:59:43Z</time>
      </trkpt>
      <trkpt lat="39.921952948490016" lon="116.49096689657637">
        <ele>21.3</ele>
        <time>2023-07-25T00:59:49Z</time>
      </trkpt>
      <trkpt lat="39.92195260074722" lon="116.4911857269591">
        <ele>19.7</ele>
        <time>2023-07-25T00:59:55Z</time>
      </trkpt>
      <trkpt lat="39.92199484735738" lon="116.49126903785907">
        <ele>20.5</ele>
        <time>2023-07-25T00:59:58Z</time>
      </trkpt>
      <trkpt lat="39.92198523977767" lon="116.49140053806495">
        <ele>20.3</ele>
        <time>2023-07-25T01:00:05Z</time>
      </trkpt>
      <trkpt lat="39.92199068847759" lon="116.49155110879673">
        <ele>19.599999999999998</ele>
        <time>2023-07-25T01:00:11Z</time>
      </trkpt>
      <trkpt lat="39.92194970191786" lon="116.49189040154381">
        <ele>20.2</ele>
        <time>2023-07-25T01:00:23Z</time>
      </trkpt>
      <trkpt lat="39.92198096406867" lon="116.49197873291419">
        <ele>21.099999999999998</ele>
        <time>2023-07-25T01:00:26Z</time>
      </trkpt>
      <trkpt lat="39.921979550939334" lon="116.49217547981499">
        <ele>24.8</ele>
        <time>2023-07-25T01:00:32Z</time>
      </trkpt>
      <trkpt lat="39.92195724054326" lon="116.49240635886134">
        <ele>28.099999999999998</ele>
        <time>2023-07-25T01:00:38Z</time>
      </trkpt>
      <trkpt lat="39.922044338962465" lon="116.4927757500654">
        <ele>23.7</ele>
        <time>2023-07-25T01:00:53Z</time>
      </trkpt>
      <trkpt lat="39.92207964597416" lon="116.49287913808664">
        <ele>22.4</ele>
        <time>2023-07-25T01:00:56Z</time>
      </trkpt>
      <trkpt lat="39.92211752196033" lon="116.49317324962232">
        <ele>19.3</ele>
        <time>2023-07-25T01:01:08Z</time>
      </trkpt>
      <trkpt lat="39.92210016665721" lon="116.49338907082489">
        <ele>17.0</ele>
        <time>2023-07-25T01:01:17Z</time>
      </trkpt>
      <trkpt lat="39.922137423176736" lon="116.49381066604306">
        <ele>12.7</ele>
        <time>2023-07-25T01:01:35Z</time>
      </trkpt>
      <trkpt lat="39.922204929607844" lon="116.49398130514247">
        <ele>1.4000000000000004</ele>
        <time>2023-07-25T01:01:47Z</time>
      </trkpt>
      <trkpt lat="39.92217771554231" lon="116.49424430632189">
        <ele>-7.1</ele>
        <time>2023-07-25T01:01:56Z</time>
      </trkpt>
      <trkpt lat="39.92216408498327" lon="116.4947030481163">
        <ele>-8.1</ele>
        <time>2023-07-25T01:02:08Z</time>
      </trkpt>
      <trkpt lat="39.9221404517202" lon="116.49516078683554">
        <ele>13.5</ele>
        <time>2023-07-25T01:02:17Z</time>
      </trkpt>
      <trkpt lat="39.92212051267046" lon="116.49551613641138">
        <ele>29.2</ele>
        <time>2023-07-25T01:02:26Z</time>
      </trkpt>
      <trkpt lat="39.92212075820453" lon="116.49559844836321">
        <ele>29.599999999999998</ele>
        <time>2023-07-25T01:02:29Z</time>
      </trkpt>
      <trkpt lat="39.922100064482244" lon="116.49570083897626">
        <ele>26.999999999999996</ele>
        <time>2023-07-25T01:02:35Z</time>
      </trkpt>
      <trkpt lat="39.922169130488726" lon="116.49572391789529">
        <ele>29.400000000000002</ele>
        <time>2023-07-25T01:02:41Z</time>
      </trkpt>
      <trkpt lat="39.9222971251884" lon="116.49572390200211">
        <ele>31.7</ele>
        <time>2023-07-25T01:02:50Z</time>
      </trkpt>
      <trkpt lat="39.92235920346164" lon="116.49575099700321">
        <ele>31.999999999999996</ele>
        <time>2023-07-25T01:02:53Z</time>
      </trkpt>
      <trkpt lat="39.922591053139215" lon="116.49570378942157">
        <ele>38.6</ele>
        <time>2023-07-25T01:03:08Z</time>
      </trkpt>
      <trkpt lat="39.92275716603727" lon="116.49574392095958">
        <ele>40.300000000000004</ele>
        <time>2023-07-25T01:03:17Z</time>
      </trkpt>
      <trkpt lat="39.92298313573674" lon="116.49573686627171">
        <ele>38.800000000000004</ele>
        <time>2023-07-25T01:03:26Z</time>
      </trkpt>
      <trkpt lat="39.92310236135904" lon="116.49581414437169">
        <ele>40.7</ele>
        <time>2023-07-25T01:03:35Z</time>
      </trkpt>
      <trkpt lat="39.923202432076955" lon="116.49583922704029">
        <ele>43.300000000000004</ele>
        <time>2023-07-25T01:03:41Z</time>
      </trkpt>
      <trkpt lat="39.92332930707486" lon="116.49579905913374">
        <ele>42.7</ele>
        <time>2023-07-25T01:03:50Z</time>
      </trkpt>
      <trkpt lat="39.92335451561753" lon="116.49586932226663">
        <ele>41.1</ele>
        <time>2023-07-25T01:03:59Z</time>
      </trkpt>
      <trkpt lat="39.92332407372957" lon="116.49605603345616">
        <ele>42.300000000000004</ele>
        <time>2023-07-25T01:04:05Z</time>
      </trkpt>
      <trkpt lat="39.923342261577695" lon="116.49611927077423">
        <ele>42.800000000000004</ele>
        <time>2023-07-25T01:04:08Z</time>
      </trkpt>
      <trkpt lat="39.923334689953876" lon="116.49626281545532">
        <ele>39.0</ele>
        <time>2023-07-25T01:04:14Z</time>
      </trkpt>
      <trkpt lat="39.92340077965455" lon="116.49662919473204">
        <ele>33.9</ele>
        <time>2023-07-25T01:04:29Z</time>
      </trkpt>
      <trkpt lat="39.92340095919767" lon="116.49668942273264">
        <ele>33.3</ele>
        <time>2023-07-25T01:04:32Z</time>
      </trkpt>
      <trkpt lat="39.92343012556692" lon="116.49674563191893">
        <ele>32.4</ele>
        <time>2023-07-25T01:04:35Z</time>
      </trkpt>
      <trkpt lat="39.92343031407042" lon="116.49680887128545">
        <ele>30.7</ele>
        <time>2023-07-25T01:04:38Z</time>
      </trkpt>
      <trkpt lat="39.92346081247059" lon="116.49697650198232">
        <ele>30.400000000000002</ele>
        <time>2023-07-25T01:04:44Z</time>
      </trkpt>
      <trkpt lat="39.923489023715376" lon="116.49704776819">
        <ele>30.7</ele>
        <time>2023-07-25T01:04:47Z</time>
      </trkpt>
      <trkpt lat="39.923485266180755" lon="116.49712907632181">
        <ele>30.7</ele>
        <time>2023-07-25T01:04:50Z</time>
      </trkpt>
      <trkpt lat="39.92343043894821" lon="116.49718629961126">
        <ele>29.2</ele>
        <time>2023-07-25T01:04:53Z</time>
      </trkpt>
      <trkpt lat="39.923399616698525" lon="116.49724552749987">
        <ele>28.900000000000002</ele>
        <time>2023-07-25T01:04:56Z</time>
      </trkpt>
      <trkpt lat="39.92343715050706" lon="116.49742520251733">
        <ele>29.500000000000004</ele>
        <time>2023-07-25T01:05:02Z</time>
      </trkpt>
      <trkpt lat="39.92343715050706" lon="116.49742520251733">
        <ele>29.500000000000004</ele>
        <time>2023-07-25T01:05:04Z</time>
      </trkpt>
    </trkseg>
  </trk>
</gpx>