<?xml version="1.0" encoding="UTF-8"?>
<gpx xmlns="http://www.topografix.com/GPX/1/1" xmlns:gpxtpx="http://www.garmin.com/xmlschemas/TrackPointExtension/v1" xmlns:xsi="http://www.w3.org/2001/XMLSchema-instance" xsi:schemaLocation="http://www.topografix.com/GPX/1/1 http://www.topografix.com/GPX/1/1/gpx.xsd" version="1.1" creator="gpx.py -- https://github.com/tkrajina/gpxpy">
  <trk>
    <name>gpx from keep</name>
    <type>Run</type>
    <trkseg>
      <trkpt lat="39.92341074098198" lon="116.49863076130728">
        <ele>26.400000000000002</ele>
        <time>2023-07-28T10:56:59Z</time>
      </trkpt>
      <trkpt lat="39.92339554150195" lon="116.49856350929106">
        <ele>26.3</ele>
        <time>2023-07-28T10:57:02Z</time>
      </trkpt>
      <trkpt lat="39.92348064476763" lon="116.49826336529617">
        <ele>26.2</ele>
        <time>2023-07-28T10:57:08Z</time>
      </trkpt>
      <trkpt lat="39.923540182131596" lon="116.49810877391116">
        <ele>26.400000000000002</ele>
        <time>2023-07-28T10:57:17Z</time>
      </trkpt>
      <trkpt lat="39.92358553168955" lon="116.49789094513068">
        <ele>27.400000000000002</ele>
        <time>2023-07-28T10:57:26Z</time>
      </trkpt>
      <trkpt lat="39.92358994557038" lon="116.4976942008499">
        <ele>29.3</ele>
        <time>2023-07-28T10:57:35Z</time>
      </trkpt>
      <trkpt lat="39.92351558984306" lon="116.49757375462093">
        <ele>30.7</ele>
        <time>2023-07-28T10:57:41Z</time>
      </trkpt>
      <trkpt lat="39.923550217613545" lon="116.49744927960414">
        <ele>31.7</ele>
        <time>2023-07-28T10:57:47Z</time>
      </trkpt>
      <trkpt lat="39.92358045369561" lon="116.49719330757945">
        <ele>33.099999999999994</ele>
        <time>2023-07-28T10:57:56Z</time>
      </trkpt>
      <trkpt lat="39.92354288387688" lon="116.4970015867673">
        <ele>34.8</ele>
        <time>2023-07-28T10:58:05Z</time>
      </trkpt>
      <trkpt lat="39.92356054806156" lon="116.49688915908172">
        <ele>35.3</ele>
        <time>2023-07-28T10:58:08Z</time>
      </trkpt>
      <trkpt lat="39.92355529395151" lon="116.49680383677453">
        <ele>35.699999999999996</ele>
        <time>2023-07-28T10:58:11Z</time>
      </trkpt>
      <trkpt lat="39.92345734935926" lon="116.49648564418992">
        <ele>36.5</ele>
        <time>2023-07-28T10:58:23Z</time>
      </trkpt>
      <trkpt lat="39.92344881395368" lon="116.49630596477354">
        <ele>37.0</ele>
        <time>2023-07-28T10:58:29Z</time>
      </trkpt>
      <trkpt lat="39.9233479320392" lon="116.49600885175232">
        <ele>39.1</ele>
        <time>2023-07-28T10:58:38Z</time>
      </trkpt>
      <trkpt lat="39.9230595727087" lon="116.4958844159429">
        <ele>40.2</ele>
        <time>2023-07-28T10:58:56Z</time>
      </trkpt>
      <trkpt lat="39.92297938141088" lon="116.49581917866115">
        <ele>39.800000000000004</ele>
        <time>2023-07-28T10:59:02Z</time>
      </trkpt>
      <trkpt lat="39.922932434250164" lon="116.49583624915446">
        <ele>39.5</ele>
        <time>2023-07-28T10:59:05Z</time>
      </trkpt>
      <trkpt lat="39.92287439772635" lon="116.495823206912">
        <ele>39.300000000000004</ele>
        <time>2023-07-28T10:59:08Z</time>
      </trkpt>
      <trkpt lat="39.922647095718965" lon="116.49605410990176">
        <ele>38.900000000000006</ele>
        <time>2023-07-28T10:59:20Z</time>
      </trkpt>
      <trkpt lat="39.92244015517385" lon="116.49607120024275">
        <ele>38.1</ele>
        <time>2023-07-28T10:59:29Z</time>
      </trkpt>
      <trkpt lat="39.92230962169013" lon="116.49589053188113">
        <ele>39.400000000000006</ele>
        <time>2023-07-28T10:59:38Z</time>
      </trkpt>
      <trkpt lat="39.9222406155655" lon="116.49588752903857">
        <ele>39.6</ele>
        <time>2023-07-28T10:59:41Z</time>
      </trkpt>
      <trkpt lat="39.9222003986671" lon="116.49581425636659">
        <ele>40.1</ele>
        <time>2023-07-28T10:59:44Z</time>
      </trkpt>
      <trkpt lat="39.922162828326876" lon="116.49562253444672">
        <ele>40.5</ele>
        <time>2023-07-28T10:59:50Z</time>
      </trkpt>
      <trkpt lat="39.922044824045635" lon="116.4952842668162">
        <ele>34.6</ele>
        <time>2023-07-28T10:59:59Z</time>
      </trkpt>
      <trkpt lat="39.92202592934937" lon="116.49498413117568">
        <ele>32.800000000000004</ele>
        <time>2023-07-28T11:00:08Z</time>
      </trkpt>
      <trkpt lat="39.92203924890172" lon="116.49475626539862">
        <ele>30.7</ele>
        <time>2023-07-28T11:00:14Z</time>
      </trkpt>
      <trkpt lat="39.92200440866784" lon="116.49447419986488">
        <ele>27.599999999999998</ele>
        <time>2023-07-28T11:00:26Z</time>
      </trkpt>
      <trkpt lat="39.92205022657481" lon="116.49407869379387">
        <ele>17.5</ele>
        <time>2023-07-28T11:00:44Z</time>
      </trkpt>
      <trkpt lat="39.92208504792177" lon="116.4936841926214">
        <ele>13.7</ele>
        <time>2023-07-28T11:00:56Z</time>
      </trkpt>
      <trkpt lat="39.92209946621927" lon="116.49348945184764">
        <ele>16.099999999999998</ele>
        <time>2023-07-28T11:01:02Z</time>
      </trkpt>
      <trkpt lat="39.92209023296555" lon="116.49341115586637">
        <ele>16.5</ele>
        <time>2023-07-28T11:01:05Z</time>
      </trkpt>
      <trkpt lat="39.92210989368356" lon="116.49329772295536">
        <ele>18.5</ele>
        <time>2023-07-28T11:01:08Z</time>
      </trkpt>
      <trkpt lat="39.92211462056594" lon="116.49287110326011">
        <ele>13.8</ele>
        <time>2023-07-28T11:01:23Z</time>
      </trkpt>
      <trkpt lat="39.92214728378616" lon="116.49275867249905">
        <ele>11.0</ele>
        <time>2023-07-28T11:01:29Z</time>
      </trkpt>
      <trkpt lat="39.92216968690897" lon="116.49255891154873">
        <ele>10.899999999999999</ele>
        <time>2023-07-28T11:01:38Z</time>
      </trkpt>
      <trkpt lat="39.92215183423667" lon="116.49227282794769">
        <ele>10.599999999999998</ele>
        <time>2023-07-28T11:01:50Z</time>
      </trkpt>
      <trkpt lat="39.92214408305197" lon="116.49202087263832">
        <ele>10.599999999999998</ele>
        <time>2023-07-28T11:01:59Z</time>
      </trkpt>
      <trkpt lat="39.922080079866866" lon="116.49168360053585">
        <ele>11.399999999999999</ele>
        <time>2023-07-28T11:02:08Z</time>
      </trkpt>
      <trkpt lat="39.92207465506935" lon="116.49154106025696">
        <ele>12.8</ele>
        <time>2023-07-28T11:02:14Z</time>
      </trkpt>
      <trkpt lat="39.92197953380346" lon="116.49116363980941">
        <ele>14.899999999999999</ele>
        <time>2023-07-28T11:02:26Z</time>
      </trkpt>
      <trkpt lat="39.92196530699646" lon="116.49108735209774">
        <ele>16.099999999999998</ele>
        <time>2023-07-28T11:02:29Z</time>
      </trkpt>
      <trkpt lat="39.922010347828824" lon="116.49076612772032">
        <ele>15.5</ele>
        <time>2023-07-28T11:02:41Z</time>
      </trkpt>
      <trkpt lat="39.922034116533396" lon="116.4906888315213">
        <ele>14.0</ele>
        <time>2023-07-28T11:02:44Z</time>
      </trkpt>
      <trkpt lat="39.92200960314772" lon="116.49051617958055">
        <ele>14.5</ele>
        <time>2023-07-28T11:02:50Z</time>
      </trkpt>
      <trkpt lat="39.92201541593021" lon="116.49011766728863">
        <ele>12.5</ele>
        <time>2023-07-28T11:03:02Z</time>
      </trkpt>
      <trkpt lat="39.92202904771244" lon="116.48999419734876">
        <ele>12.899999999999999</ele>
        <time>2023-07-28T11:03:08Z</time>
      </trkpt>
      <trkpt lat="39.92203219888626" lon="116.48970911596517">
        <ele>16.099999999999998</ele>
        <time>2023-07-28T11:03:20Z</time>
      </trkpt>
      <trkpt lat="39.922046989131374" lon="116.48963884771771">
        <ele>15.3</ele>
        <time>2023-07-28T11:03:23Z</time>
      </trkpt>
      <trkpt lat="39.922036857509845" lon="116.48925840684608">
        <ele>16.5</ele>
        <time>2023-07-28T11:03:35Z</time>
      </trkpt>
      <trkpt lat="39.9220047751166" lon="116.4888940300502">
        <ele>18.099999999999998</ele>
        <time>2023-07-28T11:03:47Z</time>
      </trkpt>
      <trkpt lat="39.92204691693632" lon="116.48860593345485">
        <ele>15.5</ele>
        <time>2023-07-28T11:03:59Z</time>
      </trkpt>
      <trkpt lat="39.922071830226486" lon="116.4882405466955">
        <ele>17.3</ele>
        <time>2023-07-28T11:04:14Z</time>
      </trkpt>
      <trkpt lat="39.922110378435825" lon="116.48808896807635">
        <ele>14.899999999999999</ele>
        <time>2023-07-28T11:04:23Z</time>
      </trkpt>
      <trkpt lat="39.9223489423199" lon="116.48794539503565">
        <ele>11.5</ele>
        <time>2023-07-28T11:04:41Z</time>
      </trkpt>
      <trkpt lat="39.922393758673756" lon="116.4878841577159">
        <ele>14.5</ele>
        <time>2023-07-28T11:04:47Z</time>
      </trkpt>
      <trkpt lat="39.92243966439569" lon="116.48785303423567">
        <ele>17.2</ele>
        <time>2023-07-28T11:04:53Z</time>
      </trkpt>
      <trkpt lat="39.92256575155864" lon="116.48788413628637">
        <ele>18.7</ele>
        <time>2023-07-28T11:04:59Z</time>
      </trkpt>
      <trkpt lat="39.92263012442091" lon="116.48801060695499">
        <ele>19.2</ele>
        <time>2023-07-28T11:05:08Z</time>
      </trkpt>
      <trkpt lat="39.922644347396705" lon="116.48808589015312">
        <ele>18.9</ele>
        <time>2023-07-28T11:05:11Z</time>
      </trkpt>
      <trkpt lat="39.92268756920104" lon="116.48816116976495">
        <ele>18.8</ele>
        <time>2023-07-28T11:05:14Z</time>
      </trkpt>
      <trkpt lat="39.92271368051345" lon="116.48853558427125">
        <ele>21.4</ele>
        <time>2023-07-28T11:05:29Z</time>
      </trkpt>
      <trkpt lat="39.92274916535898" lon="116.4886991995952">
        <ele>22.8</ele>
        <time>2023-07-28T11:05:35Z</time>
      </trkpt>
      <trkpt lat="39.922827529169226" lon="116.48882265756586">
        <ele>24.3</ele>
        <time>2023-07-28T11:05:41Z</time>
      </trkpt>
      <trkpt lat="39.922890550440115" lon="116.48883068014038">
        <ele>23.2</ele>
        <time>2023-07-28T11:05:47Z</time>
      </trkpt>
      <trkpt lat="39.92302872679005" lon="116.48889189491963">
        <ele>17.599999999999998</ele>
        <time>2023-07-28T11:05:56Z</time>
      </trkpt>
      <trkpt lat="39.92333372613496" lon="116.48889587214647">
        <ele>14.3</ele>
        <time>2023-07-28T11:06:08Z</time>
      </trkpt>
      <trkpt lat="39.92364073436159" lon="116.48890286053262">
        <ele>16.3</ele>
        <time>2023-07-28T11:06:23Z</time>
      </trkpt>
      <trkpt lat="39.923799671098855" lon="116.48888376847559">
        <ele>16.8</ele>
        <time>2023-07-28T11:06:35Z</time>
      </trkpt>
      <trkpt lat="39.92410575399755" lon="116.48891585205868">
        <ele>18.7</ele>
        <time>2023-07-28T11:06:44Z</time>
      </trkpt>
      <trkpt lat="39.924442695353356" lon="116.48890075304253">
        <ele>21.8</ele>
        <time>2023-07-28T11:06:56Z</time>
      </trkpt>
      <trkpt lat="39.92469779828125" lon="116.48893886579845">
        <ele>22.0</ele>
        <time>2023-07-28T11:07:08Z</time>
      </trkpt>
      <trkpt lat="39.92499060715718" lon="116.48887860112579">
        <ele>19.8</ele>
        <time>2023-07-28T11:07:20Z</time>
      </trkpt>
      <trkpt lat="39.925135466900464" lon="116.48883341193917">
        <ele>15.899999999999999</ele>
        <time>2023-07-28T11:07:29Z</time>
      </trkpt>
      <trkpt lat="39.92537253177707" lon="116.4888584774896">
        <ele>14.3</ele>
        <time>2023-07-28T11:07:38Z</time>
      </trkpt>
      <trkpt lat="39.925684438394796" lon="116.48883133595292">
        <ele>17.2</ele>
        <time>2023-07-28T11:07:50Z</time>
      </trkpt>
      <trkpt lat="39.92575528627188" lon="116.48878113697647">
        <ele>18.599999999999998</ele>
        <time>2023-07-28T11:07:56Z</time>
      </trkpt>
      <trkpt lat="39.925945239687806" lon="116.48876806387692">
        <ele>20.0</ele>
        <time>2023-07-28T11:08:05Z</time>
      </trkpt>
      <trkpt lat="39.92617233781277" lon="116.48880417249501">
        <ele>16.599999999999998</ele>
        <time>2023-07-28T11:08:14Z</time>
      </trkpt>
      <trkpt lat="39.926228281803496" lon="116.48878609707205">
        <ele>15.399999999999999</ele>
        <time>2023-07-28T11:08:17Z</time>
      </trkpt>
      <trkpt lat="39.9263308270313" lon="116.48863451009323">
        <ele>14.899999999999999</ele>
        <time>2023-07-28T11:08:23Z</time>
      </trkpt>
      <trkpt lat="39.92635264713053" lon="116.48857427923966">
        <ele>14.399999999999999</ele>
        <time>2023-07-28T11:08:26Z</time>
      </trkpt>
      <trkpt lat="39.926374467245985" lon="116.4885140484009">
        <ele>14.2</ele>
        <time>2023-07-28T11:08:29Z</time>
      </trkpt>
      <trkpt lat="39.926404780025926" lon="116.48828317030527">
        <ele>15.599999999999998</ele>
        <time>2023-07-28T11:08:38Z</time>
      </trkpt>
      <trkpt lat="39.92644260851181" lon="116.48822594894884">
        <ele>15.7</ele>
        <time>2023-07-28T11:08:41Z</time>
      </trkpt>
      <trkpt lat="39.9266485344855" lon="116.48820383967765">
        <ele>11.399999999999999</ele>
        <time>2023-07-28T11:08:56Z</time>
      </trkpt>
      <trkpt lat="39.926709558822786" lon="116.48821286627901">
        <ele>11.0</ele>
        <time>2023-07-28T11:08:59Z</time>
      </trkpt>
      <trkpt lat="39.92699227892921" lon="116.48812248901622">
        <ele>9.3</ele>
        <time>2023-07-28T11:09:11Z</time>
      </trkpt>
      <trkpt lat="39.92722974460467" lon="116.48794579066394">
        <ele>15.2</ele>
        <time>2023-07-28T11:09:20Z</time>
      </trkpt>
      <trkpt lat="39.92745705593162" lon="116.48771689620622">
        <ele>16.099999999999998</ele>
        <time>2023-07-28T11:09:32Z</time>
      </trkpt>
      <trkpt lat="39.92762961100264" lon="116.48756931641181">
        <ele>18.3</ele>
        <time>2023-07-28T11:09:41Z</time>
      </trkpt>
      <trkpt lat="39.92772224091812" lon="116.48744583781315">
        <ele>19.099999999999998</ele>
        <time>2023-07-28T11:09:47Z</time>
      </trkpt>
      <trkpt lat="39.92777181908734" lon="116.4873042963305">
        <ele>19.099999999999998</ele>
        <time>2023-07-28T11:09:53Z</time>
      </trkpt>
      <trkpt lat="39.92773902577578" lon="116.48703628706329">
        <ele>18.9</ele>
        <time>2023-07-28T11:10:02Z</time>
      </trkpt>
      <trkpt lat="39.92766022285787" lon="116.48676426877563">
        <ele>19.3</ele>
        <time>2023-07-28T11:10:11Z</time>
      </trkpt>
      <trkpt lat="39.927711905551995" lon="116.4866578603122">
        <ele>17.0</ele>
        <time>2023-07-28T11:10:17Z</time>
      </trkpt>
      <trkpt lat="39.92780767866805" lon="116.48658256396422">
        <ele>16.599999999999998</ele>
        <time>2023-07-28T11:10:23Z</time>
      </trkpt>
      <trkpt lat="39.92783948415311" lon="116.48651731354153">
        <ele>16.3</ele>
        <time>2023-07-28T11:10:26Z</time>
      </trkpt>
      <trkpt lat="39.92783463748052" lon="116.4862312338492">
        <ele>15.2</ele>
        <time>2023-07-28T11:10:35Z</time>
      </trkpt>
      <trkpt lat="39.927847449824526" lon="116.48616799352104">
        <ele>14.8</ele>
        <time>2023-07-28T11:10:38Z</time>
      </trkpt>
      <trkpt lat="39.927970046878954" lon="116.48603347054389">
        <ele>13.599999999999998</ele>
        <time>2023-07-28T11:10:47Z</time>
      </trkpt>
      <trkpt lat="39.928015742181906" lon="116.48593107847846">
        <ele>13.599999999999998</ele>
        <time>2023-07-28T11:10:50Z</time>
      </trkpt>
      <trkpt lat="39.928014009210976" lon="116.48568314338604">
        <ele>14.8</ele>
        <time>2023-07-28T11:10:59Z</time>
      </trkpt>
      <trkpt lat="39.92792884128922" lon="116.48528665920168">
        <ele>14.399999999999999</ele>
        <time>2023-07-28T11:11:11Z</time>
      </trkpt>
      <trkpt lat="39.927872543025856" lon="116.48484600631578">
        <ele>15.2</ele>
        <time>2023-07-28T11:11:26Z</time>
      </trkpt>
      <trkpt lat="39.92788528493477" lon="116.48475867595202">
        <ele>13.3</ele>
        <time>2023-07-28T11:11:29Z</time>
      </trkpt>
      <trkpt lat="39.92792512050692" lon="116.48470346316736">
        <ele>11.7</ele>
        <time>2023-07-28T11:11:32Z</time>
      </trkpt>
      <trkpt lat="39.928196695129564" lon="116.48456290040755">
        <ele>10.7</ele>
        <time>2023-07-28T11:11:50Z</time>
      </trkpt>
      <trkpt lat="39.92831437379055" lon="116.484455481625">
        <ele>11.899999999999999</ele>
        <time>2023-07-28T11:11:56Z</time>
      </trkpt>
      <trkpt lat="39.92842670979505" lon="116.48423162573863">
        <ele>12.899999999999999</ele>
        <time>2023-07-28T11:12:02Z</time>
      </trkpt>
      <trkpt lat="39.92848380206919" lon="116.48426373939142">
        <ele>13.0</ele>
        <time>2023-07-28T11:12:05Z</time>
      </trkpt>
      <trkpt lat="39.92854977573046" lon="116.4842557009607">
        <ele>13.2</ele>
        <time>2023-07-28T11:12:11Z</time>
      </trkpt>
      <trkpt lat="39.92858448759052" lon="116.48415833054963">
        <ele>13.099999999999998</ele>
        <time>2023-07-28T11:12:14Z</time>
      </trkpt>
      <trkpt lat="39.928547104961524" lon="116.48402784472717">
        <ele>13.0</ele>
        <time>2023-07-28T11:12:17Z</time>
      </trkpt>
      <trkpt lat="39.928540696886245" lon="116.48354904713271">
        <ele>12.099999999999998</ele>
        <time>2023-07-28T11:12:26Z</time>
      </trkpt>
      <trkpt lat="39.928605487735865" lon="116.48347877530675">
        <ele>12.399999999999999</ele>
        <time>2023-07-28T11:12:29Z</time>
      </trkpt>
      <trkpt lat="39.92874565935836" lon="116.48319870709602">
        <ele>17.099999999999998</ele>
        <time>2023-07-28T11:12:38Z</time>
      </trkpt>
      <trkpt lat="39.9288215590087" lon="116.4831655733906">
        <ele>19.9</ele>
        <time>2023-07-28T11:12:41Z</time>
      </trkpt>
      <trkpt lat="39.92911753222782" lon="116.48316051760682">
        <ele>20.099999999999998</ele>
        <time>2023-07-28T11:12:56Z</time>
      </trkpt>
      <trkpt lat="39.929215439837094" lon="116.4831303924562">
        <ele>19.7</ele>
        <time>2023-07-28T11:13:02Z</time>
      </trkpt>
      <trkpt lat="39.92933855270901" lon="116.48317052764766">
        <ele>17.7</ele>
        <time>2023-07-28T11:13:11Z</time>
      </trkpt>
      <trkpt lat="39.92968240611889" lon="116.48312531531758">
        <ele>19.7</ele>
        <time>2023-07-28T11:13:26Z</time>
      </trkpt>
      <trkpt lat="39.92984237015302" lon="116.48311525770059">
        <ele>22.0</ele>
        <time>2023-07-28T11:13:32Z</time>
      </trkpt>
      <trkpt lat="39.92998752633747" lon="116.48317044659882">
        <ele>21.599999999999998</ele>
        <time>2023-07-28T11:13:41Z</time>
      </trkpt>
      <trkpt lat="39.93003946823413" lon="116.48315136858993">
        <ele>20.4</ele>
        <time>2023-07-28T11:13:44Z</time>
      </trkpt>
      <trkpt lat="39.930107088348834" lon="116.48302287840643">
        <ele>19.8</ele>
        <time>2023-07-28T11:13:50Z</time>
      </trkpt>
      <trkpt lat="39.930219748010344" lon="116.48290843542546">
        <ele>20.9</ele>
        <time>2023-07-28T11:13:56Z</time>
      </trkpt>
      <trkpt lat="39.93026453419148" lon="116.48283615900894">
        <ele>19.8</ele>
        <time>2023-07-28T11:13:59Z</time>
      </trkpt>
      <trkpt lat="39.93028504181836" lon="116.4826685284951">
        <ele>17.599999999999998</ele>
        <time>2023-07-28T11:14:05Z</time>
      </trkpt>
      <trkpt lat="39.93027961840377" lon="116.48252398793865">
        <ele>18.599999999999998</ele>
        <time>2023-07-28T11:14:11Z</time>
      </trkpt>
      <trkpt lat="39.930295403078745" lon="116.48245071167493">
        <ele>19.0</ele>
        <time>2023-07-28T11:14:14Z</time>
      </trkpt>
      <trkpt lat="39.93026486342121" lon="116.4822660243783">
        <ele>18.7</ele>
        <time>2023-07-28T11:14:23Z</time>
      </trkpt>
      <trkpt lat="39.930283538272604" lon="116.48181332963993">
        <ele>17.2</ele>
        <time>2023-07-28T11:14:41Z</time>
      </trkpt>
      <trkpt lat="39.93026037801283" lon="116.48141584842082">
        <ele>18.2</ele>
        <time>2023-07-28T11:14:56Z</time>
      </trkpt>
      <trkpt lat="39.93029050109924" lon="116.48111572529429">
        <ele>20.5</ele>
        <time>2023-07-28T11:15:08Z</time>
      </trkpt>
      <trkpt lat="39.93028176414784" lon="116.48086278381594">
        <ele>22.3</ele>
        <time>2023-07-28T11:15:20Z</time>
      </trkpt>
      <trkpt lat="39.93030024009278" lon="116.48068311245714">
        <ele>22.099999999999998</ele>
        <time>2023-07-28T11:15:26Z</time>
      </trkpt>
      <trkpt lat="39.930279408467996" lon="116.48039705064767">
        <ele>17.8</ele>
        <time>2023-07-28T11:15:38Z</time>
      </trkpt>
      <trkpt lat="39.930262382240365" lon="116.48004373957423">
        <ele>17.0</ele>
        <time>2023-07-28T11:15:50Z</time>
      </trkpt>
      <trkpt lat="39.93025220483642" lon="116.47998251344009">
        <ele>17.7</ele>
        <time>2023-07-28T11:15:53Z</time>
      </trkpt>
      <trkpt lat="39.9302687641793" lon="116.47983094865667">
        <ele>17.8</ele>
        <time>2023-07-28T11:15:59Z</time>
      </trkpt>
      <trkpt lat="39.930225043905544" lon="116.47958203060128">
        <ele>20.3</ele>
        <time>2023-07-28T11:16:08Z</time>
      </trkpt>
      <trkpt lat="39.930271695803555" lon="116.47946258192131">
        <ele>16.099999999999998</ele>
        <time>2023-07-28T11:16:14Z</time>
      </trkpt>
      <trkpt lat="39.93028530269799" lon="116.47932707806925">
        <ele>13.3</ele>
        <time>2023-07-28T11:16:20Z</time>
      </trkpt>
      <trkpt lat="39.930344910850806" lon="116.4791925724332">
        <ele>10.399999999999999</ele>
        <time>2023-07-28T11:16:26Z</time>
      </trkpt>
      <trkpt lat="39.930434747429366" lon="116.47913735679063">
        <ele>9.100000000000001</ele>
        <time>2023-07-28T11:16:35Z</time>
      </trkpt>
      <trkpt lat="39.93053237176796" lon="116.4790088690393">
        <ele>7.3</ele>
        <time>2023-07-28T11:16:44Z</time>
      </trkpt>
      <trkpt lat="39.930598896022836" lon="116.4788452554869">
        <ele>6.8</ele>
        <time>2023-07-28T11:16:53Z</time>
      </trkpt>
      <trkpt lat="39.9306436853582" lon="116.47877298266404">
        <ele>6.6000000000000005</ele>
        <time>2023-07-28T11:16:59Z</time>
      </trkpt>
      <trkpt lat="39.93085871724639" lon="116.4787870077112">
        <ele>8.100000000000001</ele>
        <time>2023-07-28T11:17:08Z</time>
      </trkpt>
      <trkpt lat="39.931139473879824" lon="116.47870667574105">
        <ele>10.7</ele>
        <time>2023-07-28T11:17:17Z</time>
      </trkpt>
      <trkpt lat="39.93129531101981" lon="116.47865245592618">
        <ele>16.7</ele>
        <time>2023-07-28T11:17:29Z</time>
      </trkpt>
      <trkpt lat="39.931367287815014" lon="116.47864542095567">
        <ele>19.9</ele>
        <time>2023-07-28T11:17:35Z</time>
      </trkpt>
      <trkpt lat="39.93151471968417" lon="116.47879696273822">
        <ele>19.2</ele>
        <time>2023-07-28T11:17:41Z</time>
      </trkpt>
      <trkpt lat="39.93165480103706" lon="116.47882705655384">
        <ele>17.099999999999998</ele>
        <time>2023-07-28T11:17:50Z</time>
      </trkpt>
      <trkpt lat="39.93171676662099" lon="116.47881600797243">
        <ele>17.2</ele>
        <time>2023-07-28T11:17:53Z</time>
      </trkpt>
      <trkpt lat="39.93188492228155" lon="116.47887219479986">
        <ele>15.899999999999999</ele>
        <time>2023-07-28T11:18:02Z</time>
      </trkpt>
      <trkpt lat="39.93203181769946" lon="116.47883805020733">
        <ele>15.099999999999998</ele>
        <time>2023-07-28T11:18:08Z</time>
      </trkpt>
      <trkpt lat="39.93213745089734" lon="116.47871257311891">
        <ele>14.399999999999999</ele>
        <time>2023-07-28T11:18:14Z</time>
      </trkpt>
      <trkpt lat="39.93216194558909" lon="116.47853792472581">
        <ele>21.0</ele>
        <time>2023-07-28T11:18:26Z</time>
      </trkpt>
      <trkpt lat="39.932208871264415" lon="116.47851282617025">
        <ele>21.0</ele>
        <time>2023-07-28T11:18:41Z</time>
      </trkpt>
      <trkpt lat="39.9322769786059" lon="116.47855095852857">
        <ele>20.7</ele>
        <time>2023-07-28T11:18:47Z</time>
      </trkpt>
      <trkpt lat="39.93239177986689" lon="116.47848369577844">
        <ele>22.3</ele>
        <time>2023-07-28T11:18:59Z</time>
      </trkpt>
      <trkpt lat="39.93254202295216" lon="116.47856999580807">
        <ele>24.2</ele>
        <time>2023-07-28T11:19:08Z</time>
      </trkpt>
      <trkpt lat="39.93258294886107" lon="116.47854489799101">
        <ele>25.4</ele>
        <time>2023-07-28T11:19:11Z</time>
      </trkpt>
      <trkpt lat="39.93268931034698" lon="116.4783250730644">
        <ele>27.3</ele>
        <time>2023-07-28T11:19:20Z</time>
      </trkpt>
      <trkpt lat="39.93273369519403" lon="116.47811228251999">
        <ele>27.900000000000002</ele>
        <time>2023-07-28T11:19:29Z</time>
      </trkpt>
      <trkpt lat="39.93275948650981" lon="116.47769273354183">
        <ele>27.599999999999998</ele>
        <time>2023-07-28T11:19:44Z</time>
      </trkpt>
      <trkpt lat="39.93272438344693" lon="116.47730832401434">
        <ele>29.3</ele>
        <time>2023-07-28T11:19:56Z</time>
      </trkpt>
      <trkpt lat="39.93275137479022" lon="116.4769570305944">
        <ele>29.7</ele>
        <time>2023-07-28T11:20:08Z</time>
      </trkpt>
      <trkpt lat="39.93276973871847" lon="116.47673521475829">
        <ele>28.900000000000002</ele>
        <time>2023-07-28T11:20:17Z</time>
      </trkpt>
      <trkpt lat="39.93279956514505" lon="116.47667499029272">
        <ele>26.999999999999996</ele>
        <time>2023-07-28T11:20:20Z</time>
      </trkpt>
      <trkpt lat="39.93296217667842" lon="116.47654148085452">
        <ele>24.8</ele>
        <time>2023-07-28T11:20:29Z</time>
      </trkpt>
      <trkpt lat="39.933051639400865" lon="116.47635478618325">
        <ele>24.5</ele>
        <time>2023-07-28T11:20:38Z</time>
      </trkpt>
      <trkpt lat="39.93310663144663" lon="116.47635277194868">
        <ele>23.2</ele>
        <time>2023-07-28T11:20:47Z</time>
      </trkpt>
      <trkpt lat="39.93318890063564" lon="116.47644811064922">
        <ele>22.7</ele>
        <time>2023-07-28T11:20:53Z</time>
      </trkpt>
      <trkpt lat="39.9332543945763" lon="116.47662173839616">
        <ele>24.099999999999998</ele>
        <time>2023-07-28T11:21:02Z</time>
      </trkpt>
      <trkpt lat="39.93333164996647" lon="116.47671205976002">
        <ele>24.4</ele>
        <time>2023-07-28T11:21:08Z</time>
      </trkpt>
      <trkpt lat="39.93334884466438" lon="116.47678030781537">
        <ele>24.599999999999998</ele>
        <time>2023-07-28T11:21:11Z</time>
      </trkpt>
      <trkpt lat="39.933561517592835" lon="116.47701815383066">
        <ele>24.3</ele>
        <time>2023-07-28T11:21:23Z</time>
      </trkpt>
      <trkpt lat="39.93375888379032" lon="116.47714860817526">
        <ele>22.2</ele>
        <time>2023-07-28T11:21:32Z</time>
      </trkpt>
      <trkpt lat="39.93405119166728" lon="116.47725998083328">
        <ele>15.899999999999999</ele>
        <time>2023-07-28T11:21:50Z</time>
      </trkpt>
      <trkpt lat="39.9341892869327" lon="116.47729509262882">
        <ele>9.2</ele>
        <time>2023-07-28T11:22:02Z</time>
      </trkpt>
      <trkpt lat="39.93439922086482" lon="116.47727499257257">
        <ele>4.6000000000000005</ele>
        <time>2023-07-28T11:22:11Z</time>
      </trkpt>
      <trkpt lat="39.93467391029189" lon="116.47717057468556">
        <ele>-1.0</ele>
        <time>2023-07-28T11:22:26Z</time>
      </trkpt>
      <trkpt lat="39.93493455439401" lon="116.47705009977328">
        <ele>-3.1999999999999997</ele>
        <time>2023-07-28T11:22:41Z</time>
      </trkpt>
      <trkpt lat="39.93505149789717" lon="116.47703201880665">
        <ele>-3.0999999999999996</ele>
        <time>2023-07-28T11:22:47Z</time>
      </trkpt>
      <trkpt lat="39.93518260197772" lon="116.47707014240336">
        <ele>-3.0</ele>
        <time>2023-07-28T11:22:53Z</time>
      </trkpt>
      <trkpt lat="39.93543519073043" lon="116.47727887759282">
        <ele>-0.2999999999999998</ele>
        <time>2023-07-28T11:23:05Z</time>
      </trkpt>
      <trkpt lat="39.93558448440673" lon="116.47738324257072">
        <ele>3.6000000000000005</ele>
        <time>2023-07-28T11:23:14Z</time>
      </trkpt>
      <trkpt lat="39.9356526834537" lon="116.47745349237015">
        <ele>4.8999999999999995</ele>
        <time>2023-07-28T11:23:20Z</time>
      </trkpt>
      <trkpt lat="39.935814821116494" lon="116.47750365664322">
        <ele>9.2</ele>
        <time>2023-07-28T11:23:26Z</time>
      </trkpt>
      <trkpt lat="39.936094694540714" lon="116.47746347393186">
        <ele>7.7</ele>
        <time>2023-07-28T11:23:38Z</time>
      </trkpt>
      <trkpt lat="39.936211632185675" lon="116.4774433854652">
        <ele>6.2</ele>
        <time>2023-07-28T11:23:44Z</time>
      </trkpt>
      <trkpt lat="39.93652174661074" lon="116.47748750905022">
        <ele>6.6000000000000005</ele>
        <time>2023-07-28T11:23:56Z</time>
      </trkpt>
      <trkpt lat="39.93673698024963" lon="116.4775717922577">
        <ele>11.7</ele>
        <time>2023-07-28T11:24:05Z</time>
      </trkpt>
      <trkpt lat="39.93702403509627" lon="116.4775948412563">
        <ele>17.0</ele>
        <time>2023-07-28T11:24:20Z</time>
      </trkpt>
      <trkpt lat="39.93735430466216" lon="116.47769316193167">
        <ele>15.5</ele>
        <time>2023-07-28T11:24:38Z</time>
      </trkpt>
      <trkpt lat="39.93760372488645" lon="116.47784268142671">
        <ele>15.5</ele>
        <time>2023-07-28T11:24:50Z</time>
      </trkpt>
      <trkpt lat="39.93771006443242" lon="116.47796210820225">
        <ele>16.099999999999998</ele>
        <time>2023-07-28T11:24:56Z</time>
      </trkpt>
      <trkpt lat="39.93776532525413" lon="116.47805343797032">
        <ele>16.9</ele>
        <time>2023-07-28T11:24:59Z</time>
      </trkpt>
      <trkpt lat="39.937873607200515" lon="116.47815279084327">
        <ele>20.099999999999998</ele>
        <time>2023-07-28T11:25:06Z</time>
      </trkpt>
      <trkpt lat="39.93793185655403" lon="116.478240105688">
        <ele>21.5</ele>
        <time>2023-07-28T11:25:12Z</time>
      </trkpt>
      <trkpt lat="39.93808911072792" lon="116.47833041936713">
        <ele>20.4</ele>
        <time>2023-07-28T11:25:21Z</time>
      </trkpt>
      <trkpt lat="39.93812623951456" lon="116.47837558144788">
        <ele>20.3</ele>
        <time>2023-07-28T11:25:24Z</time>
      </trkpt>
      <trkpt lat="39.93844455112791" lon="116.47848795670153">
        <ele>22.0</ele>
        <time>2023-07-28T11:25:39Z</time>
      </trkpt>
      <trkpt lat="39.938651731153406" lon="116.47855317175971">
        <ele>24.5</ele>
        <time>2023-07-28T11:25:48Z</time>
      </trkpt>
      <trkpt lat="39.93875190971484" lon="116.47861639285776">
        <ele>26.099999999999998</ele>
        <time>2023-07-28T11:25:54Z</time>
      </trkpt>
      <trkpt lat="39.93903897650059" lon="116.47864345707187">
        <ele>24.099999999999998</ele>
        <time>2023-07-28T11:26:09Z</time>
      </trkpt>
      <trkpt lat="39.93932707224907" lon="116.47868055826731">
        <ele>20.4</ele>
        <time>2023-07-28T11:26:24Z</time>
      </trkpt>
      <trkpt lat="39.93951999786933" lon="116.47865744879105">
        <ele>21.8</ele>
        <time>2023-07-28T11:26:33Z</time>
      </trkpt>
      <trkpt lat="39.93956693512352" lon="116.47863636501583">
        <ele>22.599999999999998</ele>
        <time>2023-07-28T11:26:36Z</time>
      </trkpt>
      <trkpt lat="39.939668638376894" lon="116.47853497771449">
        <ele>22.7</ele>
        <time>2023-07-28T11:26:42Z</time>
      </trkpt>
      <trkpt lat="39.939793193170516" lon="116.47838239869603">
        <ele>21.7</ele>
        <time>2023-07-28T11:26:51Z</time>
      </trkpt>
      <trkpt lat="39.93999363240119" lon="116.47819066610035">
        <ele>22.9</ele>
        <time>2023-07-28T11:27:00Z</time>
      </trkpt>
      <trkpt lat="39.94005439280641" lon="116.47810835491735">
        <ele>23.3</ele>
        <time>2023-07-28T11:27:03Z</time>
      </trkpt>
      <trkpt lat="39.940149732903244" lon="116.47788050312867">
        <ele>24.5</ele>
        <time>2023-07-28T11:27:09Z</time>
      </trkpt>
      <trkpt lat="39.940256376311936" lon="116.4777580387281">
        <ele>26.2</ele>
        <time>2023-07-28T11:27:15Z</time>
      </trkpt>
      <trkpt lat="39.94030841177107" lon="116.47777108026288">
        <ele>26.3</ele>
        <time>2023-07-28T11:27:18Z</time>
      </trkpt>
      <trkpt lat="39.94044174436659" lon="116.4778884961461">
        <ele>26.099999999999998</ele>
        <time>2023-07-28T11:27:27Z</time>
      </trkpt>
      <trkpt lat="39.94062338167917" lon="116.47811229847798">
        <ele>29.499999999999996</ele>
        <time>2023-07-28T11:27:39Z</time>
      </trkpt>
      <trkpt lat="39.94064928932086" lon="116.4784274582831">
        <ele>28.3</ele>
        <time>2023-07-28T11:27:51Z</time>
      </trkpt>
      <trkpt lat="39.94079929477493" lon="116.47877773391455">
        <ele>29.8</ele>
        <time>2023-07-28T11:28:06Z</time>
      </trkpt>
      <trkpt lat="39.940882025646395" lon="116.47903166302393">
        <ele>27.8</ele>
        <time>2023-07-28T11:28:15Z</time>
      </trkpt>
      <trkpt lat="39.94102541490903" lon="116.4791681504646">
        <ele>26.900000000000002</ele>
        <time>2023-07-28T11:28:24Z</time>
      </trkpt>
      <trkpt lat="39.94112979432518" lon="116.47930062817491">
        <ele>27.599999999999998</ele>
        <time>2023-07-28T11:28:33Z</time>
      </trkpt>
      <trkpt lat="39.941226979412015" lon="116.47936585777097">
        <ele>26.099999999999998</ele>
        <time>2023-07-28T11:28:39Z</time>
      </trkpt>
      <trkpt lat="39.94135360556642" lon="116.47958364945319">
        <ele>22.3</ele>
        <time>2023-07-28T11:28:48Z</time>
      </trkpt>
      <trkpt lat="39.94139002910722" lon="116.47973018857375">
        <ele>22.099999999999998</ele>
        <time>2023-07-28T11:28:54Z</time>
      </trkpt>
      <trkpt lat="39.94138524771263" lon="116.47980546857144">
        <ele>23.599999999999998</ele>
        <time>2023-07-28T11:29:00Z</time>
      </trkpt>
      <trkpt lat="39.94141979120244" lon="116.47999316121371">
        <ele>23.4</ele>
        <time>2023-07-28T11:29:06Z</time>
      </trkpt>
      <trkpt lat="39.94153844259603" lon="116.48021898557721">
        <ele>23.8</ele>
        <time>2023-07-28T11:29:15Z</time>
      </trkpt>
      <trkpt lat="39.94180417338778" lon="116.48047390050084">
        <ele>24.599999999999998</ele>
        <time>2023-07-28T11:29:27Z</time>
      </trkpt>
      <trkpt lat="39.94187031093756" lon="116.48052207150192">
        <ele>24.3</ele>
        <time>2023-07-28T11:29:30Z</time>
      </trkpt>
      <trkpt lat="39.942160305234594" lon="116.48052404269517">
        <ele>21.3</ele>
        <time>2023-07-28T11:29:42Z</time>
      </trkpt>
      <trkpt lat="39.942434367350494" lon="116.48054910179586">
        <ele>23.4</ele>
        <time>2023-07-28T11:29:51Z</time>
      </trkpt>
      <trkpt lat="39.942629409249804" lon="116.48056614090324">
        <ele>24.7</ele>
        <time>2023-07-28T11:30:00Z</time>
      </trkpt>
      <trkpt lat="39.94268647124963" lon="116.48058821595554">
        <ele>24.599999999999998</ele>
        <time>2023-07-28T11:30:03Z</time>
      </trkpt>
      <trkpt lat="39.94275643925217" lon="116.4805781698426">
        <ele>24.4</ele>
        <time>2023-07-28T11:30:06Z</time>
      </trkpt>
      <trkpt lat="39.942845280901544" lon="116.48052496074072">
        <ele>23.4</ele>
        <time>2023-07-28T11:30:09Z</time>
      </trkpt>
      <trkpt lat="39.942915085377905" lon="116.48045870550669">
        <ele>23.5</ele>
        <time>2023-07-28T11:30:12Z</time>
      </trkpt>
      <trkpt lat="39.94298900068139" lon="116.48043059169984">
        <ele>23.0</ele>
        <time>2023-07-28T11:30:15Z</time>
      </trkpt>
      <trkpt lat="39.94306499765931" lon="116.48043058219211">
        <ele>22.3</ele>
        <time>2023-07-28T11:30:18Z</time>
      </trkpt>
      <trkpt lat="39.943179349403" lon="116.4805530235417">
        <ele>20.5</ele>
        <time>2023-07-28T11:30:24Z</time>
      </trkpt>
      <trkpt lat="39.94321859325318" lon="116.48063733247243">
        <ele>19.7</ele>
        <time>2023-07-28T11:30:27Z</time>
      </trkpt>
      <trkpt lat="39.94323906887291" lon="116.48080093916339">
        <ele>18.0</ele>
        <time>2023-07-28T11:30:33Z</time>
      </trkpt>
      <trkpt lat="39.94324915979487" lon="116.48117533331386">
        <ele>16.9</ele>
        <time>2023-07-28T11:30:45Z</time>
      </trkpt>
      <trkpt lat="39.943209207268666" lon="116.48153367543313">
        <ele>25.3</ele>
        <time>2023-07-28T11:30:57Z</time>
      </trkpt>
      <trkpt lat="39.94323173127502" lon="116.48171334361238">
        <ele>28.499999999999996</ele>
        <time>2023-07-28T11:31:03Z</time>
      </trkpt>
      <trkpt lat="39.943268899946915" lon="116.48177155646164">
        <ele>27.099999999999998</ele>
        <time>2023-07-28T11:31:06Z</time>
      </trkpt>
      <trkpt lat="39.94333497360505" lon="116.4817976457111">
        <ele>26.400000000000002</ele>
        <time>2023-07-28T11:31:09Z</time>
      </trkpt>
      <trkpt lat="39.94365958521115" lon="116.48166912514036">
        <ele>25.599999999999998</ele>
        <time>2023-07-28T11:31:27Z</time>
      </trkpt>
      <trkpt lat="39.94380540346217" lon="116.48160888197907">
        <ele>23.5</ele>
        <time>2023-07-28T11:31:33Z</time>
      </trkpt>
      <trkpt lat="39.944064349191024" lon="116.48159379337255">
        <ele>21.0</ele>
        <time>2023-07-28T11:31:42Z</time>
      </trkpt>
      <trkpt lat="39.944389512220376" lon="116.48165397762936">
        <ele>20.099999999999998</ele>
        <time>2023-07-28T11:31:51Z</time>
      </trkpt>
      <trkpt lat="39.94447236817094" lon="116.48160578732957">
        <ele>17.0</ele>
        <time>2023-07-28T11:31:57Z</time>
      </trkpt>
      <trkpt lat="39.94473798828852" lon="116.48182156029753">
        <ele>21.099999999999998</ele>
        <time>2023-07-28T11:32:15Z</time>
      </trkpt>
      <trkpt lat="39.945005209529775" lon="116.48190082324277">
        <ele>22.3</ele>
        <time>2023-07-28T11:32:27Z</time>
      </trkpt>
      <trkpt lat="39.94531735859199" lon="116.48195599058012">
        <ele>19.7</ele>
        <time>2023-07-28T11:32:42Z</time>
      </trkpt>
      <trkpt lat="39.945467273381865" lon="116.48192887052231">
        <ele>18.0</ele>
        <time>2023-07-28T11:32:51Z</time>
      </trkpt>
      <trkpt lat="39.94557031039135" lon="116.48194291017003">
        <ele>14.8</ele>
        <time>2023-07-28T11:32:57Z</time>
      </trkpt>
      <trkpt lat="39.945754153394645" lon="116.4818916958273">
        <ele>13.399999999999999</ele>
        <time>2023-07-28T11:33:06Z</time>
      </trkpt>
      <trkpt lat="39.94599665081963" lon="116.4817230353648">
        <ele>14.099999999999998</ele>
        <time>2023-07-28T11:33:21Z</time>
      </trkpt>
      <trkpt lat="39.94605958965711" lon="116.48170295249876">
        <ele>13.7</ele>
        <time>2023-07-28T11:33:27Z</time>
      </trkpt>
      <trkpt lat="39.94623516041678" lon="116.48155839071133">
        <ele>12.899999999999999</ele>
        <time>2023-07-28T11:33:39Z</time>
      </trkpt>
      <trkpt lat="39.946534623924805" lon="116.48137868255209">
        <ele>15.099999999999998</ele>
        <time>2023-07-28T11:33:51Z</time>
      </trkpt>
      <trkpt lat="39.94672839360076" lon="116.48130237366007">
        <ele>18.099999999999998</ele>
        <time>2023-07-28T11:34:00Z</time>
      </trkpt>
      <trkpt lat="39.946976786435116" lon="116.48109757885209">
        <ele>18.0</ele>
        <time>2023-07-28T11:34:15Z</time>
      </trkpt>
      <trkpt lat="39.947061572361086" lon="116.48102529881064">
        <ele>17.8</ele>
        <time>2023-07-28T11:34:21Z</time>
      </trkpt>
      <trkpt lat="39.94735830606411" lon="116.48093793620501">
        <ele>19.2</ele>
        <time>2023-07-28T11:34:33Z</time>
      </trkpt>
      <trkpt lat="39.94764190878708" lon="116.48080540706171">
        <ele>19.9</ele>
        <time>2023-07-28T11:34:45Z</time>
      </trkpt>
      <trkpt lat="39.94792032489522" lon="116.48060863960968">
        <ele>26.599999999999998</ele>
        <time>2023-07-28T11:35:00Z</time>
      </trkpt>
      <trkpt lat="39.94803413050066" lon="116.48054338251582">
        <ele>28.099999999999998</ele>
        <time>2023-07-28T11:35:06Z</time>
      </trkpt>
      <trkpt lat="39.948145050166104" lon="116.48051727150985">
        <ele>28.599999999999998</ele>
        <time>2023-07-28T11:35:12Z</time>
      </trkpt>
      <trkpt lat="39.94824690303195" lon="116.48046807574147">
        <ele>28.3</ele>
        <time>2023-07-28T11:35:18Z</time>
      </trkpt>
      <trkpt lat="39.9483635364005" lon="116.48034359812166">
        <ele>29.499999999999996</ele>
        <time>2023-07-28T11:35:27Z</time>
      </trkpt>
      <trkpt lat="39.948452068953515" lon="116.48018399361466">
        <ele>29.499999999999996</ele>
        <time>2023-07-28T11:35:33Z</time>
      </trkpt>
      <trkpt lat="39.948564096713405" lon="116.47985074155446">
        <ele>25.0</ele>
        <time>2023-07-28T11:35:42Z</time>
      </trkpt>
      <trkpt lat="39.9486205411887" lon="116.47966002663449">
        <ele>21.099999999999998</ele>
        <time>2023-07-28T11:35:48Z</time>
      </trkpt>
      <trkpt lat="39.94861677616998" lon="116.47939604809774">
        <ele>20.7</ele>
        <time>2023-07-28T11:35:57Z</time>
      </trkpt>
      <trkpt lat="39.94865150813627" lon="116.47895842287906">
        <ele>19.0</ele>
        <time>2023-07-28T11:36:12Z</time>
      </trkpt>
      <trkpt lat="39.9486696372215" lon="116.47865730690852">
        <ele>20.099999999999998</ele>
        <time>2023-07-28T11:36:21Z</time>
      </trkpt>
      <trkpt lat="39.94881462347219" lon="116.47830799851006">
        <ele>18.3</ele>
        <time>2023-07-28T11:36:36Z</time>
      </trkpt>
      <trkpt lat="39.94896363712904" lon="116.47796772471771">
        <ele>20.3</ele>
        <time>2023-07-28T11:36:48Z</time>
      </trkpt>
      <trkpt lat="39.949016450108225" lon="116.47790348134224">
        <ele>20.2</ele>
        <time>2023-07-28T11:36:51Z</time>
      </trkpt>
      <trkpt lat="39.94915947333956" lon="116.47791350041484">
        <ele>20.0</ele>
        <time>2023-07-28T11:37:00Z</time>
      </trkpt>
      <trkpt lat="39.94926659623988" lon="116.47795764976802">
        <ele>19.599999999999998</ele>
        <time>2023-07-28T11:37:06Z</time>
      </trkpt>
      <trkpt lat="39.94946153073196" lon="116.47793755135662">
        <ele>20.8</ele>
        <time>2023-07-28T11:37:15Z</time>
      </trkpt>
      <trkpt lat="39.94951656034045" lon="116.47794858515748">
        <ele>21.3</ele>
        <time>2023-07-28T11:37:18Z</time>
      </trkpt>
      <trkpt lat="39.94963187083395" lon="116.47805797405988">
        <ele>20.2</ele>
        <time>2023-07-28T11:37:24Z</time>
      </trkpt>
      <trkpt lat="39.94969490881691" lon="116.47807201798257">
        <ele>18.3</ele>
        <time>2023-07-28T11:37:27Z</time>
      </trkpt>
      <trkpt lat="39.94980867594226" lon="116.47799271136071">
        <ele>14.8</ele>
        <time>2023-07-28T11:37:33Z</time>
      </trkpt>
      <trkpt lat="39.949851474850455" lon="116.47792345071578">
        <ele>13.8</ele>
        <time>2023-07-28T11:37:36Z</time>
      </trkpt>
      <trkpt lat="39.9500240203288" lon="116.47776785590369">
        <ele>15.7</ele>
        <time>2023-07-28T11:37:45Z</time>
      </trkpt>
      <trkpt lat="39.950138533800086" lon="116.47760022440191">
        <ele>18.8</ele>
        <time>2023-07-28T11:37:54Z</time>
      </trkpt>
      <trkpt lat="39.950268932687344" lon="116.47774072541026">
        <ele>21.099999999999998</ele>
        <time>2023-07-28T11:38:03Z</time>
      </trkpt>
      <trkpt lat="39.950389783030005" lon="116.47803780509277">
        <ele>20.2</ele>
        <time>2023-07-28T11:38:15Z</time>
      </trkpt>
      <trkpt lat="39.95034700735797" lon="116.47811509547404">
        <ele>19.9</ele>
        <time>2023-07-28T11:38:21Z</time>
      </trkpt>
      <trkpt lat="39.950206475783226" lon="116.47827570561972">
        <ele>20.9</ele>
        <time>2023-07-28T11:38:30Z</time>
      </trkpt>
      <trkpt lat="39.950055173787966" lon="116.4785156103947">
        <ele>19.4</ele>
        <time>2023-07-28T11:38:42Z</time>
      </trkpt>
      <trkpt lat="39.95000664518791" lon="116.4786782173861">
        <ele>20.4</ele>
        <time>2023-07-28T11:38:48Z</time>
      </trkpt>
      <trkpt lat="39.95004444430433" lon="116.47895523731293">
        <ele>21.8</ele>
        <time>2023-07-28T11:38:57Z</time>
      </trkpt>
      <trkpt lat="39.95012912047046" lon="116.4791900963012">
        <ele>25.5</ele>
        <time>2023-07-28T11:39:06Z</time>
      </trkpt>
      <trkpt lat="39.950320223629866" lon="116.47957349361911">
        <ele>24.7</ele>
        <time>2023-07-28T11:39:21Z</time>
      </trkpt>
      <trkpt lat="39.95037442229865" lon="116.47964274376615">
        <ele>23.7</ele>
        <time>2023-07-28T11:39:24Z</time>
      </trkpt>
      <trkpt lat="39.95043555087566" lon="116.47968790371318">
        <ele>22.5</ele>
        <time>2023-07-28T11:39:27Z</time>
      </trkpt>
      <trkpt lat="39.9505885535574" lon="116.47969089573354">
        <ele>22.099999999999998</ele>
        <time>2023-07-28T11:39:33Z</time>
      </trkpt>
      <trkpt lat="39.95070515602702" lon="116.47955537841278">
        <ele>23.8</ele>
        <time>2023-07-28T11:39:42Z</time>
      </trkpt>
      <trkpt lat="39.950808070489366" lon="116.47952726129083">
        <ele>24.2</ele>
        <time>2023-07-28T11:39:48Z</time>
      </trkpt>
      <trkpt lat="39.95086508278151" lon="116.4795322727661">
        <ele>24.599999999999998</ele>
        <time>2023-07-28T11:39:51Z</time>
      </trkpt>
      <trkpt lat="39.95092718216299" lon="116.47956739529262">
        <ele>24.7</ele>
        <time>2023-07-28T11:39:54Z</time>
      </trkpt>
      <trkpt lat="39.95099037756082" lon="116.47963564058563">
        <ele>25.5</ele>
        <time>2023-07-28T11:39:57Z</time>
      </trkpt>
      <trkpt lat="39.95102885936921" lon="116.4798022541501">
        <ele>26.400000000000002</ele>
        <time>2023-07-28T11:40:03Z</time>
      </trkpt>
      <trkpt lat="39.95100175515431" lon="116.48011040215073">
        <ele>26.499999999999996</ele>
        <time>2023-07-28T11:40:18Z</time>
      </trkpt>
      <trkpt lat="39.951020156961874" lon="116.48024891476693">
        <ele>25.0</ele>
        <time>2023-07-28T11:40:24Z</time>
      </trkpt>
      <trkpt lat="39.951044357353226" lon="116.48031816929083">
        <ele>24.5</ele>
        <time>2023-07-28T11:40:27Z</time>
      </trkpt>
      <trkpt lat="39.95120397585169" lon="116.48053294849197">
        <ele>22.2</ele>
        <time>2023-07-28T11:40:36Z</time>
      </trkpt>
      <trkpt lat="39.951242286932654" lon="116.48064034350564">
        <ele>21.7</ele>
        <time>2023-07-28T11:40:39Z</time>
      </trkpt>
      <trkpt lat="39.95125885920841" lon="116.48083707416357">
        <ele>22.5</ele>
        <time>2023-07-28T11:40:45Z</time>
      </trkpt>
      <trkpt lat="39.95120873014711" lon="116.48113519165202">
        <ele>26.900000000000002</ele>
        <time>2023-07-28T11:40:57Z</time>
      </trkpt>
      <trkpt lat="39.95110757473299" lon="116.48142327911894">
        <ele>31.900000000000002</ele>
        <time>2023-07-28T11:41:12Z</time>
      </trkpt>
      <trkpt lat="39.9509402174835" lon="116.48164111335957">
        <ele>32.6</ele>
        <time>2023-07-28T11:41:24Z</time>
      </trkpt>
      <trkpt lat="39.95075461788283" lon="116.48177563907092">
        <ele>30.400000000000002</ele>
        <time>2023-07-28T11:41:33Z</time>
      </trkpt>
      <trkpt lat="39.950721751220655" lon="116.48182081197623">
        <ele>29.999999999999996</ele>
        <time>2023-07-28T11:41:36Z</time>
      </trkpt>
      <trkpt lat="39.95071014791445" lon="116.48195631994818">
        <ele>28.999999999999996</ele>
        <time>2023-07-28T11:41:42Z</time>
      </trkpt>
      <trkpt lat="39.9507968375954" lon="116.48219319506917">
        <ele>27.599999999999998</ele>
        <time>2023-07-28T11:41:51Z</time>
      </trkpt>
      <trkpt lat="39.95079904025762" lon="116.48226245394119">
        <ele>27.400000000000002</ele>
        <time>2023-07-28T11:41:54Z</time>
      </trkpt>
      <trkpt lat="39.95077043526546" lon="116.48239696093763">
        <ele>25.7</ele>
        <time>2023-07-28T11:42:00Z</time>
      </trkpt>
      <trkpt lat="39.950799951688474" lon="116.48257361874704">
        <ele>23.599999999999998</ele>
        <time>2023-07-28T11:42:06Z</time>
      </trkpt>
      <trkpt lat="39.95094207845216" lon="116.48261877016274">
        <ele>21.099999999999998</ele>
        <time>2023-07-28T11:42:15Z</time>
      </trkpt>
      <trkpt lat="39.95123883137626" lon="116.48253843229564">
        <ele>19.599999999999998</ele>
        <time>2023-07-28T11:42:30Z</time>
      </trkpt>
      <trkpt lat="39.95142374170897" lon="116.48251030392316">
        <ele>18.099999999999998</ele>
        <time>2023-07-28T11:42:39Z</time>
      </trkpt>
      <trkpt lat="39.9516374274362" lon="116.48240588634195">
        <ele>15.3</ele>
        <time>2023-07-28T11:42:51Z</time>
      </trkpt>
      <trkpt lat="39.95170409262943" lon="116.4822924534508">
        <ele>13.8</ele>
        <time>2023-07-28T11:42:57Z</time>
      </trkpt>
      <trkpt lat="39.951836784714665" lon="116.48218904999328">
        <ele>15.0</ele>
        <time>2023-07-28T11:43:06Z</time>
      </trkpt>
      <trkpt lat="39.95188161549056" lon="116.48213183034684">
        <ele>16.099999999999998</ele>
        <time>2023-07-28T11:43:09Z</time>
      </trkpt>
      <trkpt lat="39.952047344605184" lon="116.48204147173443">
        <ele>17.099999999999998</ele>
        <time>2023-07-28T11:43:18Z</time>
      </trkpt>
      <trkpt lat="39.9520891609026" lon="116.48197923379108">
        <ele>16.5</ele>
        <time>2023-07-28T11:43:21Z</time>
      </trkpt>
      <trkpt lat="39.95220907346888" lon="116.48160883466832">
        <ele>18.4</ele>
        <time>2023-07-28T11:43:36Z</time>
      </trkpt>
      <trkpt lat="39.95227668089532" lon="116.48147532770884">
        <ele>16.9</ele>
        <time>2023-07-28T11:43:42Z</time>
      </trkpt>
      <trkpt lat="39.95237543083188" lon="116.48139100061762">
        <ele>14.099999999999998</ele>
        <time>2023-07-28T11:43:48Z</time>
      </trkpt>
      <trkpt lat="39.952649115344585" lon="116.48128657681661">
        <ele>10.0</ele>
        <time>2023-07-28T11:44:00Z</time>
      </trkpt>
      <trkpt lat="39.9527819987987" lon="116.48124841788318">
        <ele>5.7</ele>
        <time>2023-07-28T11:44:06Z</time>
      </trkpt>
      <trkpt lat="39.95288469900877" lon="116.48114702687796">
        <ele>2.8</ele>
        <time>2023-07-28T11:44:12Z</time>
      </trkpt>
      <trkpt lat="39.953024602731055" lon="116.48111589332956">
        <ele>-0.5</ele>
        <time>2023-07-28T11:44:21Z</time>
      </trkpt>
      <trkpt lat="39.95307864450324" lon="116.48113094271609">
        <ele>-1.3999999999999995</ele>
        <time>2023-07-28T11:44:24Z</time>
      </trkpt>
      <trkpt lat="39.95317656159876" lon="116.48110382939868">
        <ele>-3.9</ele>
        <time>2023-07-28T11:44:30Z</time>
      </trkpt>
      <trkpt lat="39.95337879293742" lon="116.48084283132194">
        <ele>1.5</ele>
        <time>2023-07-28T11:44:42Z</time>
      </trkpt>
      <trkpt lat="39.95347749374234" lon="116.4807414413098">
        <ele>4.7</ele>
        <time>2023-07-28T11:44:48Z</time>
      </trkpt>
      <trkpt lat="39.95370914265195" lon="116.48062397498914">
        <ele>8.600000000000001</ele>
        <time>2023-07-28T11:45:00Z</time>
      </trkpt>
      <trkpt lat="39.953844769223075" lon="116.48049748723581">
        <ele>11.3</ele>
        <time>2023-07-28T11:45:09Z</time>
      </trkpt>
      <trkpt lat="39.95403850168698" lon="116.48040813057412">
        <ele>12.8</ele>
        <time>2023-07-28T11:45:18Z</time>
      </trkpt>
      <trkpt lat="39.954092274794256" lon="116.48033083633142">
        <ele>14.0</ele>
        <time>2023-07-28T11:45:21Z</time>
      </trkpt>
      <trkpt lat="39.95419503727851" lon="116.48025052483518">
        <ele>13.8</ele>
        <time>2023-07-28T11:45:27Z</time>
      </trkpt>
      <trkpt lat="39.95424183704969" lon="116.48018226520392">
        <ele>14.2</ele>
        <time>2023-07-28T11:45:30Z</time>
      </trkpt>
      <trkpt lat="39.954430409672995" lon="116.48003770439476">
        <ele>13.3</ele>
        <time>2023-07-28T11:45:42Z</time>
      </trkpt>
      <trkpt lat="39.954524079527964" lon="116.47992527503217">
        <ele>12.599999999999998</ele>
        <time>2023-07-28T11:45:48Z</time>
      </trkpt>
      <trkpt lat="39.954457065892576" lon="116.47957498311868">
        <ele>19.4</ele>
        <time>2023-07-28T11:46:00Z</time>
      </trkpt>
      <trkpt lat="39.95433948297469" lon="116.4793722459913">
        <ele>25.0</ele>
        <time>2023-07-28T11:46:09Z</time>
      </trkpt>
      <trkpt lat="39.954242132192924" lon="116.47924980436908">
        <ele>26.8</ele>
        <time>2023-07-28T11:46:15Z</time>
      </trkpt>
      <trkpt lat="39.95410847811225" lon="116.47902197727598">
        <ele>29.7</ele>
        <time>2023-07-28T11:46:27Z</time>
      </trkpt>
      <trkpt lat="39.953975036424715" lon="116.47886742194088">
        <ele>30.900000000000002</ele>
        <time>2023-07-28T11:46:36Z</time>
      </trkpt>
      <trkpt lat="39.95379197679202" lon="116.47849807929498">
        <ele>30.999999999999996</ele>
        <time>2023-07-28T11:46:51Z</time>
      </trkpt>
      <trkpt lat="39.953610184952275" lon="116.47822107920364">
        <ele>27.3</ele>
        <time>2023-07-28T11:47:03Z</time>
      </trkpt>
      <trkpt lat="39.95347165539899" lon="116.47803541158747">
        <ele>26.599999999999998</ele>
        <time>2023-07-28T11:47:12Z</time>
      </trkpt>
      <trkpt lat="39.95327206227642" lon="116.47782666709217">
        <ele>27.8</ele>
        <time>2023-07-28T11:47:24Z</time>
      </trkpt>
      <trkpt lat="39.95298443281265" lon="116.47760388258015">
        <ele>28.7</ele>
        <time>2023-07-28T11:47:42Z</time>
      </trkpt>
      <trkpt lat="39.95273491491787" lon="116.47742023803151">
        <ele>26.400000000000002</ele>
        <time>2023-07-28T11:47:54Z</time>
      </trkpt>
      <trkpt lat="39.95246020265173" lon="116.4771683463919">
        <ele>28.999999999999996</ele>
        <time>2023-07-28T11:48:09Z</time>
      </trkpt>
      <trkpt lat="39.95235490456786" lon="116.47706297249299">
        <ele>30.2</ele>
        <time>2023-07-28T11:48:15Z</time>
      </trkpt>
      <trkpt lat="39.95220992977458" lon="116.47672073477122">
        <ele>28.8</ele>
        <time>2023-07-28T11:48:30Z</time>
      </trkpt>
      <trkpt lat="39.95206392798092" lon="116.47636846237579">
        <ele>26.499999999999996</ele>
        <time>2023-07-28T11:48:45Z</time>
      </trkpt>
      <trkpt lat="39.951971412757835" lon="116.47618680921823">
        <ele>25.0</ele>
        <time>2023-07-28T11:48:54Z</time>
      </trkpt>
      <trkpt lat="39.95195201823351" lon="116.4760483051975">
        <ele>23.0</ele>
        <time>2023-07-28T11:49:00Z</time>
      </trkpt>
      <trkpt lat="39.9518845915511" lon="116.47589776353514">
        <ele>20.7</ele>
        <time>2023-07-28T11:49:09Z</time>
      </trkpt>
      <trkpt lat="39.95183190736861" lon="116.47565689077527">
        <ele>15.099999999999998</ele>
        <time>2023-07-28T11:49:21Z</time>
      </trkpt>
      <trkpt lat="39.95172006087659" lon="116.47535781434675">
        <ele>17.3</ele>
        <time>2023-07-28T11:49:36Z</time>
      </trkpt>
      <trkpt lat="39.95154419832334" lon="116.47505172199587">
        <ele>19.9</ele>
        <time>2023-07-28T11:49:48Z</time>
      </trkpt>
      <trkpt lat="39.95142364792586" lon="116.47485602552098">
        <ele>20.3</ele>
        <time>2023-07-28T11:49:57Z</time>
      </trkpt>
      <trkpt lat="39.951299609593704" lon="116.47448770374162">
        <ele>23.099999999999998</ele>
        <time>2023-07-28T11:50:12Z</time>
      </trkpt>
      <trkpt lat="39.95120703428332" lon="116.47428297308495">
        <ele>23.4</ele>
        <time>2023-07-28T11:50:21Z</time>
      </trkpt>
      <trkpt lat="39.951084126636275" lon="116.47395981850727">
        <ele>27.599999999999998</ele>
        <time>2023-07-28T11:50:33Z</time>
      </trkpt>
      <trkpt lat="39.951021713084046" lon="116.47381229287839">
        <ele>28.999999999999996</ele>
        <time>2023-07-28T11:50:39Z</time>
      </trkpt>
      <trkpt lat="39.95088319267608" lon="116.47362563587937">
        <ele>27.900000000000002</ele>
        <time>2023-07-28T11:50:48Z</time>
      </trkpt>
      <trkpt lat="39.95082909874716" lon="116.4735915194681">
        <ele>28.499999999999996</ele>
        <time>2023-07-28T11:50:51Z</time>
      </trkpt>
      <trkpt lat="39.950807938571806" lon="116.47353431563356">
        <ele>28.2</ele>
        <time>2023-07-28T11:50:54Z</time>
      </trkpt>
      <trkpt lat="39.95058320806352" lon="116.47327139554517">
        <ele>30.3</ele>
        <time>2023-07-28T11:51:09Z</time>
      </trkpt>
      <trkpt lat="39.95048084284563" lon="116.47313993476529">
        <ele>33.1</ele>
        <time>2023-07-28T11:51:15Z</time>
      </trkpt>
      <trkpt lat="39.950443638668446" lon="116.47306667565579">
        <ele>32.5</ele>
        <time>2023-07-28T11:51:18Z</time>
      </trkpt>
      <trkpt lat="39.95038952534688" lon="116.47302553434615">
        <ele>31.7</ele>
        <time>2023-07-28T11:51:21Z</time>
      </trkpt>
      <trkpt lat="39.95033248818322" lon="116.4730114909425">
        <ele>32.6</ele>
        <time>2023-07-28T11:51:24Z</time>
      </trkpt>
      <trkpt lat="39.950062783307516" lon="116.47311288966871">
        <ele>36.5</ele>
        <time>2023-07-28T11:51:36Z</time>
      </trkpt>
      <trkpt lat="39.94993594329967" lon="116.47316810436855">
        <ele>34.400000000000006</ele>
        <time>2023-07-28T11:51:42Z</time>
      </trkpt>
      <trkpt lat="39.949720957440306" lon="116.47317013858373">
        <ele>32.1</ele>
        <time>2023-07-28T11:51:51Z</time>
      </trkpt>
      <trkpt lat="39.949454221701494" lon="116.4732604974714">
        <ele>31.3</ele>
        <time>2023-07-28T11:52:03Z</time>
      </trkpt>
      <trkpt lat="39.949306416509955" lon="116.47332775837594">
        <ele>35.0</ele>
        <time>2023-07-28T11:52:12Z</time>
      </trkpt>
      <trkpt lat="39.94903462476636" lon="116.47339804578849">
        <ele>30.900000000000002</ele>
        <time>2023-07-28T11:52:27Z</time>
      </trkpt>
      <trkpt lat="39.94893308334893" lon="116.47355964149239">
        <ele>27.099999999999998</ele>
        <time>2023-07-28T11:52:36Z</time>
      </trkpt>
      <trkpt lat="39.94892936605061" lon="116.47366000430507">
        <ele>26.400000000000002</ele>
        <time>2023-07-28T11:52:39Z</time>
      </trkpt>
      <trkpt lat="39.94899394324678" lon="116.47386573962783">
        <ele>25.9</ele>
        <time>2023-07-28T11:52:48Z</time>
      </trkpt>
      <trkpt lat="39.9490145795331" lon="116.47409155394006">
        <ele>25.2</ele>
        <time>2023-07-28T11:52:57Z</time>
      </trkpt>
      <trkpt lat="39.94909606672672" lon="116.47426517248886">
        <ele>25.099999999999998</ele>
        <time>2023-07-28T11:53:03Z</time>
      </trkpt>
      <trkpt lat="39.94911946302252" lon="116.4744056788071">
        <ele>23.599999999999998</ele>
        <time>2023-07-28T11:53:09Z</time>
      </trkpt>
      <trkpt lat="39.94921691635666" lon="116.47456725268376">
        <ele>23.0</ele>
        <time>2023-07-28T11:53:15Z</time>
      </trkpt>
      <trkpt lat="39.94923630494982" lon="116.47470474936978">
        <ele>20.599999999999998</ele>
        <time>2023-07-28T11:53:21Z</time>
      </trkpt>
      <trkpt lat="39.94936487449232" lon="116.47490746980895">
        <ele>17.9</ele>
        <time>2023-07-28T11:53:30Z</time>
      </trkpt>
      <trkpt lat="39.94948175580648" lon="116.47521959064434">
        <ele>17.099999999999998</ele>
        <time>2023-07-28T11:53:39Z</time>
      </trkpt>
      <trkpt lat="39.949584799094" lon="116.47558791994064">
        <ele>19.599999999999998</ele>
        <time>2023-07-28T11:53:51Z</time>
      </trkpt>
      <trkpt lat="39.949607089665555" lon="116.47569029061553">
        <ele>20.4</ele>
        <time>2023-07-28T11:53:54Z</time>
      </trkpt>
      <trkpt lat="39.94962485834176" lon="116.47596027420393">
        <ele>22.9</ele>
        <time>2023-07-28T11:54:03Z</time>
      </trkpt>
      <trkpt lat="39.949546970195094" lon="116.47599842333163">
        <ele>23.5</ele>
        <time>2023-07-28T11:54:09Z</time>
      </trkpt>
      <trkpt lat="39.9494879868425" lon="116.47600344906569">
        <ele>24.599999999999998</ele>
        <time>2023-07-28T11:54:12Z</time>
      </trkpt>
      <trkpt lat="39.94943688009021" lon="116.47596531610783">
        <ele>25.9</ele>
        <time>2023-07-28T11:54:15Z</time>
      </trkpt>
      <trkpt lat="39.949383847843194" lon="116.47595327875199">
        <ele>26.900000000000002</ele>
        <time>2023-07-28T11:54:18Z</time>
      </trkpt>
      <trkpt lat="39.9492489390491" lon="116.47598340568301">
        <ele>27.099999999999998</ele>
        <time>2023-07-28T11:54:24Z</time>
      </trkpt>
      <trkpt lat="39.94894371359374" lon="116.47590013961063">
        <ele>29.7</ele>
        <time>2023-07-28T11:54:36Z</time>
      </trkpt>
      <trkpt lat="39.948882707424566" lon="116.47589713626145">
        <ele>29.999999999999996</ele>
        <time>2023-07-28T11:54:39Z</time>
      </trkpt>
      <trkpt lat="39.948614208991835" lon="116.47571851766399">
        <ele>34.800000000000004</ele>
        <time>2023-07-28T11:54:54Z</time>
      </trkpt>
      <trkpt lat="39.94848307698865" lon="116.47567035831132">
        <ele>33.1</ele>
        <time>2023-07-28T11:55:00Z</time>
      </trkpt>
      <trkpt lat="39.94842395931235" lon="116.47562821193719">
        <ele>30.499999999999996</ele>
        <time>2023-07-28T11:55:03Z</time>
      </trkpt>
      <trkpt lat="39.94814179050831" lon="116.47556501669742">
        <ele>30.7</ele>
        <time>2023-07-28T11:55:15Z</time>
      </trkpt>
      <trkpt lat="39.94806682204025" lon="116.47557506269936">
        <ele>30.8</ele>
        <time>2023-07-28T11:55:18Z</time>
      </trkpt>
      <trkpt lat="39.947804335643326" lon="116.4754004590011">
        <ele>39.5</ele>
        <time>2023-07-28T11:55:33Z</time>
      </trkpt>
      <trkpt lat="39.94752401865777" lon="116.47528507370346">
        <ele>37.800000000000004</ele>
        <time>2023-07-28T11:55:48Z</time>
      </trkpt>
      <trkpt lat="39.94730474506416" lon="116.47518573944231">
        <ele>35.2</ele>
        <time>2023-07-28T11:56:00Z</time>
      </trkpt>
      <trkpt lat="39.94718951593547" lon="116.4751034543901">
        <ele>33.400000000000006</ele>
        <time>2023-07-28T11:56:06Z</time>
      </trkpt>
      <trkpt lat="39.94690931907978" lon="116.47503022300334">
        <ele>26.900000000000002</ele>
        <time>2023-07-28T11:56:18Z</time>
      </trkpt>
      <trkpt lat="39.946764319129315" lon="116.47502823388724">
        <ele>24.4</ele>
        <time>2023-07-28T11:56:24Z</time>
      </trkpt>
      <trkpt lat="39.94663619320901" lon="116.47498208206041">
        <ele>23.8</ele>
        <time>2023-07-28T11:56:30Z</time>
      </trkpt>
      <trkpt lat="39.946545057315696" lon="116.47493291468824">
        <ele>25.8</ele>
        <time>2023-07-28T11:56:36Z</time>
      </trkpt>
      <trkpt lat="39.94648104277322" lon="116.47492690082555">
        <ele>26.499999999999996</ele>
        <time>2023-07-28T11:56:39Z</time>
      </trkpt>
      <trkpt lat="39.94638953711264" lon="116.47474725952722">
        <ele>26.0</ele>
        <time>2023-07-28T11:56:48Z</time>
      </trkpt>
      <trkpt lat="39.9463467772377" lon="116.474478288672">
        <ele>26.2</ele>
        <time>2023-07-28T11:56:57Z</time>
      </trkpt>
      <trkpt lat="39.946358561009724" lon="116.4744020106024">
        <ele>26.0</ele>
        <time>2023-07-28T11:57:00Z</time>
      </trkpt>
      <trkpt lat="39.94627406505605" lon="116.474225381097">
        <ele>24.7</ele>
        <time>2023-07-28T11:57:09Z</time>
      </trkpt>
      <trkpt lat="39.9462322592395" lon="116.47393935107176">
        <ele>27.2</ele>
        <time>2023-07-28T11:57:18Z</time>
      </trkpt>
      <trkpt lat="39.94617609446942" lon="116.47388014399642">
        <ele>28.599999999999998</ele>
        <time>2023-07-28T11:57:21Z</time>
      </trkpt>
      <trkpt lat="39.94609505806414" lon="116.47386610336518">
        <ele>28.400000000000002</ele>
        <time>2023-07-28T11:57:27Z</time>
      </trkpt>
      <trkpt lat="39.945804222425856" lon="116.47392033581285">
        <ele>29.499999999999996</ele>
        <time>2023-07-28T11:57:39Z</time>
      </trkpt>
      <trkpt lat="39.94552629572601" lon="116.4739424505326">
        <ele>32.400000000000006</ele>
        <time>2023-07-28T11:57:51Z</time>
      </trkpt>
      <trkpt lat="39.94522845477416" lon="116.47399467667381">
        <ele>38.2</ele>
        <time>2023-07-28T11:58:03Z</time>
      </trkpt>
      <trkpt lat="39.94494461614622" lon="116.47404790474063">
        <ele>37.6</ele>
        <time>2023-07-28T11:58:15Z</time>
      </trkpt>
      <trkpt lat="39.944822952509675" lon="116.47416534505494">
        <ele>36.300000000000004</ele>
        <time>2023-07-28T11:58:21Z</time>
      </trkpt>
      <trkpt lat="39.944808154392554" lon="116.47423660497702">
        <ele>33.7</ele>
        <time>2023-07-28T11:58:24Z</time>
      </trkpt>
      <trkpt lat="39.944818446148155" lon="116.47433997823484">
        <ele>30.599999999999998</ele>
        <time>2023-07-28T11:58:27Z</time>
      </trkpt>
      <trkpt lat="39.94477156716353" lon="116.47473541871167">
        <ele>23.5</ele>
        <time>2023-07-28T11:58:39Z</time>
      </trkpt>
      <trkpt lat="39.9447313000821" lon="116.47499336109159">
        <ele>20.3</ele>
        <time>2023-07-28T11:58:48Z</time>
      </trkpt>
      <trkpt lat="39.94467679511106" lon="116.47516699957703">
        <ele>19.8</ele>
        <time>2023-07-28T11:58:54Z</time>
      </trkpt>
      <trkpt lat="39.94463351843389" lon="116.47542092972716">
        <ele>26.599999999999998</ele>
        <time>2023-07-28T11:59:03Z</time>
      </trkpt>
      <trkpt lat="39.94454135327762" lon="116.47571300631776">
        <ele>29.499999999999996</ele>
        <time>2023-07-28T11:59:15Z</time>
      </trkpt>
      <trkpt lat="39.94447462469011" lon="116.47580735903573">
        <ele>29.8</ele>
        <time>2023-07-28T11:59:21Z</time>
      </trkpt>
      <trkpt lat="39.944382180592896" lon="116.47600107813132">
        <ele>31.7</ele>
        <time>2023-07-28T11:59:27Z</time>
      </trkpt>
      <trkpt lat="39.94427152575519" lon="116.47612052855891">
        <ele>32.800000000000004</ele>
        <time>2023-07-28T11:59:33Z</time>
      </trkpt>
      <trkpt lat="39.944188594935206" lon="116.47614362335823">
        <ele>30.900000000000002</ele>
        <time>2023-07-28T11:59:36Z</time>
      </trkpt>
      <trkpt lat="39.94403491338893" lon="116.47625304274854">
        <ele>29.7</ele>
        <time>2023-07-28T11:59:42Z</time>
      </trkpt>
      <trkpt lat="39.943933313123544" lon="116.4763915623575">
        <ele>30.499999999999996</ele>
        <time>2023-07-28T11:59:48Z</time>
      </trkpt>
      <trkpt lat="39.94386846200565" lon="116.47644275789018">
        <ele>31.599999999999998</ele>
        <time>2023-07-28T11:59:51Z</time>
      </trkpt>
      <trkpt lat="39.94370461198866" lon="116.47649296219697">
        <ele>32.900000000000006</ele>
        <time>2023-07-28T11:59:57Z</time>
      </trkpt>
      <trkpt lat="39.94359915145558" lon="116.47633038014321">
        <ele>32.300000000000004</ele>
        <time>2023-07-28T12:00:03Z</time>
      </trkpt>
      <trkpt lat="39.94356668553528" lon="116.4761667857195">
        <ele>30.900000000000002</ele>
        <time>2023-07-28T12:00:09Z</time>
      </trkpt>
      <trkpt lat="39.94345818008347" lon="116.47598814627392">
        <ele>24.7</ele>
        <time>2023-07-28T12:00:15Z</time>
      </trkpt>
      <trkpt lat="39.943133918236256" lon="116.47589183494347">
        <ele>20.5</ele>
        <time>2023-07-28T12:00:27Z</time>
      </trkpt>
      <trkpt lat="39.94298382407326" lon="116.47585672547356">
        <ele>21.3</ele>
        <time>2023-07-28T12:00:33Z</time>
      </trkpt>
      <trkpt lat="39.94273483397454" lon="116.4758567566835">
        <ele>22.4</ele>
        <time>2023-07-28T12:00:42Z</time>
      </trkpt>
      <trkpt lat="39.942566929338874" lon="116.47588789135027">
        <ele>22.099999999999998</ele>
        <time>2023-07-28T12:00:48Z</time>
      </trkpt>
      <trkpt lat="39.94229391731232" lon="116.47587989624719">
        <ele>21.099999999999998</ele>
        <time>2023-07-28T12:00:57Z</time>
      </trkpt>
      <trkpt lat="39.942013862659444" lon="116.47585684705251">
        <ele>21.599999999999998</ele>
        <time>2023-07-28T12:01:09Z</time>
      </trkpt>
      <trkpt lat="39.941726269012996" lon="116.47599538901835">
        <ele>21.4</ele>
        <time>2023-07-28T12:01:21Z</time>
      </trkpt>
      <trkpt lat="39.941566415665406" lon="116.47604458877032">
        <ele>21.099999999999998</ele>
        <time>2023-07-28T12:01:30Z</time>
      </trkpt>
      <trkpt lat="39.94138880942602" lon="116.47618010638237">
        <ele>19.2</ele>
        <time>2023-07-28T12:01:39Z</time>
      </trkpt>
      <trkpt lat="39.941303933163695" lon="116.47622227119278">
        <ele>19.2</ele>
        <time>2023-07-28T12:01:42Z</time>
      </trkpt>
      <trkpt lat="39.94101701911441" lon="116.47624840260382">
        <ele>19.4</ele>
        <time>2023-07-28T12:01:54Z</time>
      </trkpt>
      <trkpt lat="39.94082706681462" lon="116.47626247781153">
        <ele>21.5</ele>
        <time>2023-07-28T12:02:03Z</time>
      </trkpt>
      <trkpt lat="39.94075499229672" lon="116.4762353877106">
        <ele>22.4</ele>
        <time>2023-07-28T12:02:06Z</time>
      </trkpt>
      <trkpt lat="39.94057338938053" lon="116.47602162886177">
        <ele>20.9</ele>
        <time>2023-07-28T12:02:18Z</time>
      </trkpt>
      <trkpt lat="39.94046426777257" lon="116.4759774811769">
        <ele>20.7</ele>
        <time>2023-07-28T12:02:24Z</time>
      </trkpt>
      <trkpt lat="39.94024429372003" lon="116.47598353074703">
        <ele>21.7</ele>
        <time>2023-07-28T12:02:33Z</time>
      </trkpt>
      <trkpt lat="39.94000697410067" lon="116.4758681389014">
        <ele>24.4</ele>
        <time>2023-07-28T12:02:45Z</time>
      </trkpt>
      <trkpt lat="39.93995381890125" lon="116.47581294401643">
        <ele>24.099999999999998</ele>
        <time>2023-07-28T12:02:48Z</time>
      </trkpt>
      <trkpt lat="39.93989438673014" lon="116.47566039474032">
        <ele>23.599999999999998</ele>
        <time>2023-07-28T12:02:54Z</time>
      </trkpt>
      <trkpt lat="39.939853477520515" lon="116.47534023281501">
        <ele>24.599999999999998</ele>
        <time>2023-07-28T12:03:06Z</time>
      </trkpt>
      <trkpt lat="39.93975987963445" lon="116.47512847361882">
        <ele>24.5</ele>
        <time>2023-07-28T12:03:15Z</time>
      </trkpt>
      <trkpt lat="39.9396697607097" lon="116.47508532790758">
        <ele>24.5</ele>
        <time>2023-07-28T12:03:21Z</time>
      </trkpt>
      <trkpt lat="39.93948982772533" lon="116.4751064271399">
        <ele>23.5</ele>
        <time>2023-07-28T12:03:30Z</time>
      </trkpt>
      <trkpt lat="39.939436895377504" lon="116.47512951776183">
        <ele>23.4</ele>
        <time>2023-07-28T12:03:33Z</time>
      </trkpt>
      <trkpt lat="39.93936982966735" lon="116.47510543853227">
        <ele>22.8</ele>
        <time>2023-07-28T12:03:36Z</time>
      </trkpt>
      <trkpt lat="39.93917394007606" lon="116.47514159454948">
        <ele>24.7</ele>
        <time>2023-07-28T12:03:45Z</time>
      </trkpt>
      <trkpt lat="39.939071195028376" lon="116.47522992887426">
        <ele>25.9</ele>
        <time>2023-07-28T12:03:51Z</time>
      </trkpt>
      <trkpt lat="39.93902470749797" lon="116.47540958898182">
        <ele>26.8</ele>
        <time>2023-07-28T12:03:57Z</time>
      </trkpt>
      <trkpt lat="39.93906847114726" lon="116.47567856416457">
        <ele>24.0</ele>
        <time>2023-07-28T12:04:09Z</time>
      </trkpt>
      <trkpt lat="39.93906473715216" lon="116.47577190523744">
        <ele>24.4</ele>
        <time>2023-07-28T12:04:12Z</time>
      </trkpt>
      <trkpt lat="39.939121879791514" lon="116.47617336477069">
        <ele>25.099999999999998</ele>
        <time>2023-07-28T12:04:30Z</time>
      </trkpt>
      <trkpt lat="39.939091245016975" lon="116.47630083486384">
        <ele>23.7</ele>
        <time>2023-07-28T12:04:36Z</time>
      </trkpt>
      <trkpt lat="39.9390842726271" lon="116.47666015153618">
        <ele>22.599999999999998</ele>
        <time>2023-07-28T12:04:48Z</time>
      </trkpt>
      <trkpt lat="39.93909653356524" lon="116.47675148480613">
        <ele>22.2</ele>
        <time>2023-07-28T12:04:51Z</time>
      </trkpt>
      <trkpt lat="39.93908679549885" lon="116.4768428209697">
        <ele>21.599999999999998</ele>
        <time>2023-07-28T12:04:54Z</time>
      </trkpt>
      <trkpt lat="39.939098948907926" lon="116.47724529702683">
        <ele>23.4</ele>
        <time>2023-07-28T12:05:09Z</time>
      </trkpt>
      <trkpt lat="39.93910853062585" lon="116.47744804112885">
        <ele>23.8</ele>
        <time>2023-07-28T12:05:18Z</time>
      </trkpt>
      <trkpt lat="39.93909490608185" lon="116.47757852282865">
        <ele>21.099999999999998</ele>
        <time>2023-07-28T12:05:24Z</time>
      </trkpt>
      <trkpt lat="39.939111996809864" lon="116.4779579178672">
        <ele>15.0</ele>
        <time>2023-07-28T12:05:39Z</time>
      </trkpt>
      <trkpt lat="39.93910441049247" lon="116.47810144795513">
        <ele>13.7</ele>
        <time>2023-07-28T12:05:45Z</time>
      </trkpt>
      <trkpt lat="39.9391244457481" lon="116.47846077150074">
        <ele>6.3</ele>
        <time>2023-07-28T12:05:57Z</time>
      </trkpt>
      <trkpt lat="39.93912661656558" lon="116.47851998995262">
        <ele>4.8</ele>
        <time>2023-07-28T12:06:00Z</time>
      </trkpt>
      <trkpt lat="39.939098771239784" lon="116.47857318996286">
        <ele>4.500000000000001</ele>
        <time>2023-07-28T12:06:03Z</time>
      </trkpt>
      <trkpt lat="39.93905684246405" lon="116.47859728421739">
        <ele>4.2</ele>
        <time>2023-07-28T12:06:06Z</time>
      </trkpt>
      <trkpt lat="39.9390097371277" lon="116.47856015290054">
        <ele>3.3</ele>
        <time>2023-07-28T12:06:09Z</time>
      </trkpt>
      <trkpt lat="39.93869652657051" lon="116.47848290662259">
        <ele>6.2</ele>
        <time>2023-07-28T12:06:27Z</time>
      </trkpt>
      <trkpt lat="39.93841522216531" lon="116.47837353785955">
        <ele>10.2</ele>
        <time>2023-07-28T12:06:42Z</time>
      </trkpt>
      <trkpt lat="39.93822909933844" lon="116.47832839443235">
        <ele>13.099999999999998</ele>
        <time>2023-07-28T12:06:48Z</time>
      </trkpt>
      <trkpt lat="39.93805472144375" lon="116.47819492366853">
        <ele>16.2</ele>
        <time>2023-07-28T12:06:57Z</time>
      </trkpt>
      <trkpt lat="39.93779888461861" lon="116.47790087146095">
        <ele>20.0</ele>
        <time>2023-07-28T12:07:12Z</time>
      </trkpt>
      <trkpt lat="39.93771659907003" lon="116.47780051201946">
        <ele>21.599999999999998</ele>
        <time>2023-07-28T12:07:18Z</time>
      </trkpt>
      <trkpt lat="39.93751924610483" lon="116.47767507477029">
        <ele>21.7</ele>
        <time>2023-07-28T12:07:27Z</time>
      </trkpt>
      <trkpt lat="39.93727014064806" lon="116.4776349581882">
        <ele>21.3</ele>
        <time>2023-07-28T12:07:39Z</time>
      </trkpt>
      <trkpt lat="39.937151868433666" lon="116.47753861844092">
        <ele>22.099999999999998</ele>
        <time>2023-07-28T12:07:45Z</time>
      </trkpt>
      <trkpt lat="39.937096827376294" lon="116.4775235699471">
        <ele>22.2</ele>
        <time>2023-07-28T12:07:48Z</time>
      </trkpt>
      <trkpt lat="39.936803752605556" lon="116.47749349588611">
        <ele>20.7</ele>
        <time>2023-07-28T12:08:03Z</time>
      </trkpt>
      <trkpt lat="39.93655956633748" lon="116.47742527545853">
        <ele>21.3</ele>
        <time>2023-07-28T12:08:18Z</time>
      </trkpt>
      <trkpt lat="39.93651647294221" lon="116.47739215906984">
        <ele>21.2</ele>
        <time>2023-07-28T12:08:21Z</time>
      </trkpt>
      <trkpt lat="39.93631944914036" lon="116.47738114315213">
        <ele>21.0</ele>
        <time>2023-07-28T12:08:30Z</time>
      </trkpt>
      <trkpt lat="39.93613456897261" lon="116.47742031022696">
        <ele>20.099999999999998</ele>
        <time>2023-07-28T12:08:39Z</time>
      </trkpt>
      <trkpt lat="39.93583843674162" lon="116.47737016280007">
        <ele>18.3</ele>
        <time>2023-07-28T12:08:54Z</time>
      </trkpt>
      <trkpt lat="39.93573537747877" lon="116.47734809453412">
        <ele>22.0</ele>
        <time>2023-07-28T12:08:57Z</time>
      </trkpt>
      <trkpt lat="39.93567128208249" lon="116.4773139771286">
        <ele>23.5</ele>
        <time>2023-07-28T12:09:00Z</time>
      </trkpt>
    </trkseg>
  </trk>
</gpx>