<?xml version="1.0" encoding="UTF-8"?>
<gpx xmlns="http://www.topografix.com/GPX/1/1" xmlns:gpxtpx="http://www.garmin.com/xmlschemas/TrackPointExtension/v1" xmlns:xsi="http://www.w3.org/2001/XMLSchema-instance" xsi:schemaLocation="http://www.topografix.com/GPX/1/1 http://www.topografix.com/GPX/1/1/gpx.xsd" version="1.1" creator="gpx.py -- https://github.com/tkrajina/gpxpy">
  <trk>
    <name>gpx from keep</name>
    <type>Run</type>
    <trkseg>
      <trkpt lat="39.92195718466437" lon="116.49104619694404">
        <ele>36.300000000000004</ele>
        <time>2023-05-12T00:53:22Z</time>
      </trkpt>
      <trkpt lat="39.92195696926519" lon="116.49097392273725">
        <ele>36.2</ele>
        <time>2023-05-12T00:53:25Z</time>
      </trkpt>
      <trkpt lat="39.92201506348613" lon="116.49067076534399">
        <ele>34.900000000000006</ele>
        <time>2023-05-12T00:53:31Z</time>
      </trkpt>
      <trkpt lat="39.922014977983125" lon="116.49030638310396">
        <ele>34.6</ele>
        <time>2023-05-12T00:53:40Z</time>
      </trkpt>
      <trkpt lat="39.922027633647794" lon="116.49019094368622">
        <ele>32.800000000000004</ele>
        <time>2023-05-12T00:53:43Z</time>
      </trkpt>
      <trkpt lat="39.92200433866971" lon="116.49009156968604">
        <ele>30.8</ele>
        <time>2023-05-12T00:53:46Z</time>
      </trkpt>
      <trkpt lat="39.9219409587092" lon="116.48996309030784">
        <ele>28.8</ele>
        <time>2023-05-12T00:53:52Z</time>
      </trkpt>
      <trkpt lat="39.921964840170524" lon="116.48958766385871">
        <ele>33.0</ele>
        <time>2023-05-12T00:54:04Z</time>
      </trkpt>
      <trkpt lat="39.92196074420443" lon="116.48921926795175">
        <ele>33.1</ele>
        <time>2023-05-12T00:54:13Z</time>
      </trkpt>
      <trkpt lat="39.921925644087224" lon="116.48884886876678">
        <ele>37.2</ele>
        <time>2023-05-12T00:54:22Z</time>
      </trkpt>
      <trkpt lat="39.92192965330057" lon="116.48851560589551">
        <ele>34.7</ele>
        <time>2023-05-12T00:54:31Z</time>
      </trkpt>
      <trkpt lat="39.92198204566396" lon="116.48831182772362">
        <ele>32.300000000000004</ele>
        <time>2023-05-12T00:54:37Z</time>
      </trkpt>
      <trkpt lat="39.92205245536252" lon="116.48811407028802">
        <ele>30.999999999999996</ele>
        <time>2023-05-12T00:54:43Z</time>
      </trkpt>
      <trkpt lat="39.9220602374275" lon="116.48804079193992">
        <ele>30.599999999999998</ele>
        <time>2023-05-12T00:54:46Z</time>
      </trkpt>
      <trkpt lat="39.922049053089616" lon="116.48797855777131">
        <ele>31.099999999999998</ele>
        <time>2023-05-12T00:54:49Z</time>
      </trkpt>
      <trkpt lat="39.92205883810067" lon="116.48790628301944">
        <ele>31.499999999999996</ele>
        <time>2023-05-12T00:54:52Z</time>
      </trkpt>
      <trkpt lat="39.92229752426968" lon="116.48780386581818">
        <ele>38.300000000000004</ele>
        <time>2023-05-12T00:55:04Z</time>
      </trkpt>
      <trkpt lat="39.9223654916608" lon="116.48779381936569">
        <ele>40.5</ele>
        <time>2023-05-12T00:55:07Z</time>
      </trkpt>
      <trkpt lat="39.922409397479605" lon="116.48776269614835">
        <ele>42.6</ele>
        <time>2023-05-12T00:55:10Z</time>
      </trkpt>
      <trkpt lat="39.922454389659286" lon="116.48776068294583">
        <ele>43.1</ele>
        <time>2023-05-12T00:55:13Z</time>
      </trkpt>
      <trkpt lat="39.922644754251614" lon="116.48788613404056">
        <ele>38.6</ele>
        <time>2023-05-12T00:55:22Z</time>
      </trkpt>
      <trkpt lat="39.922699975486005" lon="116.48796141208607">
        <ele>37.1</ele>
        <time>2023-05-12T00:55:25Z</time>
      </trkpt>
      <trkpt lat="39.92272025482934" lon="116.48805576670476">
        <ele>36.400000000000006</ele>
        <time>2023-05-12T00:55:28Z</time>
      </trkpt>
      <trkpt lat="39.92271051756912" lon="116.48814410230446">
        <ele>36.0</ele>
        <time>2023-05-12T00:55:31Z</time>
      </trkpt>
      <trkpt lat="39.92268571835367" lon="116.4882113600077">
        <ele>35.400000000000006</ele>
        <time>2023-05-12T00:55:34Z</time>
      </trkpt>
      <trkpt lat="39.92266523211341" lon="116.48838401628748">
        <ele>35.6</ele>
        <time>2023-05-12T00:55:43Z</time>
      </trkpt>
      <trkpt lat="39.92268513816756" lon="116.48868916954578">
        <ele>30.999999999999996</ele>
        <time>2023-05-12T00:55:52Z</time>
      </trkpt>
      <trkpt lat="39.922727470633696" lon="116.48880159016716">
        <ele>27.8</ele>
        <time>2023-05-12T00:55:55Z</time>
      </trkpt>
      <trkpt lat="39.922785736830924" lon="116.48889192518243">
        <ele>26.8</ele>
        <time>2023-05-12T00:55:58Z</time>
      </trkpt>
      <trkpt lat="39.922846871604804" lon="116.4889380925198">
        <ele>27.2</ele>
        <time>2023-05-12T00:56:01Z</time>
      </trkpt>
      <trkpt lat="39.9229487868027" lon="116.4889109771373">
        <ele>29.2</ele>
        <time>2023-05-12T00:56:07Z</time>
      </trkpt>
      <trkpt lat="39.92307483532231" lon="116.48892902989859">
        <ele>28.3</ele>
        <time>2023-05-12T00:56:13Z</time>
      </trkpt>
      <trkpt lat="39.92324173888635" lon="116.48889889501278">
        <ele>26.900000000000002</ele>
        <time>2023-05-12T00:56:19Z</time>
      </trkpt>
      <trkpt lat="39.92331880137025" lon="116.48892096908752">
        <ele>25.4</ele>
        <time>2023-05-12T00:56:22Z</time>
      </trkpt>
      <trkpt lat="39.923589834959806" lon="116.48893599238237">
        <ele>27.900000000000002</ele>
        <time>2023-05-12T00:56:34Z</time>
      </trkpt>
      <trkpt lat="39.92384086042822" lon="116.48894800675963">
        <ele>28.3</ele>
        <time>2023-05-12T00:56:46Z</time>
      </trkpt>
      <trkpt lat="39.923980783024554" lon="116.48892389805056">
        <ele>28.900000000000002</ele>
        <time>2023-05-12T00:56:52Z</time>
      </trkpt>
      <trkpt lat="39.92430969187378" lon="116.48889775819832">
        <ele>28.900000000000002</ele>
        <time>2023-05-12T00:57:04Z</time>
      </trkpt>
      <trkpt lat="39.924579800150035" lon="116.48893787669168">
        <ele>28.2</ele>
        <time>2023-05-12T00:57:16Z</time>
      </trkpt>
      <trkpt lat="39.924644845233125" lon="116.48895392944632">
        <ele>27.499999999999996</ele>
        <time>2023-05-12T00:57:19Z</time>
      </trkpt>
      <trkpt lat="39.92492472925383" lon="116.48891876146483">
        <ele>28.7</ele>
        <time>2023-05-12T00:57:31Z</time>
      </trkpt>
      <trkpt lat="39.92528056539912" lon="116.48886852697703">
        <ele>36.6</ele>
        <time>2023-05-12T00:57:43Z</time>
      </trkpt>
      <trkpt lat="39.92553755484897" lon="116.48886849496687">
        <ele>38.0</ele>
        <time>2023-05-12T00:57:52Z</time>
      </trkpt>
      <trkpt lat="39.92582232231778" lon="116.48879417806461">
        <ele>37.800000000000004</ele>
        <time>2023-05-12T00:58:04Z</time>
      </trkpt>
      <trkpt lat="39.92614014217604" lon="116.48873792551319">
        <ele>32.400000000000006</ele>
        <time>2023-05-12T00:58:19Z</time>
      </trkpt>
      <trkpt lat="39.92620712749522" lon="116.48873390195776">
        <ele>30.7</ele>
        <time>2023-05-12T00:58:22Z</time>
      </trkpt>
      <trkpt lat="39.92625501811127" lon="116.48869775909478">
        <ele>28.8</ele>
        <time>2023-05-12T00:58:25Z</time>
      </trkpt>
      <trkpt lat="39.92631231766205" lon="116.48846286225341">
        <ele>24.0</ele>
        <time>2023-05-12T00:58:34Z</time>
      </trkpt>
      <trkpt lat="39.92631881038482" lon="116.48829221522475">
        <ele>24.5</ele>
        <time>2023-05-12T00:58:40Z</time>
      </trkpt>
      <trkpt lat="39.926344600598625" lon="116.488221945958">
        <ele>25.5</ele>
        <time>2023-05-12T00:58:43Z</time>
      </trkpt>
      <trkpt lat="39.92653444076534" lon="116.48817072847866">
        <ele>24.4</ele>
        <time>2023-05-12T00:58:52Z</time>
      </trkpt>
      <trkpt lat="39.926805483339876" lon="116.4881887631139">
        <ele>22.7</ele>
        <time>2023-05-12T00:59:04Z</time>
      </trkpt>
      <trkpt lat="39.92695236403729" lon="116.48815060039688">
        <ele>22.3</ele>
        <time>2023-05-12T00:59:10Z</time>
      </trkpt>
      <trkpt lat="39.92719566553014" lon="116.48791869232974">
        <ele>24.2</ele>
        <time>2023-05-12T00:59:22Z</time>
      </trkpt>
      <trkpt lat="39.92725455583924" lon="116.48788254822152">
        <ele>23.3</ele>
        <time>2023-05-12T00:59:25Z</time>
      </trkpt>
      <trkpt lat="39.927504833535494" lon="116.48764260919499">
        <ele>21.5</ele>
        <time>2023-05-12T00:59:37Z</time>
      </trkpt>
      <trkpt lat="39.927642244183964" lon="116.48744584778454">
        <ele>23.3</ele>
        <time>2023-05-12T00:59:46Z</time>
      </trkpt>
      <trkpt lat="39.9276947746015" lon="116.48728824519787">
        <ele>23.599999999999998</ele>
        <time>2023-05-12T00:59:52Z</time>
      </trkpt>
      <trkpt lat="39.927638500340066" lon="116.48685762425532">
        <ele>18.9</ele>
        <time>2023-05-12T01:00:07Z</time>
      </trkpt>
      <trkpt lat="39.927633238828946" lon="116.48676929110498">
        <ele>18.0</ele>
        <time>2023-05-12T01:00:10Z</time>
      </trkpt>
      <trkpt lat="39.92774041091708" lon="116.48649122732073">
        <ele>22.599999999999998</ele>
        <time>2023-05-12T01:00:19Z</time>
      </trkpt>
      <trkpt lat="39.9277175293831" lon="116.48619310445518">
        <ele>30.099999999999998</ele>
        <time>2023-05-12T01:00:28Z</time>
      </trkpt>
      <trkpt lat="39.92773527026511" lon="116.48610577259728">
        <ele>29.400000000000002</ele>
        <time>2023-05-12T01:00:31Z</time>
      </trkpt>
      <trkpt lat="39.92785286757673" lon="116.48597125030102">
        <ele>29.099999999999998</ele>
        <time>2023-05-12T01:00:37Z</time>
      </trkpt>
      <trkpt lat="39.927880643796165" lon="116.48589596276967">
        <ele>29.2</ele>
        <time>2023-05-12T01:00:40Z</time>
      </trkpt>
      <trkpt lat="39.92789003800426" lon="116.48569118913716">
        <ele>30.999999999999996</ele>
        <time>2023-05-12T01:00:46Z</time>
      </trkpt>
      <trkpt lat="39.92785391548817" lon="116.48531075934">
        <ele>33.6</ele>
        <time>2023-05-12T01:00:58Z</time>
      </trkpt>
      <trkpt lat="39.927813808974115" lon="116.48493535004023">
        <ele>31.599999999999998</ele>
        <time>2023-05-12T01:01:10Z</time>
      </trkpt>
      <trkpt lat="39.92779231537104" lon="116.48476772156211">
        <ele>28.099999999999998</ele>
        <time>2023-05-12T01:01:16Z</time>
      </trkpt>
      <trkpt lat="39.92783211542219" lon="116.48470046343948">
        <ele>26.0</ele>
        <time>2023-05-12T01:01:19Z</time>
      </trkpt>
      <trkpt lat="39.92809883523075" lon="116.48460908637357">
        <ele>22.5</ele>
        <time>2023-05-12T01:01:31Z</time>
      </trkpt>
      <trkpt lat="39.928161764607154" lon="116.48458599164121">
        <ele>21.9</ele>
        <time>2023-05-12T01:01:34Z</time>
      </trkpt>
      <trkpt lat="39.928225554900195" lon="116.48451571929401">
        <ele>22.4</ele>
        <time>2023-05-12T01:01:37Z</time>
      </trkpt>
      <trkpt lat="39.92828896375278" lon="116.48431595999655">
        <ele>21.8</ele>
        <time>2023-05-12T01:01:43Z</time>
      </trkpt>
      <trkpt lat="39.92829475655956" lon="116.48424569504922">
        <ele>21.9</ele>
        <time>2023-05-12T01:01:46Z</time>
      </trkpt>
      <trkpt lat="39.92834250927237" lon="116.48416237584969">
        <ele>23.3</ele>
        <time>2023-05-12T01:01:49Z</time>
      </trkpt>
      <trkpt lat="39.928425560523365" lon="116.4838411583904">
        <ele>26.900000000000002</ele>
        <time>2023-05-12T01:02:04Z</time>
      </trkpt>
      <trkpt lat="39.92842701431523" lon="116.48365546078668">
        <ele>26.0</ele>
        <time>2023-05-12T01:02:07Z</time>
      </trkpt>
      <trkpt lat="39.92847057878124" lon="116.48350790140837">
        <ele>24.099999999999998</ele>
        <time>2023-05-12T01:02:10Z</time>
      </trkpt>
      <trkpt lat="39.92852240262859" lon="116.48344867266594">
        <ele>20.7</ele>
        <time>2023-05-12T01:02:13Z</time>
      </trkpt>
      <trkpt lat="39.92855216547641" lon="116.48336836761787">
        <ele>20.4</ele>
        <time>2023-05-12T01:02:16Z</time>
      </trkpt>
      <trkpt lat="39.928724674949954" lon="116.48320372853976">
        <ele>24.099999999999998</ele>
        <time>2023-05-12T01:02:25Z</time>
      </trkpt>
      <trkpt lat="39.92899757542142" lon="116.4831735815237">
        <ele>20.2</ele>
        <time>2023-05-12T01:02:37Z</time>
      </trkpt>
      <trkpt lat="39.92929048393474" lon="116.48314644330888">
        <ele>18.2</ele>
        <time>2023-05-12T01:02:49Z</time>
      </trkpt>
      <trkpt lat="39.92959547742906" lon="116.48314841274721">
        <ele>19.099999999999998</ele>
        <time>2023-05-12T01:03:04Z</time>
      </trkpt>
      <trkpt lat="39.9298945006443" lon="116.48316042057326">
        <ele>21.8</ele>
        <time>2023-05-12T01:03:19Z</time>
      </trkpt>
      <trkpt lat="39.930061676590554" lon="116.48322263310072">
        <ele>22.7</ele>
        <time>2023-05-12T01:03:28Z</time>
      </trkpt>
      <trkpt lat="39.93012457971772" lon="116.48319050477242">
        <ele>23.5</ele>
        <time>2023-05-12T01:03:31Z</time>
      </trkpt>
      <trkpt lat="39.93020908715431" lon="116.4830238694299">
        <ele>25.099999999999998</ele>
        <time>2023-05-12T01:03:37Z</time>
      </trkpt>
      <trkpt lat="39.930241843497456" lon="116.4826002782816">
        <ele>31.999999999999996</ele>
        <time>2023-05-12T01:03:55Z</time>
      </trkpt>
      <trkpt lat="39.93021366862288" lon="116.48219877921093">
        <ele>30.099999999999998</ele>
        <time>2023-05-12T01:04:10Z</time>
      </trkpt>
      <trkpt lat="39.9302217462079" lon="116.48188359989179">
        <ele>29.2</ele>
        <time>2023-05-12T01:04:22Z</time>
      </trkpt>
      <trkpt lat="39.93029562569476" lon="116.48150116242192">
        <ele>23.3</ele>
        <time>2023-05-12T01:04:34Z</time>
      </trkpt>
      <trkpt lat="39.93028676766616" lon="116.48120706632315">
        <ele>20.9</ele>
        <time>2023-05-12T01:04:46Z</time>
      </trkpt>
      <trkpt lat="39.93031437719903" lon="116.48107356516087">
        <ele>20.8</ele>
        <time>2023-05-12T01:04:52Z</time>
      </trkpt>
      <trkpt lat="39.93031732707993" lon="116.48071322242416">
        <ele>20.5</ele>
        <time>2023-05-12T01:05:04Z</time>
      </trkpt>
      <trkpt lat="39.930304708195244" lon="116.48050043204823">
        <ele>20.8</ele>
        <time>2023-05-12T01:05:13Z</time>
      </trkpt>
      <trkpt lat="39.93025225485917" lon="116.48034385621362">
        <ele>24.0</ele>
        <time>2023-05-12T01:05:19Z</time>
      </trkpt>
      <trkpt lat="39.93022518553038" lon="116.47997549072642">
        <ele>29.900000000000002</ele>
        <time>2023-05-12T01:05:31Z</time>
      </trkpt>
      <trkpt lat="39.93024513330677" lon="116.4796131434832">
        <ele>32.900000000000006</ele>
        <time>2023-05-12T01:05:43Z</time>
      </trkpt>
      <trkpt lat="39.930219523425485" lon="116.47940236523864">
        <ele>36.900000000000006</ele>
        <time>2023-05-12T01:05:52Z</time>
      </trkpt>
      <trkpt lat="39.93023685131998" lon="116.47917050418532">
        <ele>38.7</ele>
        <time>2023-05-12T01:06:01Z</time>
      </trkpt>
      <trkpt lat="39.930211596742645" lon="116.4790821803477">
        <ele>39.800000000000004</ele>
        <time>2023-05-12T01:06:04Z</time>
      </trkpt>
      <trkpt lat="39.93021039644224" lon="116.47901292417941">
        <ele>41.400000000000006</ele>
        <time>2023-05-12T01:06:07Z</time>
      </trkpt>
      <trkpt lat="39.9302622462917" lon="116.47896172828315">
        <ele>43.2</ele>
        <time>2023-05-12T01:06:13Z</time>
      </trkpt>
      <trkpt lat="39.93033632165981" lon="116.4789888192862">
        <ele>47.6</ele>
        <time>2023-05-12T01:06:19Z</time>
      </trkpt>
      <trkpt lat="39.930527136866516" lon="116.47892756888874">
        <ele>52.6</ele>
        <time>2023-05-12T01:06:31Z</time>
      </trkpt>
      <trkpt lat="39.93081435743272" lon="116.47900783004468">
        <ele>50.800000000000004</ele>
        <time>2023-05-12T01:06:43Z</time>
      </trkpt>
      <trkpt lat="39.930947395589754" lon="116.47902286911471">
        <ele>45.2</ele>
        <time>2023-05-12T01:06:49Z</time>
      </trkpt>
      <trkpt lat="39.9310951225527" lon="116.4789305089622">
        <ele>39.2</ele>
        <time>2023-05-12T01:06:58Z</time>
      </trkpt>
      <trkpt lat="39.93140884870341" lon="116.47884013558244">
        <ele>33.800000000000004</ele>
        <time>2023-05-12T01:07:13Z</time>
      </trkpt>
      <trkpt lat="39.93156890895291" lon="116.47886320093131">
        <ele>28.2</ele>
        <time>2023-05-12T01:07:19Z</time>
      </trkpt>
      <trkpt lat="39.931785109134836" lon="116.4789354411954">
        <ele>17.8</ele>
        <time>2023-05-12T01:07:28Z</time>
      </trkpt>
      <trkpt lat="39.931977150708164" lon="116.47895248029376">
        <ele>12.3</ele>
        <time>2023-05-12T01:07:40Z</time>
      </trkpt>
      <trkpt lat="39.93203008471714" lon="116.47893039197677">
        <ele>10.599999999999998</ele>
        <time>2023-05-12T01:07:43Z</time>
      </trkpt>
      <trkpt lat="39.932074836267866" lon="116.4788450708078">
        <ele>8.899999999999999</ele>
        <time>2023-05-12T01:07:46Z</time>
      </trkpt>
      <trkpt lat="39.932092087496976" lon="116.47858611144522">
        <ele>9.5</ele>
        <time>2023-05-12T01:07:55Z</time>
      </trkpt>
      <trkpt lat="39.93215486185954" lon="116.47850881810103">
        <ele>12.899999999999999</ele>
        <time>2023-05-12T01:08:01Z</time>
      </trkpt>
      <trkpt lat="39.93220684237739" lon="116.47850278935356">
        <ele>15.099999999999998</ele>
        <time>2023-05-12T01:08:04Z</time>
      </trkpt>
      <trkpt lat="39.932215015880196" lon="116.47856301077643">
        <ele>18.099999999999998</ele>
        <time>2023-05-12T01:08:10Z</time>
      </trkpt>
      <trkpt lat="39.93228994041638" lon="116.4785379087076">
        <ele>19.9</ele>
        <time>2023-05-12T01:08:34Z</time>
      </trkpt>
      <trkpt lat="39.93235003940066" lon="116.47857303095824">
        <ele>20.3</ele>
        <time>2023-05-12T01:08:37Z</time>
      </trkpt>
      <trkpt lat="39.932412042691126" lon="116.47857503061485">
        <ele>21.7</ele>
        <time>2023-05-12T01:08:40Z</time>
      </trkpt>
      <trkpt lat="39.932469112833395" lon="116.47860011617888">
        <ele>23.099999999999998</ele>
        <time>2023-05-12T01:08:43Z</time>
      </trkpt>
      <trkpt lat="39.93263706547849" lon="116.47858604324358">
        <ele>25.8</ele>
        <time>2023-05-12T01:08:52Z</time>
      </trkpt>
      <trkpt lat="39.93268681140135" lon="116.47849871445726">
        <ele>27.900000000000002</ele>
        <time>2023-05-12T01:08:58Z</time>
      </trkpt>
      <trkpt lat="39.93272158869367" lon="116.47807514710237">
        <ele>35.900000000000006</ele>
        <time>2023-05-12T01:09:13Z</time>
      </trkpt>
      <trkpt lat="39.93271355475336" lon="116.47771582427504">
        <ele>32.900000000000006</ele>
        <time>2023-05-12T01:09:25Z</time>
      </trkpt>
      <trkpt lat="39.932702041608" lon="116.47753716824013">
        <ele>29.8</ele>
        <time>2023-05-12T01:09:31Z</time>
      </trkpt>
      <trkpt lat="39.93271192025963" lon="116.47714673191001">
        <ele>30.2</ele>
        <time>2023-05-12T01:09:46Z</time>
      </trkpt>
      <trkpt lat="39.932708638320314" lon="116.47704837116517">
        <ele>29.900000000000002</ele>
        <time>2023-05-12T01:09:49Z</time>
      </trkpt>
      <trkpt lat="39.93277443978737" lon="116.47663083160921">
        <ele>25.8</ele>
        <time>2023-05-12T01:10:04Z</time>
      </trkpt>
      <trkpt lat="39.9328972855158" lon="116.47657862501003">
        <ele>31.099999999999998</ele>
        <time>2023-05-12T01:10:13Z</time>
      </trkpt>
      <trkpt lat="39.933073455008" lon="116.4762905484153">
        <ele>37.300000000000004</ele>
        <time>2023-05-12T01:10:25Z</time>
      </trkpt>
      <trkpt lat="39.93314145799855" lon="116.47629254724039">
        <ele>35.800000000000004</ele>
        <time>2023-05-12T01:10:31Z</time>
      </trkpt>
      <trkpt lat="39.933184565214376" lon="116.47633068138556">
        <ele>35.0</ele>
        <time>2023-05-12T01:10:34Z</time>
      </trkpt>
      <trkpt lat="39.93327704055779" lon="116.47649828335767">
        <ele>33.900000000000006</ele>
        <time>2023-05-12T01:10:43Z</time>
      </trkpt>
      <trkpt lat="39.93329438434867" lon="116.47661872235494">
        <ele>33.2</ele>
        <time>2023-05-12T01:10:49Z</time>
      </trkpt>
      <trkpt lat="39.93348911784111" lon="116.47687764729578">
        <ele>33.300000000000004</ele>
        <time>2023-05-12T01:11:04Z</time>
      </trkpt>
      <trkpt lat="39.93358362892251" lon="116.47705729475084">
        <ele>31.7</ele>
        <time>2023-05-12T01:11:13Z</time>
      </trkpt>
      <trkpt lat="39.9335997952025" lon="116.4771155064639">
        <ele>31.7</ele>
        <time>2023-05-12T01:11:16Z</time>
      </trkpt>
      <trkpt lat="39.93377415962077" lon="116.47724496020697">
        <ele>29.099999999999998</ele>
        <time>2023-05-12T01:11:28Z</time>
      </trkpt>
      <trkpt lat="39.9340093604445" lon="116.47731819999984">
        <ele>26.7</ele>
        <time>2023-05-12T01:11:40Z</time>
      </trkpt>
      <trkpt lat="39.934234394603976" lon="116.4773332271559">
        <ele>22.599999999999998</ele>
        <time>2023-05-12T01:11:52Z</time>
      </trkpt>
      <trkpt lat="39.9342793121189" lon="116.47730511824165">
        <ele>22.099999999999998</ele>
        <time>2023-05-12T01:11:55Z</time>
      </trkpt>
      <trkpt lat="39.93455625199603" lon="116.47728802085642">
        <ele>19.8</ele>
        <time>2023-05-12T01:12:10Z</time>
      </trkpt>
      <trkpt lat="39.934848946442514" lon="116.47718560806547">
        <ele>20.7</ele>
        <time>2023-05-12T01:12:25Z</time>
      </trkpt>
      <trkpt lat="39.93490394423087" lon="116.47718560117794">
        <ele>19.9</ele>
        <time>2023-05-12T01:12:28Z</time>
      </trkpt>
      <trkpt lat="39.93495204020762" lon="116.47721972051554">
        <ele>19.0</ele>
        <time>2023-05-12T01:12:31Z</time>
      </trkpt>
      <trkpt lat="39.93501145555662" lon="116.47736524791121">
        <ele>20.8</ele>
        <time>2023-05-12T01:12:37Z</time>
      </trkpt>
      <trkpt lat="39.93505184311831" lon="116.47750074110724">
        <ele>23.4</ele>
        <time>2023-05-12T01:12:46Z</time>
      </trkpt>
      <trkpt lat="39.93503399957877" lon="116.4775549427239">
        <ele>24.7</ele>
        <time>2023-05-12T01:12:52Z</time>
      </trkpt>
      <trkpt lat="39.93506333886309" lon="116.47767337489773">
        <ele>25.2</ele>
        <time>2023-05-12T01:12:58Z</time>
      </trkpt>
      <trkpt lat="39.93505695538998" lon="116.47753988446087">
        <ele>25.9</ele>
        <time>2023-05-12T01:13:10Z</time>
      </trkpt>
      <trkpt lat="39.93501984440475" lon="116.47750074511403">
        <ele>26.0</ele>
        <time>2023-05-12T01:13:13Z</time>
      </trkpt>
      <trkpt lat="39.935003820570245" lon="116.47738971127443">
        <ele>26.2</ele>
        <time>2023-05-12T01:13:25Z</time>
      </trkpt>
      <trkpt lat="39.93511470506911" lon="116.47745355973672">
        <ele>40.0</ele>
        <time>2023-05-12T01:13:37Z</time>
      </trkpt>
      <trkpt lat="39.93504993260222" lon="116.47718357552169">
        <ele>33.2</ele>
        <time>2023-05-12T01:13:46Z</time>
      </trkpt>
      <trkpt lat="39.935051725244335" lon="116.47711130989093">
        <ele>30.8</ele>
        <time>2023-05-12T01:13:49Z</time>
      </trkpt>
      <trkpt lat="39.93528968401769" lon="116.47710023954843">
        <ele>25.5</ele>
        <time>2023-05-12T01:14:04Z</time>
      </trkpt>
      <trkpt lat="39.935561254808654" lon="116.47730295033043">
        <ele>23.2</ele>
        <time>2023-05-12T01:14:19Z</time>
      </trkpt>
      <trkpt lat="39.93575979448851" lon="116.47749362661527">
        <ele>18.4</ele>
        <time>2023-05-12T01:14:31Z</time>
      </trkpt>
      <trkpt lat="39.936046953120886" lon="116.4775528084992">
        <ele>19.0</ele>
        <time>2023-05-12T01:14:46Z</time>
      </trkpt>
      <trkpt lat="39.9363248871662" lon="116.47753370353703">
        <ele>19.4</ele>
        <time>2023-05-12T01:15:01Z</time>
      </trkpt>
      <trkpt lat="39.93646889581097" lon="116.47753870396622">
        <ele>20.2</ele>
        <time>2023-05-12T01:15:07Z</time>
      </trkpt>
      <trkpt lat="39.93679910469988" lon="116.4776159469879">
        <ele>23.099999999999998</ele>
        <time>2023-05-12T01:15:22Z</time>
      </trkpt>
      <trkpt lat="39.93712722428861" lon="116.47766207582991">
        <ele>22.2</ele>
        <time>2023-05-12T01:15:37Z</time>
      </trkpt>
      <trkpt lat="39.93725136651481" lon="116.47771324872423">
        <ele>22.0</ele>
        <time>2023-05-12T01:15:43Z</time>
      </trkpt>
      <trkpt lat="39.93735841130137" lon="116.47773029814252">
        <ele>22.8</ele>
        <time>2023-05-12T01:15:49Z</time>
      </trkpt>
      <trkpt lat="39.93764204114716" lon="116.47795308342752">
        <ele>19.8</ele>
        <time>2023-05-12T01:16:04Z</time>
      </trkpt>
      <trkpt lat="39.93784362864718" lon="116.47815982051137">
        <ele>19.5</ele>
        <time>2023-05-12T01:16:16Z</time>
      </trkpt>
      <trkpt lat="39.93795210752594" lon="116.47832742540443">
        <ele>19.5</ele>
        <time>2023-05-12T01:16:25Z</time>
      </trkpt>
      <trkpt lat="39.938048338180664" lon="116.47840871348718">
        <ele>19.3</ele>
        <time>2023-05-12T01:16:31Z</time>
      </trkpt>
      <trkpt lat="39.93831850982379" lon="116.47847191316814">
        <ele>17.5</ele>
        <time>2023-05-12T01:16:46Z</time>
      </trkpt>
      <trkpt lat="39.9383815536472" lon="116.4784879645878">
        <ele>17.4</ele>
        <time>2023-05-12T01:16:49Z</time>
      </trkpt>
      <trkpt lat="39.93854491509162" lon="116.47861541506005">
        <ele>19.099999999999998</ele>
        <time>2023-05-12T01:16:58Z</time>
      </trkpt>
      <trkpt lat="39.93885722149182" lon="116.47872578404494">
        <ele>20.4</ele>
        <time>2023-05-12T01:17:13Z</time>
      </trkpt>
      <trkpt lat="39.93917712752448" lon="116.47869764010882">
        <ele>19.099999999999998</ele>
        <time>2023-05-12T01:17:28Z</time>
      </trkpt>
      <trkpt lat="39.93938516560521" lon="116.47871367343268">
        <ele>17.0</ele>
        <time>2023-05-12T01:17:40Z</time>
      </trkpt>
      <trkpt lat="39.93965179262117" lon="116.47858817636104">
        <ele>16.2</ele>
        <time>2023-05-12T01:17:55Z</time>
      </trkpt>
      <trkpt lat="39.93983736804505" lon="116.47844361923593">
        <ele>20.4</ele>
        <time>2023-05-12T01:18:07Z</time>
      </trkpt>
      <trkpt lat="39.94000475057537" lon="116.47823181653396">
        <ele>22.0</ele>
        <time>2023-05-12T01:18:16Z</time>
      </trkpt>
      <trkpt lat="39.94005935501627" lon="116.47809530617762">
        <ele>22.5</ele>
        <time>2023-05-12T01:18:22Z</time>
      </trkpt>
      <trkpt lat="39.94019450871735" lon="116.47780321281834">
        <ele>20.599999999999998</ele>
        <time>2023-05-12T01:18:34Z</time>
      </trkpt>
      <trkpt lat="39.94022938316312" lon="116.47776004950086">
        <ele>20.3</ele>
        <time>2023-05-12T01:18:37Z</time>
      </trkpt>
      <trkpt lat="39.940323604648825" lon="116.47783832605106">
        <ele>21.0</ele>
        <time>2023-05-12T01:18:43Z</time>
      </trkpt>
      <trkpt lat="39.940406927783215" lon="116.47795173352172">
        <ele>22.599999999999998</ele>
        <time>2023-05-12T01:18:49Z</time>
      </trkpt>
      <trkpt lat="39.940515143126476" lon="116.47802800115053">
        <ele>23.9</ele>
        <time>2023-05-12T01:18:55Z</time>
      </trkpt>
      <trkpt lat="39.94059357086481" lon="116.47817754284709">
        <ele>24.599999999999998</ele>
        <time>2023-05-12T01:19:04Z</time>
      </trkpt>
      <trkpt lat="39.940596996092225" lon="116.47832508686216">
        <ele>24.3</ele>
        <time>2023-05-12T01:19:10Z</time>
      </trkpt>
      <trkpt lat="39.940584184777755" lon="116.47839032931014">
        <ele>24.4</ele>
        <time>2023-05-12T01:19:13Z</time>
      </trkpt>
      <trkpt lat="39.940633623056236" lon="116.47854288657082">
        <ele>24.599999999999998</ele>
        <time>2023-05-12T01:19:19Z</time>
      </trkpt>
      <trkpt lat="39.94072494399718" lon="116.4786552905311">
        <ele>23.8</ele>
        <time>2023-05-12T01:19:25Z</time>
      </trkpt>
      <trkpt lat="39.940824734747835" lon="116.4789302950412">
        <ele>19.099999999999998</ele>
        <time>2023-05-12T01:19:38Z</time>
      </trkpt>
      <trkpt lat="39.940904103163085" lon="116.47905876057392">
        <ele>17.599999999999998</ele>
        <time>2023-05-12T01:19:44Z</time>
      </trkpt>
      <trkpt lat="39.94111354794884" lon="116.47921531415106">
        <ele>16.0</ele>
        <time>2023-05-12T01:19:56Z</time>
      </trkpt>
      <trkpt lat="39.94134141110598" lon="116.47951640158048">
        <ele>16.5</ele>
        <time>2023-05-12T01:20:11Z</time>
      </trkpt>
      <trkpt lat="39.94136954382319" lon="116.47956256928224">
        <ele>17.2</ele>
        <time>2023-05-12T01:20:14Z</time>
      </trkpt>
      <trkpt lat="39.94140667222786" lon="116.47995201000482">
        <ele>24.9</ele>
        <time>2023-05-12T01:20:32Z</time>
      </trkpt>
      <trkpt lat="39.94144241141362" lon="116.4802069528171">
        <ele>24.7</ele>
        <time>2023-05-12T01:20:41Z</time>
      </trkpt>
      <trkpt lat="39.9415978662852" lon="116.48036552305025">
        <ele>22.599999999999998</ele>
        <time>2023-05-12T01:20:53Z</time>
      </trkpt>
      <trkpt lat="39.94186831977913" lon="116.48052508295666">
        <ele>19.599999999999998</ele>
        <time>2023-05-12T01:21:08Z</time>
      </trkpt>
      <trkpt lat="39.94217041290837" lon="116.48056117964319">
        <ele>15.2</ele>
        <time>2023-05-12T01:21:23Z</time>
      </trkpt>
      <trkpt lat="39.942234401598064" lon="116.48055816043144">
        <ele>15.399999999999999</ele>
        <time>2023-05-12T01:21:26Z</time>
      </trkpt>
      <trkpt lat="39.94230046323682" lon="116.48058023435534">
        <ele>15.899999999999999</ele>
        <time>2023-05-12T01:21:29Z</time>
      </trkpt>
      <trkpt lat="39.94259735210266" lon="116.48054607020018">
        <ele>14.0</ele>
        <time>2023-05-12T01:21:44Z</time>
      </trkpt>
      <trkpt lat="39.942836401016045" lon="116.48056611500898">
        <ele>15.3</ele>
        <time>2023-05-12T01:21:56Z</time>
      </trkpt>
      <trkpt lat="39.94290327859485" lon="116.48052495348516">
        <ele>15.5</ele>
        <time>2023-05-12T01:21:59Z</time>
      </trkpt>
      <trkpt lat="39.94297492241243" lon="116.48040349264525">
        <ele>15.099999999999998</ele>
        <time>2023-05-12T01:22:05Z</time>
      </trkpt>
      <trkpt lat="39.94309177764565" lon="116.48035529882029">
        <ele>14.8</ele>
        <time>2023-05-12T01:22:11Z</time>
      </trkpt>
      <trkpt lat="39.943160031838055" lon="116.4804436188471">
        <ele>13.899999999999999</ele>
        <time>2023-05-12T01:22:17Z</time>
      </trkpt>
      <trkpt lat="39.94321523357005" lon="116.4808571515349">
        <ele>26.0</ele>
        <time>2023-05-12T01:22:32Z</time>
      </trkpt>
      <trkpt lat="39.94322545356851" lon="116.48127571067053">
        <ele>28.7</ele>
        <time>2023-05-12T01:22:47Z</time>
      </trkpt>
      <trkpt lat="39.94325011770175" lon="116.48150355789622">
        <ele>27.8</ele>
        <time>2023-05-12T01:22:56Z</time>
      </trkpt>
      <trkpt lat="39.943234813289465" lon="116.48174144822062">
        <ele>27.499999999999996</ele>
        <time>2023-05-12T01:23:05Z</time>
      </trkpt>
      <trkpt lat="39.94325400910041" lon="116.48180869709151">
        <ele>27.8</ele>
        <time>2023-05-12T01:23:08Z</time>
      </trkpt>
      <trkpt lat="39.94329414836151" lon="116.48185687211931">
        <ele>26.499999999999996</ele>
        <time>2023-05-12T01:23:11Z</time>
      </trkpt>
      <trkpt lat="39.94334713451603" lon="116.48185285048942">
        <ele>24.7</ele>
        <time>2023-05-12T01:23:14Z</time>
      </trkpt>
      <trkpt lat="39.94344694274682" lon="116.48178859795615">
        <ele>22.2</ele>
        <time>2023-05-12T01:23:20Z</time>
      </trkpt>
      <trkpt lat="39.94365485233286" lon="116.48176046695039">
        <ele>18.3</ele>
        <time>2023-05-12T01:23:32Z</time>
      </trkpt>
      <trkpt lat="39.943747361785775" lon="116.48159383301176">
        <ele>18.3</ele>
        <time>2023-05-12T01:23:41Z</time>
      </trkpt>
      <trkpt lat="39.943877221759294" lon="116.48154764436448">
        <ele>17.7</ele>
        <time>2023-05-12T01:23:47Z</time>
      </trkpt>
      <trkpt lat="39.94405516485313" lon="116.48153055840217">
        <ele>16.0</ele>
        <time>2023-05-12T01:23:56Z</time>
      </trkpt>
      <trkpt lat="39.94417504870247" lon="116.48149240101135">
        <ele>16.7</ele>
        <time>2023-05-12T01:23:59Z</time>
      </trkpt>
      <trkpt lat="39.944332054190674" lon="116.4814963963653">
        <ele>20.8</ele>
        <time>2023-05-12T01:24:05Z</time>
      </trkpt>
      <trkpt lat="39.944452216508864" lon="116.48155359494612">
        <ele>25.8</ele>
        <time>2023-05-12T01:24:11Z</time>
      </trkpt>
      <trkpt lat="39.94456870455293" lon="116.48172221018032">
        <ele>25.9</ele>
        <time>2023-05-12T01:24:20Z</time>
      </trkpt>
      <trkpt lat="39.944734044200665" lon="116.48184063206028">
        <ele>22.3</ele>
        <time>2023-05-12T01:24:29Z</time>
      </trkpt>
      <trkpt lat="39.94493020370156" lon="116.481897821366">
        <ele>19.8</ele>
        <time>2023-05-12T01:24:41Z</time>
      </trkpt>
      <trkpt lat="39.945047339951415" lon="116.48194598681864">
        <ele>18.2</ele>
        <time>2023-05-12T01:24:47Z</time>
      </trkpt>
      <trkpt lat="39.94526739580433" lon="116.48196804185773">
        <ele>18.0</ele>
        <time>2023-05-12T01:24:59Z</time>
      </trkpt>
      <trkpt lat="39.94533732257157" lon="116.48194394305509">
        <ele>17.5</ele>
        <time>2023-05-12T01:25:02Z</time>
      </trkpt>
      <trkpt lat="39.945627293452674" lon="116.48193788428331">
        <ele>16.0</ele>
        <time>2023-05-12T01:25:14Z</time>
      </trkpt>
      <trkpt lat="39.945946869894655" lon="116.48179731911183">
        <ele>16.0</ele>
        <time>2023-05-12T01:25:29Z</time>
      </trkpt>
      <trkpt lat="39.94609254728602" lon="116.48168889588325">
        <ele>17.5</ele>
        <time>2023-05-12T01:25:38Z</time>
      </trkpt>
      <trkpt lat="39.94616250638254" lon="116.48167583839195">
        <ele>19.099999999999998</ele>
        <time>2023-05-12T01:25:41Z</time>
      </trkpt>
      <trkpt lat="39.946433961992064" lon="116.48149312225246">
        <ele>23.5</ele>
        <time>2023-05-12T01:25:56Z</time>
      </trkpt>
      <trkpt lat="39.946714441020966" lon="116.48131843532715">
        <ele>30.099999999999998</ele>
        <time>2023-05-12T01:26:14Z</time>
      </trkpt>
      <trkpt lat="39.94694005428854" lon="116.48118892407248">
        <ele>27.8</ele>
        <time>2023-05-12T01:26:29Z</time>
      </trkpt>
      <trkpt lat="39.94703979271907" lon="116.48110058219828">
        <ele>32.7</ele>
        <time>2023-05-12T01:26:35Z</time>
      </trkpt>
      <trkpt lat="39.94709175553662" lon="116.48108853078736">
        <ele>33.0</ele>
        <time>2023-05-12T01:26:38Z</time>
      </trkpt>
      <trkpt lat="39.94736734373541" lon="116.48095098370413">
        <ele>31.3</ele>
        <time>2023-05-12T01:26:53Z</time>
      </trkpt>
      <trkpt lat="39.94758283803448" lon="116.48078032097968">
        <ele>27.8</ele>
        <time>2023-05-12T01:27:05Z</time>
      </trkpt>
      <trkpt lat="39.94785242108478" lon="116.48064076768426">
        <ele>24.2</ele>
        <time>2023-05-12T01:27:20Z</time>
      </trkpt>
      <trkpt lat="39.94810490573499" lon="116.48046708977517">
        <ele>18.7</ele>
        <time>2023-05-12T01:27:35Z</time>
      </trkpt>
      <trkpt lat="39.94822976647571" lon="116.48042090236153">
        <ele>18.4</ele>
        <time>2023-05-12T01:27:41Z</time>
      </trkpt>
      <trkpt lat="39.94840405335304" lon="116.48017797723674">
        <ele>19.9</ele>
        <time>2023-05-12T01:27:53Z</time>
      </trkpt>
      <trkpt lat="39.94847357238139" lon="116.48001335680596">
        <ele>20.8</ele>
        <time>2023-05-12T01:27:59Z</time>
      </trkpt>
      <trkpt lat="39.948564517208716" lon="116.47965100012965">
        <ele>18.3</ele>
        <time>2023-05-12T01:28:11Z</time>
      </trkpt>
      <trkpt lat="39.94860200650958" lon="116.47947534392135">
        <ele>19.9</ele>
        <time>2023-05-12T01:28:17Z</time>
      </trkpt>
      <trkpt lat="39.948619927476564" lon="116.47910296186939">
        <ele>23.5</ele>
        <time>2023-05-12T01:28:32Z</time>
      </trkpt>
      <trkpt lat="39.94861677267161" lon="116.47870348421121">
        <ele>22.8</ele>
        <time>2023-05-12T01:28:47Z</time>
      </trkpt>
      <trkpt lat="39.948609370074905" lon="116.47856396947539">
        <ele>22.2</ele>
        <time>2023-05-12T01:28:53Z</time>
      </trkpt>
      <trkpt lat="39.948661997201135" lon="116.47843548828115">
        <ele>22.2</ele>
        <time>2023-05-12T01:28:59Z</time>
      </trkpt>
      <trkpt lat="39.94885908069245" lon="116.47812030036998">
        <ele>22.7</ele>
        <time>2023-05-12T01:29:14Z</time>
      </trkpt>
      <trkpt lat="39.94896459663291" lon="116.47795367280101">
        <ele>24.2</ele>
        <time>2023-05-12T01:29:23Z</time>
      </trkpt>
      <trkpt lat="39.949034455173866" lon="116.47790548648446">
        <ele>28.7</ele>
        <time>2023-05-12T01:29:29Z</time>
      </trkpt>
      <trkpt lat="39.94930151683738" lon="116.47793054550654">
        <ele>27.8</ele>
        <time>2023-05-12T01:29:47Z</time>
      </trkpt>
      <trkpt lat="39.94944346787946" lon="116.47791547223584">
        <ele>28.599999999999998</ele>
        <time>2023-05-12T01:29:56Z</time>
      </trkpt>
      <trkpt lat="39.94970490263888" lon="116.47807000932772">
        <ele>24.7</ele>
        <time>2023-05-12T01:30:11Z</time>
      </trkpt>
      <trkpt lat="39.94979973988527" lon="116.47801479389017">
        <ele>24.5</ele>
        <time>2023-05-12T01:30:17Z</time>
      </trkpt>
      <trkpt lat="39.95004201961674" lon="116.47776785364863">
        <ele>24.599999999999998</ele>
        <time>2023-05-12T01:30:35Z</time>
      </trkpt>
      <trkpt lat="39.95016467703781" lon="116.47765040585743">
        <ele>23.7</ele>
        <time>2023-05-12T01:30:44Z</time>
      </trkpt>
      <trkpt lat="39.95023461655841" lon="116.47763032319727">
        <ele>23.7</ele>
        <time>2023-05-12T01:30:50Z</time>
      </trkpt>
      <trkpt lat="39.950351374177274" lon="116.47789528451634">
        <ele>21.099999999999998</ele>
        <time>2023-05-12T01:31:02Z</time>
      </trkpt>
      <trkpt lat="39.95037381835292" lon="116.4780498515059">
        <ele>23.8</ele>
        <time>2023-05-12T01:31:08Z</time>
      </trkpt>
      <trkpt lat="39.95036507315998" lon="116.47813817836511">
        <ele>26.400000000000002</ele>
        <time>2023-05-12T01:31:11Z</time>
      </trkpt>
      <trkpt lat="39.950343241791565" lon="116.47819639587205">
        <ele>27.999999999999996</ele>
        <time>2023-05-12T01:31:14Z</time>
      </trkpt>
      <trkpt lat="39.950229440148355" lon="116.47826365828917">
        <ele>29.999999999999996</ele>
        <time>2023-05-12T01:31:20Z</time>
      </trkpt>
      <trkpt lat="39.95015172687602" lon="116.47836203112776">
        <ele>31.8</ele>
        <time>2023-05-12T01:31:26Z</time>
      </trkpt>
      <trkpt lat="39.94999163128682" lon="116.47867320071394">
        <ele>31.900000000000002</ele>
        <time>2023-05-12T01:31:41Z</time>
      </trkpt>
      <trkpt lat="39.94996985540716" lon="116.47875048918954">
        <ele>31.599999999999998</ele>
        <time>2023-05-12T01:31:44Z</time>
      </trkpt>
      <trkpt lat="39.950006416784596" lon="116.47894520493028">
        <ele>28.900000000000002</ele>
        <time>2023-05-12T01:31:50Z</time>
      </trkpt>
      <trkpt lat="39.95008488692753" lon="116.47910880073937">
        <ele>24.4</ele>
        <time>2023-05-12T01:31:56Z</time>
      </trkpt>
      <trkpt lat="39.950256754889054" lon="116.47941089859047">
        <ele>19.2</ele>
        <time>2023-05-12T01:32:08Z</time>
      </trkpt>
      <trkpt lat="39.950377407627016" lon="116.47963772477195">
        <ele>18.9</ele>
        <time>2023-05-12T01:32:17Z</time>
      </trkpt>
      <trkpt lat="39.95042852495267" lon="116.4796788710706">
        <ele>19.4</ele>
        <time>2023-05-12T01:32:20Z</time>
      </trkpt>
      <trkpt lat="39.950557560605944" lon="116.47969290706305">
        <ele>21.0</ele>
        <time>2023-05-12T01:32:26Z</time>
      </trkpt>
      <trkpt lat="39.950717207927006" lon="116.47957344391936">
        <ele>19.7</ele>
        <time>2023-05-12T01:32:35Z</time>
      </trkpt>
      <trkpt lat="39.95091327874438" lon="116.47960051990405">
        <ele>24.2</ele>
        <time>2023-05-12T01:32:44Z</time>
      </trkpt>
      <trkpt lat="39.95098735730598" lon="116.47962861489563">
        <ele>25.599999999999998</ele>
        <time>2023-05-12T01:32:47Z</time>
      </trkpt>
      <trkpt lat="39.95101950740012" lon="116.47968080453556">
        <ele>27.3</ele>
        <time>2023-05-12T01:32:50Z</time>
      </trkpt>
      <trkpt lat="39.95101463800839" lon="116.48007025133283">
        <ele>35.1</ele>
        <time>2023-05-12T01:33:08Z</time>
      </trkpt>
      <trkpt lat="39.95101208142476" lon="116.48022281874486">
        <ele>34.300000000000004</ele>
        <time>2023-05-12T01:33:14Z</time>
      </trkpt>
      <trkpt lat="39.95105552328332" lon="116.4803753807008">
        <ele>31.7</ele>
        <time>2023-05-12T01:33:20Z</time>
      </trkpt>
      <trkpt lat="39.95119705791392" lon="116.48056105396637">
        <ele>28.2</ele>
        <time>2023-05-12T01:33:29Z</time>
      </trkpt>
      <trkpt lat="39.95122526422983" lon="116.48063231573867">
        <ele>27.3</ele>
        <time>2023-05-12T01:33:32Z</time>
      </trkpt>
      <trkpt lat="39.951216507390676" lon="116.48105890622502">
        <ele>27.499999999999996</ele>
        <time>2023-05-12T01:33:50Z</time>
      </trkpt>
      <trkpt lat="39.95120191486138" lon="116.48119842835487">
        <ele>29.2</ele>
        <time>2023-05-12T01:33:56Z</time>
      </trkpt>
      <trkpt lat="39.951033920569294" lon="116.48154072677525">
        <ele>33.7</ele>
        <time>2023-05-12T01:34:11Z</time>
      </trkpt>
      <trkpt lat="39.95094424665055" lon="116.48165115034823">
        <ele>32.7</ele>
        <time>2023-05-12T01:34:17Z</time>
      </trkpt>
      <trkpt lat="39.95074059203251" lon="116.48176660706909">
        <ele>31.499999999999996</ele>
        <time>2023-05-12T01:34:26Z</time>
      </trkpt>
      <trkpt lat="39.95068873785466" lon="116.48181579734931">
        <ele>31.099999999999998</ele>
        <time>2023-05-12T01:34:29Z</time>
      </trkpt>
      <trkpt lat="39.95067692907557" lon="116.48188104267717">
        <ele>30.499999999999996</ele>
        <time>2023-05-12T01:34:32Z</time>
      </trkpt>
      <trkpt lat="39.95072241755946" lon="116.48204866371529">
        <ele>28.400000000000002</ele>
        <time>2023-05-12T01:34:38Z</time>
      </trkpt>
      <trkpt lat="39.950750383139855" lon="116.4823788958103">
        <ele>23.099999999999998</ele>
        <time>2023-05-12T01:34:50Z</time>
      </trkpt>
      <trkpt lat="39.95074461858616" lon="116.48245919715654">
        <ele>23.4</ele>
        <time>2023-05-12T01:34:53Z</time>
      </trkpt>
      <trkpt lat="39.950771835140664" lon="116.48253347189278">
        <ele>23.599999999999998</ele>
        <time>2023-05-12T01:34:56Z</time>
      </trkpt>
      <trkpt lat="39.950833947402074" lon="116.48257261073692">
        <ele>22.9</ele>
        <time>2023-05-12T01:34:59Z</time>
      </trkpt>
      <trkpt lat="39.95112001845769" lon="116.48260068023677">
        <ele>23.0</ele>
        <time>2023-05-12T01:35:14Z</time>
      </trkpt>
      <trkpt lat="39.95128997349144" lon="116.48258761011013">
        <ele>21.599999999999998</ele>
        <time>2023-05-12T01:35:23Z</time>
      </trkpt>
      <trkpt lat="39.9514666694278" lon="116.48248620834659">
        <ele>19.2</ele>
        <time>2023-05-12T01:35:32Z</time>
      </trkpt>
      <trkpt lat="39.95169193441728" lon="116.48223825213553">
        <ele>19.8</ele>
        <time>2023-05-12T01:35:47Z</time>
      </trkpt>
      <trkpt lat="39.951883724100085" lon="116.4821689690172">
        <ele>20.4</ele>
        <time>2023-05-12T01:35:56Z</time>
      </trkpt>
      <trkpt lat="39.95194758057064" lon="116.48212078079507">
        <ele>20.8</ele>
        <time>2023-05-12T01:35:59Z</time>
      </trkpt>
      <trkpt lat="39.952027192713054" lon="116.48198927907315">
        <ele>20.599999999999998</ele>
        <time>2023-05-12T01:36:05Z</time>
      </trkpt>
      <trkpt lat="39.95213922578924" lon="116.48166003461488">
        <ele>17.2</ele>
        <time>2023-05-12T01:36:17Z</time>
      </trkpt>
      <trkpt lat="39.95223862378409" lon="116.48145525752501">
        <ele>15.3</ele>
        <time>2023-05-12T01:36:26Z</time>
      </trkpt>
      <trkpt lat="39.95248290813036" lon="116.48121332424708">
        <ele>11.099999999999998</ele>
        <time>2023-05-12T01:36:41Z</time>
      </trkpt>
      <trkpt lat="39.95259965758451" lon="116.481128995162">
        <ele>11.099999999999998</ele>
        <time>2023-05-12T01:36:47Z</time>
      </trkpt>
      <trkpt lat="39.9528654714572" lon="116.48106873732692">
        <ele>15.2</ele>
        <time>2023-05-12T01:36:59Z</time>
      </trkpt>
      <trkpt lat="39.95311314564915" lon="116.48096030220869">
        <ele>18.5</ele>
        <time>2023-05-12T01:37:11Z</time>
      </trkpt>
      <trkpt lat="39.95341657507941" lon="116.48076854987985">
        <ele>20.2</ele>
        <time>2023-05-12T01:37:26Z</time>
      </trkpt>
      <trkpt lat="39.953660065705456" lon="116.48059688023352">
        <ele>18.9</ele>
        <time>2023-05-12T01:37:38Z</time>
      </trkpt>
      <trkpt lat="39.95372199314304" lon="116.48057278280359">
        <ele>19.3</ele>
        <time>2023-05-12T01:37:41Z</time>
      </trkpt>
      <trkpt lat="39.95390450698341" lon="116.48040814734597">
        <ele>20.0</ele>
        <time>2023-05-12T01:37:53Z</time>
      </trkpt>
      <trkpt lat="39.95413896655525" lon="116.48022543854822">
        <ele>17.4</ele>
        <time>2023-05-12T01:38:05Z</time>
      </trkpt>
      <trkpt lat="39.95437932715291" lon="116.48000860263615">
        <ele>18.599999999999998</ele>
        <time>2023-05-12T01:38:17Z</time>
      </trkpt>
      <trkpt lat="39.954464872088636" lon="116.47985301405286">
        <ele>16.599999999999998</ele>
        <time>2023-05-12T01:38:23Z</time>
      </trkpt>
      <trkpt lat="39.95447663278153" lon="116.47977070699655">
        <ele>15.099999999999998</ele>
        <time>2023-05-12T01:38:26Z</time>
      </trkpt>
      <trkpt lat="39.95431851578701" lon="116.47938328954473">
        <ele>17.7</ele>
        <time>2023-05-12T01:38:44Z</time>
      </trkpt>
      <trkpt lat="39.95411266087902" lon="116.4790852108698">
        <ele>19.599999999999998</ele>
        <time>2023-05-12T01:38:59Z</time>
      </trkpt>
      <trkpt lat="39.95391367917211" lon="116.47874296926507">
        <ele>18.599999999999998</ele>
        <time>2023-05-12T01:39:17Z</time>
      </trkpt>
      <trkpt lat="39.95370883815109" lon="116.4784489080309">
        <ele>17.4</ele>
        <time>2023-05-12T01:39:32Z</time>
      </trkpt>
      <trkpt lat="39.953524948226395" lon="116.47813778250621">
        <ele>19.5</ele>
        <time>2023-05-12T01:39:47Z</time>
      </trkpt>
      <trkpt lat="39.953369254856746" lon="116.47789490640892">
        <ele>22.9</ele>
        <time>2023-05-12T01:39:59Z</time>
      </trkpt>
      <trkpt lat="39.953109670262435" lon="116.47768817727558">
        <ele>23.3</ele>
        <time>2023-05-12T01:40:14Z</time>
      </trkpt>
      <trkpt lat="39.95284917566573" lon="116.47751256340106">
        <ele>24.2</ele>
        <time>2023-05-12T01:40:29Z</time>
      </trkpt>
      <trkpt lat="39.95259864074794" lon="116.47732289710652">
        <ele>19.099999999999998</ele>
        <time>2023-05-12T01:40:44Z</time>
      </trkpt>
      <trkpt lat="39.952384903381976" lon="116.47706296873308">
        <ele>19.599999999999998</ele>
        <time>2023-05-12T01:40:59Z</time>
      </trkpt>
      <trkpt lat="39.95220387830122" lon="116.47670266928979">
        <ele>22.5</ele>
        <time>2023-05-12T01:41:14Z</time>
      </trkpt>
      <trkpt lat="39.952094150537654" lon="116.47644674522896">
        <ele>22.9</ele>
        <time>2023-05-12T01:41:23Z</time>
      </trkpt>
      <trkpt lat="39.9519911570114" lon="116.47609748007976">
        <ele>22.5</ele>
        <time>2023-05-12T01:41:35Z</time>
      </trkpt>
      <trkpt lat="39.95193167267131" lon="116.47592686395686">
        <ele>23.7</ele>
        <time>2023-05-12T01:41:41Z</time>
      </trkpt>
      <trkpt lat="39.95191441014494" lon="116.47583452886411">
        <ele>23.7</ele>
        <time>2023-05-12T01:41:44Z</time>
      </trkpt>
      <trkpt lat="39.951749407915294" lon="116.47548025690182">
        <ele>22.099999999999998</ele>
        <time>2023-05-12T01:41:59Z</time>
      </trkpt>
      <trkpt lat="39.95166182927025" lon="116.47527552187232">
        <ele>22.7</ele>
        <time>2023-05-12T01:42:08Z</time>
      </trkpt>
      <trkpt lat="39.95146808170927" lon="116.47500957821741">
        <ele>20.0</ele>
        <time>2023-05-12T01:42:20Z</time>
      </trkpt>
      <trkpt lat="39.951376675392964" lon="116.47486506424086">
        <ele>19.7</ele>
        <time>2023-05-12T01:42:26Z</time>
      </trkpt>
      <trkpt lat="39.951279079173474" lon="116.47465330726105">
        <ele>19.8</ele>
        <time>2023-05-12T01:42:35Z</time>
      </trkpt>
      <trkpt lat="39.951258844115266" lon="116.47457000744276">
        <ele>21.0</ele>
        <time>2023-05-12T01:42:38Z</time>
      </trkpt>
      <trkpt lat="39.95125960265643" lon="116.47448469783953">
        <ele>22.099999999999998</ele>
        <time>2023-05-12T01:42:41Z</time>
      </trkpt>
      <trkpt lat="39.95114466531031" lon="116.47415150467549">
        <ele>23.3</ele>
        <time>2023-05-12T01:42:53Z</time>
      </trkpt>
      <trkpt lat="39.950979610091935" lon="116.47377516395633">
        <ele>21.8</ele>
        <time>2023-05-12T01:43:08Z</time>
      </trkpt>
      <trkpt lat="39.950736879251096" lon="116.47351224487153">
        <ele>20.3</ele>
        <time>2023-05-12T01:43:23Z</time>
      </trkpt>
      <trkpt lat="39.95052923275797" lon="116.47327943125542">
        <ele>17.5</ele>
        <time>2023-05-12T01:43:35Z</time>
      </trkpt>
      <trkpt lat="39.950401693843524" lon="116.47308574956571">
        <ele>18.5</ele>
        <time>2023-05-12T01:43:44Z</time>
      </trkpt>
      <trkpt lat="39.95033862310661" lon="116.47305966355036">
        <ele>19.2</ele>
        <time>2023-05-12T01:43:47Z</time>
      </trkpt>
      <trkpt lat="39.95027468196614" lon="116.47307974383159">
        <ele>20.099999999999998</ele>
        <time>2023-05-12T01:43:50Z</time>
      </trkpt>
      <trkpt lat="39.950153906497384" lon="116.4731580408627">
        <ele>20.7</ele>
        <time>2023-05-12T01:43:56Z</time>
      </trkpt>
      <trkpt lat="39.949829099733044" lon="116.47322231300308">
        <ele>20.8</ele>
        <time>2023-05-12T01:44:11Z</time>
      </trkpt>
      <trkpt lat="39.949548421039744" lon="116.47333274609093">
        <ele>19.0</ele>
        <time>2023-05-12T01:44:23Z</time>
      </trkpt>
      <trkpt lat="39.94935465161343" lon="116.47341205629445">
        <ele>20.3</ele>
        <time>2023-05-12T01:44:32Z</time>
      </trkpt>
      <trkpt lat="39.94921372210631" lon="116.47343515723728">
        <ele>20.3</ele>
        <time>2023-05-12T01:44:38Z</time>
      </trkpt>
      <trkpt lat="39.949018887910896" lon="116.47349138444169">
        <ele>18.9</ele>
        <time>2023-05-12T01:44:47Z</time>
      </trkpt>
      <trkpt lat="39.948956014653" lon="116.47353555168094">
        <ele>20.0</ele>
        <time>2023-05-12T01:44:50Z</time>
      </trkpt>
      <trkpt lat="39.94892123072574" lon="116.47361183137514">
        <ele>20.8</ele>
        <time>2023-05-12T01:44:53Z</time>
      </trkpt>
      <trkpt lat="39.94892347087096" lon="116.47369713916306">
        <ele>21.3</ele>
        <time>2023-05-12T01:44:56Z</time>
      </trkpt>
      <trkpt lat="39.94900001092506" lon="116.47388982595567">
        <ele>22.0</ele>
        <time>2023-05-12T01:45:05Z</time>
      </trkpt>
      <trkpt lat="39.94905397480725" lon="116.47423205778612">
        <ele>21.9</ele>
        <time>2023-05-12T01:45:17Z</time>
      </trkpt>
      <trkpt lat="39.94914657833788" lon="116.47444682461457">
        <ele>21.5</ele>
        <time>2023-05-12T01:45:26Z</time>
      </trkpt>
      <trkpt lat="39.94929912337852" lon="116.47464151192426">
        <ele>20.7</ele>
        <time>2023-05-12T01:45:35Z</time>
      </trkpt>
      <trkpt lat="39.9494137900214" lon="116.47487835788198">
        <ele>23.0</ele>
        <time>2023-05-12T01:45:44Z</time>
      </trkpt>
      <trkpt lat="39.94949880645354" lon="116.47523765428008">
        <ele>23.9</ele>
        <time>2023-05-12T01:45:56Z</time>
      </trkpt>
      <trkpt lat="39.94959286162435" lon="116.47560999946634">
        <ele>25.0</ele>
        <time>2023-05-12T01:46:08Z</time>
      </trkpt>
      <trkpt lat="39.94962860924352" lon="116.4758729547619">
        <ele>26.3</ele>
        <time>2023-05-12T01:46:17Z</time>
      </trkpt>
      <trkpt lat="39.94960198805748" lon="116.47600544210849">
        <ele>26.7</ele>
        <time>2023-05-12T01:46:23Z</time>
      </trkpt>
      <trkpt lat="39.949568126828204" lon="116.47605362243216">
        <ele>26.2</ele>
        <time>2023-05-12T01:46:26Z</time>
      </trkpt>
      <trkpt lat="39.94929109483907" lon="116.47603860213566">
        <ele>20.4</ele>
        <time>2023-05-12T01:46:41Z</time>
      </trkpt>
      <trkpt lat="39.949024953638016" lon="116.47598544109995">
        <ele>18.8</ele>
        <time>2023-05-12T01:46:53Z</time>
      </trkpt>
      <trkpt lat="39.948728567623135" lon="116.47584596864608">
        <ele>21.599999999999998</ele>
        <time>2023-05-12T01:47:08Z</time>
      </trkpt>
      <trkpt lat="39.94845634389167" lon="116.4757637023022">
        <ele>20.099999999999998</ele>
        <time>2023-05-12T01:47:23Z</time>
      </trkpt>
      <trkpt lat="39.94827207962617" lon="116.47566837744358">
        <ele>20.9</ele>
        <time>2023-05-12T01:47:32Z</time>
      </trkpt>
      <trkpt lat="39.94813697067458" lon="116.47562824792206">
        <ele>19.8</ele>
        <time>2023-05-12T01:47:38Z</time>
      </trkpt>
      <trkpt lat="39.94782158900886" lon="116.47548978239284">
        <ele>22.5</ele>
        <time>2023-05-12T01:47:53Z</time>
      </trkpt>
      <trkpt lat="39.94753423790685" lon="116.47536235391317">
        <ele>23.5</ele>
        <time>2023-05-12T01:48:08Z</time>
      </trkpt>
      <trkpt lat="39.94723382199327" lon="116.47521184332632">
        <ele>20.599999999999998</ele>
        <time>2023-05-12T01:48:23Z</time>
      </trkpt>
      <trkpt lat="39.94717680429587" lon="116.47520482490114">
        <ele>20.4</ele>
        <time>2023-05-12T01:48:26Z</time>
      </trkpt>
      <trkpt lat="39.946916532449904" lon="116.47510549592793">
        <ele>20.0</ele>
        <time>2023-05-12T01:48:41Z</time>
      </trkpt>
      <trkpt lat="39.946727369014184" lon="116.4750453005793">
        <ele>18.9</ele>
        <time>2023-05-12T01:48:50Z</time>
      </trkpt>
      <trkpt lat="39.946634261628255" lon="116.47500616989525">
        <ele>18.2</ele>
        <time>2023-05-12T01:48:56Z</time>
      </trkpt>
      <trkpt lat="39.94648618776477" lon="116.47497808627517">
        <ele>19.4</ele>
        <time>2023-05-12T01:49:05Z</time>
      </trkpt>
      <trkpt lat="39.946430033408916" lon="116.47492289262921">
        <ele>19.4</ele>
        <time>2023-05-12T01:49:08Z</time>
      </trkpt>
      <trkpt lat="39.94636969148653" lon="116.47480145887994">
        <ele>19.9</ele>
        <time>2023-05-12T01:49:14Z</time>
      </trkpt>
      <trkpt lat="39.94627187960111" lon="116.4745134254812">
        <ele>19.9</ele>
        <time>2023-05-12T01:49:26Z</time>
      </trkpt>
      <trkpt lat="39.94627678147475" lon="116.4741250173248">
        <ele>16.599999999999998</ele>
        <time>2023-05-12T01:49:41Z</time>
      </trkpt>
      <trkpt lat="39.946239309919406" lon="116.47395741552609">
        <ele>17.4</ele>
        <time>2023-05-12T01:49:47Z</time>
      </trkpt>
      <trkpt lat="39.946201220838496" lon="116.4739253041512">
        <ele>17.8</ele>
        <time>2023-05-12T01:49:50Z</time>
      </trkpt>
      <trkpt lat="39.94592343570485" lon="116.47399760037584">
        <ele>18.5</ele>
        <time>2023-05-12T01:50:05Z</time>
      </trkpt>
      <trkpt lat="39.94567658144273" lon="116.47404580564958">
        <ele>18.0</ele>
        <time>2023-05-12T01:50:17Z</time>
      </trkpt>
      <trkpt lat="39.94540962602423" lon="116.47405788272312">
        <ele>22.5</ele>
        <time>2023-05-12T01:50:29Z</time>
      </trkpt>
      <trkpt lat="39.945129841131134" lon="116.47413017937679">
        <ele>20.599999999999998</ele>
        <time>2023-05-12T01:50:41Z</time>
      </trkpt>
      <trkpt lat="39.94502393603006" lon="116.47416230894048">
        <ele>20.3</ele>
        <time>2023-05-12T01:50:47Z</time>
      </trkpt>
      <trkpt lat="39.944893938354284" lon="116.4741613216141">
        <ele>20.8</ele>
        <time>2023-05-12T01:50:53Z</time>
      </trkpt>
      <trkpt lat="39.94483304282394" lon="116.47419746008855">
        <ele>21.2</ele>
        <time>2023-05-12T01:50:56Z</time>
      </trkpt>
      <trkpt lat="39.94482903056367" lon="116.47454672661073">
        <ele>25.8</ele>
        <time>2023-05-12T01:51:17Z</time>
      </trkpt>
      <trkpt lat="39.944789438508074" lon="116.47469025247268">
        <ele>26.499999999999996</ele>
        <time>2023-05-12T01:51:23Z</time>
      </trkpt>
      <trkpt lat="39.9447870274181" lon="116.47489800747668">
        <ele>24.5</ele>
        <time>2023-05-12T01:51:32Z</time>
      </trkpt>
      <trkpt lat="39.94470687373048" lon="116.47519509808934">
        <ele>24.3</ele>
        <time>2023-05-12T01:51:44Z</time>
      </trkpt>
      <trkpt lat="39.9446234446319" lon="116.47539483590602">
        <ele>26.099999999999998</ele>
        <time>2023-05-12T01:51:53Z</time>
      </trkpt>
      <trkpt lat="39.944526439630934" lon="116.47574311807034">
        <ele>26.099999999999998</ele>
        <time>2023-05-12T01:52:08Z</time>
      </trkpt>
      <trkpt lat="39.94440409957195" lon="116.47597297269996">
        <ele>25.4</ele>
        <time>2023-05-12T01:52:20Z</time>
      </trkpt>
      <trkpt lat="39.94428471718345" lon="116.47618777280601">
        <ele>25.0</ele>
        <time>2023-05-12T01:52:32Z</time>
      </trkpt>
      <trkpt lat="39.94420200421815" lon="116.47628714665926">
        <ele>24.9</ele>
        <time>2023-05-12T01:52:38Z</time>
      </trkpt>
      <trkpt lat="39.94391950875472" lon="116.4764598139712">
        <ele>22.7</ele>
        <time>2023-05-12T01:52:56Z</time>
      </trkpt>
      <trkpt lat="39.94370668365641" lon="116.4765180538397">
        <ele>20.7</ele>
        <time>2023-05-12T01:53:08Z</time>
      </trkpt>
      <trkpt lat="39.943662633745724" lon="116.47649999318917">
        <ele>19.9</ele>
        <time>2023-05-12T01:53:11Z</time>
      </trkpt>
      <trkpt lat="39.94359510860536" lon="116.47631532555486">
        <ele>20.2</ele>
        <time>2023-05-12T01:53:20Z</time>
      </trkpt>
      <trkpt lat="39.943441406936394" lon="116.47606743814312">
        <ele>20.2</ele>
        <time>2023-05-12T01:53:35Z</time>
      </trkpt>
      <trkpt lat="39.94334221904374" lon="116.4760002048169">
        <ele>20.3</ele>
        <time>2023-05-12T01:53:41Z</time>
      </trkpt>
      <trkpt lat="39.94308506039151" lon="116.47594102070076">
        <ele>21.0</ele>
        <time>2023-05-12T01:53:56Z</time>
      </trkpt>
      <trkpt lat="39.94283206758911" lon="116.47594004874504">
        <ele>20.4</ele>
        <time>2023-05-12T01:54:11Z</time>
      </trkpt>
      <trkpt lat="39.942714972090755" lon="116.47590493510955">
        <ele>20.9</ele>
        <time>2023-05-12T01:54:17Z</time>
      </trkpt>
      <trkpt lat="39.942416046934056" lon="116.47592705322809">
        <ele>21.8</ele>
        <time>2023-05-12T01:54:32Z</time>
      </trkpt>
      <trkpt lat="39.94213098101809" lon="116.47589998997924">
        <ele>23.599999999999998</ele>
        <time>2023-05-12T01:54:47Z</time>
      </trkpt>
      <trkpt lat="39.94195797359791" lon="116.47589499333591">
        <ele>26.8</ele>
        <time>2023-05-12T01:54:56Z</time>
      </trkpt>
      <trkpt lat="39.941666403093826" lon="116.47604156523462">
        <ele>25.4</ele>
        <time>2023-05-12T01:55:14Z</time>
      </trkpt>
      <trkpt lat="39.941486705249204" lon="116.47614496565872">
        <ele>22.9</ele>
        <time>2023-05-12T01:55:23Z</time>
      </trkpt>
      <trkpt lat="39.94129428330067" lon="116.47634472041113">
        <ele>25.2</ele>
        <time>2023-05-12T01:55:35Z</time>
      </trkpt>
      <trkpt lat="39.94125845107921" lon="116.47640293797815">
        <ele>25.8</ele>
        <time>2023-05-12T01:55:38Z</time>
      </trkpt>
      <trkpt lat="39.94125684713785" lon="116.47654144538414">
        <ele>27.400000000000002</ele>
        <time>2023-05-12T01:55:44Z</time>
      </trkpt>
      <trkpt lat="39.94137437374393" lon="116.47672711111005">
        <ele>25.5</ele>
        <time>2023-05-12T01:55:53Z</time>
      </trkpt>
      <trkpt lat="39.94138976975721" lon="116.47686561713292">
        <ele>23.7</ele>
        <time>2023-05-12T01:55:59Z</time>
      </trkpt>
      <trkpt lat="39.94134642448441" lon="116.47709345878916">
        <ele>22.0</ele>
        <time>2023-05-12T01:56:11Z</time>
      </trkpt>
      <trkpt lat="39.94122135408578" lon="116.47741565838676">
        <ele>23.2</ele>
        <time>2023-05-12T01:56:26Z</time>
      </trkpt>
      <trkpt lat="39.94105154096942" lon="116.477826190523">
        <ele>24.7</ele>
        <time>2023-05-12T01:56:47Z</time>
      </trkpt>
      <trkpt lat="39.9410593180347" lon="116.47809618466718">
        <ele>24.9</ele>
        <time>2023-05-12T01:56:59Z</time>
      </trkpt>
      <trkpt lat="39.94100689870917" lon="116.47829693181072">
        <ele>27.2</ele>
        <time>2023-05-12T01:57:08Z</time>
      </trkpt>
      <trkpt lat="39.94091941177683" lon="116.47847359497139">
        <ele>26.599999999999998</ele>
        <time>2023-05-12T01:57:17Z</time>
      </trkpt>
      <trkpt lat="39.94083966989372" lon="116.47856193123059">
        <ele>25.5</ele>
        <time>2023-05-12T01:57:23Z</time>
      </trkpt>
      <trkpt lat="39.9407950136767" lon="116.4786803745061">
        <ele>25.0</ele>
        <time>2023-05-12T01:57:29Z</time>
      </trkpt>
      <trkpt lat="39.94080334972096" lon="116.47879680392755">
        <ele>23.2</ele>
        <time>2023-05-12T01:57:35Z</time>
      </trkpt>
      <trkpt lat="39.94095793552383" lon="116.47900154207508">
        <ele>17.5</ele>
        <time>2023-05-12T01:57:47Z</time>
      </trkpt>
      <trkpt lat="39.9410691198167" lon="116.47906676964368">
        <ele>14.599999999999998</ele>
        <time>2023-05-12T01:57:53Z</time>
      </trkpt>
      <trkpt lat="39.941263919793464" lon="116.47934577875394">
        <ele>15.099999999999998</ele>
        <time>2023-05-12T01:58:08Z</time>
      </trkpt>
      <trkpt lat="39.941332213671046" lon="116.47944814967356">
        <ele>17.2</ele>
        <time>2023-05-12T01:58:14Z</time>
      </trkpt>
      <trkpt lat="39.94139413959882" lon="116.47976832961227">
        <ele>23.9</ele>
        <time>2023-05-12T01:58:29Z</time>
      </trkpt>
      <trkpt lat="39.94138184809727" lon="116.48001223680181">
        <ele>27.8</ele>
        <time>2023-05-12T01:58:41Z</time>
      </trkpt>
      <trkpt lat="39.94136502368935" lon="116.48007246264541">
        <ele>27.499999999999996</ele>
        <time>2023-05-12T01:58:44Z</time>
      </trkpt>
      <trkpt lat="39.94131409278272" lon="116.48009555479666">
        <ele>26.400000000000002</ele>
        <time>2023-05-12T01:58:47Z</time>
      </trkpt>
      <trkpt lat="39.94114708485743" lon="116.48009055704365">
        <ele>22.8</ele>
        <time>2023-05-12T01:58:56Z</time>
      </trkpt>
      <trkpt lat="39.94086217786267" lon="116.48011869712285">
        <ele>21.099999999999998</ele>
        <time>2023-05-12T01:59:14Z</time>
      </trkpt>
      <trkpt lat="39.94055023404477" lon="116.48013379210077">
        <ele>21.0</ele>
        <time>2023-05-12T01:59:32Z</time>
      </trkpt>
      <trkpt lat="39.940270221882216" lon="116.48012579729206">
        <ele>20.3</ele>
        <time>2023-05-12T01:59:47Z</time>
      </trkpt>
      <trkpt lat="39.940162246604366" lon="116.48013283691094">
        <ele>20.099999999999998</ele>
        <time>2023-05-12T01:59:53Z</time>
      </trkpt>
      <trkpt lat="39.940099202458946" lon="116.48011678511837">
        <ele>20.5</ele>
        <time>2023-05-12T01:59:56Z</time>
      </trkpt>
      <trkpt lat="39.93977827650984" lon="116.48013790359833">
        <ele>23.9</ele>
        <time>2023-05-12T02:00:11Z</time>
      </trkpt>
      <trkpt lat="39.939500223451944" lon="116.48011585632419">
        <ele>24.5</ele>
        <time>2023-05-12T02:00:23Z</time>
      </trkpt>
      <trkpt lat="39.93920127913625" lon="116.48013094967189">
        <ele>25.7</ele>
        <time>2023-05-12T02:00:35Z</time>
      </trkpt>
      <trkpt lat="39.93904529411748" lon="116.48013398037591">
        <ele>25.099999999999998</ele>
        <time>2023-05-12T02:00:44Z</time>
      </trkpt>
      <trkpt lat="39.93899537777593" lon="116.48016209106693">
        <ele>25.7</ele>
        <time>2023-05-12T02:00:47Z</time>
      </trkpt>
      <trkpt lat="39.938779185189304" lon="116.48009286074566">
        <ele>22.5</ele>
        <time>2023-05-12T02:00:59Z</time>
      </trkpt>
      <trkpt lat="39.93853314837201" lon="116.48007683185497">
        <ele>26.099999999999998</ele>
        <time>2023-05-12T02:01:14Z</time>
      </trkpt>
      <trkpt lat="39.93831921232922" lon="116.48009592947678">
        <ele>28.7</ele>
        <time>2023-05-12T02:01:29Z</time>
      </trkpt>
      <trkpt lat="39.93815740544774" lon="116.48016018843364">
        <ele>24.5</ele>
        <time>2023-05-12T02:01:38Z</time>
      </trkpt>
      <trkpt lat="39.93810039897846" lon="116.48015718437388">
        <ele>23.4</ele>
        <time>2023-05-12T02:01:41Z</time>
      </trkpt>
      <trkpt lat="39.938007309375706" lon="116.48012507665605">
        <ele>20.8</ele>
        <time>2023-05-12T02:01:47Z</time>
      </trkpt>
      <trkpt lat="39.93786051941969" lon="116.48019535614166">
        <ele>21.7</ele>
        <time>2023-05-12T02:01:56Z</time>
      </trkpt>
      <trkpt lat="39.937819672759254" lon="116.48024755526951">
        <ele>22.4</ele>
        <time>2023-05-12T02:01:59Z</time>
      </trkpt>
      <trkpt lat="39.93778471648783" lon="116.48060589259269">
        <ele>30.999999999999996</ele>
        <time>2023-05-12T02:02:17Z</time>
      </trkpt>
      <trkpt lat="39.937775219557714" lon="116.4807785365633">
        <ele>35.400000000000006</ele>
        <time>2023-05-12T02:02:26Z</time>
      </trkpt>
      <trkpt lat="39.937789414891895" lon="116.48084578527433">
        <ele>33.900000000000006</ele>
        <time>2023-05-12T02:02:29Z</time>
      </trkpt>
      <trkpt lat="39.93778381291785" lon="116.48098229459498">
        <ele>32.900000000000006</ele>
        <time>2023-05-12T02:02:35Z</time>
      </trkpt>
      <trkpt lat="39.93780199945927" lon="116.48104653174988">
        <ele>31.599999999999998</ele>
        <time>2023-05-12T02:02:38Z</time>
      </trkpt>
      <trkpt lat="39.937833775809715" lon="116.48097024345978">
        <ele>26.900000000000002</ele>
        <time>2023-05-12T02:02:44Z</time>
      </trkpt>
      <trkpt lat="39.937826612559" lon="116.48057075659942">
        <ele>21.8</ele>
        <time>2023-05-12T02:03:02Z</time>
      </trkpt>
      <trkpt lat="39.937839397756825" lon="116.48015320210239">
        <ele>22.3</ele>
        <time>2023-05-12T02:03:20Z</time>
      </trkpt>
      <trkpt lat="39.93786875228687" lon="116.47993137436971">
        <ele>22.5</ele>
        <time>2023-05-12T02:03:29Z</time>
      </trkpt>
      <trkpt lat="39.937842237735445" lon="116.47975371816156">
        <ele>22.4</ele>
        <time>2023-05-12T02:03:35Z</time>
      </trkpt>
      <trkpt lat="39.93783901003694" lon="116.4793301478563">
        <ele>21.8</ele>
        <time>2023-05-12T02:03:53Z</time>
      </trkpt>
      <trkpt lat="39.93781890124196" lon="116.47894673068647">
        <ele>17.9</ele>
        <time>2023-05-12T02:04:08Z</time>
      </trkpt>
      <trkpt lat="39.93782171220223" lon="116.47853520891891">
        <ele>22.8</ele>
        <time>2023-05-12T02:04:26Z</time>
      </trkpt>
      <trkpt lat="39.93783535714491" lon="116.4780654736099">
        <ele>23.3</ele>
        <time>2023-05-12T02:04:47Z</time>
      </trkpt>
      <trkpt lat="39.93783973276923" lon="116.47784867405944">
        <ele>24.0</ele>
        <time>2023-05-12T02:04:56Z</time>
      </trkpt>
      <trkpt lat="39.93782855993642" lon="116.47778845364108">
        <ele>24.3</ele>
        <time>2023-05-12T02:04:59Z</time>
      </trkpt>
      <trkpt lat="39.93774490700306" lon="116.47790790410748">
        <ele>25.3</ele>
        <time>2023-05-12T02:05:08Z</time>
      </trkpt>
      <trkpt lat="39.937699940584785" lon="116.47791895042029">
        <ele>25.0</ele>
        <time>2023-05-12T02:05:11Z</time>
      </trkpt>
      <trkpt lat="39.93761960295308" lon="116.47780052416492">
        <ele>24.7</ele>
        <time>2023-05-12T02:05:17Z</time>
      </trkpt>
      <trkpt lat="39.93736715119039" lon="116.47763996451084">
        <ele>19.3</ele>
        <time>2023-05-12T02:05:35Z</time>
      </trkpt>
      <trkpt lat="39.93715992579908" lon="116.47755869128612">
        <ele>16.7</ele>
        <time>2023-05-12T02:05:47Z</time>
      </trkpt>
      <trkpt lat="39.936859920514145" lon="116.4775527066975">
        <ele>19.3</ele>
        <time>2023-05-12T02:06:02Z</time>
      </trkpt>
      <trkpt lat="39.936693921399744" lon="116.47755072009912">
        <ele>19.9</ele>
        <time>2023-05-12T02:06:11Z</time>
      </trkpt>
      <trkpt lat="39.93652168606075" lon="116.47746643153536">
        <ele>22.599999999999998</ele>
        <time>2023-05-12T02:06:20Z</time>
      </trkpt>
      <trkpt lat="39.936261644594225" lon="116.4774483976575">
        <ele>22.3</ele>
        <time>2023-05-12T02:06:35Z</time>
      </trkpt>
      <trkpt lat="39.93597688094179" lon="116.47752672126849">
        <ele>19.3</ele>
        <time>2023-05-12T02:06:50Z</time>
      </trkpt>
      <trkpt lat="39.93591792945576" lon="116.47754278772922">
        <ele>18.8</ele>
        <time>2023-05-12T02:06:53Z</time>
      </trkpt>
      <trkpt lat="39.93565236352243" lon="116.47734208279344">
        <ele>16.3</ele>
        <time>2023-05-12T02:07:08Z</time>
      </trkpt>
      <trkpt lat="39.93543166392151" lon="116.47709520333979">
        <ele>20.599999999999998</ele>
        <time>2023-05-12T02:07:20Z</time>
      </trkpt>
      <trkpt lat="39.935382593941" lon="116.47707011735612">
        <ele>23.4</ele>
        <time>2023-05-12T02:07:23Z</time>
      </trkpt>
      <trkpt lat="39.935292329982516" lon="116.4769767860302">
        <ele>27.599999999999998</ele>
        <time>2023-05-12T02:07:32Z</time>
      </trkpt>
      <trkpt lat="39.93517654466581" lon="116.47705006946617">
        <ele>26.8</ele>
        <time>2023-05-12T02:07:38Z</time>
      </trkpt>
      <trkpt lat="39.93499166145785" lon="116.47708823264841">
        <ele>22.0</ele>
        <time>2023-05-12T02:07:47Z</time>
      </trkpt>
      <trkpt lat="39.93478994305653" lon="116.47718360808103">
        <ele>21.2</ele>
        <time>2023-05-12T02:07:56Z</time>
      </trkpt>
      <trkpt lat="39.93460002556695" lon="116.47720972772595">
        <ele>20.5</ele>
        <time>2023-05-12T02:08:05Z</time>
      </trkpt>
      <trkpt lat="39.93444403184391" lon="116.477209747261">
        <ele>22.5</ele>
        <time>2023-05-12T02:08:11Z</time>
      </trkpt>
      <trkpt lat="39.93432508847023" lon="116.47722782852772">
        <ele>24.599999999999998</ele>
        <time>2023-05-12T02:08:17Z</time>
      </trkpt>
      <trkpt lat="39.93406502694335" lon="116.47720276891349">
        <ele>24.599999999999998</ele>
        <time>2023-05-12T02:08:32Z</time>
      </trkpt>
      <trkpt lat="39.934007092633905" lon="116.47722485728708">
        <ele>25.9</ele>
        <time>2023-05-12T02:08:35Z</time>
      </trkpt>
      <trkpt lat="39.93389513170501" lon="116.47723691555724">
        <ele>29.099999999999998</ele>
        <time>2023-05-12T02:24:30Z</time>
      </trkpt>
      <trkpt lat="39.933724080995525" lon="116.47721686322883">
        <ele>33.300000000000004</ele>
        <time>2023-05-12T02:24:39Z</time>
      </trkpt>
      <trkpt lat="39.93356925263844" lon="116.47692581400128">
        <ele>30.999999999999996</ele>
        <time>2023-05-12T02:24:54Z</time>
      </trkpt>
      <trkpt lat="39.93347868713344" lon="116.47672709653033">
        <ele>28.999999999999996</ele>
        <time>2023-05-12T02:25:03Z</time>
      </trkpt>
      <trkpt lat="39.9333742863714" lon="116.47658559100095">
        <ele>26.7</ele>
        <time>2023-05-12T02:25:09Z</time>
      </trkpt>
      <trkpt lat="39.933298901937555" lon="116.47645010421932">
        <ele>24.9</ele>
        <time>2023-05-12T02:25:15Z</time>
      </trkpt>
      <trkpt lat="39.93323871216" lon="116.47638286559932">
        <ele>25.4</ele>
        <time>2023-05-12T02:25:18Z</time>
      </trkpt>
      <trkpt lat="39.93317827305815" lon="116.47622830766082">
        <ele>26.2</ele>
        <time>2023-05-12T02:25:24Z</time>
      </trkpt>
      <trkpt lat="39.9331311316765" lon="116.47617813004683">
        <ele>26.400000000000002</ele>
        <time>2023-05-12T02:25:27Z</time>
      </trkpt>
      <trkpt lat="39.93305025529471" lon="116.47622029433205">
        <ele>26.7</ele>
        <time>2023-05-12T02:25:30Z</time>
      </trkpt>
      <trkpt lat="39.93281406497699" lon="116.47650034870023">
        <ele>22.3</ele>
        <time>2023-05-12T02:25:45Z</time>
      </trkpt>
      <trkpt lat="39.93269350336526" lon="116.47665191897963">
        <ele>21.2</ele>
        <time>2023-05-12T02:25:54Z</time>
      </trkpt>
      <trkpt lat="39.93270622131092" lon="116.47690283739229">
        <ele>22.8</ele>
        <time>2023-05-12T02:26:03Z</time>
      </trkpt>
      <trkpt lat="39.93266967442574" lon="116.47706042025929">
        <ele>23.5</ele>
        <time>2023-05-12T02:26:09Z</time>
      </trkpt>
      <trkpt lat="39.932689154419634" lon="116.47722803338462">
        <ele>22.9</ele>
        <time>2023-05-12T02:26:15Z</time>
      </trkpt>
      <trkpt lat="39.93268139094507" lon="116.47731033677498">
        <ele>23.7</ele>
        <time>2023-05-12T02:26:18Z</time>
      </trkpt>
      <trkpt lat="39.932639885503924" lon="116.47748197297062">
        <ele>26.7</ele>
        <time>2023-05-12T02:26:24Z</time>
      </trkpt>
      <trkpt lat="39.93265641851692" lon="116.47766765408225">
        <ele>27.8</ele>
        <time>2023-05-12T02:26:30Z</time>
      </trkpt>
      <trkpt lat="39.93268977802407" lon="116.47779311181927">
        <ele>27.499999999999996</ele>
        <time>2023-05-12T02:26:36Z</time>
      </trkpt>
      <trkpt lat="39.93269384430369" lon="116.47816347628776">
        <ele>30.2</ele>
        <time>2023-05-12T02:26:51Z</time>
      </trkpt>
      <trkpt lat="39.9326715513582" lon="116.47840838280162">
        <ele>31.599999999999998</ele>
        <time>2023-05-12T02:27:00Z</time>
      </trkpt>
      <trkpt lat="39.93261870408276" lon="116.47846058212768">
        <ele>32.1</ele>
        <time>2023-05-12T02:27:03Z</time>
      </trkpt>
      <trkpt lat="39.93253978547478" lon="116.4784876920823">
        <ele>31.099999999999998</ele>
        <time>2023-05-12T02:27:06Z</time>
      </trkpt>
      <trkpt lat="39.93246476243576" lon="116.47847866811117">
        <ele>31.8</ele>
        <time>2023-05-12T02:27:09Z</time>
      </trkpt>
      <trkpt lat="39.932283888511904" lon="116.47851984273224">
        <ele>27.599999999999998</ele>
        <time>2023-05-12T02:27:18Z</time>
      </trkpt>
      <trkpt lat="39.93222001567813" lon="116.47856301015072">
        <ele>25.5</ele>
        <time>2023-05-12T02:27:21Z</time>
      </trkpt>
      <trkpt lat="39.93218324031696" lon="116.47864030030271">
        <ele>24.099999999999998</ele>
        <time>2023-05-12T02:27:24Z</time>
      </trkpt>
      <trkpt lat="39.932151769336365" lon="116.47882297952123">
        <ele>23.0</ele>
        <time>2023-05-12T02:27:30Z</time>
      </trkpt>
      <trkpt lat="39.93211892732774" lon="116.47887718408111">
        <ele>22.8</ele>
        <time>2023-05-12T02:27:33Z</time>
      </trkpt>
      <trkpt lat="39.93195495716943" lon="116.47888523429832">
        <ele>21.599999999999998</ele>
        <time>2023-05-12T02:27:42Z</time>
      </trkpt>
      <trkpt lat="39.931669079002766" lon="116.47892341115566">
        <ele>23.7</ele>
        <time>2023-05-12T02:27:57Z</time>
      </trkpt>
      <trkpt lat="39.931502077054375" lon="116.47892042091243">
        <ele>20.9</ele>
        <time>2023-05-12T02:28:06Z</time>
      </trkpt>
      <trkpt lat="39.931301800820094" lon="116.47882208216595">
        <ele>21.099999999999998</ele>
        <time>2023-05-12T02:28:15Z</time>
      </trkpt>
      <trkpt lat="39.930999917484876" lon="116.47885825356579">
        <ele>21.4</ele>
        <time>2023-05-12T02:28:27Z</time>
      </trkpt>
      <trkpt lat="39.930867073751145" lon="116.47891046323593">
        <ele>24.5</ele>
        <time>2023-05-12T02:28:33Z</time>
      </trkpt>
      <trkpt lat="39.93079205357654" lon="116.47890244292024">
        <ele>26.999999999999996</ele>
        <time>2023-05-12T02:28:36Z</time>
      </trkpt>
      <trkpt lat="39.93050538447507" lon="116.4790128872728">
        <ele>30.499999999999996</ele>
        <time>2023-05-12T02:28:48Z</time>
      </trkpt>
      <trkpt lat="39.93023970596405" lon="116.47912031802089">
        <ele>28.999999999999996</ele>
        <time>2023-05-12T02:29:00Z</time>
      </trkpt>
      <trkpt lat="39.93012387914607" lon="116.47917854805085">
        <ele>28.3</ele>
        <time>2023-05-12T02:29:06Z</time>
      </trkpt>
      <trkpt lat="39.93012236745252" lon="116.47934717282803">
        <ele>28.499999999999996</ele>
        <time>2023-05-12T02:29:12Z</time>
      </trkpt>
      <trkpt lat="39.93013691363366" lon="116.47953587041832">
        <ele>30.400000000000002</ele>
        <time>2023-05-12T02:29:18Z</time>
      </trkpt>
      <trkpt lat="39.93012219068526" lon="116.47963122587014">
        <ele>27.8</ele>
        <time>2023-05-12T02:29:21Z</time>
      </trkpt>
      <trkpt lat="39.93017245003118" lon="116.48006583284845">
        <ele>21.7</ele>
        <time>2023-05-12T02:29:36Z</time>
      </trkpt>
      <trkpt lat="39.93018501536852" lon="116.48026055488629">
        <ele>20.4</ele>
        <time>2023-05-12T02:29:42Z</time>
      </trkpt>
      <trkpt lat="39.93025060817935" lon="116.48046530812033">
        <ele>16.3</ele>
        <time>2023-05-12T02:29:51Z</time>
      </trkpt>
      <trkpt lat="39.93023987698507" lon="116.48090093113616">
        <ele>16.099999999999998</ele>
        <time>2023-05-12T02:30:06Z</time>
      </trkpt>
      <trkpt lat="39.9302100958638" lon="116.48131849145167">
        <ele>21.9</ele>
        <time>2023-05-12T02:30:21Z</time>
      </trkpt>
      <trkpt lat="39.930193597593025" lon="116.48149013396312">
        <ele>24.4</ele>
        <time>2023-05-12T02:30:27Z</time>
      </trkpt>
      <trkpt lat="39.930221625884926" lon="116.48184244613246">
        <ele>26.3</ele>
        <time>2023-05-12T02:30:42Z</time>
      </trkpt>
      <trkpt lat="39.930211680456146" lon="116.48220279447669">
        <ele>26.099999999999998</ele>
        <time>2023-05-12T02:30:54Z</time>
      </trkpt>
      <trkpt lat="39.93019173962704" lon="116.48256414923759">
        <ele>27.7</ele>
        <time>2023-05-12T02:31:06Z</time>
      </trkpt>
      <trkpt lat="39.930184575711166" lon="116.48284921789096">
        <ele>30.099999999999998</ele>
        <time>2023-05-12T02:31:15Z</time>
      </trkpt>
      <trkpt lat="39.9300919446289" lon="116.482973695926">
        <ele>30.999999999999996</ele>
        <time>2023-05-12T02:31:21Z</time>
      </trkpt>
      <trkpt lat="39.93008533082045" lon="116.48310518971857">
        <ele>29.3</ele>
        <time>2023-05-12T02:31:27Z</time>
      </trkpt>
      <trkpt lat="39.93000749605551" lon="116.48316040646128">
        <ele>28.599999999999998</ele>
        <time>2023-05-12T02:31:33Z</time>
      </trkpt>
      <trkpt lat="39.929890462497276" lon="116.48314737214255">
        <ele>26.400000000000002</ele>
        <time>2023-05-12T02:31:39Z</time>
      </trkpt>
      <trkpt lat="39.929825388522936" lon="116.48312128240471">
        <ele>25.099999999999998</ele>
        <time>2023-05-12T02:31:42Z</time>
      </trkpt>
      <trkpt lat="39.929624437942444" lon="116.48313536019708">
        <ele>22.8</ele>
        <time>2023-05-12T02:31:51Z</time>
      </trkpt>
      <trkpt lat="39.929579327802394" lon="116.48309722280482">
        <ele>21.099999999999998</ele>
        <time>2023-05-12T02:31:54Z</time>
      </trkpt>
      <trkpt lat="39.92956711028284" lon="116.48302294584784">
        <ele>19.8</ele>
        <time>2023-05-12T02:31:57Z</time>
      </trkpt>
      <trkpt lat="39.92957487727493" lon="116.48294364763939">
        <ele>21.099999999999998</ele>
        <time>2023-05-12T02:32:00Z</time>
      </trkpt>
      <trkpt lat="39.929534234167335" lon="116.48272382905935">
        <ele>21.099999999999998</ele>
        <time>2023-05-12T02:32:09Z</time>
      </trkpt>
      <trkpt lat="39.92950700574092" lon="116.48264553922333">
        <ele>21.4</ele>
        <time>2023-05-12T02:32:12Z</time>
      </trkpt>
      <trkpt lat="39.929451802042166" lon="116.48257528301201">
        <ele>21.5</ele>
        <time>2023-05-12T02:32:15Z</time>
      </trkpt>
      <trkpt lat="39.9292123441668" lon="116.48241571549022">
        <ele>20.5</ele>
        <time>2023-05-12T02:32:27Z</time>
      </trkpt>
      <trkpt lat="39.92915395557933" lon="116.48228222325216">
        <ele>21.7</ele>
        <time>2023-05-12T02:32:33Z</time>
      </trkpt>
      <trkpt lat="39.92914053302013" lon="116.4821376842988">
        <ele>21.599999999999998</ele>
        <time>2023-05-12T02:32:39Z</time>
      </trkpt>
      <trkpt lat="39.92915215368761" lon="116.482008198726">
        <ele>22.3</ele>
        <time>2023-05-12T02:32:45Z</time>
      </trkpt>
      <trkpt lat="39.92913489016631" lon="116.48191786323406">
        <ele>23.0</ele>
        <time>2023-05-12T02:32:48Z</time>
      </trkpt>
      <trkpt lat="39.92909366584941" lon="116.48184057958007">
        <ele>23.8</ele>
        <time>2023-05-12T02:32:51Z</time>
      </trkpt>
      <trkpt lat="39.92904152712138" lon="116.48179240609484">
        <ele>23.9</ele>
        <time>2023-05-12T02:32:54Z</time>
      </trkpt>
      <trkpt lat="39.9288395500122" lon="116.4817974500821">
        <ele>23.5</ele>
        <time>2023-05-12T02:33:03Z</time>
      </trkpt>
      <trkpt lat="39.92864488956343" lon="116.48191089820217">
        <ele>24.7</ele>
        <time>2023-05-12T02:33:12Z</time>
      </trkpt>
      <trkpt lat="39.92852217933257" lon="116.48200827743827">
        <ele>24.8</ele>
        <time>2023-05-12T02:33:18Z</time>
      </trkpt>
      <trkpt lat="39.92838925815786" lon="116.4820333878523">
        <ele>23.8</ele>
        <time>2023-05-12T02:33:24Z</time>
      </trkpt>
      <trkpt lat="39.92822029440991" lon="116.48204344648721">
        <ele>24.2</ele>
        <time>2023-05-12T02:33:33Z</time>
      </trkpt>
      <trkpt lat="39.92802675759349" lon="116.48219905243612">
        <ele>23.3</ele>
        <time>2023-05-12T02:33:45Z</time>
      </trkpt>
      <trkpt lat="39.92785855810041" lon="116.48247008747579">
        <ele>26.099999999999998</ele>
        <time>2023-05-12T02:33:57Z</time>
      </trkpt>
      <trkpt lat="39.92780008408448" lon="116.48264876371219">
        <ele>25.7</ele>
        <time>2023-05-12T02:34:03Z</time>
      </trkpt>
      <trkpt lat="39.92775930645475" lon="116.48272405075848">
        <ele>26.099999999999998</ele>
        <time>2023-05-12T02:34:06Z</time>
      </trkpt>
      <trkpt lat="39.927702423564206" lon="116.48276320450175">
        <ele>24.599999999999998</ele>
        <time>2023-05-12T02:34:09Z</time>
      </trkpt>
      <trkpt lat="39.927622456263435" lon="116.48277325209168">
        <ele>24.099999999999998</ele>
        <time>2023-05-12T02:34:12Z</time>
      </trkpt>
      <trkpt lat="39.92743542857807" lon="116.4827612303286">
        <ele>19.4</ele>
        <time>2023-05-12T02:34:21Z</time>
      </trkpt>
      <trkpt lat="39.92726255927235" lon="116.48280340985363">
        <ele>22.3</ele>
        <time>2023-05-12T02:34:30Z</time>
      </trkpt>
      <trkpt lat="39.92721472315159" lon="116.48285862267399">
        <ele>23.599999999999998</ele>
        <time>2023-05-12T02:34:33Z</time>
      </trkpt>
      <trkpt lat="39.927193897734504" lon="116.48291784719854">
        <ele>23.3</ele>
        <time>2023-05-12T02:34:36Z</time>
      </trkpt>
      <trkpt lat="39.92718999991032" lon="116.48329325527133">
        <ele>20.8</ele>
        <time>2023-05-12T02:34:48Z</time>
      </trkpt>
      <trkpt lat="39.92718824766505" lon="116.48337757182273">
        <ele>20.4</ele>
        <time>2023-05-12T02:34:51Z</time>
      </trkpt>
      <trkpt lat="39.92720981609856" lon="116.48357129619993">
        <ele>24.099999999999998</ele>
        <time>2023-05-12T02:35:00Z</time>
      </trkpt>
      <trkpt lat="39.927205028763495" lon="116.48364356812729">
        <ele>25.3</ele>
        <time>2023-05-12T02:35:03Z</time>
      </trkpt>
      <trkpt lat="39.92722028493288" lon="116.4837308941444">
        <ele>25.8</ele>
        <time>2023-05-12T02:35:06Z</time>
      </trkpt>
      <trkpt lat="39.92721963040272" lon="116.48384833533561">
        <ele>26.099999999999998</ele>
        <time>2023-05-12T02:35:09Z</time>
      </trkpt>
      <trkpt lat="39.92717916963956" lon="116.48403102680633">
        <ele>23.9</ele>
        <time>2023-05-12T02:35:15Z</time>
      </trkpt>
      <trkpt lat="39.92717066941571" lon="116.48420066552436">
        <ele>25.099999999999998</ele>
        <time>2023-05-12T02:35:21Z</time>
      </trkpt>
      <trkpt lat="39.92712406452475" lon="116.48433417334346">
        <ele>23.0</ele>
        <time>2023-05-12T02:35:24Z</time>
      </trkpt>
      <trkpt lat="39.92703029310958" lon="116.4844104719742">
        <ele>21.4</ele>
        <time>2023-05-12T02:35:27Z</time>
      </trkpt>
      <trkpt lat="39.926729329078896" lon="116.48441853974198">
        <ele>19.8</ele>
        <time>2023-05-12T02:35:42Z</time>
      </trkpt>
      <trkpt lat="39.926447355407156" lon="116.48442359381218">
        <ele>20.099999999999998</ele>
        <time>2023-05-12T02:35:54Z</time>
      </trkpt>
      <trkpt lat="39.92613432090603" lon="116.48440757246874">
        <ele>19.0</ele>
        <time>2023-05-12T02:36:06Z</time>
      </trkpt>
      <trkpt lat="39.92588945220737" lon="116.48444875783541">
        <ele>20.7</ele>
        <time>2023-05-12T02:36:15Z</time>
      </trkpt>
      <trkpt lat="39.925614345181316" lon="116.48440864113772">
        <ele>19.599999999999998</ele>
        <time>2023-05-12T02:36:24Z</time>
      </trkpt>
      <trkpt lat="39.92535431149011" lon="116.4843936169569">
        <ele>19.3</ele>
        <time>2023-05-12T02:36:36Z</time>
      </trkpt>
      <trkpt lat="39.925129421281824" lon="116.48442777339253">
        <ele>18.099999999999998</ele>
        <time>2023-05-12T02:36:45Z</time>
      </trkpt>
      <trkpt lat="39.925009296085555" lon="116.48438362226021">
        <ele>19.7</ele>
        <time>2023-05-12T02:36:51Z</time>
      </trkpt>
      <trkpt lat="39.92490447784804" lon="116.48444386187691">
        <ele>21.4</ele>
        <time>2023-05-12T02:36:57Z</time>
      </trkpt>
      <trkpt lat="39.92473240518261" lon="116.48475605804674">
        <ele>23.7</ele>
        <time>2023-05-12T02:37:12Z</time>
      </trkpt>
      <trkpt lat="39.92466403277346" lon="116.48496786401331">
        <ele>25.2</ele>
        <time>2023-05-12T02:37:21Z</time>
      </trkpt>
      <trkpt lat="39.924647522255874" lon="116.48513348990903">
        <ele>24.5</ele>
        <time>2023-05-12T02:37:27Z</time>
      </trkpt>
      <trkpt lat="39.92461992050566" lon="116.4852680001398">
        <ele>30.400000000000002</ele>
        <time>2023-05-12T02:37:33Z</time>
      </trkpt>
      <trkpt lat="39.924784788424795" lon="116.48556409574708">
        <ele>25.9</ele>
        <time>2023-05-12T02:37:48Z</time>
      </trkpt>
      <trkpt lat="39.92489212812909" lon="116.48568052143874">
        <ele>20.9</ele>
        <time>2023-05-12T02:37:54Z</time>
      </trkpt>
    </trkseg>
  </trk>
</gpx>