<?xml version="1.0" encoding="UTF-8"?>
<gpx xmlns="http://www.topografix.com/GPX/1/1" xmlns:gpxtpx="http://www.garmin.com/xmlschemas/TrackPointExtension/v1" xmlns:xsi="http://www.w3.org/2001/XMLSchema-instance" xsi:schemaLocation="http://www.topografix.com/GPX/1/1 http://www.topografix.com/GPX/1/1/gpx.xsd" version="1.1" creator="gpx.py -- https://github.com/tkrajina/gpxpy">
  <trk>
    <name>gpx from keep</name>
    <type>Run</type>
    <trkseg>
      <trkpt lat="39.92274476361948" lon="116.48822741345825">
        <ele>21.9</ele>
        <time>2023-06-09T12:36:25Z</time>
      </trkpt>
      <trkpt lat="39.92268914761767" lon="116.4883559068786">
        <ele>22.599999999999998</ele>
        <time>2023-06-09T12:36:37Z</time>
      </trkpt>
      <trkpt lat="39.92271921732357" lon="116.4887162679674">
        <ele>24.0</ele>
        <time>2023-06-09T12:36:49Z</time>
      </trkpt>
      <trkpt lat="39.922750496540814" lon="116.48881062152513">
        <ele>24.2</ele>
        <time>2023-06-09T12:36:52Z</time>
      </trkpt>
      <trkpt lat="39.9227976169552" lon="116.48885177157798">
        <ele>25.7</ele>
        <time>2023-06-09T12:36:55Z</time>
      </trkpt>
      <trkpt lat="39.92312970471123" lon="116.48888585952419">
        <ele>35.900000000000006</ele>
        <time>2023-06-09T12:37:10Z</time>
      </trkpt>
      <trkpt lat="39.923399654766634" lon="116.48887277646169">
        <ele>38.800000000000004</ele>
        <time>2023-06-09T12:37:22Z</time>
      </trkpt>
      <trkpt lat="39.92372769794359" lon="116.4888918078656">
        <ele>40.800000000000004</ele>
        <time>2023-06-09T12:37:40Z</time>
      </trkpt>
      <trkpt lat="39.924024658842136" lon="116.48888273665028">
        <ele>40.6</ele>
        <time>2023-06-09T12:37:52Z</time>
      </trkpt>
      <trkpt lat="39.92415976072757" lon="116.48891885674232">
        <ele>40.800000000000004</ele>
        <time>2023-06-09T12:37:58Z</time>
      </trkpt>
      <trkpt lat="39.92445270986496" lon="116.48890577081187">
        <ele>46.400000000000006</ele>
        <time>2023-06-09T12:38:13Z</time>
      </trkpt>
      <trkpt lat="39.924737772758256" lon="116.48893083039185">
        <ele>43.400000000000006</ele>
        <time>2023-06-09T12:38:25Z</time>
      </trkpt>
      <trkpt lat="39.92502049550005" lon="116.48884145668472">
        <ele>42.400000000000006</ele>
        <time>2023-06-09T12:38:40Z</time>
      </trkpt>
      <trkpt lat="39.92531750419112" lon="116.48884844631186">
        <ele>45.6</ele>
        <time>2023-06-09T12:38:52Z</time>
      </trkpt>
      <trkpt lat="39.925382459741336" lon="116.48883438497701">
        <ele>46.2</ele>
        <time>2023-06-09T12:38:55Z</time>
      </trkpt>
      <trkpt lat="39.925707452372954" lon="116.48883635210193">
        <ele>41.7</ele>
        <time>2023-06-09T12:39:10Z</time>
      </trkpt>
      <trkpt lat="39.925987208125804" lon="116.48875802062031">
        <ele>41.0</ele>
        <time>2023-06-09T12:39:25Z</time>
      </trkpt>
      <trkpt lat="39.92629210909372" lon="116.48872887235777">
        <ele>35.900000000000006</ele>
        <time>2023-06-09T12:39:37Z</time>
      </trkpt>
      <trkpt lat="39.92633898483339" lon="116.4886877106087">
        <ele>35.1</ele>
        <time>2023-06-09T12:39:40Z</time>
      </trkpt>
      <trkpt lat="39.92638534748222" lon="116.48847389497354">
        <ele>30.7</ele>
        <time>2023-06-09T12:39:49Z</time>
      </trkpt>
      <trkpt lat="39.926388879084975" lon="116.488316297718">
        <ele>26.3</ele>
        <time>2023-06-09T12:39:55Z</time>
      </trkpt>
      <trkpt lat="39.92641062771172" lon="116.48823197573745">
        <ele>25.9</ele>
        <time>2023-06-09T12:39:58Z</time>
      </trkpt>
      <trkpt lat="39.92648728766727" lon="116.48811853674047">
        <ele>25.7</ele>
        <time>2023-06-09T12:40:04Z</time>
      </trkpt>
      <trkpt lat="39.926537225999965" lon="116.48809845451598">
        <ele>27.3</ele>
        <time>2023-06-09T12:40:07Z</time>
      </trkpt>
      <trkpt lat="39.92682232463662" lon="116.48813555959637">
        <ele>31.7</ele>
        <time>2023-06-09T12:40:25Z</time>
      </trkpt>
      <trkpt lat="39.92693929898318" lon="116.48812851841907">
        <ele>30.900000000000002</ele>
        <time>2023-06-09T12:40:31Z</time>
      </trkpt>
      <trkpt lat="39.92716981560323" lon="116.48796888551877">
        <ele>30.7</ele>
        <time>2023-06-09T12:40:43Z</time>
      </trkpt>
      <trkpt lat="39.92741516191726" lon="116.48775203436925">
        <ele>32.5</ele>
        <time>2023-06-09T12:40:55Z</time>
      </trkpt>
      <trkpt lat="39.9274770134085" lon="116.48770284054389">
        <ele>32.1</ele>
        <time>2023-06-09T12:40:58Z</time>
      </trkpt>
      <trkpt lat="39.927664219465015" lon="116.48743781467074">
        <ele>28.8</ele>
        <time>2023-06-09T12:41:10Z</time>
      </trkpt>
      <trkpt lat="39.9277376210389" lon="116.4872370462681">
        <ele>27.499999999999996</ele>
        <time>2023-06-09T12:41:19Z</time>
      </trkpt>
      <trkpt lat="39.927744433246545" lon="116.48717380629999">
        <ele>26.8</ele>
        <time>2023-06-09T12:41:22Z</time>
      </trkpt>
      <trkpt lat="39.927683724566634" lon="116.4869339069417">
        <ele>21.8</ele>
        <time>2023-06-09T12:41:31Z</time>
      </trkpt>
      <trkpt lat="39.927704188350866" lon="116.48675322157163">
        <ele>18.7</ele>
        <time>2023-06-09T12:41:40Z</time>
      </trkpt>
      <trkpt lat="39.927799524425176" lon="116.48653036781361">
        <ele>20.0</ele>
        <time>2023-06-09T12:41:49Z</time>
      </trkpt>
      <trkpt lat="39.92778052681178" lon="116.48619309659844">
        <ele>20.099999999999998</ele>
        <time>2023-06-09T12:42:01Z</time>
      </trkpt>
      <trkpt lat="39.92794759060327" lon="116.48587889003619">
        <ele>23.9</ele>
        <time>2023-06-09T12:42:16Z</time>
      </trkpt>
      <trkpt lat="39.92796234662626" lon="116.4857965776706">
        <ele>25.3</ele>
        <time>2023-06-09T12:42:19Z</time>
      </trkpt>
      <trkpt lat="39.927914422989915" lon="116.48548340258266">
        <ele>24.7</ele>
        <time>2023-06-09T12:42:31Z</time>
      </trkpt>
      <trkpt lat="39.92791007624577" lon="116.48536596041086">
        <ele>23.5</ele>
        <time>2023-06-09T12:42:34Z</time>
      </trkpt>
      <trkpt lat="39.92785797895642" lon="116.48499356378687">
        <ele>19.5</ele>
        <time>2023-06-09T12:42:49Z</time>
      </trkpt>
      <trkpt lat="39.92785751403028" lon="116.48483597039801">
        <ele>17.5</ele>
        <time>2023-06-09T12:42:55Z</time>
      </trkpt>
      <trkpt lat="39.92791212695671" lon="116.48470547234533">
        <ele>18.9</ele>
        <time>2023-06-09T12:43:01Z</time>
      </trkpt>
      <trkpt lat="39.92803494732872" lon="116.48464623411719">
        <ele>19.4</ele>
        <time>2023-06-09T12:43:10Z</time>
      </trkpt>
      <trkpt lat="39.928231812054186" lon="116.48460304711327">
        <ele>19.099999999999998</ele>
        <time>2023-06-09T12:43:19Z</time>
      </trkpt>
      <trkpt lat="39.92829859038257" lon="116.48452875927575">
        <ele>19.599999999999998</ele>
        <time>2023-06-09T12:43:22Z</time>
      </trkpt>
      <trkpt lat="39.92836513807099" lon="116.48437617700066">
        <ele>18.2</ele>
        <time>2023-06-09T12:43:28Z</time>
      </trkpt>
      <trkpt lat="39.928360656321765" lon="116.48421256227535">
        <ele>19.7</ele>
        <time>2023-06-09T12:43:37Z</time>
      </trkpt>
      <trkpt lat="39.928265385333674" lon="116.48411922322063">
        <ele>19.9</ele>
        <time>2023-06-09T12:43:43Z</time>
      </trkpt>
      <trkpt lat="39.92826217566397" lon="116.48404795574596">
        <ele>19.9</ele>
        <time>2023-06-09T12:43:46Z</time>
      </trkpt>
      <trkpt lat="39.92837215822632" lon="116.48370364855772">
        <ele>20.5</ele>
        <time>2023-06-09T12:43:55Z</time>
      </trkpt>
      <trkpt lat="39.928539797243566" lon="116.48358317536216">
        <ele>21.099999999999998</ele>
        <time>2023-06-09T12:44:01Z</time>
      </trkpt>
      <trkpt lat="39.92866400759023" lon="116.48331615781939">
        <ele>26.8</ele>
        <time>2023-06-09T12:44:07Z</time>
      </trkpt>
      <trkpt lat="39.92876759951876" lon="116.4831786290658">
        <ele>30.999999999999996</ele>
        <time>2023-06-09T12:44:13Z</time>
      </trkpt>
      <trkpt lat="39.929075439638986" lon="116.48312840241252">
        <ele>31.599999999999998</ele>
        <time>2023-06-09T12:44:28Z</time>
      </trkpt>
      <trkpt lat="39.92932035306348" lon="116.48310227396662">
        <ele>34.800000000000004</ele>
        <time>2023-06-09T12:44:37Z</time>
      </trkpt>
      <trkpt lat="39.92939439130536" lon="116.48311631741268">
        <ele>35.5</ele>
        <time>2023-06-09T12:44:40Z</time>
      </trkpt>
      <trkpt lat="39.92944948336345" lon="116.48314843098014">
        <ele>35.900000000000006</ele>
        <time>2023-06-09T12:44:43Z</time>
      </trkpt>
      <trkpt lat="39.92950948976498" lon="116.48315143477859">
        <ele>36.0</ele>
        <time>2023-06-09T12:44:46Z</time>
      </trkpt>
      <trkpt lat="39.92950225606907" lon="116.482730859373">
        <ele>33.6</ele>
        <time>2023-06-09T12:45:05Z</time>
      </trkpt>
      <trkpt lat="39.92942181796984" lon="116.48258030554919">
        <ele>33.5</ele>
        <time>2023-06-09T12:45:11Z</time>
      </trkpt>
      <trkpt lat="39.929294531957595" lon="116.4824809494248">
        <ele>29.400000000000002</ele>
        <time>2023-06-09T12:45:17Z</time>
      </trkpt>
      <trkpt lat="39.92920508576103" lon="116.48232738585777">
        <ele>27.599999999999998</ele>
        <time>2023-06-09T12:45:23Z</time>
      </trkpt>
      <trkpt lat="39.92915163538802" lon="116.48217281429399">
        <ele>29.999999999999996</ele>
        <time>2023-06-09T12:45:29Z</time>
      </trkpt>
      <trkpt lat="39.92912902250677" lon="116.48196303278037">
        <ele>29.7</ele>
        <time>2023-06-09T12:45:38Z</time>
      </trkpt>
      <trkpt lat="39.92903671512148" lon="116.48185664670224">
        <ele>29.599999999999998</ele>
        <time>2023-06-09T12:45:44Z</time>
      </trkpt>
      <trkpt lat="39.928914579234714" lon="116.48180848195499">
        <ele>30.3</ele>
        <time>2023-06-09T12:45:50Z</time>
      </trkpt>
      <trkpt lat="39.92883157967887" lon="116.4818074885764">
        <ele>30.3</ele>
        <time>2023-06-09T12:45:53Z</time>
      </trkpt>
      <trkpt lat="39.92858405643356" lon="116.48196711587923">
        <ele>27.2</ele>
        <time>2023-06-09T12:46:05Z</time>
      </trkpt>
      <trkpt lat="39.928427233118704" lon="116.48202535308882">
        <ele>27.900000000000002</ele>
        <time>2023-06-09T12:46:14Z</time>
      </trkpt>
      <trkpt lat="39.928192351346404" lon="116.48206252127788">
        <ele>25.9</ele>
        <time>2023-06-09T12:46:26Z</time>
      </trkpt>
      <trkpt lat="39.92804558643065" lon="116.48214083235874">
        <ele>26.0</ele>
        <time>2023-06-09T12:46:32Z</time>
      </trkpt>
      <trkpt lat="39.927947963561095" lon="116.48226832134524">
        <ele>26.2</ele>
        <time>2023-06-09T12:46:38Z</time>
      </trkpt>
      <trkpt lat="39.927874728018494" lon="116.48252830338598">
        <ele>28.2</ele>
        <time>2023-06-09T12:46:47Z</time>
      </trkpt>
      <trkpt lat="39.92786200505873" lon="116.4826226582478">
        <ele>29.8</ele>
        <time>2023-06-09T12:46:50Z</time>
      </trkpt>
      <trkpt lat="39.927830265299704" lon="116.48271099301952">
        <ele>29.3</ele>
        <time>2023-06-09T12:46:53Z</time>
      </trkpt>
      <trkpt lat="39.92777739401378" lon="116.48275416129691">
        <ele>28.7</ele>
        <time>2023-06-09T12:46:56Z</time>
      </trkpt>
      <trkpt lat="39.9274793708598" lon="116.48274215339968">
        <ele>27.999999999999996</ele>
        <time>2023-06-09T12:47:08Z</time>
      </trkpt>
      <trkpt lat="39.92733547681331" lon="116.48277629921532">
        <ele>28.2</ele>
        <time>2023-06-09T12:47:14Z</time>
      </trkpt>
      <trkpt lat="39.927276608744805" lon="116.48282047202986">
        <ele>28.7</ele>
        <time>2023-06-09T12:47:17Z</time>
      </trkpt>
      <trkpt lat="39.927234822443125" lon="116.4828927480477">
        <ele>29.8</ele>
        <time>2023-06-09T12:47:20Z</time>
      </trkpt>
      <trkpt lat="39.92719977252283" lon="116.48321596414011">
        <ele>27.900000000000002</ele>
        <time>2023-06-09T12:47:32Z</time>
      </trkpt>
      <trkpt lat="39.927197176527244" lon="116.48335348032006">
        <ele>27.099999999999998</ele>
        <time>2023-06-09T12:47:38Z</time>
      </trkpt>
      <trkpt lat="39.92721536452306" lon="116.48341771909556">
        <ele>27.900000000000002</ele>
        <time>2023-06-09T12:47:41Z</time>
      </trkpt>
      <trkpt lat="39.92731272337819" lon="116.48354117031195">
        <ele>28.8</ele>
        <time>2023-06-09T12:47:47Z</time>
      </trkpt>
      <trkpt lat="39.927394802639725" lon="116.48356926556747">
        <ele>29.2</ele>
        <time>2023-06-09T12:47:50Z</time>
      </trkpt>
      <trkpt lat="39.927379986200854" lon="116.48363150105882">
        <ele>29.7</ele>
        <time>2023-06-09T12:47:56Z</time>
      </trkpt>
      <trkpt lat="39.92740719464394" lon="116.48370276526359">
        <ele>29.7</ele>
        <time>2023-06-09T12:47:59Z</time>
      </trkpt>
      <trkpt lat="39.92738742866783" lon="116.48378206554072">
        <ele>29.8</ele>
        <time>2023-06-09T12:48:02Z</time>
      </trkpt>
      <trkpt lat="39.927192452767315" lon="116.48412738733644">
        <ele>31.499999999999996</ele>
        <time>2023-06-09T12:48:08Z</time>
      </trkpt>
      <trkpt lat="39.92711411520082" lon="116.48435123876203">
        <ele>31.999999999999996</ele>
        <time>2023-06-09T12:48:14Z</time>
      </trkpt>
      <trkpt lat="39.92701741194496" lon="116.48445062461604">
        <ele>30.900000000000002</ele>
        <time>2023-06-09T12:48:20Z</time>
      </trkpt>
      <trkpt lat="39.926860406533685" lon="116.484446629107">
        <ele>28.7</ele>
        <time>2023-06-09T12:48:26Z</time>
      </trkpt>
      <trkpt lat="39.926712261753906" lon="116.48439545503244">
        <ele>26.099999999999998</ele>
        <time>2023-06-09T12:48:32Z</time>
      </trkpt>
      <trkpt lat="39.92659241749774" lon="116.48444666255294">
        <ele>21.5</ele>
        <time>2023-06-09T12:48:38Z</time>
      </trkpt>
      <trkpt lat="39.926277397859195" lon="116.484435660333">
        <ele>18.0</ele>
        <time>2023-06-09T12:48:50Z</time>
      </trkpt>
      <trkpt lat="39.92612439525363" lon="116.48443266810038">
        <ele>19.3</ele>
        <time>2023-06-09T12:48:56Z</time>
      </trkpt>
      <trkpt lat="39.926045297936284" lon="116.48439854959888">
        <ele>20.5</ele>
        <time>2023-06-09T12:48:59Z</time>
      </trkpt>
      <trkpt lat="39.925760161761886" lon="116.4843483964195">
        <ele>22.4</ele>
        <time>2023-06-09T12:49:11Z</time>
      </trkpt>
      <trkpt lat="39.92547431247959" lon="116.48439560953182">
        <ele>27.7</ele>
        <time>2023-06-09T12:49:23Z</time>
      </trkpt>
      <trkpt lat="39.92529541446522" lon="116.48442775267722">
        <ele>28.099999999999998</ele>
        <time>2023-06-09T12:49:32Z</time>
      </trkpt>
      <trkpt lat="39.92504037761747" lon="116.48441172409433">
        <ele>34.5</ele>
        <time>2023-06-09T12:49:44Z</time>
      </trkpt>
      <trkpt lat="39.92489968511205" lon="116.4845141268056">
        <ele>34.7</ele>
        <time>2023-06-09T12:49:53Z</time>
      </trkpt>
      <trkpt lat="39.924769424382454" lon="116.48476307987706">
        <ele>35.2</ele>
        <time>2023-06-09T12:50:05Z</time>
      </trkpt>
      <trkpt lat="39.92472260689942" lon="116.48482431622337">
        <ele>35.6</ele>
        <time>2023-06-09T12:50:08Z</time>
      </trkpt>
      <trkpt lat="39.92465703602302" lon="116.48496886866643">
        <ele>37.2</ele>
        <time>2023-06-09T12:50:14Z</time>
      </trkpt>
      <trkpt lat="39.92462549945742" lon="116.48512546240497">
        <ele>38.5</ele>
        <time>2023-06-09T12:50:20Z</time>
      </trkpt>
      <trkpt lat="39.924680285617725" lon="116.48539246170024">
        <ele>35.0</ele>
        <time>2023-06-09T12:50:32Z</time>
      </trkpt>
      <trkpt lat="39.92482887263292" lon="116.4855932000091">
        <ele>32.2</ele>
        <time>2023-06-09T12:50:41Z</time>
      </trkpt>
      <trkpt lat="39.92489705968897" lon="116.48565743375676">
        <ele>31.900000000000002</ele>
        <time>2023-06-09T12:50:44Z</time>
      </trkpt>
      <trkpt lat="39.92501397194016" lon="116.48596758921735">
        <ele>28.900000000000002</ele>
        <time>2023-06-09T12:50:56Z</time>
      </trkpt>
      <trkpt lat="39.925029499863136" lon="116.48614626158943">
        <ele>29.8</ele>
        <time>2023-06-09T12:51:02Z</time>
      </trkpt>
      <trkpt lat="39.92497301015311" lon="116.48631791662585">
        <ele>30.400000000000002</ele>
        <time>2023-06-09T12:51:08Z</time>
      </trkpt>
      <trkpt lat="39.924745304770305" lon="116.48641430888746">
        <ele>21.8</ele>
        <time>2023-06-09T12:51:26Z</time>
      </trkpt>
      <trkpt lat="39.924564282498295" lon="116.48640429355281">
        <ele>18.5</ele>
        <time>2023-06-09T12:51:35Z</time>
      </trkpt>
      <trkpt lat="39.92451723094495" lon="116.486386231191">
        <ele>17.7</ele>
        <time>2023-06-09T12:51:38Z</time>
      </trkpt>
      <trkpt lat="39.92439696253741" lon="116.48629389749705">
        <ele>15.8</ele>
        <time>2023-06-09T12:51:44Z</time>
      </trkpt>
      <trkpt lat="39.92430890674353" lon="116.48627383268214">
        <ele>16.3</ele>
        <time>2023-06-09T12:51:47Z</time>
      </trkpt>
      <trkpt lat="39.924005106430116" lon="116.48633710932454">
        <ele>19.2</ele>
        <time>2023-06-09T12:51:59Z</time>
      </trkpt>
      <trkpt lat="39.92373481301306" lon="116.48657203007572">
        <ele>24.3</ele>
        <time>2023-06-09T12:52:14Z</time>
      </trkpt>
      <trkpt lat="39.923577289272714" lon="116.48673064885706">
        <ele>24.9</ele>
        <time>2023-06-09T12:52:23Z</time>
      </trkpt>
      <trkpt lat="39.92345004110017" lon="116.48698261683384">
        <ele>24.5</ele>
        <time>2023-06-09T12:52:32Z</time>
      </trkpt>
      <trkpt lat="39.923259903051935" lon="116.4872707296547">
        <ele>26.900000000000002</ele>
        <time>2023-06-09T12:52:47Z</time>
      </trkpt>
      <trkpt lat="39.92321702985177" lon="116.48731289442046">
        <ele>26.8</ele>
        <time>2023-06-09T12:52:50Z</time>
      </trkpt>
      <trkpt lat="39.92300412795699" lon="116.48734303483305">
        <ele>26.599999999999998</ele>
        <time>2023-06-09T12:53:02Z</time>
      </trkpt>
      <trkpt lat="39.92287512733241" lon="116.48734104331798">
        <ele>27.599999999999998</ele>
        <time>2023-06-09T12:53:08Z</time>
      </trkpt>
      <trkpt lat="39.9228272751981" lon="116.48739023529313">
        <ele>29.400000000000002</ele>
        <time>2023-06-09T12:53:11Z</time>
      </trkpt>
      <trkpt lat="39.92277494742267" lon="116.48761609611351">
        <ele>31.400000000000002</ele>
        <time>2023-06-09T12:53:20Z</time>
      </trkpt>
      <trkpt lat="39.92277022763446" lon="116.48771045368723">
        <ele>31.400000000000002</ele>
        <time>2023-06-09T12:53:23Z</time>
      </trkpt>
      <trkpt lat="39.92274245223324" lon="116.4877857420093">
        <ele>31.499999999999996</ele>
        <time>2023-06-09T12:53:26Z</time>
      </trkpt>
      <trkpt lat="39.92274495872429" lon="116.48795638748557">
        <ele>29.2</ele>
        <time>2023-06-09T12:53:32Z</time>
      </trkpt>
      <trkpt lat="39.922702470201344" lon="116.48812804250679">
        <ele>26.999999999999996</ele>
        <time>2023-06-09T12:53:38Z</time>
      </trkpt>
      <trkpt lat="39.92269973864561" lon="116.48821838486369">
        <ele>25.099999999999998</ele>
        <time>2023-06-09T12:53:41Z</time>
      </trkpt>
      <trkpt lat="39.922764934961876" lon="116.48862190485488">
        <ele>26.0</ele>
        <time>2023-06-09T12:53:59Z</time>
      </trkpt>
      <trkpt lat="39.92284748059466" lon="116.4888065942345">
        <ele>28.3</ele>
        <time>2023-06-09T12:54:08Z</time>
      </trkpt>
      <trkpt lat="39.922950730012325" lon="116.48889190463366">
        <ele>28.400000000000002</ele>
        <time>2023-06-09T12:54:14Z</time>
      </trkpt>
      <trkpt lat="39.923244744731726" lon="116.48890090224492">
        <ele>25.8</ele>
        <time>2023-06-09T12:54:29Z</time>
      </trkpt>
      <trkpt lat="39.92340953796185" lon="116.4888336269105">
        <ele>24.9</ele>
        <time>2023-06-09T12:54:38Z</time>
      </trkpt>
      <trkpt lat="39.923575671381684" lon="116.48888078496472">
        <ele>24.2</ele>
        <time>2023-06-09T12:54:47Z</time>
      </trkpt>
      <trkpt lat="39.92386468334243" lon="116.48888877939456">
        <ele>24.9</ele>
        <time>2023-06-09T12:54:56Z</time>
      </trkpt>
      <trkpt lat="39.92391568720975" lon="116.48889078064857">
        <ele>25.4</ele>
        <time>2023-06-09T12:55:02Z</time>
      </trkpt>
      <trkpt lat="39.92398477689033" lon="116.48892188994637">
        <ele>23.0</ele>
        <time>2023-06-09T12:55:08Z</time>
      </trkpt>
      <trkpt lat="39.92406779436397" lon="116.48892890623048">
        <ele>21.5</ele>
        <time>2023-06-09T12:55:11Z</time>
      </trkpt>
      <trkpt lat="39.92435962415537" lon="116.48887566830741">
        <ele>21.5</ele>
        <time>2023-06-09T12:55:20Z</time>
      </trkpt>
      <trkpt lat="39.92452757545905" lon="116.48886159414377">
        <ele>22.4</ele>
        <time>2023-06-09T12:55:29Z</time>
      </trkpt>
      <trkpt lat="39.92466969198369" lon="116.48890273237635">
        <ele>22.099999999999998</ele>
        <time>2023-06-09T12:55:38Z</time>
      </trkpt>
      <trkpt lat="39.924950528220556" lon="116.48885150343108">
        <ele>25.9</ele>
        <time>2023-06-09T12:55:53Z</time>
      </trkpt>
      <trkpt lat="39.92522461246653" lon="116.48888359099544">
        <ele>27.499999999999996</ele>
        <time>2023-06-09T12:56:02Z</time>
      </trkpt>
      <trkpt lat="39.925562512040806" lon="116.48885443861296">
        <ele>27.099999999999998</ele>
        <time>2023-06-09T12:56:20Z</time>
      </trkpt>
      <trkpt lat="39.92574033463333" lon="116.48879719968632">
        <ele>26.8</ele>
        <time>2023-06-09T12:56:29Z</time>
      </trkpt>
      <trkpt lat="39.926039205994364" lon="116.48875801414306">
        <ele>26.7</ele>
        <time>2023-06-09T12:56:44Z</time>
      </trkpt>
      <trkpt lat="39.92623213840664" lon="116.48873791405326">
        <ele>25.5</ele>
        <time>2023-06-09T12:56:53Z</time>
      </trkpt>
      <trkpt lat="39.926270041366884" lon="116.48870578764446">
        <ele>24.4</ele>
        <time>2023-06-09T12:56:56Z</time>
      </trkpt>
      <trkpt lat="39.92632572281761" lon="116.48859937764841">
        <ele>23.2</ele>
        <time>2023-06-09T12:57:02Z</time>
      </trkpt>
      <trkpt lat="39.92635185674427" lon="116.48830827192265">
        <ele>20.5</ele>
        <time>2023-06-09T12:57:14Z</time>
      </trkpt>
      <trkpt lat="39.92643047483667" lon="116.488180779437">
        <ele>21.5</ele>
        <time>2023-06-09T12:57:20Z</time>
      </trkpt>
      <trkpt lat="39.92659926221519" lon="116.48811149618696">
        <ele>23.3</ele>
        <time>2023-06-09T12:57:32Z</time>
      </trkpt>
      <trkpt lat="39.926859329085424" lon="116.48813756258589">
        <ele>26.099999999999998</ele>
        <time>2023-06-09T12:57:44Z</time>
      </trkpt>
      <trkpt lat="39.92700226361493" lon="116.48811746877118">
        <ele>27.900000000000002</ele>
        <time>2023-06-09T12:57:50Z</time>
      </trkpt>
      <trkpt lat="39.927234774202766" lon="116.48795582803106">
        <ele>31.599999999999998</ele>
        <time>2023-06-09T12:58:02Z</time>
      </trkpt>
      <trkpt lat="39.927433982396366" lon="116.48769180412731">
        <ele>31.7</ele>
        <time>2023-06-09T12:58:14Z</time>
      </trkpt>
      <trkpt lat="39.927649476168895" lon="116.48752414305356">
        <ele>29.7</ele>
        <time>2023-06-09T12:58:26Z</time>
      </trkpt>
      <trkpt lat="39.927700206085134" lon="116.48743379499788">
        <ele>29.900000000000002</ele>
        <time>2023-06-09T12:58:29Z</time>
      </trkpt>
      <trkpt lat="39.927687777864016" lon="116.48728924986605">
        <ele>30.2</ele>
        <time>2023-06-09T12:58:35Z</time>
      </trkpt>
      <trkpt lat="39.92766054084308" lon="116.48720894959914">
        <ele>29.999999999999996</ele>
        <time>2023-06-09T12:58:38Z</time>
      </trkpt>
      <trkpt lat="39.9276506366741" lon="116.48690379725042">
        <ele>32.5</ele>
        <time>2023-06-09T12:58:50Z</time>
      </trkpt>
      <trkpt lat="39.92763816130869" lon="116.4867431918756">
        <ele>31.999999999999996</ele>
        <time>2023-06-09T12:58:56Z</time>
      </trkpt>
      <trkpt lat="39.92777255525068" lon="116.48654040909206">
        <ele>30.7</ele>
        <time>2023-06-09T12:59:05Z</time>
      </trkpt>
      <trkpt lat="39.92779537003577" lon="116.48647817118142">
        <ele>30.999999999999996</ele>
        <time>2023-06-09T12:59:08Z</time>
      </trkpt>
      <trkpt lat="39.92778377026776" lon="116.48627540694082">
        <ele>28.900000000000002</ele>
        <time>2023-06-09T12:59:17Z</time>
      </trkpt>
      <trkpt lat="39.9278540783344" lon="116.48604251910251">
        <ele>27.3</ele>
        <time>2023-06-09T12:59:26Z</time>
      </trkpt>
      <trkpt lat="39.92793675134152" lon="116.48593309590613">
        <ele>27.400000000000002</ele>
        <time>2023-06-09T12:59:32Z</time>
      </trkpt>
      <trkpt lat="39.927965521603454" lon="116.48585580069631">
        <ele>27.8</ele>
        <time>2023-06-09T12:59:35Z</time>
      </trkpt>
      <trkpt lat="39.927950759626235" lon="116.4855978295105">
        <ele>29.099999999999998</ele>
        <time>2023-06-09T12:59:44Z</time>
      </trkpt>
      <trkpt lat="39.927863597950875" lon="116.48520335339305">
        <ele>33.5</ele>
        <time>2023-06-09T12:59:56Z</time>
      </trkpt>
      <trkpt lat="39.92780753679574" lon="116.48484300308974">
        <ele>34.5</ele>
        <time>2023-06-09T13:00:08Z</time>
      </trkpt>
      <trkpt lat="39.9278801134637" lon="116.48470045744952">
        <ele>33.300000000000004</ele>
        <time>2023-06-09T13:00:14Z</time>
      </trkpt>
      <trkpt lat="39.92797279598565" lon="116.48459404544317">
        <ele>32.900000000000006</ele>
        <time>2023-06-09T13:00:20Z</time>
      </trkpt>
      <trkpt lat="39.92822452831689" lon="116.48450668543266">
        <ele>37.400000000000006</ele>
        <time>2023-06-09T13:00:32Z</time>
      </trkpt>
      <trkpt lat="39.92831416972162" lon="116.48438622111735">
        <ele>35.7</ele>
        <time>2023-06-09T13:00:38Z</time>
      </trkpt>
      <trkpt lat="39.92829694273006" lon="116.48430893257625">
        <ele>35.900000000000006</ele>
        <time>2023-06-09T13:00:41Z</time>
      </trkpt>
      <trkpt lat="39.928286985572136" lon="116.48398371122254">
        <ele>33.300000000000004</ele>
        <time>2023-06-09T13:00:47Z</time>
      </trkpt>
      <trkpt lat="39.92835156333394" lon="116.48391573070623">
        <ele>31.400000000000002</ele>
        <time>2023-06-09T13:00:53Z</time>
      </trkpt>
      <trkpt lat="39.92846628850242" lon="116.48383844895164">
        <ele>31.400000000000002</ele>
        <time>2023-06-09T13:01:11Z</time>
      </trkpt>
      <trkpt lat="39.92842403210841" lon="116.48332120661489">
        <ele>28.499999999999996</ele>
        <time>2023-06-09T13:01:20Z</time>
      </trkpt>
      <trkpt lat="39.928487876197856" lon="116.4832690028342">
        <ele>35.900000000000006</ele>
        <time>2023-06-09T13:01:23Z</time>
      </trkpt>
      <trkpt lat="39.928573875642435" lon="116.48326999586023">
        <ele>31.2</ele>
        <time>2023-06-09T13:01:26Z</time>
      </trkpt>
      <trkpt lat="39.92862268794573" lon="116.48320675256996">
        <ele>33.5</ele>
        <time>2023-06-09T13:01:32Z</time>
      </trkpt>
      <trkpt lat="39.92896961192623" lon="116.48318563018914">
        <ele>27.8</ele>
        <time>2023-06-09T13:01:47Z</time>
      </trkpt>
      <trkpt lat="39.929060617064785" lon="116.48318863011765">
        <ele>27.599999999999998</ele>
        <time>2023-06-09T13:01:50Z</time>
      </trkpt>
      <trkpt lat="39.929257358571945" lon="116.48310328559765">
        <ele>29.7</ele>
        <time>2023-06-09T13:01:59Z</time>
      </trkpt>
      <trkpt lat="39.929410349404044" lon="116.483102262727">
        <ele>31.7</ele>
        <time>2023-06-09T13:02:08Z</time>
      </trkpt>
      <trkpt lat="39.92946541199155" lon="116.48312433865398">
        <ele>32.7</ele>
        <time>2023-06-09T13:02:11Z</time>
      </trkpt>
      <trkpt lat="39.92951736273302" lon="116.48310827194446">
        <ele>33.6</ele>
        <time>2023-06-09T13:02:17Z</time>
      </trkpt>
      <trkpt lat="39.92951715650173" lon="116.48303800853155">
        <ele>32.800000000000004</ele>
        <time>2023-06-09T13:02:20Z</time>
      </trkpt>
      <trkpt lat="39.92953496136402" lon="116.48297175796789">
        <ele>32.2</ele>
        <time>2023-06-09T13:02:23Z</time>
      </trkpt>
      <trkpt lat="39.92952424928878" lon="116.482728849106">
        <ele>28.8</ele>
        <time>2023-06-09T13:02:35Z</time>
      </trkpt>
      <trkpt lat="39.929500006025464" lon="116.4826455400977">
        <ele>28.499999999999996</ele>
        <time>2023-06-09T13:02:38Z</time>
      </trkpt>
      <trkpt lat="39.929316463429295" lon="116.48245786026996">
        <ele>28.900000000000002</ele>
        <time>2023-06-09T13:02:50Z</time>
      </trkpt>
      <trkpt lat="39.92925035732184" lon="116.48242072952456">
        <ele>28.999999999999996</ele>
        <time>2023-06-09T13:02:53Z</time>
      </trkpt>
      <trkpt lat="39.92917396945995" lon="116.48228723952774">
        <ele>27.7</ele>
        <time>2023-06-09T13:02:59Z</time>
      </trkpt>
      <trkpt lat="39.92912247794333" lon="116.48211861523845">
        <ele>29.7</ele>
        <time>2023-06-09T13:03:05Z</time>
      </trkpt>
      <trkpt lat="39.929129163431696" lon="116.4820112128551">
        <ele>30.599999999999998</ele>
        <time>2023-06-09T13:03:11Z</time>
      </trkpt>
      <trkpt lat="39.92906170530043" lon="116.48185363232828">
        <ele>32.6</ele>
        <time>2023-06-09T13:03:17Z</time>
      </trkpt>
      <trkpt lat="39.92895657459128" lon="116.4818074729575">
        <ele>34.0</ele>
        <time>2023-06-09T13:03:23Z</time>
      </trkpt>
      <trkpt lat="39.92886355196934" lon="116.48179845083268">
        <ele>31.900000000000002</ele>
        <time>2023-06-09T13:03:29Z</time>
      </trkpt>
      <trkpt lat="39.92861506397825" lon="116.48197012326001">
        <ele>27.400000000000002</ele>
        <time>2023-06-09T13:03:41Z</time>
      </trkpt>
      <trkpt lat="39.928275262803666" lon="116.48203340209501">
        <ele>24.2</ele>
        <time>2023-06-09T13:03:59Z</time>
      </trkpt>
      <trkpt lat="39.92819433070837" lon="116.4820554947619">
        <ele>23.599999999999998</ele>
        <time>2023-06-09T13:04:05Z</time>
      </trkpt>
      <trkpt lat="39.92810948101648" lon="116.48210569300808">
        <ele>21.8</ele>
        <time>2023-06-09T13:04:11Z</time>
      </trkpt>
      <trkpt lat="39.92797195964351" lon="116.48226731459255">
        <ele>21.4</ele>
        <time>2023-06-09T13:04:20Z</time>
      </trkpt>
      <trkpt lat="39.92790542680575" lon="116.48242591631875">
        <ele>21.7</ele>
        <time>2023-06-09T13:04:26Z</time>
      </trkpt>
      <trkpt lat="39.927870042979606" lon="116.48263570610798">
        <ele>21.099999999999998</ele>
        <time>2023-06-09T13:04:35Z</time>
      </trkpt>
      <trkpt lat="39.927820286307956" lon="116.4827180205836">
        <ele>21.9</ele>
        <time>2023-06-09T13:04:38Z</time>
      </trkpt>
      <trkpt lat="39.92753455993814" lon="116.48280739092448">
        <ele>30.999999999999996</ele>
        <time>2023-06-09T13:04:53Z</time>
      </trkpt>
      <trkpt lat="39.927353584992474" lon="116.48281343609113">
        <ele>35.1</ele>
        <time>2023-06-09T13:05:02Z</time>
      </trkpt>
      <trkpt lat="39.92728169980488" lon="116.48285158798159">
        <ele>35.2</ele>
        <time>2023-06-09T13:05:05Z</time>
      </trkpt>
      <trkpt lat="39.927184092517045" lon="116.48298409671864">
        <ele>34.2</ele>
        <time>2023-06-09T13:05:11Z</time>
      </trkpt>
      <trkpt lat="39.92716457354803" lon="116.48314771255902">
        <ele>34.5</ele>
        <time>2023-06-09T13:05:17Z</time>
      </trkpt>
      <trkpt lat="39.92717882643624" lon="116.48323403452183">
        <ele>33.6</ele>
        <time>2023-06-09T13:05:20Z</time>
      </trkpt>
      <trkpt lat="39.927204969816636" lon="116.483283215748">
        <ele>33.300000000000004</ele>
        <time>2023-06-09T13:05:23Z</time>
      </trkpt>
      <trkpt lat="39.92709443140323" lon="116.48343881329724">
        <ele>35.5</ele>
        <time>2023-06-09T13:05:32Z</time>
      </trkpt>
      <trkpt lat="39.92701694767502" lon="116.48429303194412">
        <ele>22.0</ele>
        <time>2023-06-09T13:06:02Z</time>
      </trkpt>
      <trkpt lat="39.92690502912631" lon="116.48431914405717">
        <ele>20.0</ele>
        <time>2023-06-09T13:06:08Z</time>
      </trkpt>
      <trkpt lat="39.926839173757" lon="116.48436733348116">
        <ele>23.7</ele>
        <time>2023-06-09T13:06:11Z</time>
      </trkpt>
      <trkpt lat="39.926595435121456" lon="116.4844526848323">
        <ele>29.900000000000002</ele>
        <time>2023-06-09T13:06:23Z</time>
      </trkpt>
      <trkpt lat="39.926317446502054" lon="116.48445271952572">
        <ele>30.599999999999998</ele>
        <time>2023-06-09T13:06:35Z</time>
      </trkpt>
      <trkpt lat="39.92597742789626" lon="116.48444172042467">
        <ele>30.499999999999996</ele>
        <time>2023-06-09T13:06:50Z</time>
      </trkpt>
      <trkpt lat="39.92571753912181" lon="116.48447588124333">
        <ele>35.800000000000004</ele>
        <time>2023-06-09T13:07:02Z</time>
      </trkpt>
      <trkpt lat="39.925584470630895" lon="116.48445080344833">
        <ele>37.6</ele>
        <time>2023-06-09T13:07:08Z</time>
      </trkpt>
      <trkpt lat="39.92552038452756" lon="116.48442069817156">
        <ele>36.6</ele>
        <time>2023-06-09T13:07:11Z</time>
      </trkpt>
      <trkpt lat="39.92537436981688" lon="116.48441368996433">
        <ele>34.7</ele>
        <time>2023-06-09T13:07:17Z</time>
      </trkpt>
      <trkpt lat="39.92531244334346" lon="116.48443778830988">
        <ele>32.5</ele>
        <time>2023-06-09T13:07:20Z</time>
      </trkpt>
      <trkpt lat="39.925014355026285" lon="116.48440369713744">
        <ele>29.900000000000002</ele>
        <time>2023-06-09T13:07:35Z</time>
      </trkpt>
      <trkpt lat="39.92489358774052" lon="116.4844810029483">
        <ele>27.900000000000002</ele>
        <time>2023-06-09T13:07:41Z</time>
      </trkpt>
      <trkpt lat="39.924839752661526" lon="116.48453621736843">
        <ele>27.400000000000002</ele>
        <time>2023-06-09T13:07:44Z</time>
      </trkpt>
      <trkpt lat="39.924762173083295" lon="116.4846777596378">
        <ele>27.3</ele>
        <time>2023-06-09T13:07:50Z</time>
      </trkpt>
      <trkpt lat="39.924737396096724" lon="116.48475304608867">
        <ele>25.8</ele>
        <time>2023-06-09T13:07:53Z</time>
      </trkpt>
      <trkpt lat="39.92474262384108" lon="116.48483033640004">
        <ele>24.7</ele>
        <time>2023-06-09T13:07:56Z</time>
      </trkpt>
      <trkpt lat="39.92468937535392" lon="116.48508429940472">
        <ele>19.9</ele>
        <time>2023-06-09T13:08:05Z</time>
      </trkpt>
      <trkpt lat="39.92469381373024" lon="116.48523285853837">
        <ele>19.4</ele>
        <time>2023-06-09T13:08:11Z</time>
      </trkpt>
      <trkpt lat="39.92468201576877" lon="116.48530111722077">
        <ele>19.3</ele>
        <time>2023-06-09T13:08:14Z</time>
      </trkpt>
      <trkpt lat="39.92472234615297" lon="116.48541353590798">
        <ele>19.3</ele>
        <time>2023-06-09T13:08:20Z</time>
      </trkpt>
      <trkpt lat="39.9249519980972" lon="116.4856373511971">
        <ele>23.099999999999998</ele>
        <time>2023-06-09T13:08:32Z</time>
      </trkpt>
      <trkpt lat="39.92495517597665" lon="116.48569757793125">
        <ele>25.8</ele>
        <time>2023-06-09T13:08:35Z</time>
      </trkpt>
      <trkpt lat="39.925046765757486" lon="116.48589832379707">
        <ele>30.7</ele>
        <time>2023-06-09T13:08:44Z</time>
      </trkpt>
      <trkpt lat="39.92508022456431" lon="116.48605390671749">
        <ele>30.499999999999996</ele>
        <time>2023-06-09T13:08:50Z</time>
      </trkpt>
      <trkpt lat="39.925075444516075" lon="116.48612818766159">
        <ele>30.8</ele>
        <time>2023-06-09T13:08:53Z</time>
      </trkpt>
      <trkpt lat="39.92499383401212" lon="116.486258690431">
        <ele>30.3</ele>
        <time>2023-06-09T13:08:59Z</time>
      </trkpt>
      <trkpt lat="39.92492398542798" lon="116.48630888862924">
        <ele>29.099999999999998</ele>
        <time>2023-06-09T13:09:05Z</time>
      </trkpt>
      <trkpt lat="39.92480709422407" lon="116.48634403585623">
        <ele>28.2</ele>
        <time>2023-06-09T13:09:11Z</time>
      </trkpt>
      <trkpt lat="39.92465237991501" lon="116.48643841145028">
        <ele>26.3</ele>
        <time>2023-06-09T13:09:17Z</time>
      </trkpt>
      <trkpt lat="39.924520391288105" lon="116.48644043548877">
        <ele>26.099999999999998</ele>
        <time>2023-06-09T13:09:23Z</time>
      </trkpt>
      <trkpt lat="39.92444226374543" lon="116.48639627844287">
        <ele>23.8</ele>
        <time>2023-06-09T13:09:29Z</time>
      </trkpt>
      <trkpt lat="39.92416502259317" lon="116.48631099084527">
        <ele>19.0</ele>
        <time>2023-06-09T13:09:41Z</time>
      </trkpt>
      <trkpt lat="39.92401902266438" lon="116.48630900147005">
        <ele>14.7</ele>
        <time>2023-06-09T13:09:47Z</time>
      </trkpt>
      <trkpt lat="39.92378741552907" lon="116.48643851929643">
        <ele>16.8</ele>
        <time>2023-06-09T13:09:59Z</time>
      </trkpt>
      <trkpt lat="39.92361527283792" lon="116.48672562515931">
        <ele>19.9</ele>
        <time>2023-06-09T13:10:11Z</time>
      </trkpt>
      <trkpt lat="39.92355967067804" lon="116.48685913654703">
        <ele>20.0</ele>
        <time>2023-06-09T13:10:17Z</time>
      </trkpt>
      <trkpt lat="39.92331961484157" lon="116.48717435785507">
        <ele>21.599999999999998</ele>
        <time>2023-06-09T13:10:32Z</time>
      </trkpt>
      <trkpt lat="39.92325487944521" lon="116.48726269991573">
        <ele>24.9</ele>
        <time>2023-06-09T13:10:35Z</time>
      </trkpt>
      <trkpt lat="39.923127060359995" lon="116.4873219397965">
        <ele>30.900000000000002</ele>
        <time>2023-06-09T13:10:41Z</time>
      </trkpt>
      <trkpt lat="39.92285714891571" lon="116.48734807213084">
        <ele>36.300000000000004</ele>
        <time>2023-06-09T13:10:53Z</time>
      </trkpt>
      <trkpt lat="39.9227751612359" lon="116.48735109373685">
        <ele>36.5</ele>
        <time>2023-06-09T13:10:56Z</time>
      </trkpt>
      <trkpt lat="39.92274540661711" lon="116.48743340874101">
        <ele>36.7</ele>
        <time>2023-06-09T13:10:59Z</time>
      </trkpt>
      <trkpt lat="39.922742713458" lon="116.48753680014593">
        <ele>36.2</ele>
        <time>2023-06-09T13:11:02Z</time>
      </trkpt>
      <trkpt lat="39.92275795408242" lon="116.48761810582603">
        <ele>35.0</ele>
        <time>2023-06-09T13:11:05Z</time>
      </trkpt>
      <trkpt lat="39.922797184812666" lon="116.48769639715724">
        <ele>34.5</ele>
        <time>2023-06-09T13:11:08Z</time>
      </trkpt>
      <trkpt lat="39.9227548450641" lon="116.48791824188876">
        <ele>29.7</ele>
        <time>2023-06-09T13:11:17Z</time>
      </trkpt>
      <trkpt lat="39.922769127615986" lon="116.48801360103492">
        <ele>25.2</ele>
        <time>2023-06-09T13:11:20Z</time>
      </trkpt>
      <trkpt lat="39.92275445612727" lon="116.48812402083031">
        <ele>22.2</ele>
        <time>2023-06-09T13:11:23Z</time>
      </trkpt>
      <trkpt lat="39.922716809501445" lon="116.48824247394772">
        <ele>20.7</ele>
        <time>2023-06-09T13:11:26Z</time>
      </trkpt>
      <trkpt lat="39.92270228426637" lon="116.48840208009285">
        <ele>20.9</ele>
        <time>2023-06-09T13:11:32Z</time>
      </trkpt>
      <trkpt lat="39.92271068660354" lon="116.48853759224774">
        <ele>25.0</ele>
        <time>2023-06-09T13:11:38Z</time>
      </trkpt>
    </trkseg>
  </trk>
</gpx>