<?xml version="1.0" encoding="UTF-8"?>
<gpx xmlns="http://www.topografix.com/GPX/1/1" xmlns:gpxtpx="http://www.garmin.com/xmlschemas/TrackPointExtension/v1" xmlns:xsi="http://www.w3.org/2001/XMLSchema-instance" xsi:schemaLocation="http://www.topografix.com/GPX/1/1 http://www.topografix.com/GPX/1/1/gpx.xsd" version="1.1" creator="gpx.py -- https://github.com/tkrajina/gpxpy">
  <trk>
    <name>gpx from keep</name>
    <type>Run</type>
    <trkseg>
      <trkpt lat="39.92254532168188" lon="116.48807586449274">
        <ele>25.8</ele>
        <time>2023-06-12T23:42:07Z</time>
      </trkpt>
      <trkpt lat="39.92256449975674" lon="116.4881360900955">
        <ele>25.5</ele>
        <time>2023-06-12T23:42:10Z</time>
      </trkpt>
      <trkpt lat="39.922547715115705" lon="116.48820836579891">
        <ele>25.3</ele>
        <time>2023-06-12T23:42:16Z</time>
      </trkpt>
      <trkpt lat="39.92254411484553" lon="116.48834287553288">
        <ele>25.8</ele>
        <time>2023-06-12T23:42:22Z</time>
      </trkpt>
      <trkpt lat="39.92258961106649" lon="116.4885105046827">
        <ele>26.3</ele>
        <time>2023-06-12T23:42:28Z</time>
      </trkpt>
      <trkpt lat="39.92266702553411" lon="116.48865102731355">
        <ele>27.400000000000002</ele>
        <time>2023-06-12T23:42:34Z</time>
      </trkpt>
      <trkpt lat="39.92294452433447" lon="116.48882264299446">
        <ele>27.8</ele>
        <time>2023-06-12T23:42:49Z</time>
      </trkpt>
      <trkpt lat="39.92303462506902" lon="116.48885776487808">
        <ele>28.7</ele>
        <time>2023-06-12T23:42:55Z</time>
      </trkpt>
      <trkpt lat="39.92320557622564" lon="116.48884369034386">
        <ele>30.099999999999998</ele>
        <time>2023-06-12T23:43:04Z</time>
      </trkpt>
      <trkpt lat="39.92330567356864" lon="116.48887780718258">
        <ele>31.099999999999998</ele>
        <time>2023-06-12T23:43:10Z</time>
      </trkpt>
      <trkpt lat="39.92338267039071" lon="116.48887779759288">
        <ele>31.7</ele>
        <time>2023-06-12T23:43:16Z</time>
      </trkpt>
      <trkpt lat="39.92351980203037" lon="116.48892395546402">
        <ele>32.6</ele>
        <time>2023-06-12T23:43:25Z</time>
      </trkpt>
      <trkpt lat="39.923726784539326" lon="116.48892091827517">
        <ele>33.400000000000006</ele>
        <time>2023-06-12T23:43:34Z</time>
      </trkpt>
      <trkpt lat="39.92378672237259" lon="116.48890083474365">
        <ele>33.6</ele>
        <time>2023-06-12T23:43:37Z</time>
      </trkpt>
      <trkpt lat="39.92406069018927" lon="116.48889377399837">
        <ele>34.0</ele>
        <time>2023-06-12T23:43:49Z</time>
      </trkpt>
      <trkpt lat="39.92419967551067" lon="116.48889074527791">
        <ele>29.999999999999996</ele>
        <time>2023-06-12T23:43:55Z</time>
      </trkpt>
      <trkpt lat="39.92431979891049" lon="116.48893389386086">
        <ele>28.599999999999998</ele>
        <time>2023-06-12T23:44:01Z</time>
      </trkpt>
      <trkpt lat="39.9245678304916" lon="116.48894791621736">
        <ele>26.400000000000002</ele>
        <time>2023-06-12T23:44:13Z</time>
      </trkpt>
      <trkpt lat="39.924662925084874" lon="116.48898102989126">
        <ele>26.3</ele>
        <time>2023-06-12T23:44:19Z</time>
      </trkpt>
      <trkpt lat="39.92485786632313" lon="116.48896394095017">
        <ele>25.9</ele>
        <time>2023-06-12T23:44:28Z</time>
      </trkpt>
      <trkpt lat="39.924902751051015" lon="116.48892579082629">
        <ele>25.8</ele>
        <time>2023-06-12T23:44:31Z</time>
      </trkpt>
      <trkpt lat="39.92505955358566" lon="116.48886152788307">
        <ele>25.8</ele>
        <time>2023-06-12T23:44:40Z</time>
      </trkpt>
      <trkpt lat="39.925304639026855" lon="116.48889361906083">
        <ele>26.0</ele>
        <time>2023-06-12T23:44:49Z</time>
      </trkpt>
      <trkpt lat="39.92541956566112" lon="116.48887051726996">
        <ele>26.099999999999998</ele>
        <time>2023-06-12T23:44:55Z</time>
      </trkpt>
      <trkpt lat="39.92575254304372" lon="116.48886746438475">
        <ele>26.7</ele>
        <time>2023-06-12T23:45:10Z</time>
      </trkpt>
      <trkpt lat="39.925987270790834" lon="116.48877910047331">
        <ele>25.5</ele>
        <time>2023-06-12T23:45:22Z</time>
      </trkpt>
      <trkpt lat="39.92602509019537" lon="116.48871886759308">
        <ele>25.4</ele>
        <time>2023-06-12T23:45:25Z</time>
      </trkpt>
      <trkpt lat="39.926180764557515" lon="116.48861144133393">
        <ele>25.599999999999998</ele>
        <time>2023-06-12T23:45:31Z</time>
      </trkpt>
      <trkpt lat="39.92638593288481" lon="116.48833436650432">
        <ele>25.0</ele>
        <time>2023-06-12T23:45:46Z</time>
      </trkpt>
      <trkpt lat="39.9264397010661" lon="116.48825706713276">
        <ele>24.2</ele>
        <time>2023-06-12T23:45:52Z</time>
      </trkpt>
      <trkpt lat="39.92673842049122" lon="116.4881666878607">
        <ele>22.7</ele>
        <time>2023-06-12T23:46:16Z</time>
      </trkpt>
      <trkpt lat="39.927037080348065" lon="116.48805623263135">
        <ele>21.0</ele>
        <time>2023-06-12T23:46:28Z</time>
      </trkpt>
      <trkpt lat="39.9271725919697" lon="116.48789360022589">
        <ele>21.2</ele>
        <time>2023-06-12T23:46:37Z</time>
      </trkpt>
      <trkpt lat="39.92723546126146" lon="116.48785042903373">
        <ele>21.0</ele>
        <time>2023-06-12T23:46:40Z</time>
      </trkpt>
      <trkpt lat="39.927315380520966" lon="116.48782432030401">
        <ele>21.0</ele>
        <time>2023-06-12T23:46:43Z</time>
      </trkpt>
      <trkpt lat="39.927491962153944" lon="116.48768577411248">
        <ele>20.5</ele>
        <time>2023-06-12T23:46:52Z</time>
      </trkpt>
      <trkpt lat="39.92766522240178" lon="116.48743881834254">
        <ele>19.4</ele>
        <time>2023-06-12T23:47:04Z</time>
      </trkpt>
      <trkpt lat="39.927704658104" lon="116.48724909592619">
        <ele>19.3</ele>
        <time>2023-06-12T23:47:10Z</time>
      </trkpt>
      <trkpt lat="39.92768975406944" lon="116.48694394413002">
        <ele>18.7</ele>
        <time>2023-06-12T23:47:22Z</time>
      </trkpt>
      <trkpt lat="39.92769940862356" lon="116.48682750285835">
        <ele>18.2</ele>
        <time>2023-06-12T23:47:28Z</time>
      </trkpt>
      <trkpt lat="39.92775204663536" lon="116.48670603734509">
        <ele>18.0</ele>
        <time>2023-06-12T23:47:34Z</time>
      </trkpt>
      <trkpt lat="39.92775681749774" lon="116.48662874473771">
        <ele>17.9</ele>
        <time>2023-06-12T23:47:37Z</time>
      </trkpt>
      <trkpt lat="39.92778749816421" lon="116.48652133518986">
        <ele>17.7</ele>
        <time>2023-06-12T23:47:43Z</time>
      </trkpt>
      <trkpt lat="39.92783061388036" lon="116.48622320403457">
        <ele>17.2</ele>
        <time>2023-06-12T23:47:55Z</time>
      </trkpt>
      <trkpt lat="39.92788933228405" lon="116.48612884052547">
        <ele>16.599999999999998</ele>
        <time>2023-06-12T23:48:01Z</time>
      </trkpt>
      <trkpt lat="39.92798012961029" lon="116.4860615753601">
        <ele>16.5</ele>
        <time>2023-06-12T23:48:07Z</time>
      </trkpt>
      <trkpt lat="39.928027771377685" lon="116.48594111485387">
        <ele>16.5</ele>
        <time>2023-06-12T23:48:13Z</time>
      </trkpt>
      <trkpt lat="39.92805720624935" lon="116.48575039166175">
        <ele>17.2</ele>
        <time>2023-06-12T23:48:22Z</time>
      </trkpt>
      <trkpt lat="39.92804394271903" lon="116.48566105636635">
        <ele>17.599999999999998</ele>
        <time>2023-06-12T23:48:25Z</time>
      </trkpt>
      <trkpt lat="39.9279501190838" lon="116.48538101216755">
        <ele>17.599999999999998</ele>
        <time>2023-06-12T23:48:34Z</time>
      </trkpt>
      <trkpt lat="39.9279368735677" lon="116.48529769981121">
        <ele>17.7</ele>
        <time>2023-06-12T23:48:37Z</time>
      </trkpt>
      <trkpt lat="39.927902634884965" lon="116.48521639769163">
        <ele>17.8</ele>
        <time>2023-06-12T23:48:40Z</time>
      </trkpt>
      <trkpt lat="39.927889992460386" lon="116.48499857869506">
        <ele>18.2</ele>
        <time>2023-06-12T23:48:49Z</time>
      </trkpt>
      <trkpt lat="39.92789872554903" lon="116.4849082373847">
        <ele>19.2</ele>
        <time>2023-06-12T23:48:55Z</time>
      </trkpt>
      <trkpt lat="39.92794056393826" lon="116.48485402806276">
        <ele>19.4</ele>
        <time>2023-06-12T23:49:01Z</time>
      </trkpt>
      <trkpt lat="39.92811931979323" lon="116.48477370342685">
        <ele>20.3</ele>
        <time>2023-06-12T23:49:13Z</time>
      </trkpt>
      <trkpt lat="39.92816519063385" lon="116.48473053522211">
        <ele>20.0</ele>
        <time>2023-06-12T23:49:16Z</time>
      </trkpt>
      <trkpt lat="39.92825520761407" lon="116.48439827378384">
        <ele>21.599999999999998</ele>
        <time>2023-06-12T23:49:25Z</time>
      </trkpt>
      <trkpt lat="39.92825891175651" lon="116.48429789580015">
        <ele>22.099999999999998</ele>
        <time>2023-06-12T23:49:28Z</time>
      </trkpt>
      <trkpt lat="39.92833480222831" lon="116.484261750441">
        <ele>22.5</ele>
        <time>2023-06-12T23:49:31Z</time>
      </trkpt>
      <trkpt lat="39.92841260690994" lon="116.48419649540709">
        <ele>23.0</ele>
        <time>2023-06-12T23:49:34Z</time>
      </trkpt>
      <trkpt lat="39.92843971910011" lon="116.48412859713208">
        <ele>23.099999999999998</ele>
        <time>2023-06-12T23:49:37Z</time>
      </trkpt>
      <trkpt lat="39.928404767336794" lon="116.4835711470029">
        <ele>15.7</ele>
        <time>2023-06-12T23:49:58Z</time>
      </trkpt>
      <trkpt lat="39.92847482939838" lon="116.48359322115756">
        <ele>12.7</ele>
        <time>2023-06-12T23:50:01Z</time>
      </trkpt>
      <trkpt lat="39.92855359310001" lon="116.48351391364868">
        <ele>16.599999999999998</ele>
        <time>2023-06-12T23:50:04Z</time>
      </trkpt>
      <trkpt lat="39.92861929250203" lon="116.48341252496057">
        <ele>13.3</ele>
        <time>2023-06-12T23:50:07Z</time>
      </trkpt>
      <trkpt lat="39.928644831480746" lon="116.48325593428616">
        <ele>23.099999999999998</ele>
        <time>2023-06-12T23:50:10Z</time>
      </trkpt>
      <trkpt lat="39.928692661516465" lon="116.48319871371444">
        <ele>24.8</ele>
        <time>2023-06-12T23:50:13Z</time>
      </trkpt>
      <trkpt lat="39.92878745725378" lon="116.48313044590535">
        <ele>25.3</ele>
        <time>2023-06-12T23:50:19Z</time>
      </trkpt>
      <trkpt lat="39.92896537045144" lon="116.48310332206354">
        <ele>27.2</ele>
        <time>2023-06-12T23:50:28Z</time>
      </trkpt>
      <trkpt lat="39.929032579891334" lon="116.48317558468099">
        <ele>26.400000000000002</ele>
        <time>2023-06-12T23:50:31Z</time>
      </trkpt>
      <trkpt lat="39.929345369725596" lon="116.48310829342462">
        <ele>25.3</ele>
        <time>2023-06-12T23:50:46Z</time>
      </trkpt>
      <trkpt lat="39.92948444363255" lon="116.48313537768084">
        <ele>21.2</ele>
        <time>2023-06-12T23:50:55Z</time>
      </trkpt>
      <trkpt lat="39.92951726845038" lon="116.48307615152103">
        <ele>21.4</ele>
        <time>2023-06-12T23:51:01Z</time>
      </trkpt>
      <trkpt lat="39.929534575614944" lon="116.48284026522992">
        <ele>22.2</ele>
        <time>2023-06-12T23:51:13Z</time>
      </trkpt>
      <trkpt lat="39.92950425598778" lon="116.4827308591232">
        <ele>21.8</ele>
        <time>2023-06-12T23:51:19Z</time>
      </trkpt>
      <trkpt lat="39.92936349974531" lon="116.48247090323665">
        <ele>20.2</ele>
        <time>2023-06-12T23:51:31Z</time>
      </trkpt>
      <trkpt lat="39.92924230178639" lon="116.48240165915638">
        <ele>20.0</ele>
        <time>2023-06-12T23:51:37Z</time>
      </trkpt>
      <trkpt lat="39.92917493709244" lon="116.4822761981001">
        <ele>20.9</ele>
        <time>2023-06-12T23:51:43Z</time>
      </trkpt>
      <trkpt lat="39.92915639432179" lon="116.4820905059106">
        <ele>21.099999999999998</ele>
        <time>2023-06-12T23:51:52Z</time>
      </trkpt>
      <trkpt lat="39.92913719834104" lon="116.48202325687826">
        <ele>21.5</ele>
        <time>2023-06-12T23:51:55Z</time>
      </trkpt>
      <trkpt lat="39.92904185872755" lon="116.48190582984553">
        <ele>21.5</ele>
        <time>2023-06-12T23:52:01Z</time>
      </trkpt>
      <trkpt lat="39.92885860792187" lon="116.48181752269853">
        <ele>21.099999999999998</ele>
        <time>2023-06-12T23:52:10Z</time>
      </trkpt>
      <trkpt lat="39.92878661965559" lon="116.48182054294392">
        <ele>20.9</ele>
        <time>2023-06-12T23:52:13Z</time>
      </trkpt>
      <trkpt lat="39.928530055697344" lon="116.48196611887474">
        <ele>20.8</ele>
        <time>2023-06-12T23:52:28Z</time>
      </trkpt>
      <trkpt lat="39.92847716061297" lon="116.48200125679847">
        <ele>22.099999999999998</ele>
        <time>2023-06-12T23:52:31Z</time>
      </trkpt>
      <trkpt lat="39.92829716794754" lon="116.48200127928732">
        <ele>25.8</ele>
        <time>2023-06-12T23:52:43Z</time>
      </trkpt>
      <trkpt lat="39.92812839213324" lon="116.48207557805495">
        <ele>28.8</ele>
        <time>2023-06-12T23:52:55Z</time>
      </trkpt>
      <trkpt lat="39.92795413671501" lon="116.4823275421348">
        <ele>30.099999999999998</ele>
        <time>2023-06-12T23:53:07Z</time>
      </trkpt>
      <trkpt lat="39.92786292558637" lon="116.48259555665138">
        <ele>30.099999999999998</ele>
        <time>2023-06-12T23:53:16Z</time>
      </trkpt>
      <trkpt lat="39.92785712295166" lon="116.48266280921455">
        <ele>28.3</ele>
        <time>2023-06-12T23:53:19Z</time>
      </trkpt>
      <trkpt lat="39.92780926027085" lon="116.48270898812386">
        <ele>26.8</ele>
        <time>2023-06-12T23:53:22Z</time>
      </trkpt>
      <trkpt lat="39.92774534822869" lon="116.48273810513956">
        <ele>25.5</ele>
        <time>2023-06-12T23:53:25Z</time>
      </trkpt>
      <trkpt lat="39.92762731478519" lon="116.4827250710041">
        <ele>24.3</ele>
        <time>2023-06-12T23:53:31Z</time>
      </trkpt>
      <trkpt lat="39.927490405729046" lon="116.48275419714142">
        <ele>24.599999999999998</ele>
        <time>2023-06-12T23:53:37Z</time>
      </trkpt>
      <trkpt lat="39.92736159055333" lon="116.48281544261262">
        <ele>22.0</ele>
        <time>2023-06-12T23:53:43Z</time>
      </trkpt>
      <trkpt lat="39.92731673959411" lon="116.48286563626114">
        <ele>19.7</ele>
        <time>2023-06-12T23:53:49Z</time>
      </trkpt>
      <trkpt lat="39.92727399753796" lon="116.48295296886158">
        <ele>19.7</ele>
        <time>2023-06-12T23:53:55Z</time>
      </trkpt>
      <trkpt lat="39.927233071859" lon="116.4833183440325">
        <ele>17.0</ele>
        <time>2023-06-12T23:54:10Z</time>
      </trkpt>
      <trkpt lat="39.92722413709232" lon="116.48334042799593">
        <ele>17.4</ele>
        <time>2023-06-12T23:54:16Z</time>
      </trkpt>
      <trkpt lat="39.927239184577715" lon="116.48336357875914">
        <ele>16.9</ele>
        <time>2023-06-12T23:54:19Z</time>
      </trkpt>
      <trkpt lat="39.927222099933694" lon="116.48400793468542">
        <ele>23.2</ele>
        <time>2023-06-12T23:54:37Z</time>
      </trkpt>
      <trkpt lat="39.92712901996875" lon="116.48431911610047">
        <ele>27.2</ele>
        <time>2023-06-12T23:54:43Z</time>
      </trkpt>
      <trkpt lat="39.927082246623215" lon="116.48439540885572">
        <ele>24.099999999999998</ele>
        <time>2023-06-12T23:54:46Z</time>
      </trkpt>
      <trkpt lat="39.92685946277277" lon="116.48446570097">
        <ele>18.099999999999998</ele>
        <time>2023-06-12T23:54:58Z</time>
      </trkpt>
      <trkpt lat="39.92659939946506" lon="116.48444063902592">
        <ele>19.8</ele>
        <time>2023-06-12T23:55:10Z</time>
      </trkpt>
      <trkpt lat="39.92627944805827" lon="116.48445272426795">
        <ele>17.099999999999998</ele>
        <time>2023-06-12T23:55:25Z</time>
      </trkpt>
      <trkpt lat="39.92611751680928" lon="116.48447382377479">
        <ele>16.5</ele>
        <time>2023-06-12T23:55:34Z</time>
      </trkpt>
      <trkpt lat="39.92606939750717" lon="116.48443267496414">
        <ele>16.8</ele>
        <time>2023-06-12T23:55:38Z</time>
      </trkpt>
      <trkpt lat="39.925897363150725" lon="116.48441864357353">
        <ele>14.899999999999999</ele>
        <time>2023-06-12T23:55:47Z</time>
      </trkpt>
      <trkpt lat="39.92580940224917" lon="116.48443069985991">
        <ele>15.399999999999999</ele>
        <time>2023-06-12T23:55:50Z</time>
      </trkpt>
      <trkpt lat="39.925674313146295" lon="116.48439859589824">
        <ele>15.7</ele>
        <time>2023-06-12T23:55:56Z</time>
      </trkpt>
      <trkpt lat="39.92538049970674" lon="116.48445785533495">
        <ele>18.7</ele>
        <time>2023-06-12T23:56:08Z</time>
      </trkpt>
      <trkpt lat="39.925240543906504" lon="116.48447092188934">
        <ele>21.5</ele>
        <time>2023-06-12T23:56:14Z</time>
      </trkpt>
      <trkpt lat="39.92505743311208" lon="116.48443079370354">
        <ele>22.099999999999998</ele>
        <time>2023-06-12T23:56:23Z</time>
      </trkpt>
      <trkpt lat="39.92494551165619" lon="116.48445590206701">
        <ele>21.8</ele>
        <time>2023-06-12T23:56:29Z</time>
      </trkpt>
      <trkpt lat="39.924829915797794" lon="116.48459142632352">
        <ele>22.9</ele>
        <time>2023-06-12T23:56:41Z</time>
      </trkpt>
      <trkpt lat="39.92468286910934" lon="116.48491265376607">
        <ele>25.599999999999998</ele>
        <time>2023-06-12T23:56:53Z</time>
      </trkpt>
      <trkpt lat="39.92464005745435" lon="116.48497589724616">
        <ele>26.2</ele>
        <time>2023-06-12T23:56:56Z</time>
      </trkpt>
      <trkpt lat="39.92460547065161" lon="116.48511542708995">
        <ele>27.099999999999998</ele>
        <time>2023-06-12T23:57:02Z</time>
      </trkpt>
      <trkpt lat="39.92465559502271" lon="116.48549685830083">
        <ele>28.2</ele>
        <time>2023-06-12T23:57:17Z</time>
      </trkpt>
      <trkpt lat="39.92480712272255" lon="116.48567752068446">
        <ele>24.5</ele>
        <time>2023-06-12T23:57:26Z</time>
      </trkpt>
      <trkpt lat="39.92488527676546" lon="116.4857307115823">
        <ele>24.2</ele>
        <time>2023-06-12T23:57:29Z</time>
      </trkpt>
      <trkpt lat="39.92502019733662" lon="116.48604387632139">
        <ele>21.4</ele>
        <time>2023-06-12T23:57:44Z</time>
      </trkpt>
      <trkpt lat="39.92503741934941" lon="116.48611915830514">
        <ele>21.2</ele>
        <time>2023-06-12T23:57:47Z</time>
      </trkpt>
      <trkpt lat="39.92501785976189" lon="116.48626772154181">
        <ele>24.7</ele>
        <time>2023-06-12T23:57:53Z</time>
      </trkpt>
      <trkpt lat="39.92498203949363" lon="116.48632795340023">
        <ele>26.999999999999996</ele>
        <time>2023-06-12T23:57:56Z</time>
      </trkpt>
      <trkpt lat="39.924745480106154" lon="116.48647353252268">
        <ele>26.400000000000002</ele>
        <time>2023-06-12T23:58:08Z</time>
      </trkpt>
      <trkpt lat="39.924613521198616" lon="116.48648559446801">
        <ele>26.3</ele>
        <time>2023-06-12T23:58:14Z</time>
      </trkpt>
      <trkpt lat="39.92431906973135" lon="116.48632903985666">
        <ele>28.2</ele>
        <time>2023-06-12T23:58:29Z</time>
      </trkpt>
      <trkpt lat="39.92421996685231" lon="116.48629291577701">
        <ele>28.499999999999996</ele>
        <time>2023-06-12T23:58:35Z</time>
      </trkpt>
      <trkpt lat="39.92412997947079" lon="116.48629593836696">
        <ele>28.3</ele>
        <time>2023-06-12T23:58:41Z</time>
      </trkpt>
      <trkpt lat="39.923870483432324" lon="116.48646259991851">
        <ele>27.999999999999996</ele>
        <time>2023-06-12T23:58:53Z</time>
      </trkpt>
      <trkpt lat="39.92366225008538" lon="116.48671859275557">
        <ele>26.2</ele>
        <time>2023-06-12T23:59:08Z</time>
      </trkpt>
      <trkpt lat="39.923617400622206" lon="116.48676878797728">
        <ele>25.4</ele>
        <time>2023-06-12T23:59:11Z</time>
      </trkpt>
      <trkpt lat="39.923582723267984" lon="116.48687720195385">
        <ele>21.3</ele>
        <time>2023-06-12T23:59:17Z</time>
      </trkpt>
      <trkpt lat="39.92339047799169" lon="116.4871291782479">
        <ele>15.5</ele>
        <time>2023-06-12T23:59:32Z</time>
      </trkpt>
      <trkpt lat="39.92334270020233" lon="116.48720346503869">
        <ele>15.2</ele>
        <time>2023-06-12T23:59:35Z</time>
      </trkpt>
      <trkpt lat="39.923271896603296" lon="116.4872687205686">
        <ele>14.2</ele>
        <time>2023-06-12T23:59:41Z</time>
      </trkpt>
      <trkpt lat="39.92302505266474" lon="116.48731793732595">
        <ele>9.3</ele>
        <time>2023-06-12T23:59:56Z</time>
      </trkpt>
      <trkpt lat="39.92290011141423" lon="116.48733602122424">
        <ele>9.100000000000001</ele>
        <time>2023-06-13T00:00:02Z</time>
      </trkpt>
      <trkpt lat="39.92280932953465" lon="116.4874083058636">
        <ele>7.7</ele>
        <time>2023-06-13T00:00:08Z</time>
      </trkpt>
      <trkpt lat="39.92278253014987" lon="116.48747556357306">
        <ele>7.1000000000000005</ele>
        <time>2023-06-13T00:00:11Z</time>
      </trkpt>
      <trkpt lat="39.92278259359753" lon="116.48783391933357">
        <ele>13.0</ele>
        <time>2023-06-13T00:00:23Z</time>
      </trkpt>
      <trkpt lat="39.922739107992285" lon="116.48800657817908">
        <ele>13.0</ele>
        <time>2023-06-13T00:00:29Z</time>
      </trkpt>
      <trkpt lat="39.92270235394143" lon="116.48808889432568">
        <ele>12.899999999999999</ele>
        <time>2023-06-13T00:00:32Z</time>
      </trkpt>
      <trkpt lat="39.92269565441059" lon="116.48852655230085">
        <ele>14.7</ele>
        <time>2023-06-13T00:00:47Z</time>
      </trkpt>
      <trkpt lat="39.922707325240204" lon="116.4887524063415">
        <ele>16.099999999999998</ele>
        <time>2023-06-13T00:00:56Z</time>
      </trkpt>
      <trkpt lat="39.92276767489975" lon="116.48887084756564">
        <ele>16.4</ele>
        <time>2023-06-13T00:01:02Z</time>
      </trkpt>
      <trkpt lat="39.92282678289011" lon="116.48890798092212">
        <ele>15.099999999999998</ele>
        <time>2023-06-13T00:01:08Z</time>
      </trkpt>
      <trkpt lat="39.92288975939416" lon="116.48890094645614">
        <ele>13.2</ele>
        <time>2023-06-13T00:01:14Z</time>
      </trkpt>
      <trkpt lat="39.923227897654414" lon="116.4889520983141">
        <ele>14.599999999999998</ele>
        <time>2023-06-13T00:01:26Z</time>
      </trkpt>
      <trkpt lat="39.92352885239981" lon="116.4889410189945">
        <ele>19.3</ele>
        <time>2023-06-13T00:01:41Z</time>
      </trkpt>
      <trkpt lat="39.92370089007837" lon="116.48895605462005">
        <ele>18.8</ele>
        <time>2023-06-13T00:01:50Z</time>
      </trkpt>
      <trkpt lat="39.92388586155836" lon="116.48894900495841">
        <ele>18.7</ele>
        <time>2023-06-13T00:01:59Z</time>
      </trkpt>
      <trkpt lat="39.92415691606067" lon="116.48897105487718">
        <ele>16.7</ele>
        <time>2023-06-13T00:02:14Z</time>
      </trkpt>
      <trkpt lat="39.92443198533332" lon="116.48899812331635">
        <ele>17.7</ele>
        <time>2023-06-13T00:02:26Z</time>
      </trkpt>
      <trkpt lat="39.92470200407603" lon="116.4890081277236">
        <ele>18.8</ele>
        <time>2023-06-13T00:02:38Z</time>
      </trkpt>
      <trkpt lat="39.92493795855298" lon="116.4889960526913">
        <ele>19.5</ele>
        <time>2023-06-13T00:02:47Z</time>
      </trkpt>
      <trkpt lat="39.92499908142014" lon="116.48903820483751">
        <ele>18.4</ele>
        <time>2023-06-13T00:02:50Z</time>
      </trkpt>
      <trkpt lat="39.92516789238822" lon="116.48897695178321">
        <ele>18.4</ele>
        <time>2023-06-13T00:02:59Z</time>
      </trkpt>
      <trkpt lat="39.92527570587954" lon="116.48891570633904">
        <ele>18.599999999999998</ele>
        <time>2023-06-13T00:03:05Z</time>
      </trkpt>
      <trkpt lat="39.925575580150074" lon="116.48887752445997">
        <ele>21.2</ele>
        <time>2023-06-13T00:03:17Z</time>
      </trkpt>
      <trkpt lat="39.92576939611246" lon="116.48881827593007">
        <ele>23.0</ele>
        <time>2023-06-13T00:03:26Z</time>
      </trkpt>
      <trkpt lat="39.92605728284218" lon="116.4887841107669">
        <ele>24.0</ele>
        <time>2023-06-13T00:03:41Z</time>
      </trkpt>
      <trkpt lat="39.926134240893504" lon="116.48877105174229">
        <ele>24.0</ele>
        <time>2023-06-13T00:03:44Z</time>
      </trkpt>
      <trkpt lat="39.926190140127346" lon="116.48873791928497">
        <ele>25.0</ele>
        <time>2023-06-13T00:03:47Z</time>
      </trkpt>
      <trkpt lat="39.92635530993555" lon="116.48846084929389">
        <ele>27.7</ele>
        <time>2023-06-13T00:03:59Z</time>
      </trkpt>
      <trkpt lat="39.92639181335898" lon="116.48829421373084">
        <ele>23.599999999999998</ele>
        <time>2023-06-13T00:04:08Z</time>
      </trkpt>
      <trkpt lat="39.926420648173654" lon="116.4882390010936">
        <ele>21.4</ele>
        <time>2023-06-13T00:04:14Z</time>
      </trkpt>
      <trkpt lat="39.92661242564739" lon="116.48816670356005">
        <ele>20.7</ele>
        <time>2023-06-13T00:04:26Z</time>
      </trkpt>
      <trkpt lat="39.92673045659451" lon="116.48817873445786">
        <ele>20.099999999999998</ele>
        <time>2023-06-13T00:04:32Z</time>
      </trkpt>
      <trkpt lat="39.92700225467176" lon="116.48811445737184">
        <ele>20.099999999999998</ele>
        <time>2023-06-13T00:04:44Z</time>
      </trkpt>
      <trkpt lat="39.927072141514245" lon="116.48807730806088">
        <ele>20.099999999999998</ele>
        <time>2023-06-13T00:04:50Z</time>
      </trkpt>
      <trkpt lat="39.92725935301341" lon="116.48781428929894">
        <ele>22.099999999999998</ele>
        <time>2023-06-13T00:05:02Z</time>
      </trkpt>
      <trkpt lat="39.92740696860473" lon="116.48768678850358">
        <ele>25.0</ele>
        <time>2023-06-13T00:05:08Z</time>
      </trkpt>
      <trkpt lat="39.927580711289465" lon="116.48760244782694">
        <ele>26.0</ele>
        <time>2023-06-13T00:05:17Z</time>
      </trkpt>
      <trkpt lat="39.92765536871799" lon="116.487488005621">
        <ele>26.8</ele>
        <time>2023-06-13T00:05:23Z</time>
      </trkpt>
      <trkpt lat="39.927702738554245" lon="116.48727619865356">
        <ele>26.599999999999998</ele>
        <time>2023-06-13T00:05:32Z</time>
      </trkpt>
      <trkpt lat="39.92766045780232" lon="116.48684356840899">
        <ele>24.4</ele>
        <time>2023-06-13T00:05:47Z</time>
      </trkpt>
      <trkpt lat="39.927652264817475" lon="116.48677832286988">
        <ele>24.0</ele>
        <time>2023-06-13T00:05:50Z</time>
      </trkpt>
      <trkpt lat="39.92775677290449" lon="116.48661368786202">
        <ele>22.9</ele>
        <time>2023-06-13T00:05:59Z</time>
      </trkpt>
      <trkpt lat="39.9277854863568" lon="116.48651732027496">
        <ele>23.4</ele>
        <time>2023-06-13T00:06:02Z</time>
      </trkpt>
      <trkpt lat="39.92780467435061" lon="116.48624328306141">
        <ele>25.2</ele>
        <time>2023-06-13T00:06:11Z</time>
      </trkpt>
      <trkpt lat="39.92784026004071" lon="116.48610375192548">
        <ele>25.3</ele>
        <time>2023-06-13T00:06:17Z</time>
      </trkpt>
      <trkpt lat="39.927936721656806" lon="116.4859230580346">
        <ele>23.099999999999998</ele>
        <time>2023-06-13T00:06:26Z</time>
      </trkpt>
      <trkpt lat="39.92795946842551" lon="116.48583773328617">
        <ele>23.3</ele>
        <time>2023-06-13T00:06:29Z</time>
      </trkpt>
      <trkpt lat="39.92793022366896" lon="116.48541614707874">
        <ele>20.9</ele>
        <time>2023-06-13T00:06:44Z</time>
      </trkpt>
      <trkpt lat="39.92788702220253" lon="116.48500861687198">
        <ele>19.5</ele>
        <time>2023-06-13T00:06:59Z</time>
      </trkpt>
      <trkpt lat="39.92787561692576" lon="116.48487110041881">
        <ele>19.599999999999998</ele>
        <time>2023-06-13T00:07:05Z</time>
      </trkpt>
      <trkpt lat="39.927912328236125" lon="116.48477372925792">
        <ele>19.7</ele>
        <time>2023-06-13T00:07:11Z</time>
      </trkpt>
      <trkpt lat="39.92797710950658" lon="116.48470044534476">
        <ele>17.8</ele>
        <time>2023-06-13T00:07:17Z</time>
      </trkpt>
      <trkpt lat="39.92809900982463" lon="116.48466830923435">
        <ele>16.3</ele>
        <time>2023-06-13T00:07:26Z</time>
      </trkpt>
      <trkpt lat="39.92823170553727" lon="116.48456691114632">
        <ele>17.7</ele>
        <time>2023-06-13T00:07:32Z</time>
      </trkpt>
      <trkpt lat="39.92829510543852" lon="116.48436414043697">
        <ele>16.599999999999998</ele>
        <time>2023-06-13T00:07:41Z</time>
      </trkpt>
      <trkpt lat="39.928352866534304" lon="116.4842838312266">
        <ele>16.4</ele>
        <time>2023-06-13T00:07:47Z</time>
      </trkpt>
      <trkpt lat="39.92841670923652" lon="116.48416271829527">
        <ele>15.2</ele>
        <time>2023-06-13T00:07:53Z</time>
      </trkpt>
      <trkpt lat="39.928397179025474" lon="116.48405095021081">
        <ele>14.2</ele>
        <time>2023-06-13T00:07:59Z</time>
      </trkpt>
      <trkpt lat="39.92842374369553" lon="116.48390339241875">
        <ele>13.7</ele>
        <time>2023-06-13T00:08:02Z</time>
      </trkpt>
      <trkpt lat="39.92842724453871" lon="116.48373375476736">
        <ele>13.099999999999998</ele>
        <time>2023-06-13T00:08:05Z</time>
      </trkpt>
      <trkpt lat="39.92845481841043" lon="116.48358920858257">
        <ele>12.5</ele>
        <time>2023-06-13T00:08:08Z</time>
      </trkpt>
      <trkpt lat="39.92849983723205" lon="116.48359622934036">
        <ele>12.2</ele>
        <time>2023-06-13T00:08:14Z</time>
      </trkpt>
      <trkpt lat="39.928609989151454" lon="116.48330913820485">
        <ele>19.8</ele>
        <time>2023-06-13T00:08:20Z</time>
      </trkpt>
      <trkpt lat="39.92865876606139" lon="116.48323384971468">
        <ele>22.3</ele>
        <time>2023-06-13T00:08:23Z</time>
      </trkpt>
      <trkpt lat="39.92877459628665" lon="116.48317762442761">
        <ele>23.4</ele>
        <time>2023-06-13T00:08:29Z</time>
      </trkpt>
      <trkpt lat="39.92907062844676" lon="116.4831926439256">
        <ele>20.4</ele>
        <time>2023-06-13T00:08:44Z</time>
      </trkpt>
      <trkpt lat="39.929360516450714" lon="116.48315847973299">
        <ele>16.0</ele>
        <time>2023-06-13T00:08:59Z</time>
      </trkpt>
      <trkpt lat="39.92949241973389" lon="116.4831273465728">
        <ele>17.4</ele>
        <time>2023-06-13T00:09:05Z</time>
      </trkpt>
      <trkpt lat="39.92953031800849" lon="116.48309321387117">
        <ele>19.599999999999998</ele>
        <time>2023-06-13T00:09:08Z</time>
      </trkpt>
      <trkpt lat="39.92952437879078" lon="116.4827730145359">
        <ele>22.9</ele>
        <time>2023-06-13T00:09:26Z</time>
      </trkpt>
      <trkpt lat="39.92940183349126" lon="116.48258532683752">
        <ele>21.099999999999998</ele>
        <time>2023-06-13T00:09:35Z</time>
      </trkpt>
      <trkpt lat="39.92930054641724" lon="116.48248596746008">
        <ele>20.2</ele>
        <time>2023-06-13T00:09:41Z</time>
      </trkpt>
      <trkpt lat="39.929222102705225" lon="116.48233340626597">
        <ele>19.4</ele>
        <time>2023-06-13T00:09:47Z</time>
      </trkpt>
      <trkpt lat="39.92916732045365" lon="116.48206541072216">
        <ele>18.8</ele>
        <time>2023-06-13T00:09:59Z</time>
      </trkpt>
      <trkpt lat="39.92908395975448" lon="116.48194095587726">
        <ele>19.9</ele>
        <time>2023-06-13T00:10:05Z</time>
      </trkpt>
      <trkpt lat="39.92897871748153" lon="116.48185665394928">
        <ele>20.0</ele>
        <time>2023-06-13T00:10:11Z</time>
      </trkpt>
      <trkpt lat="39.92886366053652" lon="116.48183558956916">
        <ele>20.0</ele>
        <time>2023-06-13T00:10:17Z</time>
      </trkpt>
      <trkpt lat="39.928679902814196" lon="116.48191591258268">
        <ele>20.5</ele>
        <time>2023-06-13T00:10:26Z</time>
      </trkpt>
      <trkpt lat="39.92849725963047" lon="116.48203538186324">
        <ele>19.5</ele>
        <time>2023-06-13T00:10:35Z</time>
      </trkpt>
      <trkpt lat="39.92820035102027" lon="116.4820625202784">
        <ele>19.099999999999998</ele>
        <time>2023-06-13T00:10:53Z</time>
      </trkpt>
      <trkpt lat="39.92799490287253" lon="116.48224824038448">
        <ele>23.9</ele>
        <time>2023-06-13T00:11:05Z</time>
      </trkpt>
      <trkpt lat="39.927848940866575" lon="116.48260057719047">
        <ele>26.0</ele>
        <time>2023-06-13T00:11:20Z</time>
      </trkpt>
      <trkpt lat="39.927807089683434" lon="116.48265077035514">
        <ele>26.0</ele>
        <time>2023-06-13T00:11:23Z</time>
      </trkpt>
      <trkpt lat="39.92749549088326" lon="116.48278330555239">
        <ele>20.099999999999998</ele>
        <time>2023-06-13T00:11:41Z</time>
      </trkpt>
      <trkpt lat="39.92735464088556" lon="116.48283250741369">
        <ele>19.0</ele>
        <time>2023-06-13T00:11:47Z</time>
      </trkpt>
      <trkpt lat="39.927291873117376" lon="116.48291080863078">
        <ele>17.5</ele>
        <time>2023-06-13T00:11:53Z</time>
      </trkpt>
      <trkpt lat="39.92720983990758" lon="116.48323904947365">
        <ele>18.2</ele>
        <time>2023-06-13T00:12:08Z</time>
      </trkpt>
      <trkpt lat="39.92718002390419" lon="116.48330128664095">
        <ele>18.8</ele>
        <time>2023-06-13T00:12:11Z</time>
      </trkpt>
      <trkpt lat="39.92707211676774" lon="116.48333141308515">
        <ele>18.3</ele>
        <time>2023-06-13T00:12:17Z</time>
      </trkpt>
      <trkpt lat="39.927017280199486" lon="116.48341219855291">
        <ele>17.8</ele>
        <time>2023-06-13T00:12:23Z</time>
      </trkpt>
      <trkpt lat="39.92690229052154" lon="116.48350317181534">
        <ele>17.8</ele>
        <time>2023-06-13T00:12:38Z</time>
      </trkpt>
      <trkpt lat="39.9271320090815" lon="116.48397582522715">
        <ele>12.7</ele>
        <time>2023-06-13T00:12:44Z</time>
      </trkpt>
      <trkpt lat="39.92710550360672" lon="116.48414345856231">
        <ele>21.2</ele>
        <time>2023-06-13T00:12:47Z</time>
      </trkpt>
      <trkpt lat="39.927064901366094" lon="116.48427796933977">
        <ele>23.4</ele>
        <time>2023-06-13T00:12:50Z</time>
      </trkpt>
      <trkpt lat="39.92694726101432" lon="116.48439843702964">
        <ele>22.099999999999998</ele>
        <time>2023-06-13T00:12:56Z</time>
      </trkpt>
      <trkpt lat="39.92667740514643" lon="116.48444364061835">
        <ele>23.5</ele>
        <time>2023-06-13T00:13:08Z</time>
      </trkpt>
      <trkpt lat="39.926339513632" lon="116.48447580362215">
        <ele>24.5</ele>
        <time>2023-06-13T00:13:23Z</time>
      </trkpt>
      <trkpt lat="39.92609264799048" lon="116.48451799303824">
        <ele>20.7</ele>
        <time>2023-06-13T00:13:35Z</time>
      </trkpt>
      <trkpt lat="39.92583740110114" lon="116.48443069636568">
        <ele>20.3</ele>
        <time>2023-06-13T00:13:47Z</time>
      </trkpt>
      <trkpt lat="39.92573245864474" lon="116.48444877742793">
        <ele>18.599999999999998</ele>
        <time>2023-06-13T00:13:53Z</time>
      </trkpt>
      <trkpt lat="39.92560040490574" lon="116.48442871839097">
        <ele>18.2</ele>
        <time>2023-06-13T00:13:59Z</time>
      </trkpt>
      <trkpt lat="39.925505568524514" lon="116.48448293412967">
        <ele>15.399999999999999</ele>
        <time>2023-06-13T00:14:05Z</time>
      </trkpt>
      <trkpt lat="39.92520554534371" lon="116.48447092625695">
        <ele>14.899999999999999</ele>
        <time>2023-06-13T00:14:17Z</time>
      </trkpt>
      <trkpt lat="39.92508451481888" lon="116.48445889604825">
        <ele>14.599999999999998</ele>
        <time>2023-06-13T00:14:23Z</time>
      </trkpt>
      <trkpt lat="39.924928683920285" lon="116.48451412318686">
        <ele>14.099999999999998</ele>
        <time>2023-06-13T00:14:32Z</time>
      </trkpt>
      <trkpt lat="39.92486691427701" lon="116.48459142170664">
        <ele>14.099999999999998</ele>
        <time>2023-06-13T00:14:38Z</time>
      </trkpt>
      <trkpt lat="39.92477445673925" lon="116.48477412081333">
        <ele>16.3</ele>
        <time>2023-06-13T00:14:47Z</time>
      </trkpt>
      <trkpt lat="39.92469277986254" lon="116.48488253914137">
        <ele>19.3</ele>
        <time>2023-06-13T00:14:53Z</time>
      </trkpt>
      <trkpt lat="39.92462731569118" lon="116.48506322774604">
        <ele>19.7</ele>
        <time>2023-06-13T00:15:08Z</time>
      </trkpt>
      <trkpt lat="39.92463891972426" lon="116.48526799776968">
        <ele>20.9</ele>
        <time>2023-06-13T00:15:14Z</time>
      </trkpt>
      <trkpt lat="39.924724509153336" lon="116.48546874374883">
        <ele>19.9</ele>
        <time>2023-06-13T00:15:20Z</time>
      </trkpt>
      <trkpt lat="39.92490427598457" lon="116.48573070921263">
        <ele>16.599999999999998</ele>
        <time>2023-06-13T00:15:32Z</time>
      </trkpt>
      <trkpt lat="39.92498903531227" lon="116.48598867186914">
        <ele>15.399999999999999</ele>
        <time>2023-06-13T00:15:41Z</time>
      </trkpt>
      <trkpt lat="39.92502460401919" lon="116.48618139481408">
        <ele>18.2</ele>
        <time>2023-06-13T00:15:50Z</time>
      </trkpt>
      <trkpt lat="39.9249839532532" lon="116.48629884325261">
        <ele>19.5</ele>
        <time>2023-06-13T00:15:56Z</time>
      </trkpt>
      <trkpt lat="39.924939109596856" lon="116.48635104592636">
        <ele>20.3</ele>
        <time>2023-06-13T00:15:59Z</time>
      </trkpt>
      <trkpt lat="39.924700398743546" lon="116.48644543199852">
        <ele>21.8</ele>
        <time>2023-06-13T00:16:11Z</time>
      </trkpt>
      <trkpt lat="39.924634395514175" lon="116.48644343264652">
        <ele>22.3</ele>
        <time>2023-06-13T00:16:14Z</time>
      </trkpt>
      <trkpt lat="39.92438793914118" lon="116.48628586830395">
        <ele>19.099999999999998</ele>
        <time>2023-06-13T00:16:29Z</time>
      </trkpt>
      <trkpt lat="39.9241869177076" lon="116.4862758554725">
        <ele>19.5</ele>
        <time>2023-06-13T00:16:38Z</time>
      </trkpt>
      <trkpt lat="39.92410198656566" lon="116.486297949437">
        <ele>22.0</ele>
        <time>2023-06-13T00:16:41Z</time>
      </trkpt>
      <trkpt lat="39.9238394876818" lon="116.48646360757391">
        <ele>27.099999999999998</ele>
        <time>2023-06-13T00:16:56Z</time>
      </trkpt>
      <trkpt lat="39.923726964952714" lon="116.48662322443167">
        <ele>28.7</ele>
        <time>2023-06-13T00:17:02Z</time>
      </trkpt>
      <trkpt lat="39.92366208655343" lon="116.48666338419993">
        <ele>28.2</ele>
        <time>2023-06-13T00:17:08Z</time>
      </trkpt>
      <trkpt lat="39.92346897189215" lon="116.48695952721299">
        <ele>26.3</ele>
        <time>2023-06-13T00:17:20Z</time>
      </trkpt>
      <trkpt lat="39.92331964162692" lon="116.48718339200805">
        <ele>27.2</ele>
        <time>2023-06-13T00:17:32Z</time>
      </trkpt>
      <trkpt lat="39.92320891111061" lon="116.48727274360127">
        <ele>29.400000000000002</ele>
        <time>2023-06-13T00:17:38Z</time>
      </trkpt>
      <trkpt lat="39.92286703240016" lon="116.48730892285695">
        <ele>31.7</ele>
        <time>2023-06-13T00:17:56Z</time>
      </trkpt>
      <trkpt lat="39.92281410008298" lon="116.4873310129637">
        <ele>33.300000000000004</ele>
        <time>2023-06-13T00:17:59Z</time>
      </trkpt>
      <trkpt lat="39.9227645755612" lon="116.48749062276222">
        <ele>30.900000000000002</ele>
        <time>2023-06-13T00:18:05Z</time>
      </trkpt>
      <trkpt lat="39.92274252969968" lon="116.48781184075807">
        <ele>30.2</ele>
        <time>2023-06-13T00:18:17Z</time>
      </trkpt>
      <trkpt lat="39.922772011253976" lon="116.4879744525009">
        <ele>31.8</ele>
        <time>2023-06-13T00:18:23Z</time>
      </trkpt>
      <trkpt lat="39.92269978635107" lon="116.48823444566456">
        <ele>31.2</ele>
        <time>2023-06-13T00:18:32Z</time>
      </trkpt>
      <trkpt lat="39.92269252925333" lon="116.4884843930211">
        <ele>29.900000000000002</ele>
        <time>2023-06-13T00:18:44Z</time>
      </trkpt>
      <trkpt lat="39.92274206121978" lon="116.48866406739702">
        <ele>28.8</ele>
        <time>2023-06-13T00:18:50Z</time>
      </trkpt>
      <trkpt lat="39.922812159771176" lon="116.48869818794661">
        <ele>28.900000000000002</ele>
        <time>2023-06-13T00:18:53Z</time>
      </trkpt>
      <trkpt lat="39.92282056228592" lon="116.48883370026607">
        <ele>28.999999999999996</ele>
        <time>2023-06-13T00:18:56Z</time>
      </trkpt>
      <trkpt lat="39.92287176610722" lon="116.48890295630355">
        <ele>26.599999999999998</ele>
        <time>2023-06-13T00:18:59Z</time>
      </trkpt>
      <trkpt lat="39.92301482884644" lon="116.48892602596189">
        <ele>25.3</ele>
        <time>2023-06-13T00:19:05Z</time>
      </trkpt>
      <trkpt lat="39.923078802325286" lon="116.48891798756786">
        <ele>27.7</ele>
        <time>2023-06-13T00:19:08Z</time>
      </trkpt>
      <trkpt lat="39.923078802325286" lon="116.48891798756786">
        <ele>27.7</ele>
        <time>2023-06-13T00:19:11Z</time>
      </trkpt>
    </trkseg>
  </trk>
</gpx>