<?xml version="1.0" encoding="UTF-8"?>
<gpx xmlns="http://www.topografix.com/GPX/1/1" xmlns:gpxtpx="http://www.garmin.com/xmlschemas/TrackPointExtension/v1" xmlns:xsi="http://www.w3.org/2001/XMLSchema-instance" xsi:schemaLocation="http://www.topografix.com/GPX/1/1 http://www.topografix.com/GPX/1/1/gpx.xsd" version="1.1" creator="gpx.py -- https://github.com/tkrajina/gpxpy">
  <trk>
    <name>gpx from keep</name>
    <type>Run</type>
    <trkseg>
      <trkpt lat="39.91739090874337" lon="116.45591184985372">
        <ele>26.5</ele>
        <time>2022-12-20T04:01:02Z</time>
      </trkpt>
      <trkpt lat="39.91716560874946" lon="116.45578347871545">
        <ele>24.6</ele>
        <time>2022-12-20T04:01:11Z</time>
      </trkpt>
      <trkpt lat="39.916878838318304" lon="116.45587379578045">
        <ele>23.299999999999997</ele>
        <time>2022-12-20T04:01:23Z</time>
      </trkpt>
      <trkpt lat="39.91661875978978" lon="116.45583671308653">
        <ele>22.0</ele>
        <time>2022-12-20T04:01:38Z</time>
      </trkpt>
      <trkpt lat="39.916541835553716" lon="116.45586681644382">
        <ele>22.299999999999997</ele>
        <time>2022-12-20T04:01:41Z</time>
      </trkpt>
      <trkpt lat="39.916475843165124" lon="116.4558688310147">
        <ele>23.700000000000003</ele>
        <time>2022-12-20T04:01:47Z</time>
      </trkpt>
      <trkpt lat="39.916467024979546" lon="116.4559440664037">
        <ele>25.4</ele>
        <time>2022-12-20T04:02:08Z</time>
      </trkpt>
      <trkpt lat="39.916401257809206" lon="116.45603937174258">
        <ele>24.4</ele>
        <time>2022-12-20T04:02:35Z</time>
      </trkpt>
      <trkpt lat="39.9162830811308" lon="116.45596415211908">
        <ele>25.299999999999997</ele>
        <time>2022-12-20T04:02:47Z</time>
      </trkpt>
      <trkpt lat="39.915995991564984" lon="116.45592205709022">
        <ele>27.800000000000004</ele>
        <time>2022-12-20T04:02:59Z</time>
      </trkpt>
      <trkpt lat="39.91577872989595" lon="116.45580973481555">
        <ele>28.5</ele>
        <time>2022-12-20T04:03:08Z</time>
      </trkpt>
      <trkpt lat="39.91570571364348" lon="116.45580171906776">
        <ele>28.0</ele>
        <time>2022-12-20T04:03:11Z</time>
      </trkpt>
      <trkpt lat="39.915348837457316" lon="116.45584690452432">
        <ele>28.200000000000003</ele>
        <time>2022-12-20T04:03:23Z</time>
      </trkpt>
      <trkpt lat="39.91525188507039" lon="116.45586497294882">
        <ele>28.300000000000004</ele>
        <time>2022-12-20T04:03:26Z</time>
      </trkpt>
      <trkpt lat="39.915152024743534" lon="116.45592116044335">
        <ele>28.9</ele>
        <time>2022-12-20T04:03:29Z</time>
      </trkpt>
      <trkpt lat="39.914821004860144" lon="116.45590715847035">
        <ele>34.4</ele>
        <time>2022-12-20T04:03:41Z</time>
      </trkpt>
      <trkpt lat="39.914749078072774" lon="116.45593625814497">
        <ele>35.6</ele>
        <time>2022-12-20T04:03:44Z</time>
      </trkpt>
      <trkpt lat="39.914612083868114" lon="116.4559362754278">
        <ele>36.9</ele>
        <time>2022-12-20T04:03:50Z</time>
      </trkpt>
      <trkpt lat="39.914537087041865" lon="116.45593628488915">
        <ele>37.0</ele>
        <time>2022-12-20T04:03:53Z</time>
      </trkpt>
      <trkpt lat="39.91439225538574" lon="116.4560035125937">
        <ele>36.300000000000004</ele>
        <time>2022-12-20T04:03:59Z</time>
      </trkpt>
      <trkpt lat="39.91426729216752" lon="116.45601656901306">
        <ele>35.9</ele>
        <time>2022-12-20T04:04:05Z</time>
      </trkpt>
      <trkpt lat="39.914131261598115" lon="116.45600153926455">
        <ele>33.2</ele>
        <time>2022-12-20T04:04:11Z</time>
      </trkpt>
      <trkpt lat="39.9138164203208" lon="116.45606176666547">
        <ele>23.200000000000003</ele>
        <time>2022-12-20T04:04:29Z</time>
      </trkpt>
      <trkpt lat="39.91370642498837" lon="116.45606178054102">
        <ele>20.799999999999997</ele>
        <time>2022-12-20T04:04:35Z</time>
      </trkpt>
      <trkpt lat="39.91357726814574" lon="116.45599458726286">
        <ele>18.299999999999997</ele>
        <time>2022-12-20T04:04:44Z</time>
      </trkpt>
      <trkpt lat="39.91326332265794" lon="116.45601168002553">
        <ele>13.999999999999998</ele>
        <time>2022-12-20T04:04:59Z</time>
      </trkpt>
      <trkpt lat="39.913121357763366" lon="116.45602373546409">
        <ele>10.299999999999999</ele>
        <time>2022-12-20T04:05:08Z</time>
      </trkpt>
      <trkpt lat="39.91303730320346" lon="116.45599967101182">
        <ele>8.299999999999999</ele>
        <time>2022-12-20T04:05:14Z</time>
      </trkpt>
      <trkpt lat="39.91273649773345" lon="116.45607494357249">
        <ele>8.299999999999999</ele>
        <time>2022-12-20T04:05:26Z</time>
      </trkpt>
      <trkpt lat="39.912678614164214" lon="116.45612209800284">
        <ele>8.1</ele>
        <time>2022-12-20T04:05:29Z</time>
      </trkpt>
      <trkpt lat="39.912643775793015" lon="116.4561883091377">
        <ele>8.0</ele>
        <time>2022-12-20T04:05:32Z</time>
      </trkpt>
      <trkpt lat="39.91250620202593" lon="116.45636186914125">
        <ele>7.299999999999999</ele>
        <time>2022-12-20T04:05:38Z</time>
      </trkpt>
      <trkpt lat="39.91240702271619" lon="116.45669793548416">
        <ele>11.799999999999999</ele>
        <time>2022-12-20T04:05:47Z</time>
      </trkpt>
      <trkpt lat="39.91238188268883" lon="116.45705004708941">
        <ele>18.799999999999997</ele>
        <time>2022-12-20T04:06:02Z</time>
      </trkpt>
      <trkpt lat="39.912398577027815" lon="116.45733394183665">
        <ele>21.700000000000003</ele>
        <time>2022-12-20T04:06:14Z</time>
      </trkpt>
      <trkpt lat="39.91239636329533" lon="116.45765395640835">
        <ele>25.299999999999997</ele>
        <time>2022-12-20T04:06:26Z</time>
      </trkpt>
      <trkpt lat="39.91237970993466" lon="116.45779440476706">
        <ele>27.200000000000003</ele>
        <time>2022-12-20T04:06:29Z</time>
      </trkpt>
      <trkpt lat="39.91230125550829" lon="116.45801411409033">
        <ele>28.300000000000004</ele>
        <time>2022-12-20T04:06:35Z</time>
      </trkpt>
      <trkpt lat="39.912251456038824" lon="116.4580943762795">
        <ele>26.800000000000004</ele>
        <time>2022-12-20T04:06:38Z</time>
      </trkpt>
      <trkpt lat="39.91221126559839" lon="116.4584204232388">
        <ele>29.4</ele>
        <time>2022-12-20T04:06:47Z</time>
      </trkpt>
      <trkpt lat="39.91225099719345" lon="116.45871536384004">
        <ele>27.1</ele>
        <time>2022-12-20T04:06:56Z</time>
      </trkpt>
      <trkpt lat="39.912226350762666" lon="116.4588568214886">
        <ele>21.799999999999997</ele>
        <time>2022-12-20T04:07:02Z</time>
      </trkpt>
      <trkpt lat="39.912341102722486" lon="116.45915978283617">
        <ele>16.799999999999997</ele>
        <time>2022-12-20T04:07:14Z</time>
      </trkpt>
      <trkpt lat="39.91231716293258" lon="116.45958215124088">
        <ele>16.4</ele>
        <time>2022-12-20T04:07:26Z</time>
      </trkpt>
      <trkpt lat="39.9123071285278" lon="116.4599653964724">
        <ele>17.700000000000003</ele>
        <time>2022-12-20T04:07:41Z</time>
      </trkpt>
      <trkpt lat="39.912277149673834" lon="116.46036871449253">
        <ele>3.5999999999999996</ele>
        <time>2022-12-20T04:08:02Z</time>
      </trkpt>
      <trkpt lat="39.912267503712584" lon="116.46050817135307">
        <ele>4.199999999999999</ele>
        <time>2022-12-20T04:08:05Z</time>
      </trkpt>
      <trkpt lat="39.91229622657123" lon="116.46079310062713">
        <ele>9.299999999999999</ele>
        <time>2022-12-20T04:08:11Z</time>
      </trkpt>
      <trkpt lat="39.91229264069436" lon="116.46095563437629">
        <ele>11.200000000000001</ele>
        <time>2022-12-20T04:08:17Z</time>
      </trkpt>
      <trkpt lat="39.912346558179806" lon="116.46131581237069">
        <ele>12.999999999999998</ele>
        <time>2022-12-20T04:08:29Z</time>
      </trkpt>
      <trkpt lat="39.91241051716832" lon="116.46169104292117">
        <ele>8.799999999999999</ele>
        <time>2022-12-20T04:08:44Z</time>
      </trkpt>
      <trkpt lat="39.91243225405905" lon="116.46197799029443">
        <ele>0.8999999999999995</ele>
        <time>2022-12-20T04:09:05Z</time>
      </trkpt>
      <trkpt lat="39.91241789870795" lon="116.46222782135283">
        <ele>0.5999999999999996</ele>
        <time>2022-12-20T04:09:20Z</time>
      </trkpt>
      <trkpt lat="39.912452828485215" lon="116.46258801588812">
        <ele>8.7</ele>
        <time>2022-12-20T04:09:32Z</time>
      </trkpt>
      <trkpt lat="39.912456070113905" lon="116.46268132670635">
        <ele>10.9</ele>
        <time>2022-12-20T04:09:38Z</time>
      </trkpt>
      <trkpt lat="39.91243979216746" lon="116.46295925728771">
        <ele>12.200000000000001</ele>
        <time>2022-12-20T04:09:56Z</time>
      </trkpt>
      <trkpt lat="39.912463023347605" lon="116.46304855319175">
        <ele>11.799999999999999</ele>
        <time>2022-12-20T04:10:02Z</time>
      </trkpt>
      <trkpt lat="39.912580360430766" lon="116.4631799787069">
        <ele>12.1</ele>
        <time>2022-12-20T04:10:14Z</time>
      </trkpt>
      <trkpt lat="39.91275452551617" lon="116.46324617880865">
        <ele>11.9</ele>
        <time>2022-12-20T04:10:29Z</time>
      </trkpt>
      <trkpt lat="39.91305354677742" lon="116.46325918493379">
        <ele>14.799999999999999</ele>
        <time>2022-12-20T04:10:53Z</time>
      </trkpt>
      <trkpt lat="39.91334167052828" lon="116.46331132371716">
        <ele>15.799999999999999</ele>
        <time>2022-12-20T04:11:14Z</time>
      </trkpt>
      <trkpt lat="39.91355756719081" lon="116.46327517536923">
        <ele>13.499999999999998</ele>
        <time>2022-12-20T04:11:29Z</time>
      </trkpt>
      <trkpt lat="39.91376255325648" lon="116.46327314284757">
        <ele>9.799999999999999</ele>
        <time>2022-12-20T04:11:41Z</time>
      </trkpt>
      <trkpt lat="39.91408770164993" lon="116.46333531066908">
        <ele>4.1</ele>
        <time>2022-12-20T04:11:56Z</time>
      </trkpt>
      <trkpt lat="39.91432169958245" lon="116.46333829133151">
        <ele>2.9000000000000004</ele>
        <time>2022-12-20T04:12:05Z</time>
      </trkpt>
      <trkpt lat="39.91462644342536" lon="116.46324493992638">
        <ele>4.4</ele>
        <time>2022-12-20T04:12:17Z</time>
      </trkpt>
      <trkpt lat="39.91486253542075" lon="116.46328404147467">
        <ele>3.0999999999999996</ele>
        <time>2022-12-20T04:12:29Z</time>
      </trkpt>
      <trkpt lat="39.91491247838993" lon="116.46326296450998">
        <ele>2.4000000000000004</ele>
        <time>2022-12-20T04:12:32Z</time>
      </trkpt>
      <trkpt lat="39.915038010619895" lon="116.46308535349772">
        <ele>4.1</ele>
        <time>2022-12-20T04:12:47Z</time>
      </trkpt>
      <trkpt lat="39.915113308661994" lon="116.46281644457281">
        <ele>12.200000000000001</ele>
        <time>2022-12-20T04:13:05Z</time>
      </trkpt>
      <trkpt lat="39.91519519549513" lon="116.46238800566617">
        <ele>9.5</ele>
        <time>2022-12-20T04:13:35Z</time>
      </trkpt>
      <trkpt lat="39.91520496694403" lon="116.46229971070653">
        <ele>8.6</ele>
        <time>2022-12-20T04:13:41Z</time>
      </trkpt>
      <trkpt lat="39.9153064836759" lon="116.46211408120132">
        <ele>9.6</ele>
        <time>2022-12-20T04:13:50Z</time>
      </trkpt>
      <trkpt lat="39.91532516490268" lon="116.46199066939181">
        <ele>6.799999999999999</ele>
        <time>2022-12-20T04:13:59Z</time>
      </trkpt>
      <trkpt lat="39.91535001920548" lon="116.46193447999778">
        <ele>6.1</ele>
        <time>2022-12-20T04:14:02Z</time>
      </trkpt>
      <trkpt lat="39.915362773462526" lon="116.46183916262835">
        <ele>5.0</ele>
        <time>2022-12-20T04:14:08Z</time>
      </trkpt>
      <trkpt lat="39.91549682011003" lon="116.46146992523067">
        <ele>-3.0000000000000004</ele>
        <time>2022-12-20T04:14:35Z</time>
      </trkpt>
      <trkpt lat="39.915557473319865" lon="116.46133547421613">
        <ele>-4.800000000000001</ele>
        <time>2022-12-20T04:14:47Z</time>
      </trkpt>
      <trkpt lat="39.91565316396981" lon="116.46121606889429">
        <ele>-3.4000000000000004</ele>
        <time>2022-12-20T04:14:53Z</time>
      </trkpt>
      <trkpt lat="39.915774518620054" lon="116.46096522886633">
        <ele>-0.40000000000000036</ele>
        <time>2022-12-20T04:15:11Z</time>
      </trkpt>
      <trkpt lat="39.915731897103676" lon="116.46072043119779">
        <ele>4.4</ele>
        <time>2022-12-20T04:15:26Z</time>
      </trkpt>
      <trkpt lat="39.915818012244415" lon="116.46037328488954">
        <ele>1.2999999999999998</ele>
        <time>2022-12-20T04:15:50Z</time>
      </trkpt>
      <trkpt lat="39.91580727650776" lon="116.4600823375327">
        <ele>-3.5000000000000004</ele>
        <time>2022-12-20T04:16:08Z</time>
      </trkpt>
      <trkpt lat="39.91585166958155" lon="116.45984255213068">
        <ele>-7.6000000000000005</ele>
        <time>2022-12-20T04:16:23Z</time>
      </trkpt>
      <trkpt lat="39.91593130745388" lon="116.45970007966498">
        <ele>-10.9</ele>
        <time>2022-12-20T04:16:35Z</time>
      </trkpt>
      <trkpt lat="39.91616961924512" lon="116.45943017544086">
        <ele>-10.9</ele>
        <time>2022-12-20T04:16:50Z</time>
      </trkpt>
      <trkpt lat="39.91625220828822" lon="116.45926763972054">
        <ele>-11.5</ele>
        <time>2022-12-20T04:17:02Z</time>
      </trkpt>
      <trkpt lat="39.91626599921063" lon="116.45918436917871">
        <ele>-9.3</ele>
        <time>2022-12-20T04:17:05Z</time>
      </trkpt>
      <trkpt lat="39.91624204553198" lon="116.45880214124634">
        <ele>-11.100000000000001</ele>
        <time>2022-12-20T04:17:26Z</time>
      </trkpt>
      <trkpt lat="39.9162646323585" lon="116.4586366068248">
        <ele>-13.0</ele>
        <time>2022-12-20T04:17:38Z</time>
      </trkpt>
      <trkpt lat="39.91631722614128" lon="116.45847407918139">
        <ele>-15.200000000000001</ele>
        <time>2022-12-20T04:17:50Z</time>
      </trkpt>
      <trkpt lat="39.91635408510202" lon="116.45841789463859">
        <ele>-14.700000000000001</ele>
        <time>2022-12-20T04:17:53Z</time>
      </trkpt>
      <trkpt lat="39.91636391044953" lon="116.45834766867922">
        <ele>-17.0</ele>
        <time>2022-12-20T04:18:02Z</time>
      </trkpt>
      <trkpt lat="39.91641474663806" lon="116.45828245375088">
        <ele>-19.8</ele>
        <time>2022-12-20T04:18:08Z</time>
      </trkpt>
      <trkpt lat="39.91645437977181" lon="116.45813497771056">
        <ele>-23.700000000000003</ele>
        <time>2022-12-20T04:18:20Z</time>
      </trkpt>
      <trkpt lat="39.91643070660337" lon="116.4578621110575">
        <ele>-27.799999999999997</ele>
        <time>2022-12-20T04:18:35Z</time>
      </trkpt>
      <trkpt lat="39.91648382265711" lon="116.45750396683516">
        <ele>-32.0</ele>
        <time>2022-12-20T04:18:56Z</time>
      </trkpt>
      <trkpt lat="39.9165024401704" lon="116.457348471982">
        <ele>-34.8</ele>
        <time>2022-12-20T04:19:11Z</time>
      </trkpt>
      <trkpt lat="39.916496135559925" lon="116.45722407937656">
        <ele>-34.9</ele>
        <time>2022-12-20T04:19:17Z</time>
      </trkpt>
      <trkpt lat="39.916645342073366" lon="116.45690204466379">
        <ele>-35.1</ele>
        <time>2022-12-20T04:19:41Z</time>
      </trkpt>
      <trkpt lat="39.91676355038719" lon="116.45657901434582">
        <ele>-38.1</ele>
        <time>2022-12-20T04:20:05Z</time>
      </trkpt>
      <trkpt lat="39.91688902147693" lon="116.45636332257857">
        <ele>-39.9</ele>
        <time>2022-12-20T04:20:17Z</time>
      </trkpt>
      <trkpt lat="39.9169207916208" lon="116.45626902356186">
        <ele>-41.199999999999996</ele>
        <time>2022-12-20T04:20:23Z</time>
      </trkpt>
      <trkpt lat="39.91705537333407" lon="116.45609847386028">
        <ele>-42.8</ele>
        <time>2022-12-20T04:20:35Z</time>
      </trkpt>
      <trkpt lat="39.917182159586346" lon="116.45601218876425">
        <ele>-41.9</ele>
        <time>2022-12-20T04:20:38Z</time>
      </trkpt>
      <trkpt lat="39.917250950908276" lon="116.45592691437547">
        <ele>-41.6</ele>
        <time>2022-12-20T04:20:50Z</time>
      </trkpt>
      <trkpt lat="39.91718683264282" lon="116.45587676628763">
        <ele>-41.199999999999996</ele>
        <time>2022-12-20T04:21:02Z</time>
      </trkpt>
      <trkpt lat="39.917071837469194" lon="116.45587678079697">
        <ele>-35.4</ele>
        <time>2022-12-20T04:21:20Z</time>
      </trkpt>
      <trkpt lat="39.91694098811877" lon="116.4559369847301">
        <ele>-21.3</ele>
        <time>2022-12-20T04:21:29Z</time>
      </trkpt>
      <trkpt lat="39.916663873953674" lon="116.45588485725277">
        <ele>7.0</ele>
        <time>2022-12-20T04:21:44Z</time>
      </trkpt>
      <trkpt lat="39.916368883939896" lon="116.4558838913487">
        <ele>19.4</ele>
        <time>2022-12-20T04:22:05Z</time>
      </trkpt>
      <trkpt lat="39.91623878060749" lon="116.45583876727144">
        <ele>19.700000000000003</ele>
        <time>2022-12-20T04:22:17Z</time>
      </trkpt>
      <trkpt lat="39.9159819994136" lon="116.45592506822838">
        <ele>22.299999999999997</ele>
        <time>2022-12-20T04:22:32Z</time>
      </trkpt>
      <trkpt lat="39.915913101551865" lon="116.45596620504871">
        <ele>22.9</ele>
        <time>2022-12-20T04:22:38Z</time>
      </trkpt>
      <trkpt lat="39.915607087822615" lon="116.45595520927444">
        <ele>25.799999999999997</ele>
        <time>2022-12-20T04:22:59Z</time>
      </trkpt>
      <trkpt lat="39.91543707321021" lon="116.45594620259662">
        <ele>26.0</ele>
        <time>2022-12-20T04:23:11Z</time>
      </trkpt>
      <trkpt lat="39.91531214626556" lon="116.45597430587335">
        <ele>25.6</ele>
        <time>2022-12-20T04:23:20Z</time>
      </trkpt>
      <trkpt lat="39.91512114706775" lon="116.45597132059152">
        <ele>24.299999999999997</ele>
        <time>2022-12-20T04:23:32Z</time>
      </trkpt>
      <trkpt lat="39.914997256437495" lon="116.45601447067042">
        <ele>25.200000000000003</ele>
        <time>2022-12-20T04:23:38Z</time>
      </trkpt>
      <trkpt lat="39.9146762700094" lon="116.4560145111644">
        <ele>23.9</ele>
        <time>2022-12-20T04:23:59Z</time>
      </trkpt>
      <trkpt lat="39.91459321781639" lon="116.45599144971919">
        <ele>24.1</ele>
        <time>2022-12-20T04:24:05Z</time>
      </trkpt>
      <trkpt lat="39.914363392288685" lon="116.45605969140752">
        <ele>21.799999999999997</ele>
        <time>2022-12-20T04:24:23Z</time>
      </trkpt>
      <trkpt lat="39.91406538067994" lon="116.45604969771249">
        <ele>19.5</ele>
        <time>2022-12-20T04:24:48Z</time>
      </trkpt>
      <trkpt lat="39.91372653323267" lon="116.45610691885196">
        <ele>17.5</ele>
        <time>2022-12-20T04:25:15Z</time>
      </trkpt>
      <trkpt lat="39.91355357210323" lon="116.45611998137271">
        <ele>17.4</ele>
        <time>2022-12-20T04:25:27Z</time>
      </trkpt>
      <trkpt lat="39.913391479570286" lon="116.45607887347023">
        <ele>16.6</ele>
        <time>2022-12-20T04:25:39Z</time>
      </trkpt>
      <trkpt lat="39.913156557445525" lon="116.45610699075038">
        <ele>15.1</ele>
        <time>2022-12-20T04:25:57Z</time>
      </trkpt>
      <trkpt lat="39.91287054051498" lon="116.45609498926272">
        <ele>16.1</ele>
        <time>2022-12-20T04:26:18Z</time>
      </trkpt>
      <trkpt lat="39.91261192041653" lon="116.45624749810143">
        <ele>10.299999999999999</ele>
        <time>2022-12-20T04:26:42Z</time>
      </trkpt>
      <trkpt lat="39.91252118436143" lon="116.45635484527381">
        <ele>9.6</ele>
        <time>2022-12-20T04:26:48Z</time>
      </trkpt>
      <trkpt lat="39.91244578188486" lon="116.45659962189707">
        <ele>12.299999999999999</ele>
        <time>2022-12-20T04:27:03Z</time>
      </trkpt>
      <trkpt lat="39.91243202165045" lon="116.45669793233152">
        <ele>13.700000000000001</ele>
        <time>2022-12-20T04:27:09Z</time>
      </trkpt>
      <trkpt lat="39.91243738315147" lon="116.45684639849932">
        <ele>13.999999999999998</ele>
        <time>2022-12-20T04:27:15Z</time>
      </trkpt>
      <trkpt lat="39.912382218864984" lon="116.45718748086163">
        <ele>19.5</ele>
        <time>2022-12-20T04:27:39Z</time>
      </trkpt>
      <trkpt lat="39.91234748820522" lon="116.45729683086246">
        <ele>19.9</ele>
        <time>2022-12-20T04:27:48Z</time>
      </trkpt>
      <trkpt lat="39.912346635830176" lon="116.45735702139773">
        <ele>19.1</ele>
        <time>2022-12-20T04:27:51Z</time>
      </trkpt>
      <trkpt lat="39.91232185845984" lon="116.45744731039886">
        <ele>19.6</ele>
        <time>2022-12-20T04:27:57Z</time>
      </trkpt>
      <trkpt lat="39.91233143520597" lon="116.45768205379122">
        <ele>17.200000000000003</ele>
        <time>2022-12-20T04:28:12Z</time>
      </trkpt>
      <trkpt lat="39.91222436788961" lon="116.4580582645064">
        <ele>16.9</ele>
        <time>2022-12-20T04:28:33Z</time>
      </trkpt>
      <trkpt lat="39.91220602938126" lon="116.45832511897244">
        <ele>12.999999999999998</ele>
        <time>2022-12-20T04:28:45Z</time>
      </trkpt>
      <trkpt lat="39.91222925736045" lon="116.4584174113373">
        <ele>12.200000000000001</ele>
        <time>2022-12-20T04:28:51Z</time>
      </trkpt>
      <trkpt lat="39.912223970867835" lon="116.4587043318133">
        <ele>12.200000000000001</ele>
        <time>2022-12-20T04:29:00Z</time>
      </trkpt>
      <trkpt lat="39.912297936438954" lon="116.4590925715245">
        <ele>8.6</ele>
        <time>2022-12-20T04:29:15Z</time>
      </trkpt>
      <trkpt lat="39.912301142083244" lon="116.45917483641796">
        <ele>7.199999999999999</ele>
        <time>2022-12-20T04:29:21Z</time>
      </trkpt>
      <trkpt lat="39.912279557624906" lon="116.45934037364687">
        <ele>8.799999999999999</ele>
        <time>2022-12-20T04:29:27Z</time>
      </trkpt>
      <trkpt lat="39.91228508362558" lon="116.45955005129352">
        <ele>15.200000000000001</ele>
        <time>2022-12-20T04:29:33Z</time>
      </trkpt>
      <trkpt lat="39.91226253621594" lon="116.45972963625447">
        <ele>20.299999999999997</ele>
        <time>2022-12-20T04:29:39Z</time>
      </trkpt>
      <trkpt lat="39.91226480396624" lon="116.45983598118511">
        <ele>22.1</ele>
        <time>2022-12-20T04:29:42Z</time>
      </trkpt>
      <trkpt lat="39.91220117102632" lon="116.45998045876344">
        <ele>28.4</ele>
        <time>2022-12-20T04:29:51Z</time>
      </trkpt>
      <trkpt lat="39.912246554271434" lon="116.46013294943135">
        <ele>27.9</ele>
        <time>2022-12-20T04:30:00Z</time>
      </trkpt>
      <trkpt lat="39.91219269355689" lon="116.46018713274339">
        <ele>28.200000000000003</ele>
        <time>2022-12-20T04:30:06Z</time>
      </trkpt>
      <trkpt lat="39.91216092593512" lon="116.46027843444108">
        <ele>24.299999999999997</ele>
        <time>2022-12-20T04:30:15Z</time>
      </trkpt>
      <trkpt lat="39.91222471184135" lon="116.46058944254915">
        <ele>19.4</ele>
        <time>2022-12-20T04:30:30Z</time>
      </trkpt>
      <trkpt lat="39.912224867311544" lon="116.4606506428444">
        <ele>19.299999999999997</ele>
        <time>2022-12-20T04:30:33Z</time>
      </trkpt>
      <trkpt lat="39.912199128603405" lon="116.46075298130472">
        <ele>20.4</ele>
        <time>2022-12-20T04:30:39Z</time>
      </trkpt>
      <trkpt lat="39.912239451226334" lon="116.46088039407286">
        <ele>21.0</ele>
        <time>2022-12-20T04:30:45Z</time>
      </trkpt>
      <trkpt lat="39.91228734775943" lon="116.46123254554406">
        <ele>21.299999999999997</ele>
        <time>2022-12-20T04:31:03Z</time>
      </trkpt>
      <trkpt lat="39.91229469902942" lon="116.46136999746423">
        <ele>21.200000000000003</ele>
        <time>2022-12-20T04:31:09Z</time>
      </trkpt>
      <trkpt lat="39.912252245839504" lon="116.46158270472458">
        <ele>21.0</ele>
        <time>2022-12-20T04:31:24Z</time>
      </trkpt>
      <trkpt lat="39.912217355435104" lon="116.46162484834244">
        <ele>21.4</ele>
        <time>2022-12-20T04:31:27Z</time>
      </trkpt>
      <trkpt lat="39.91221157460627" lon="116.46171013100464">
        <ele>21.4</ele>
        <time>2022-12-20T04:31:33Z</time>
      </trkpt>
      <trkpt lat="39.91228816980122" lon="116.46194289202212">
        <ele>17.1</ele>
        <time>2022-12-20T04:31:54Z</time>
      </trkpt>
      <trkpt lat="39.91232783781656" lon="116.46220274934346">
        <ele>12.1</ele>
        <time>2022-12-20T04:32:06Z</time>
      </trkpt>
      <trkpt lat="39.91240976796443" lon="116.46256394103308">
        <ele>5.4</ele>
        <time>2022-12-20T04:32:27Z</time>
      </trkpt>
      <trkpt lat="39.91249171173763" lon="116.46292915008029">
        <ele>3.5</ele>
        <time>2022-12-20T04:32:45Z</time>
      </trkpt>
      <trkpt lat="39.91250098780448" lon="116.46303550475139">
        <ele>3.5999999999999996</ele>
        <time>2022-12-20T04:32:51Z</time>
      </trkpt>
      <trkpt lat="39.91258836792839" lon="116.46318298778816">
        <ele>8.0</ele>
        <time>2022-12-20T04:33:09Z</time>
      </trkpt>
      <trkpt lat="39.91265546960832" lon="116.46322311388778">
        <ele>11.700000000000001</ele>
        <time>2022-12-20T04:33:15Z</time>
      </trkpt>
      <trkpt lat="39.91290059512756" lon="116.4632752580243">
        <ele>15.9</ele>
        <time>2022-12-20T04:33:36Z</time>
      </trkpt>
      <trkpt lat="39.91310861504395" lon="116.46328626887774">
        <ele>16.1</ele>
        <time>2022-12-20T04:33:51Z</time>
      </trkpt>
      <trkpt lat="39.913267529831586" lon="116.46325614791644">
        <ele>15.999999999999998</ele>
        <time>2022-12-20T04:34:00Z</time>
      </trkpt>
      <trkpt lat="39.91341764113968" lon="116.46330128049274">
        <ele>16.799999999999997</ele>
        <time>2022-12-20T04:34:09Z</time>
      </trkpt>
      <trkpt lat="39.91366954935936" lon="116.46327014445195">
        <ele>18.9</ele>
        <time>2022-12-20T04:34:27Z</time>
      </trkpt>
      <trkpt lat="39.91392859067224" lon="116.46329017917851">
        <ele>17.1</ele>
        <time>2022-12-20T04:34:45Z</time>
      </trkpt>
      <trkpt lat="39.914132537561805" lon="116.46327309629756">
        <ele>13.499999999999998</ele>
        <time>2022-12-20T04:35:00Z</time>
      </trkpt>
      <trkpt lat="39.91428862249245" lon="116.46330819447729">
        <ele>11.9</ele>
        <time>2022-12-20T04:35:09Z</time>
      </trkpt>
      <trkpt lat="39.914579591858136" lon="116.46330113430174">
        <ele>12.499999999999998</ele>
        <time>2022-12-20T04:35:30Z</time>
      </trkpt>
      <trkpt lat="39.91482448211126" lon="116.46326297558183">
        <ele>13.299999999999999</ele>
        <time>2022-12-20T04:35:45Z</time>
      </trkpt>
      <trkpt lat="39.914910562161126" lon="116.46329507246041">
        <ele>12.6</ele>
        <time>2022-12-20T04:35:51Z</time>
      </trkpt>
      <trkpt lat="39.91503749925522" lon="116.46327298243553">
        <ele>11.999999999999998</ele>
        <time>2022-12-20T04:36:00Z</time>
      </trkpt>
      <trkpt lat="39.91508814951082" lon="116.46313952868155">
        <ele>14.4</ele>
        <time>2022-12-20T04:36:21Z</time>
      </trkpt>
      <trkpt lat="39.9151381265042" lon="116.46313149549964">
        <ele>18.0</ele>
        <time>2022-12-20T04:36:39Z</time>
      </trkpt>
      <trkpt lat="39.91519109553851" lon="116.46312045185931">
        <ele>19.700000000000003</ele>
        <time>2022-12-20T04:37:21Z</time>
      </trkpt>
      <trkpt lat="39.915245263048476" lon="116.4631856635861">
        <ele>18.6</ele>
        <time>2022-12-20T04:37:48Z</time>
      </trkpt>
      <trkpt lat="39.91552241340437" lon="116.46324783728701">
        <ele>20.4</ele>
        <time>2022-12-20T04:38:09Z</time>
      </trkpt>
      <trkpt lat="39.91557832477766" lon="116.46321471922222">
        <ele>22.0</ele>
        <time>2022-12-20T04:38:15Z</time>
      </trkpt>
      <trkpt lat="39.91566790832606" lon="116.46305617680265">
        <ele>24.799999999999997</ele>
        <time>2022-12-20T04:38:27Z</time>
      </trkpt>
      <trkpt lat="39.91571152830235" lon="116.46291068452513">
        <ele>23.9</ele>
        <time>2022-12-20T04:38:36Z</time>
      </trkpt>
      <trkpt lat="39.91574001411597" lon="116.46271302059203">
        <ele>23.0</ele>
        <time>2022-12-20T04:38:48Z</time>
      </trkpt>
      <trkpt lat="39.915779786195465" lon="116.46262572433359">
        <ele>22.5</ele>
        <time>2022-12-20T04:38:54Z</time>
      </trkpt>
      <trkpt lat="39.91587179372847" lon="116.46224343997496">
        <ele>24.799999999999997</ele>
        <time>2022-12-20T04:39:12Z</time>
      </trkpt>
      <trkpt lat="39.91588063282417" lon="116.4621812321631">
        <ele>25.6</ele>
        <time>2022-12-20T04:39:15Z</time>
      </trkpt>
      <trkpt lat="39.915955252032134" lon="116.46203473649298">
        <ele>26.1</ele>
        <time>2022-12-20T04:39:27Z</time>
      </trkpt>
      <trkpt lat="39.915968078366305" lon="116.46196751194361">
        <ele>26.200000000000003</ele>
        <time>2022-12-20T04:39:33Z</time>
      </trkpt>
      <trkpt lat="39.916054690111245" lon="116.46181800575701">
        <ele>25.4</ele>
        <time>2022-12-20T04:39:45Z</time>
      </trkpt>
      <trkpt lat="39.91612514860549" lon="116.46160830332163">
        <ele>27.6</ele>
        <time>2022-12-20T04:39:54Z</time>
      </trkpt>
      <trkpt lat="39.916155023820025" lon="116.46156014046473">
        <ele>30.200000000000003</ele>
        <time>2022-12-20T04:39:57Z</time>
      </trkpt>
      <trkpt lat="39.916214484140035" lon="116.46135044109064">
        <ele>33.2</ele>
        <time>2022-12-20T04:40:09Z</time>
      </trkpt>
      <trkpt lat="39.91626725863718" lon="116.46126314683904">
        <ele>33.9</ele>
        <time>2022-12-20T04:40:15Z</time>
      </trkpt>
      <trkpt lat="39.91632277702991" lon="116.46107552246788">
        <ele>32.9</ele>
        <time>2022-12-20T04:40:27Z</time>
      </trkpt>
      <trkpt lat="39.916359609098805" lon="116.46101030349136">
        <ele>32.2</ele>
        <time>2022-12-20T04:40:33Z</time>
      </trkpt>
      <trkpt lat="39.916447611949124" lon="116.46062001248819">
        <ele>26.5</ele>
        <time>2022-12-20T04:41:03Z</time>
      </trkpt>
      <trkpt lat="39.91648447280092" lon="116.46056583055275">
        <ele>25.0</ele>
        <time>2022-12-20T04:41:06Z</time>
      </trkpt>
      <trkpt lat="39.916554403636084" lon="116.46053973641463">
        <ele>22.4</ele>
        <time>2022-12-20T04:41:12Z</time>
      </trkpt>
      <trkpt lat="39.91665283222744" lon="116.46031599304344">
        <ele>18.700000000000003</ele>
        <time>2022-12-20T04:41:24Z</time>
      </trkpt>
      <trkpt lat="39.91669416567745" lon="116.4600531310818">
        <ele>16.799999999999997</ele>
        <time>2022-12-20T04:41:39Z</time>
      </trkpt>
      <trkpt lat="39.91679252128772" lon="116.45979929348876">
        <ele>16.200000000000003</ele>
        <time>2022-12-20T04:41:45Z</time>
      </trkpt>
      <trkpt lat="39.91683691111547" lon="116.45955750378691">
        <ele>17.9</ele>
        <time>2022-12-20T04:41:54Z</time>
      </trkpt>
      <trkpt lat="39.91696898974232" lon="116.45919230648555">
        <ele>14.499999999999998</ele>
        <time>2022-12-20T04:42:15Z</time>
      </trkpt>
      <trkpt lat="39.91696682164962" lon="116.45912508992">
        <ele>13.799999999999999</ele>
        <time>2022-12-20T04:42:18Z</time>
      </trkpt>
      <trkpt lat="39.917002669634805" lon="116.45906489134536">
        <ele>10.700000000000001</ele>
        <time>2022-12-20T04:42:24Z</time>
      </trkpt>
      <trkpt lat="39.91704729942472" lon="116.4589174107906">
        <ele>5.699999999999999</ele>
        <time>2022-12-20T04:42:39Z</time>
      </trkpt>
      <trkpt lat="39.91705898118424" lon="116.45878999958869">
        <ele>2.299999999999999</ele>
        <time>2022-12-20T04:42:51Z</time>
      </trkpt>
      <trkpt lat="39.91714677756662" lon="116.45870973070377">
        <ele>1.5999999999999996</ele>
        <time>2022-12-20T04:42:57Z</time>
      </trkpt>
      <trkpt lat="39.91723116282123" lon="116.45846393184229">
        <ele>3.1999999999999993</ele>
        <time>2022-12-20T04:43:09Z</time>
      </trkpt>
      <trkpt lat="39.917319182152845" lon="116.45806966063236">
        <ele>-3.3000000000000003</ele>
        <time>2022-12-20T04:43:33Z</time>
      </trkpt>
      <trkpt lat="39.91742436809823" lon="116.457741602914">
        <ele>-9.3</ele>
        <time>2022-12-20T04:43:51Z</time>
      </trkpt>
      <trkpt lat="39.91752580601906" lon="116.45751487042502">
        <ele>-6.9</ele>
        <time>2022-12-20T04:44:06Z</time>
      </trkpt>
      <trkpt lat="39.91758364342314" lon="116.45744965646698">
        <ele>-6.300000000000001</ele>
        <time>2022-12-20T04:44:12Z</time>
      </trkpt>
      <trkpt lat="39.9176987315753" lon="116.45707947152907">
        <ele>-9.600000000000001</ele>
        <time>2022-12-20T04:44:33Z</time>
      </trkpt>
      <trkpt lat="39.91773149731027" lon="116.45698416684054">
        <ele>-9.5</ele>
        <time>2022-12-20T04:44:36Z</time>
      </trkpt>
      <trkpt lat="39.91783911581694" lon="116.45682966672469">
        <ele>-5.6000000000000005</ele>
        <time>2022-12-20T04:44:42Z</time>
      </trkpt>
      <trkpt lat="39.917986291927534" lon="116.45649359267132">
        <ele>2.9000000000000004</ele>
        <time>2022-12-20T04:44:54Z</time>
      </trkpt>
      <trkpt lat="39.918061576212814" lon="116.45619966329143">
        <ele>4.299999999999999</ele>
        <time>2022-12-20T04:45:06Z</time>
      </trkpt>
      <trkpt lat="39.918099344128514" lon="116.45610436093108">
        <ele>4.9</ele>
        <time>2022-12-20T04:45:12Z</time>
      </trkpt>
      <trkpt lat="39.9181889406531" lon="116.45593883352167">
        <ele>4.5</ele>
        <time>2022-12-20T04:45:24Z</time>
      </trkpt>
      <trkpt lat="39.91824079332511" lon="116.45587863954779">
        <ele>3.4000000000000004</ele>
        <time>2022-12-20T04:45:30Z</time>
      </trkpt>
      <trkpt lat="39.91828676238332" lon="116.45586659627676">
        <ele>2.5999999999999996</ele>
        <time>2022-12-20T04:45:33Z</time>
      </trkpt>
      <trkpt lat="39.9185808299039" lon="116.45589966222828">
        <ele>0.7999999999999998</ele>
        <time>2022-12-20T04:46:00Z</time>
      </trkpt>
      <trkpt lat="39.918773862968976" lon="116.45591669097678">
        <ele>7.199999999999999</ele>
        <time>2022-12-20T04:46:06Z</time>
      </trkpt>
      <trkpt lat="39.918773862968976" lon="116.45591669097678">
        <ele>7.199999999999999</ele>
        <time>2022-12-20T04:46:09Z</time>
      </trkpt>
    </trkseg>
  </trk>
</gpx>