<?xml version="1.0" encoding="UTF-8"?>
<gpx xmlns="http://www.topografix.com/GPX/1/1" xmlns:gpxtpx="http://www.garmin.com/xmlschemas/TrackPointExtension/v1" xmlns:xsi="http://www.w3.org/2001/XMLSchema-instance" xsi:schemaLocation="http://www.topografix.com/GPX/1/1 http://www.topografix.com/GPX/1/1/gpx.xsd" version="1.1" creator="gpx.py -- https://github.com/tkrajina/gpxpy">
  <trk>
    <name>gpx from keep</name>
    <type>Walk</type>
    <trkseg>
      <trkpt lat="40.06502328612427" lon="116.54524298333392">
        <time>2025-05-14T03:08:40Z</time>
      </trkpt>
      <trkpt lat="40.0650149996153" lon="116.5452663740599">
        <time>2025-05-14T03:08:41Z</time>
      </trkpt>
      <trkpt lat="40.06501074192978" lon="116.54530446633858">
        <time>2025-05-14T03:08:44Z</time>
      </trkpt>
      <trkpt lat="40.06500484866838" lon="116.54535826319228">
        <time>2025-05-14T03:08:47Z</time>
      </trkpt>
      <trkpt lat="40.06500484866838" lon="116.54535826319228">
        <time>2025-05-14T03:08:48Z</time>
      </trkpt>
      <trkpt lat="40.064996624090725" lon="116.54541306259442">
        <time>2025-05-14T03:08:52Z</time>
      </trkpt>
      <trkpt lat="40.06498439833009" lon="116.54546719407153">
        <time>2025-05-14T03:08:56Z</time>
      </trkpt>
      <trkpt lat="40.064971843100004" lon="116.5455233302536">
        <time>2025-05-14T03:09:00Z</time>
      </trkpt>
      <trkpt lat="40.06496095300451" lon="116.5455787978085">
        <time>2025-05-14T03:09:02Z</time>
      </trkpt>
      <trkpt lat="40.064949397485066" lon="116.5456349335573">
        <time>2025-05-14T03:09:04Z</time>
      </trkpt>
      <trkpt lat="40.064932832311456" lon="116.54568605779296">
        <time>2025-05-14T03:09:08Z</time>
      </trkpt>
      <trkpt lat="40.064914265196066" lon="116.5457361797519">
        <time>2025-05-14T03:09:12Z</time>
      </trkpt>
      <trkpt lat="40.06490101461664" lon="116.5457779476847">
        <time>2025-05-14T03:09:14Z</time>
      </trkpt>
      <trkpt lat="40.06488707757225" lon="116.54580962490421">
        <time>2025-05-14T03:09:16Z</time>
      </trkpt>
      <trkpt lat="40.06487814699155" lon="116.54584477640296">
        <time>2025-05-14T03:09:18Z</time>
      </trkpt>
      <trkpt lat="40.064850543515874" lon="116.54587618788969">
        <time>2025-05-14T03:09:20Z</time>
      </trkpt>
      <trkpt lat="40.06482196163488" lon="116.54591862566734">
        <time>2025-05-14T03:09:24Z</time>
      </trkpt>
      <trkpt lat="40.06479940870106" lon="116.54597609832965">
        <time>2025-05-14T03:09:28Z</time>
      </trkpt>
      <trkpt lat="40.06479154097613" lon="116.54604359280653">
        <time>2025-05-14T03:09:32Z</time>
      </trkpt>
      <trkpt lat="40.06479100922424" lon="116.54611275678307">
        <time>2025-05-14T03:09:36Z</time>
      </trkpt>
      <trkpt lat="40.0647934556512" lon="116.54617089407786">
        <time>2025-05-14T03:09:40Z</time>
      </trkpt>
      <trkpt lat="40.06480056248707" lon="116.54622602353295">
        <time>2025-05-14T03:09:42Z</time>
      </trkpt>
      <trkpt lat="40.06480806230653" lon="116.54627761109316">
        <time>2025-05-14T03:09:44Z</time>
      </trkpt>
      <trkpt lat="40.064815762145294" lon="116.54632926532365">
        <time>2025-05-14T03:09:46Z</time>
      </trkpt>
      <trkpt lat="40.06482220332937" lon="116.54638506266343">
        <time>2025-05-14T03:09:48Z</time>
      </trkpt>
      <trkpt lat="40.06483164162692" lon="116.54643952300847">
        <time>2025-05-14T03:09:52Z</time>
      </trkpt>
      <trkpt lat="40.064853051278895" lon="116.54647961464568">
        <time>2025-05-14T03:09:56Z</time>
      </trkpt>
      <trkpt lat="40.06488207536535" lon="116.54649297582392">
        <time>2025-05-14T03:09:58Z</time>
      </trkpt>
      <trkpt lat="40.064909756498864" lon="116.54650132538649">
        <time>2025-05-14T03:10:00Z</time>
      </trkpt>
      <trkpt lat="40.06491247405137" lon="116.54652772036923">
        <time>2025-05-14T03:10:02Z</time>
      </trkpt>
      <trkpt lat="40.06489490467848" lon="116.54657750600262">
        <time>2025-05-14T03:10:06Z</time>
      </trkpt>
      <trkpt lat="40.06486468350791" lon="116.54663464361137">
        <time>2025-05-14T03:10:10Z</time>
      </trkpt>
      <trkpt lat="40.0648391324614" lon="116.5466937851748">
        <time>2025-05-14T03:10:14Z</time>
      </trkpt>
      <trkpt lat="40.064817918855155" lon="116.54675526482978">
        <time>2025-05-14T03:10:18Z</time>
      </trkpt>
      <trkpt lat="40.064802688678604" lon="116.5468083907374">
        <time>2025-05-14T03:10:22Z</time>
      </trkpt>
      <trkpt lat="40.064791109433536" lon="116.546853497366">
        <time>2025-05-14T03:10:24Z</time>
      </trkpt>
      <trkpt lat="40.064781572403" lon="116.54688597422168">
        <time>2025-05-14T03:10:26Z</time>
      </trkpt>
      <trkpt lat="40.06477150985499" lon="116.54692252724602">
        <time>2025-05-14T03:10:28Z</time>
      </trkpt>
      <trkpt lat="40.064761247013145" lon="116.54695894658393">
        <time>2025-05-14T03:10:30Z</time>
      </trkpt>
      <trkpt lat="40.06475237596887" lon="116.54699115589983">
        <time>2025-05-14T03:10:32Z</time>
      </trkpt>
      <trkpt lat="40.06473979519836" lon="116.54703559402064">
        <time>2025-05-14T03:10:34Z</time>
      </trkpt>
      <trkpt lat="40.06472456638533" lon="116.5470897215112">
        <time>2025-05-14T03:10:38Z</time>
      </trkpt>
      <trkpt lat="40.06470635743482" lon="116.54715420654976">
        <time>2025-05-14T03:10:42Z</time>
      </trkpt>
      <trkpt lat="40.064691461695325" lon="116.54720833367895">
        <time>2025-05-14T03:10:46Z</time>
      </trkpt>
      <trkpt lat="40.06467523068447" lon="116.54726145850594">
        <time>2025-05-14T03:10:48Z</time>
      </trkpt>
      <trkpt lat="40.06466231360777" lon="116.54730455964544">
        <time>2025-05-14T03:10:52Z</time>
      </trkpt>
      <trkpt lat="40.064649396461675" lon="116.54734766069181">
        <time>2025-05-14T03:10:54Z</time>
      </trkpt>
      <trkpt lat="40.064634142878674" lon="116.54738909141473">
        <time>2025-05-14T03:10:56Z</time>
      </trkpt>
      <trkpt lat="40.064615908457526" lon="116.54744054549268">
        <time>2025-05-14T03:11:00Z</time>
      </trkpt>
      <trkpt lat="40.064595362935485" lon="116.54750369327594">
        <time>2025-05-14T03:11:04Z</time>
      </trkpt>
      <trkpt lat="40.064578164320885" lon="116.5475741906506">
        <time>2025-05-14T03:11:08Z</time>
      </trkpt>
      <trkpt lat="40.06456494694246" lon="116.54763499841283">
        <time>2025-05-14T03:11:15Z</time>
      </trkpt>
      <trkpt lat="40.06455371983056" lon="116.54769079427155">
        <time>2025-05-14T03:11:17Z</time>
      </trkpt>
      <trkpt lat="40.06454413708339" lon="116.547734896364">
        <time>2025-05-14T03:11:20Z</time>
      </trkpt>
      <trkpt lat="40.06453057909256" lon="116.5477920286141">
        <time>2025-05-14T03:11:22Z</time>
      </trkpt>
      <trkpt lat="40.064517342329296" lon="116.54784281284485">
        <time>2025-05-14T03:11:26Z</time>
      </trkpt>
      <trkpt lat="40.06450310427144" lon="116.54789292887631">
        <time>2025-05-14T03:11:28Z</time>
      </trkpt>
      <trkpt lat="40.064490182403354" lon="116.54793402408129">
        <time>2025-05-14T03:11:31Z</time>
      </trkpt>
      <trkpt lat="40.06447760383184" lon="116.54798046465181">
        <time>2025-05-14T03:11:34Z</time>
      </trkpt>
      <trkpt lat="40.06445136750099" lon="116.54803124999067">
        <time>2025-05-14T03:11:37Z</time>
      </trkpt>
      <trkpt lat="40.06442345824292" lon="116.54807869448848">
        <time>2025-05-14T03:11:43Z</time>
      </trkpt>
      <trkpt lat="40.06439055796854" lon="116.54813081675191">
        <time>2025-05-14T03:11:46Z</time>
      </trkpt>
      <trkpt lat="40.06437198317023" lon="116.54817926213603">
        <time>2025-05-14T03:11:50Z</time>
      </trkpt>
      <trkpt lat="40.06435674516278" lon="116.5482297115247">
        <time>2025-05-14T03:11:54Z</time>
      </trkpt>
      <trkpt lat="40.06434324786833" lon="116.54831991703563">
        <time>2025-05-14T03:14:07Z</time>
      </trkpt>
      <trkpt lat="40.064324695150304" lon="116.54838038907023">
        <time>2025-05-14T03:14:11Z</time>
      </trkpt>
      <trkpt lat="40.06430613856108" lon="116.54843885640786">
        <time>2025-05-14T03:14:14Z</time>
      </trkpt>
      <trkpt lat="40.06429057047437" lon="116.54849130967833">
        <time>2025-05-14T03:14:16Z</time>
      </trkpt>
      <trkpt lat="40.06428131598271" lon="116.54853340543599">
        <time>2025-05-14T03:14:18Z</time>
      </trkpt>
      <trkpt lat="40.06427440764336" lon="116.54858251656066">
        <time>2025-05-14T03:14:20Z</time>
      </trkpt>
      <trkpt lat="40.06426749921257" lon="116.54863162756294">
        <time>2025-05-14T03:14:24Z</time>
      </trkpt>
      <trkpt lat="40.06426026356747" lon="116.54868407930078">
        <time>2025-05-14T03:14:26Z</time>
      </trkpt>
      <trkpt lat="40.06425035822197" lon="116.54873486082093">
        <time>2025-05-14T03:14:30Z</time>
      </trkpt>
      <trkpt lat="40.06423613762302" lon="116.54879533104666">
        <time>2025-05-14T03:14:34Z</time>
      </trkpt>
      <trkpt lat="40.064220908925805" lon="116.54885145818417">
        <time>2025-05-14T03:14:36Z</time>
      </trkpt>
      <trkpt lat="40.064210444562555" lon="116.54888847533314">
        <time>2025-05-14T03:14:38Z</time>
      </trkpt>
      <trkpt lat="40.06419985482916" lon="116.54892983543081">
        <time>2025-05-14T03:14:40Z</time>
      </trkpt>
      <trkpt lat="40.06419152454344" lon="116.54896738669245">
        <time>2025-05-14T03:14:42Z</time>
      </trkpt>
      <trkpt lat="40.064185857633255" lon="116.54900326717627">
        <time>2025-05-14T03:14:44Z</time>
      </trkpt>
      <trkpt lat="40.064182391769045" lon="116.54903981547552">
        <time>2025-05-14T03:14:46Z</time>
      </trkpt>
      <trkpt lat="40.064180326505515" lon="116.54907676442414">
        <time>2025-05-14T03:14:48Z</time>
      </trkpt>
      <trkpt lat="40.06417819526364" lon="116.54911411419967">
        <time>2025-05-14T03:14:50Z</time>
      </trkpt>
      <trkpt lat="40.06417506402959" lon="116.54915146402605">
        <time>2025-05-14T03:14:52Z</time>
      </trkpt>
      <trkpt lat="40.064169602859344" lon="116.54919061805882">
        <time>2025-05-14T03:14:54Z</time>
      </trkpt>
      <trkpt lat="40.06416360135154" lon="116.54922596365743">
        <time>2025-05-14T03:14:56Z</time>
      </trkpt>
      <trkpt lat="40.06415202044345" lon="116.54927240104585">
        <time>2025-05-14T03:14:58Z</time>
      </trkpt>
      <trkpt lat="40.06413745063139" lon="116.54932485196069">
        <time>2025-05-14T03:15:02Z</time>
      </trkpt>
      <trkpt lat="40.06411753855199" lon="116.54937229234326">
        <time>2025-05-14T03:15:06Z</time>
      </trkpt>
      <trkpt lat="40.064096935370266" lon="116.54940636993625">
        <time>2025-05-14T03:15:08Z</time>
      </trkpt>
      <trkpt lat="40.06407033433786" lon="116.54944145041165">
        <time>2025-05-14T03:15:10Z</time>
      </trkpt>
      <trkpt lat="40.06404210200413" lon="116.54949590694363">
        <time>2025-05-14T03:15:15Z</time>
      </trkpt>
      <trkpt lat="40.06401721910214" lon="116.54955938270952">
        <time>2025-05-14T03:15:19Z</time>
      </trkpt>
      <trkpt lat="40.06399800054471" lon="116.54962185537973">
        <time>2025-05-14T03:15:24Z</time>
      </trkpt>
      <trkpt lat="40.06398143864174" lon="116.54967898249222">
        <time>2025-05-14T03:15:28Z</time>
      </trkpt>
      <trkpt lat="40.06396420271875" lon="116.54973210075671">
        <time>2025-05-14T03:15:32Z</time>
      </trkpt>
      <trkpt lat="40.06394763149919" lon="116.54978421660763">
        <time>2025-05-14T03:15:36Z</time>
      </trkpt>
      <trkpt lat="40.06393105413161" lon="116.54983299170178">
        <time>2025-05-14T03:15:40Z</time>
      </trkpt>
      <trkpt lat="40.06391349182499" lon="116.54989011831331">
        <time>2025-05-14T03:15:42Z</time>
      </trkpt>
      <trkpt lat="40.06389826801017" lon="116.54995025100753">
        <time>2025-05-14T03:15:46Z</time>
      </trkpt>
      <trkpt lat="40.06388173909806" lon="116.5500260844251">
        <time>2025-05-14T03:15:50Z</time>
      </trkpt>
      <trkpt lat="40.063871196978795" lon="116.55009490160957">
        <time>2025-05-14T03:15:56Z</time>
      </trkpt>
      <trkpt lat="40.06386163841084" lon="116.55015469891917">
        <time>2025-05-14T03:16:00Z</time>
      </trkpt>
      <trkpt lat="40.0638523698452" lon="116.55019044402422">
        <time>2025-05-14T03:16:02Z</time>
      </trkpt>
      <trkpt lat="40.06383577253875" lon="116.55022852834456">
        <time>2025-05-14T03:16:06Z</time>
      </trkpt>
      <trkpt lat="40.0638168581504" lon="116.55027563233305">
        <time>2025-05-14T03:16:10Z</time>
      </trkpt>
      <trkpt lat="40.063800296601634" lon="116.55033375966916">
        <time>2025-05-14T03:16:12Z</time>
      </trkpt>
      <trkpt lat="40.0637844057281" lon="116.55039422511159">
        <time>2025-05-14T03:16:16Z</time>
      </trkpt>
      <trkpt lat="40.063767514176774" lon="116.55045435644014">
        <time>2025-05-14T03:16:20Z</time>
      </trkpt>
      <trkpt lat="40.06374795002574" lon="116.55051114740915">
        <time>2025-05-14T03:16:24Z</time>
      </trkpt>
      <trkpt lat="40.06372905237549" lon="116.5505679381234">
        <time>2025-05-14T03:16:28Z</time>
      </trkpt>
      <trkpt lat="40.06371015281758" lon="116.5506237265282">
        <time>2025-05-14T03:16:32Z</time>
      </trkpt>
      <trkpt lat="40.06369425533016" lon="116.55068085059402">
        <time>2025-05-14T03:16:36Z</time>
      </trkpt>
      <trkpt lat="40.063676691150185" lon="116.55073797469147">
        <time>2025-05-14T03:16:40Z</time>
      </trkpt>
      <trkpt lat="40.063660460688176" lon="116.55079543249971">
        <time>2025-05-14T03:16:44Z</time>
      </trkpt>
      <trkpt lat="40.063643895602425" lon="116.55085222209124">
        <time>2025-05-14T03:16:48Z</time>
      </trkpt>
      <trkpt lat="40.06362866600482" lon="116.5509103475203">
        <time>2025-05-14T03:16:52Z</time>
      </trkpt>
      <trkpt lat="40.06361210302385" lon="116.5509684729341">
        <time>2025-05-14T03:16:56Z</time>
      </trkpt>
      <trkpt lat="40.06359454291595" lon="116.55102826849728">
        <time>2025-05-14T03:17:00Z</time>
      </trkpt>
      <trkpt lat="40.06357598272868" lon="116.55108806399701">
        <time>2025-05-14T03:17:04Z</time>
      </trkpt>
      <trkpt lat="40.06355875682954" lon="116.55114852722363">
        <time>2025-05-14T03:17:08Z</time>
      </trkpt>
      <trkpt lat="40.063541531960816" lon="116.55120965833476">
        <time>2025-05-14T03:17:12Z</time>
      </trkpt>
      <trkpt lat="40.06352630389613" lon="116.55126911882252">
        <time>2025-05-14T03:17:16Z</time>
      </trkpt>
      <trkpt lat="40.06351074530528" lon="116.55133024934156">
        <time>2025-05-14T03:17:20Z</time>
      </trkpt>
      <trkpt lat="40.0634981706115" lon="116.55138236036811">
        <time>2025-05-14T03:17:24Z</time>
      </trkpt>
      <trkpt lat="40.06348658232698" lon="116.55142678834878">
        <time>2025-05-14T03:17:26Z</time>
      </trkpt>
      <trkpt lat="40.063474321506526" lon="116.5514678759783">
        <time>2025-05-14T03:17:28Z</time>
      </trkpt>
      <trkpt lat="40.063458742053975" lon="116.55151731473192">
        <time>2025-05-14T03:17:32Z</time>
      </trkpt>
      <trkpt lat="40.06344349581859" lon="116.551566753316">
        <time>2025-05-14T03:17:36Z</time>
      </trkpt>
      <trkpt lat="40.06342725477945" lon="116.55161919816874">
        <time>2025-05-14T03:17:38Z</time>
      </trkpt>
      <trkpt lat="40.06341067915837" lon="116.5516709748589">
        <time>2025-05-14T03:17:42Z</time>
      </trkpt>
      <trkpt lat="40.06338978079662" lon="116.55172876445491">
        <time>2025-05-14T03:17:46Z</time>
      </trkpt>
      <trkpt lat="40.06337087755146" lon="116.55178388140669">
        <time>2025-05-14T03:17:50Z</time>
      </trkpt>
      <trkpt lat="40.06335397637809" lon="116.55184033406178">
        <time>2025-05-14T03:17:54Z</time>
      </trkpt>
      <trkpt lat="40.063339746205855" lon="116.55189945843001">
        <time>2025-05-14T03:17:58Z</time>
      </trkpt>
      <trkpt lat="40.06332384759978" lon="116.55195758073873">
        <time>2025-05-14T03:18:02Z</time>
      </trkpt>
      <trkpt lat="40.06330794598067" lon="116.55201403275359">
        <time>2025-05-14T03:18:06Z</time>
      </trkpt>
      <trkpt lat="40.063290375944106" lon="116.5520694827362">
        <time>2025-05-14T03:18:10Z</time>
      </trkpt>
      <trkpt lat="40.06327480623997" lon="116.55212526633092">
        <time>2025-05-14T03:18:14Z</time>
      </trkpt>
    </trkseg>
  </trk>
</gpx>