<?xml version="1.0" encoding="UTF-8"?>
<gpx xmlns="http://www.topografix.com/GPX/1/1" xmlns:gpxtpx="http://www.garmin.com/xmlschemas/TrackPointExtension/v1" xmlns:xsi="http://www.w3.org/2001/XMLSchema-instance" xsi:schemaLocation="http://www.topografix.com/GPX/1/1 http://www.topografix.com/GPX/1/1/gpx.xsd" version="1.1" creator="gpx.py -- https://github.com/tkrajina/gpxpy">
  <trk>
    <name>gpx from keep</name>
    <type>Run</type>
    <trkseg>
      <trkpt lat="39.923526964511844" lon="116.49803549866876">
        <ele>27.3</ele>
        <time>2023-06-30T12:32:51Z</time>
      </trkpt>
      <trkpt lat="39.92355280205155" lon="116.49798129062589">
        <ele>24.3</ele>
        <time>2023-06-30T12:32:54Z</time>
      </trkpt>
      <trkpt lat="39.92352591831452" lon="116.49768417084243">
        <ele>13.3</ele>
        <time>2023-06-30T12:33:06Z</time>
      </trkpt>
      <trkpt lat="39.92353738560693" lon="116.49750549379011">
        <ele>9.2</ele>
        <time>2023-06-30T12:33:12Z</time>
      </trkpt>
      <trkpt lat="39.923569163002185" lon="116.49743120891597">
        <ele>7.2</ele>
        <time>2023-06-30T12:33:15Z</time>
      </trkpt>
      <trkpt lat="39.92364230157995" lon="116.49714311000692">
        <ele>1.2999999999999998</ele>
        <time>2023-06-30T12:33:24Z</time>
      </trkpt>
      <trkpt lat="39.923621976346666" lon="116.49703369850954">
        <ele>14.400000000000002</ele>
        <time>2023-06-30T12:33:27Z</time>
      </trkpt>
      <trkpt lat="39.92365933454141" lon="116.49681888085642">
        <ele>14.8</ele>
        <time>2023-06-30T12:33:33Z</time>
      </trkpt>
      <trkpt lat="39.92367345417017" lon="116.49652376180461">
        <ele>15.100000000000001</ele>
        <time>2023-06-30T12:33:42Z</time>
      </trkpt>
      <trkpt lat="39.92361518122774" lon="116.49643141932795">
        <ele>16.2</ele>
        <time>2023-06-30T12:33:45Z</time>
      </trkpt>
      <trkpt lat="39.92355002528479" lon="116.49637822593635">
        <ele>15.400000000000002</ele>
        <time>2023-06-30T12:33:48Z</time>
      </trkpt>
      <trkpt lat="39.92351477231924" lon="116.4962929071597">
        <ele>15.5</ele>
        <time>2023-06-30T12:33:51Z</time>
      </trkpt>
      <trkpt lat="39.923374317132016" lon="116.49613833904446">
        <ele>16.2</ele>
        <time>2023-06-30T12:33:57Z</time>
      </trkpt>
      <trkpt lat="39.92314503023075" lon="116.4960389910358">
        <ele>19.599999999999998</ele>
        <time>2023-06-30T12:34:06Z</time>
      </trkpt>
      <trkpt lat="39.92281078358406" lon="116.49595170166307">
        <ele>27.400000000000002</ele>
        <time>2023-06-30T12:34:15Z</time>
      </trkpt>
      <trkpt lat="39.922462504584075" lon="116.49585337216665">
        <ele>27.2</ele>
        <time>2023-06-30T12:34:24Z</time>
      </trkpt>
      <trkpt lat="39.92237534351812" lon="116.49579817378346">
        <ele>26.400000000000002</ele>
        <time>2023-06-30T12:34:27Z</time>
      </trkpt>
      <trkpt lat="39.922227199944544" lon="116.49574800198202">
        <ele>27.3</ele>
        <time>2023-06-30T12:34:33Z</time>
      </trkpt>
      <trkpt lat="39.92218001026839" lon="116.49568376437784">
        <ele>28.900000000000002</ele>
        <time>2023-06-30T12:34:39Z</time>
      </trkpt>
      <trkpt lat="39.922170816018614" lon="116.49561851823704">
        <ele>28.400000000000002</ele>
        <time>2023-06-30T12:34:42Z</time>
      </trkpt>
      <trkpt lat="39.92219273705962" lon="116.49525714569556">
        <ele>27.8</ele>
        <time>2023-06-30T12:34:54Z</time>
      </trkpt>
      <trkpt lat="39.922212352905355" lon="116.49512865611463">
        <ele>27.900000000000002</ele>
        <time>2023-06-30T12:35:00Z</time>
      </trkpt>
      <trkpt lat="39.922120170668855" lon="116.49473116017045">
        <ele>28.2</ele>
        <time>2023-06-30T12:35:15Z</time>
      </trkpt>
      <trkpt lat="39.92211541005997" lon="116.49447619368972">
        <ele>25.9</ele>
        <time>2023-06-30T12:35:24Z</time>
      </trkpt>
      <trkpt lat="39.92215488423162" lon="116.49430052241163">
        <ele>21.8</ele>
        <time>2023-06-30T12:35:33Z</time>
      </trkpt>
      <trkpt lat="39.92212764824022" lon="116.49388595291988">
        <ele>18.599999999999998</ele>
        <time>2023-06-30T12:35:45Z</time>
      </trkpt>
      <trkpt lat="39.92212531883766" lon="116.49377553423548">
        <ele>18.4</ele>
        <time>2023-06-30T12:35:48Z</time>
      </trkpt>
      <trkpt lat="39.922200273337886" lon="116.49342619932966">
        <ele>17.3</ele>
        <time>2023-06-30T12:35:57Z</time>
      </trkpt>
      <trkpt lat="39.92219988995635" lon="116.4932977117687">
        <ele>17.7</ele>
        <time>2023-06-30T12:36:00Z</time>
      </trkpt>
      <trkpt lat="39.92223914253187" lon="116.4930477582963">
        <ele>20.5</ele>
        <time>2023-06-30T12:36:06Z</time>
      </trkpt>
      <trkpt lat="39.92216428008744" lon="116.49275766657605">
        <ele>14.399999999999999</ele>
        <time>2023-06-30T12:36:15Z</time>
      </trkpt>
      <trkpt lat="39.92218038102247" lon="116.49245652160921">
        <ele>10.399999999999999</ele>
        <time>2023-06-30T12:36:27Z</time>
      </trkpt>
      <trkpt lat="39.922165462398446" lon="116.49214835382848">
        <ele>9.7</ele>
        <time>2023-06-30T12:36:39Z</time>
      </trkpt>
      <trkpt lat="39.92211739861005" lon="116.49179100352505">
        <ele>8.0</ele>
        <time>2023-06-30T12:36:51Z</time>
      </trkpt>
      <trkpt lat="39.92210199814188" lon="116.49165649495069">
        <ele>5.3</ele>
        <time>2023-06-30T12:36:54Z</time>
      </trkpt>
      <trkpt lat="39.92213243419475" lon="116.49146777498073">
        <ele>0.9000000000000004</ele>
        <time>2023-06-30T12:37:00Z</time>
      </trkpt>
      <trkpt lat="39.92212405147822" lon="116.49133928842963">
        <ele>-1.2000000000000002</ele>
        <time>2023-06-30T12:37:03Z</time>
      </trkpt>
      <trkpt lat="39.922095708524026" lon="116.49122385389964">
        <ele>-2.4</ele>
        <time>2023-06-30T12:37:06Z</time>
      </trkpt>
      <trkpt lat="39.92210956208046" lon="116.49083939339248">
        <ele>-7.8</ele>
        <time>2023-06-30T12:37:18Z</time>
      </trkpt>
      <trkpt lat="39.92214725954274" lon="116.49040273216717">
        <ele>-9.8</ele>
        <time>2023-06-30T12:37:30Z</time>
      </trkpt>
      <trkpt lat="39.922160942039405" lon="116.49029632686234">
        <ele>-9.0</ele>
        <time>2023-06-30T12:37:33Z</time>
      </trkpt>
      <trkpt lat="39.92213463091048" lon="116.48985565890659">
        <ele>-0.20000000000000018</ele>
        <time>2023-06-30T12:37:42Z</time>
      </trkpt>
      <trkpt lat="39.92210930624625" lon="116.48974624718635">
        <ele>2.3</ele>
        <time>2023-06-30T12:37:45Z</time>
      </trkpt>
      <trkpt lat="39.92209020471136" lon="116.4893758453507">
        <ele>10.7</ele>
        <time>2023-06-30T12:37:57Z</time>
      </trkpt>
      <trkpt lat="39.922160132848305" lon="116.48901647471708">
        <ele>2.8999999999999995</ele>
        <time>2023-06-30T12:38:15Z</time>
      </trkpt>
      <trkpt lat="39.92215785235033" lon="116.48892211747643">
        <ele>0.10000000000000053</ele>
        <time>2023-06-30T12:38:21Z</time>
      </trkpt>
      <trkpt lat="39.92219017953332" lon="116.48869625781046">
        <ele>-1.3999999999999995</ele>
        <time>2023-06-30T12:38:27Z</time>
      </trkpt>
      <trkpt lat="39.92224272386225" lon="116.48854367334785">
        <ele>-0.7000000000000002</ele>
        <time>2023-06-30T12:38:33Z</time>
      </trkpt>
      <trkpt lat="39.922255138732034" lon="116.48834692673444">
        <ele>-0.7999999999999998</ele>
        <time>2023-06-30T12:38:39Z</time>
      </trkpt>
      <trkpt lat="39.92230473411402" lon="116.4882114074699">
        <ele>0.5</ele>
        <time>2023-06-30T12:38:45Z</time>
      </trkpt>
      <trkpt lat="39.922354553162286" lon="116.48815117325145">
        <ele>-0.09999999999999964</ele>
        <time>2023-06-30T12:38:51Z</time>
      </trkpt>
      <trkpt lat="39.92239963179521" lon="116.48817827023903">
        <ele>1.0</ele>
        <time>2023-06-30T12:38:57Z</time>
      </trkpt>
      <trkpt lat="39.9224602715431" lon="116.48805780669451">
        <ele>6.3999999999999995</ele>
        <time>2023-06-30T12:39:06Z</time>
      </trkpt>
      <trkpt lat="39.92248498437717" lon="116.48796143887222">
        <ele>8.899999999999999</ele>
        <time>2023-06-30T12:39:09Z</time>
      </trkpt>
      <trkpt lat="39.92253684811784" lon="116.48791626145204">
        <ele>11.5</ele>
        <time>2023-06-30T12:39:12Z</time>
      </trkpt>
      <trkpt lat="39.922595066258346" lon="116.48799053533538">
        <ele>14.3</ele>
        <time>2023-06-30T12:39:18Z</time>
      </trkpt>
      <trkpt lat="39.92261444701002" lon="116.48811901927344">
        <ele>15.2</ele>
        <time>2023-06-30T12:39:24Z</time>
      </trkpt>
      <trkpt lat="39.922655654001794" lon="116.48818928014636">
        <ele>16.0</ele>
        <time>2023-06-30T12:39:27Z</time>
      </trkpt>
      <trkpt lat="39.9227099640864" lon="116.4886309459212">
        <ele>18.5</ele>
        <time>2023-06-30T12:39:42Z</time>
      </trkpt>
      <trkpt lat="39.9227522040241" lon="116.48871224864884">
        <ele>18.7</ele>
        <time>2023-06-30T12:39:45Z</time>
      </trkpt>
      <trkpt lat="39.92291257042138" lon="116.48883770401875">
        <ele>18.9</ele>
        <time>2023-06-30T12:39:54Z</time>
      </trkpt>
      <trkpt lat="39.92321463554239" lon="116.48886376527703">
        <ele>20.8</ele>
        <time>2023-06-30T12:40:09Z</time>
      </trkpt>
      <trkpt lat="39.92352462274899" lon="116.48886372666891">
        <ele>25.599999999999998</ele>
        <time>2023-06-30T12:40:21Z</time>
      </trkpt>
      <trkpt lat="39.92384066940885" lon="116.4888837633693">
        <ele>23.599999999999998</ele>
        <time>2023-06-30T12:40:36Z</time>
      </trkpt>
      <trkpt lat="39.92418775957449" lon="116.48891885325509">
        <ele>22.2</ele>
        <time>2023-06-30T12:40:48Z</time>
      </trkpt>
      <trkpt lat="39.92448586669856" lon="116.48895896826463">
        <ele>23.9</ele>
        <time>2023-06-30T12:41:03Z</time>
      </trkpt>
      <trkpt lat="39.92466388623976" lon="116.48896798032463">
        <ele>23.9</ele>
        <time>2023-06-30T12:41:09Z</time>
      </trkpt>
      <trkpt lat="39.92494557617708" lon="116.48886756489895">
        <ele>23.099999999999998</ele>
        <time>2023-06-30T12:41:18Z</time>
      </trkpt>
      <trkpt lat="39.925045566098724" lon="116.48886554483816">
        <ele>24.099999999999998</ele>
        <time>2023-06-30T12:41:21Z</time>
      </trkpt>
      <trkpt lat="39.92514465156727" lon="116.48889564659488">
        <ele>23.8</ele>
        <time>2023-06-30T12:41:24Z</time>
      </trkpt>
      <trkpt lat="39.925275580526886" lon="116.4888735466142">
        <ele>24.0</ele>
        <time>2023-06-30T12:41:30Z</time>
      </trkpt>
      <trkpt lat="39.92534948198659" lon="116.48884141570664">
        <ele>25.7</ele>
        <time>2023-06-30T12:41:33Z</time>
      </trkpt>
      <trkpt lat="39.92567942964698" lon="116.48882832516746">
        <ele>32.900000000000006</ele>
        <time>2023-06-30T12:41:45Z</time>
      </trkpt>
      <trkpt lat="39.925957397356406" lon="116.48882126392127">
        <ele>31.2</ele>
        <time>2023-06-30T12:41:57Z</time>
      </trkpt>
      <trkpt lat="39.92608232657982" lon="116.48879916469217">
        <ele>28.3</ele>
        <time>2023-06-30T12:42:03Z</time>
      </trkpt>
      <trkpt lat="39.926317415888555" lon="116.48849598707538">
        <ele>24.7</ele>
        <time>2023-06-30T12:42:15Z</time>
      </trkpt>
      <trkpt lat="39.926392702990654" lon="116.48825707298856">
        <ele>22.599999999999998</ele>
        <time>2023-06-30T12:42:24Z</time>
      </trkpt>
      <trkpt lat="39.92654544329637" lon="116.4881717309081">
        <ele>20.2</ele>
        <time>2023-06-30T12:42:36Z</time>
      </trkpt>
      <trkpt lat="39.92666232522078" lon="116.48813357193266">
        <ele>19.599999999999998</ele>
        <time>2023-06-30T12:42:42Z</time>
      </trkpt>
      <trkpt lat="39.926862385605645" lon="116.48815663441059">
        <ele>19.3</ele>
        <time>2023-06-30T12:42:51Z</time>
      </trkpt>
      <trkpt lat="39.926940352603175" lon="116.48814658669235">
        <ele>19.4</ele>
        <time>2023-06-30T12:42:54Z</time>
      </trkpt>
      <trkpt lat="39.92706713277608" lon="116.48807429728511">
        <ele>19.3</ele>
        <time>2023-06-30T12:43:00Z</time>
      </trkpt>
      <trkpt lat="39.92730241978744" lon="116.48783737130377">
        <ele>19.2</ele>
        <time>2023-06-30T12:43:12Z</time>
      </trkpt>
      <trkpt lat="39.92752964189068" lon="116.48757836304965">
        <ele>25.2</ele>
        <time>2023-06-30T12:43:24Z</time>
      </trkpt>
      <trkpt lat="39.927637289052996" lon="116.4874609053555">
        <ele>28.099999999999998</ele>
        <time>2023-06-30T12:43:30Z</time>
      </trkpt>
      <trkpt lat="39.92772259783956" lon="116.48722901777535">
        <ele>28.7</ele>
        <time>2023-06-30T12:43:39Z</time>
      </trkpt>
      <trkpt lat="39.92768549842133" lon="116.48685761839565">
        <ele>26.0</ele>
        <time>2023-06-30T12:43:54Z</time>
      </trkpt>
      <trkpt lat="39.927795581063755" lon="116.48654944034529">
        <ele>23.3</ele>
        <time>2023-06-30T12:44:06Z</time>
      </trkpt>
      <trkpt lat="39.927815294921395" lon="116.48645307391915">
        <ele>22.7</ele>
        <time>2023-06-30T12:44:09Z</time>
      </trkpt>
      <trkpt lat="39.92781074837092" lon="116.48626837704744">
        <ele>23.0</ele>
        <time>2023-06-30T12:44:15Z</time>
      </trkpt>
      <trkpt lat="39.92788896111147" lon="116.48600336701293">
        <ele>23.4</ele>
        <time>2023-06-30T12:44:24Z</time>
      </trkpt>
      <trkpt lat="39.92795456063661" lon="116.48586885129536">
        <ele>23.4</ele>
        <time>2023-06-30T12:44:30Z</time>
      </trkpt>
      <trkpt lat="39.927972319510296" lon="116.48578754234748">
        <ele>22.9</ele>
        <time>2023-06-30T12:44:33Z</time>
      </trkpt>
      <trkpt lat="39.92795010722501" lon="116.48537699703488">
        <ele>20.099999999999998</ele>
        <time>2023-06-30T12:44:48Z</time>
      </trkpt>
      <trkpt lat="39.92790702138656" lon="116.48500861437648">
        <ele>18.9</ele>
        <time>2023-06-30T12:45:03Z</time>
      </trkpt>
      <trkpt lat="39.92788540334633" lon="116.48479882708988">
        <ele>19.599999999999998</ele>
        <time>2023-06-30T12:45:09Z</time>
      </trkpt>
      <trkpt lat="39.927895207565804" lon="116.48473257647157">
        <ele>20.2</ele>
        <time>2023-06-30T12:45:12Z</time>
      </trkpt>
      <trkpt lat="39.92797195581693" lon="116.48464824953398">
        <ele>22.2</ele>
        <time>2023-06-30T12:45:18Z</time>
      </trkpt>
      <trkpt lat="39.92811388492302" lon="116.48462614871276">
        <ele>24.3</ele>
        <time>2023-06-30T12:45:27Z</time>
      </trkpt>
      <trkpt lat="39.92825448863806" lon="116.48449363259867">
        <ele>22.2</ele>
        <time>2023-06-30T12:45:33Z</time>
      </trkpt>
      <trkpt lat="39.92830716113522" lon="116.48438321066553">
        <ele>21.3</ele>
        <time>2023-06-30T12:45:36Z</time>
      </trkpt>
      <trkpt lat="39.92836544036166" lon="116.48413928619688">
        <ele>21.0</ele>
        <time>2023-06-30T12:45:45Z</time>
      </trkpt>
      <trkpt lat="39.928294274818235" lon="116.48408208001167">
        <ele>21.099999999999998</ele>
        <time>2023-06-30T12:45:51Z</time>
      </trkpt>
      <trkpt lat="39.928272045265174" lon="116.48400378852938">
        <ele>21.099999999999998</ele>
        <time>2023-06-30T12:45:57Z</time>
      </trkpt>
      <trkpt lat="39.928360365352304" lon="116.48377391391323">
        <ele>21.0</ele>
        <time>2023-06-30T12:46:03Z</time>
      </trkpt>
      <trkpt lat="39.92854057002954" lon="116.48350588513384">
        <ele>18.7</ele>
        <time>2023-06-30T12:46:09Z</time>
      </trkpt>
      <trkpt lat="39.92861985608152" lon="116.48326396752668">
        <ele>19.599999999999998</ele>
        <time>2023-06-30T12:46:15Z</time>
      </trkpt>
      <trkpt lat="39.92867866798116" lon="116.48320072299121">
        <ele>21.099999999999998</ele>
        <time>2023-06-30T12:46:18Z</time>
      </trkpt>
      <trkpt lat="39.92873058334279" lon="116.48317261110216">
        <ele>20.9</ele>
        <time>2023-06-30T12:46:21Z</time>
      </trkpt>
      <trkpt lat="39.929009515993705" lon="116.48315350474691">
        <ele>19.7</ele>
        <time>2023-06-30T12:46:33Z</time>
      </trkpt>
      <trkpt lat="39.92926035550351" lon="116.48310228145968">
        <ele>23.5</ele>
        <time>2023-06-30T12:46:45Z</time>
      </trkpt>
      <trkpt lat="39.92946946781634" lon="116.48314340966367">
        <ele>26.3</ele>
        <time>2023-06-30T12:46:54Z</time>
      </trkpt>
      <trkpt lat="39.92965932455137" lon="116.48309721281392">
        <ele>27.8</ele>
        <time>2023-06-30T12:47:03Z</time>
      </trkpt>
      <trkpt lat="39.92991737594655" lon="116.48311825962459">
        <ele>25.099999999999998</ele>
        <time>2023-06-30T12:47:15Z</time>
      </trkpt>
      <trkpt lat="39.93000750194941" lon="116.48316241398918">
        <ele>24.0</ele>
        <time>2023-06-30T12:47:21Z</time>
      </trkpt>
      <trkpt lat="39.93008235451411" lon="116.48311322020069">
        <ele>22.8</ele>
        <time>2023-06-30T12:47:27Z</time>
      </trkpt>
      <trkpt lat="39.93010216219736" lon="116.48304797309831">
        <ele>23.599999999999998</ele>
        <time>2023-06-30T12:47:30Z</time>
      </trkpt>
      <trkpt lat="39.93023479157268" lon="116.48292348997444">
        <ele>23.3</ele>
        <time>2023-06-30T12:47:36Z</time>
      </trkpt>
      <trkpt lat="39.9302825805664" lon="116.482852216933">
        <ele>22.0</ele>
        <time>2023-06-30T12:47:39Z</time>
      </trkpt>
      <trkpt lat="39.93031917285901" lon="116.48271369341181">
        <ele>20.099999999999998</ele>
        <time>2023-06-30T12:47:45Z</time>
      </trkpt>
      <trkpt lat="39.930319081656094" lon="116.48234129926368">
        <ele>20.9</ele>
        <time>2023-06-30T12:48:00Z</time>
      </trkpt>
      <trkpt lat="39.93029699853935" lon="116.48197091685309">
        <ele>20.2</ele>
        <time>2023-06-30T12:48:12Z</time>
      </trkpt>
      <trkpt lat="39.93029174336729" lon="116.48188359114498">
        <ele>19.099999999999998</ele>
        <time>2023-06-30T12:48:15Z</time>
      </trkpt>
      <trkpt lat="39.93033007581862" lon="116.48165573520876">
        <ele>16.7</ele>
        <time>2023-06-30T12:48:21Z</time>
      </trkpt>
      <trkpt lat="39.930339061338145" lon="116.48130843788975">
        <ele>13.3</ele>
        <time>2023-06-30T12:48:33Z</time>
      </trkpt>
      <trkpt lat="39.93032876596203" lon="116.48120706107353">
        <ele>13.099999999999998</ele>
        <time>2023-06-30T12:48:36Z</time>
      </trkpt>
      <trkpt lat="39.93034455159674" lon="116.48113378589403">
        <ele>12.2</ele>
        <time>2023-06-30T12:48:39Z</time>
      </trkpt>
      <trkpt lat="39.9303343000861" lon="116.48070418666997">
        <ele>6.7</ele>
        <time>2023-06-30T12:48:54Z</time>
      </trkpt>
      <trkpt lat="39.93032667809926" lon="116.48049039195901">
        <ele>5.2</ele>
        <time>2023-06-30T12:49:03Z</time>
      </trkpt>
      <trkpt lat="39.93034022210267" lon="116.48033380789178">
        <ele>4.3999999999999995</ele>
        <time>2023-06-30T12:49:09Z</time>
      </trkpt>
      <trkpt lat="39.93032995696767" lon="116.48024246960215">
        <ele>3.500000000000001</ele>
        <time>2023-06-30T12:49:12Z</time>
      </trkpt>
      <trkpt lat="39.93036468164266" lon="116.47980383607495">
        <ele>-0.20000000000000018</ele>
        <time>2023-06-30T12:49:27Z</time>
      </trkpt>
      <trkpt lat="39.93038188914588" lon="116.47953082116807">
        <ele>0.7000000000000002</ele>
        <time>2023-06-30T12:49:36Z</time>
      </trkpt>
      <trkpt lat="39.930494893145635" lon="116.47918853880277">
        <ele>2.3</ele>
        <time>2023-06-30T12:49:54Z</time>
      </trkpt>
      <trkpt lat="39.93056978552467" lon="116.47915239563885">
        <ele>2.6000000000000005</ele>
        <time>2023-06-30T12:50:00Z</time>
      </trkpt>
      <trkpt lat="39.93068478957648" lon="116.47915539239997">
        <ele>1.6000000000000005</ele>
        <time>2023-06-30T12:50:06Z</time>
      </trkpt>
      <trkpt lat="39.93068653682351" lon="116.47906806891594">
        <ele>4.8999999999999995</ele>
        <time>2023-06-30T12:50:12Z</time>
      </trkpt>
      <trkpt lat="39.930747261453156" lon="116.47897371216398">
        <ele>7.2</ele>
        <time>2023-06-30T12:50:18Z</time>
      </trkpt>
      <trkpt lat="39.93098159626125" lon="116.47874684390452">
        <ele>9.100000000000001</ele>
        <time>2023-06-30T12:50:27Z</time>
      </trkpt>
      <trkpt lat="39.93117230440603" lon="116.47864845648236">
        <ele>15.2</ele>
        <time>2023-06-30T12:50:36Z</time>
      </trkpt>
      <trkpt lat="39.931219163386615" lon="116.47860027260016">
        <ele>16.2</ele>
        <time>2023-06-30T12:50:39Z</time>
      </trkpt>
      <trkpt lat="39.9312639297689" lon="116.47851997037591">
        <ele>17.599999999999998</ele>
        <time>2023-06-30T12:50:42Z</time>
      </trkpt>
      <trkpt lat="39.93139360881517" lon="116.47841055015132">
        <ele>17.7</ele>
        <time>2023-06-30T12:50:48Z</time>
      </trkpt>
      <trkpt lat="39.931593574661626" lon="116.47840149177591">
        <ele>16.2</ele>
        <time>2023-06-30T12:50:57Z</time>
      </trkpt>
      <trkpt lat="39.93181888703157" lon="116.47851287497583">
        <ele>15.7</ele>
        <time>2023-06-30T12:51:09Z</time>
      </trkpt>
      <trkpt lat="39.93197696465632" lon="116.47854196270563">
        <ele>15.599999999999998</ele>
        <time>2023-06-30T12:51:15Z</time>
      </trkpt>
      <trkpt lat="39.93206979287932" lon="116.47848373607522">
        <ele>14.599999999999998</ele>
        <time>2023-06-30T12:51:21Z</time>
      </trkpt>
      <trkpt lat="39.93212358797409" lon="116.4784134699102">
        <ele>14.099999999999998</ele>
        <time>2023-06-30T12:51:24Z</time>
      </trkpt>
      <trkpt lat="39.93218944054311" lon="116.47836327640402">
        <ele>14.2</ele>
        <time>2023-06-30T12:51:27Z</time>
      </trkpt>
      <trkpt lat="39.93224500418213" lon="116.47821271388078">
        <ele>13.3</ele>
        <time>2023-06-30T12:51:33Z</time>
      </trkpt>
      <trkpt lat="39.93224475253841" lon="116.47812539183776">
        <ele>12.8</ele>
        <time>2023-06-30T12:51:36Z</time>
      </trkpt>
      <trkpt lat="39.93230175038339" lon="116.47777810495352">
        <ele>12.2</ele>
        <time>2023-06-30T12:51:48Z</time>
      </trkpt>
      <trkpt lat="39.932302262571234" lon="116.47760848048364">
        <ele>11.2</ele>
        <time>2023-06-30T12:51:54Z</time>
      </trkpt>
      <trkpt lat="39.93234172456028" lon="116.4774217888465">
        <ele>11.899999999999999</ele>
        <time>2023-06-30T12:52:03Z</time>
      </trkpt>
      <trkpt lat="39.93232616620033" lon="116.47722707514983">
        <ele>12.5</ele>
        <time>2023-06-30T12:52:09Z</time>
      </trkpt>
      <trkpt lat="39.93226356997484" lon="116.4770183163738">
        <ele>14.2</ele>
        <time>2023-06-30T12:52:15Z</time>
      </trkpt>
      <trkpt lat="39.93223188975198" lon="116.47678044770578">
        <ele>13.5</ele>
        <time>2023-06-30T12:52:24Z</time>
      </trkpt>
      <trkpt lat="39.932233395592164" lon="116.47660781479478">
        <ele>13.399999999999999</ele>
        <time>2023-06-30T12:52:30Z</time>
      </trkpt>
      <trkpt lat="39.932233395592164" lon="116.47660781479478">
        <ele>13.399999999999999</ele>
        <time>2023-06-30T12:52:33Z</time>
      </trkpt>
      <trkpt lat="39.93231253160157" lon="116.47630670248603">
        <ele>28.599999999999998</ele>
        <time>2023-06-30T12:52:57Z</time>
      </trkpt>
      <trkpt lat="39.93248341002402" lon="116.47626653420973">
        <ele>25.5</ele>
        <time>2023-06-30T12:53:06Z</time>
      </trkpt>
      <trkpt lat="39.9325494274242" lon="116.47627355164036">
        <ele>25.2</ele>
        <time>2023-06-30T12:53:09Z</time>
      </trkpt>
      <trkpt lat="39.93268429299254" lon="116.4762283695428">
        <ele>26.2</ele>
        <time>2023-06-30T12:53:15Z</time>
      </trkpt>
      <trkpt lat="39.93301317941629" lon="116.47619319987464">
        <ele>25.2</ele>
        <time>2023-06-30T12:53:30Z</time>
      </trkpt>
      <trkpt lat="39.93312323802102" lon="116.47621526683605">
        <ele>26.499999999999996</ele>
        <time>2023-06-30T12:53:36Z</time>
      </trkpt>
      <trkpt lat="39.933253562431524" lon="116.47633067274238">
        <ele>26.7</ele>
        <time>2023-06-30T12:53:42Z</time>
      </trkpt>
      <trkpt lat="39.93332493818857" lon="116.47646314872914">
        <ele>26.900000000000002</ele>
        <time>2023-06-30T12:53:48Z</time>
      </trkpt>
      <trkpt lat="39.93336435281184" lon="116.4766086768177">
        <ele>26.3</ele>
        <time>2023-06-30T12:53:54Z</time>
      </trkpt>
      <trkpt lat="39.93349924395697" lon="116.4769218080392">
        <ele>30.599999999999998</ele>
        <time>2023-06-30T12:54:09Z</time>
      </trkpt>
      <trkpt lat="39.933549495060376" lon="116.47701012586465">
        <ele>31.400000000000002</ele>
        <time>2023-06-30T12:54:12Z</time>
      </trkpt>
      <trkpt lat="39.933807215897694" lon="116.47726502982478">
        <ele>29.999999999999996</ele>
        <time>2023-06-30T12:54:27Z</time>
      </trkpt>
      <trkpt lat="39.93400131466948" lon="116.47730214198725">
        <ele>29.099999999999998</ele>
        <time>2023-06-30T12:54:36Z</time>
      </trkpt>
      <trkpt lat="39.93432826981376" lon="116.47729106047086">
        <ele>23.0</ele>
        <time>2023-06-30T12:54:51Z</time>
      </trkpt>
      <trkpt lat="39.93465012435361" lon="116.47724485051326">
        <ele>20.7</ele>
        <time>2023-06-30T12:55:06Z</time>
      </trkpt>
      <trkpt lat="39.934908808714276" lon="116.47713842730671">
        <ele>24.7</ele>
        <time>2023-06-30T12:55:18Z</time>
      </trkpt>
      <trkpt lat="39.93520465865213" lon="116.47709021334335">
        <ele>26.099999999999998</ele>
        <time>2023-06-30T12:55:33Z</time>
      </trkpt>
      <trkpt lat="39.935332748492264" lon="116.4771233189247">
        <ele>26.499999999999996</ele>
        <time>2023-06-30T12:55:39Z</time>
      </trkpt>
      <trkpt lat="39.935573317711494" lon="116.4773250299756">
        <ele>29.8</ele>
        <time>2023-06-30T12:55:54Z</time>
      </trkpt>
      <trkpt lat="39.935779770617465" lon="116.4774855945802">
        <ele>30.999999999999996</ele>
        <time>2023-06-30T12:56:06Z</time>
      </trkpt>
      <trkpt lat="39.93603993898024" lon="116.47754779091413">
        <ele>30.900000000000002</ele>
        <time>2023-06-30T12:56:18Z</time>
      </trkpt>
      <trkpt lat="39.93633984907239" lon="116.47752065366322">
        <ele>31.400000000000002</ele>
        <time>2023-06-30T12:56:33Z</time>
      </trkpt>
      <trkpt lat="39.936616924486955" lon="116.47755072974094">
        <ele>29.2</ele>
        <time>2023-06-30T12:56:48Z</time>
      </trkpt>
      <trkpt lat="39.93669498770264" lon="116.47757380490225">
        <ele>29.099999999999998</ele>
        <time>2023-06-30T12:56:51Z</time>
      </trkpt>
      <trkpt lat="39.93688896261859" lon="116.47756775845384">
        <ele>28.900000000000002</ele>
        <time>2023-06-30T12:57:00Z</time>
      </trkpt>
      <trkpt lat="39.937210206534616" lon="116.47765704696657">
        <ele>25.599999999999998</ele>
        <time>2023-06-30T12:57:15Z</time>
      </trkpt>
      <trkpt lat="39.937479443984195" lon="116.47774333103072">
        <ele>25.2</ele>
        <time>2023-06-30T12:57:28Z</time>
      </trkpt>
      <trkpt lat="39.9376487519676" lon="116.47785271276267">
        <ele>23.2</ele>
        <time>2023-06-30T12:57:37Z</time>
      </trkpt>
      <trkpt lat="39.93774919581458" lon="116.47800827348031">
        <ele>19.8</ele>
        <time>2023-06-30T12:57:46Z</time>
      </trkpt>
      <trkpt lat="39.93798192110428" lon="116.47826318460216">
        <ele>20.4</ele>
        <time>2023-06-30T12:57:58Z</time>
      </trkpt>
      <trkpt lat="39.938254370478546" lon="116.47842273957907">
        <ele>25.5</ele>
        <time>2023-06-30T12:58:13Z</time>
      </trkpt>
      <trkpt lat="39.938539831250715" lon="116.478586308142">
        <ele>22.8</ele>
        <time>2023-06-30T12:58:34Z</time>
      </trkpt>
      <trkpt lat="39.93885714900766" lon="116.47870069129324">
        <ele>24.7</ele>
        <time>2023-06-30T12:58:46Z</time>
      </trkpt>
      <trkpt lat="39.93916522658292" lon="116.47873176775452">
        <ele>29.2</ele>
        <time>2023-06-30T12:59:04Z</time>
      </trkpt>
      <trkpt lat="39.93945200928059" lon="116.47866046843096">
        <ele>30.900000000000002</ele>
        <time>2023-06-30T12:59:19Z</time>
      </trkpt>
      <trkpt lat="39.93958989652706" lon="116.47862331392113">
        <ele>32.300000000000004</ele>
        <time>2023-06-30T12:59:28Z</time>
      </trkpt>
      <trkpt lat="39.93986429167649" lon="116.47841751950052">
        <ele>33.400000000000006</ele>
        <time>2023-06-30T12:59:43Z</time>
      </trkpt>
      <trkpt lat="39.94005922491177" lon="116.4780501396501">
        <ele>37.1</ele>
        <time>2023-06-30T12:59:58Z</time>
      </trkpt>
      <trkpt lat="39.940101957287126" lon="116.4779577939059">
        <ele>37.300000000000004</ele>
        <time>2023-06-30T13:00:01Z</time>
      </trkpt>
      <trkpt lat="39.940218579956166" lon="116.47782830223">
        <ele>33.6</ele>
        <time>2023-06-30T13:00:07Z</time>
      </trkpt>
      <trkpt lat="39.94033459554573" lon="116.47783531358256">
        <ele>29.2</ele>
        <time>2023-06-30T13:00:13Z</time>
      </trkpt>
      <trkpt lat="39.94058021280453" lon="116.47805308551533">
        <ele>28.599999999999998</ele>
        <time>2023-06-30T13:00:28Z</time>
      </trkpt>
      <trkpt lat="39.940614520855746" lon="116.47816047728203">
        <ele>29.3</ele>
        <time>2023-06-30T13:00:34Z</time>
      </trkpt>
      <trkpt lat="39.9406363564452" lon="116.47845054515184">
        <ele>30.3</ele>
        <time>2023-06-30T13:00:43Z</time>
      </trkpt>
      <trkpt lat="39.940787153159945" lon="116.47872855358978">
        <ele>29.2</ele>
        <time>2023-06-30T13:00:55Z</time>
      </trkpt>
      <trkpt lat="39.940822488197455" lon="116.47884497971248">
        <ele>27.400000000000002</ele>
        <time>2023-06-30T13:01:01Z</time>
      </trkpt>
      <trkpt lat="39.94088887731507" lon="116.47898047271381">
        <ele>26.0</ele>
        <time>2023-06-30T13:01:07Z</time>
      </trkpt>
      <trkpt lat="39.94114169212484" lon="116.47926549653232">
        <ele>25.5</ele>
        <time>2023-06-30T13:01:22Z</time>
      </trkpt>
      <trkpt lat="39.94133732399672" lon="116.47948629044089">
        <ele>27.099999999999998</ele>
        <time>2023-06-30T13:01:34Z</time>
      </trkpt>
      <trkpt lat="39.94143011486845" lon="116.47976029530834">
        <ele>23.8</ele>
        <time>2023-06-30T13:01:49Z</time>
      </trkpt>
      <trkpt lat="39.9414469417061" lon="116.48004535170774">
        <ele>20.599999999999998</ele>
        <time>2023-06-30T13:01:58Z</time>
      </trkpt>
      <trkpt lat="39.94151235611913" lon="116.48018887690797">
        <ele>20.099999999999998</ele>
        <time>2023-06-30T13:02:04Z</time>
      </trkpt>
      <trkpt lat="39.941777054748094" lon="116.48043275078626">
        <ele>21.5</ele>
        <time>2023-06-30T13:02:19Z</time>
      </trkpt>
      <trkpt lat="39.941905280338304" lon="116.48051202977607">
        <ele>22.2</ele>
        <time>2023-06-30T13:02:25Z</time>
      </trkpt>
      <trkpt lat="39.942195359336004" lon="116.48054310928183">
        <ele>24.4</ele>
        <time>2023-06-30T13:02:40Z</time>
      </trkpt>
      <trkpt lat="39.94249940273731" lon="116.48056214222362">
        <ele>26.099999999999998</ele>
        <time>2023-06-30T13:02:55Z</time>
      </trkpt>
      <trkpt lat="39.94277733617989" lon="116.4805430364778">
        <ele>24.8</ele>
        <time>2023-06-30T13:03:10Z</time>
      </trkpt>
      <trkpt lat="39.94289424682613" lon="116.48051391352763">
        <ele>24.0</ele>
        <time>2023-06-30T13:03:16Z</time>
      </trkpt>
      <trkpt lat="39.94299999148516" lon="116.4804275791226">
        <ele>23.9</ele>
        <time>2023-06-30T13:03:22Z</time>
      </trkpt>
      <trkpt lat="39.94305893366895" lon="116.48040850080369">
        <ele>23.2</ele>
        <time>2023-06-30T13:03:25Z</time>
      </trkpt>
      <trkpt lat="39.94310696679368" lon="116.48042053960111">
        <ele>22.7</ele>
        <time>2023-06-30T13:03:28Z</time>
      </trkpt>
      <trkpt lat="39.943155090434374" lon="116.48046369415326">
        <ele>23.4</ele>
        <time>2023-06-30T13:03:31Z</time>
      </trkpt>
      <trkpt lat="39.94323457216405" lon="116.48063030431676">
        <ele>23.599999999999998</ele>
        <time>2023-06-30T13:03:37Z</time>
      </trkpt>
      <trkpt lat="39.94324701008347" lon="116.48078086339729">
        <ele>24.9</ele>
        <time>2023-06-30T13:03:46Z</time>
      </trkpt>
      <trkpt lat="39.94327955276217" lon="116.48096755490431">
        <ele>21.9</ele>
        <time>2023-06-30T13:03:55Z</time>
      </trkpt>
      <trkpt lat="39.94325502196756" lon="116.48112815665796">
        <ele>20.0</ele>
        <time>2023-06-30T13:04:01Z</time>
      </trkpt>
      <trkpt lat="39.94325007080588" lon="116.48148749794845">
        <ele>17.599999999999998</ele>
        <time>2023-06-30T13:04:16Z</time>
      </trkpt>
      <trkpt lat="39.943308006953586" lon="116.4818086903399">
        <ele>17.5</ele>
        <time>2023-06-30T13:04:28Z</time>
      </trkpt>
      <trkpt lat="39.94346698009419" lon="116.48180164420793">
        <ele>19.4</ele>
        <time>2023-06-30T13:04:37Z</time>
      </trkpt>
      <trkpt lat="39.943725641245564" lon="116.48168919186534">
        <ele>19.599999999999998</ele>
        <time>2023-06-30T13:04:49Z</time>
      </trkpt>
      <trkpt lat="39.94376851929394" lon="116.48164803278942">
        <ele>20.2</ele>
        <time>2023-06-30T13:04:52Z</time>
      </trkpt>
      <trkpt lat="39.94378735433236" lon="116.48159182051421">
        <ele>20.599999999999998</ele>
        <time>2023-06-30T13:04:55Z</time>
      </trkpt>
      <trkpt lat="39.9439150619621" lon="116.48149343727134">
        <ele>20.2</ele>
        <time>2023-06-30T13:05:04Z</time>
      </trkpt>
      <trkpt lat="39.944112200697276" lon="116.4815435999888">
        <ele>19.3</ele>
        <time>2023-06-30T13:05:16Z</time>
      </trkpt>
      <trkpt lat="39.94423203178377" lon="116.48148737514978">
        <ele>20.9</ele>
        <time>2023-06-30T13:05:22Z</time>
      </trkpt>
      <trkpt lat="39.94430202314175" lon="116.48148535890275">
        <ele>22.2</ele>
        <time>2023-06-30T13:05:25Z</time>
      </trkpt>
      <trkpt lat="39.9444753240712" lon="116.48159073073455">
        <ele>27.2</ele>
        <time>2023-06-30T13:05:34Z</time>
      </trkpt>
      <trkpt lat="39.94459069194629" lon="116.48171819243181">
        <ele>27.900000000000002</ele>
        <time>2023-06-30T13:05:40Z</time>
      </trkpt>
      <trkpt lat="39.94485015698281" lon="116.4818807675962">
        <ele>27.499999999999996</ele>
        <time>2023-06-30T13:05:58Z</time>
      </trkpt>
      <trkpt lat="39.945195383983" lon="116.48196303209906">
        <ele>27.499999999999996</ele>
        <time>2023-06-30T13:06:16Z</time>
      </trkpt>
      <trkpt lat="39.945384376483034" lon="116.48196300846787">
        <ele>24.8</ele>
        <time>2023-06-30T13:06:25Z</time>
      </trkpt>
      <trkpt lat="39.94548228746364" lon="116.48193388740593">
        <ele>23.099999999999998</ele>
        <time>2023-06-30T13:06:31Z</time>
      </trkpt>
      <trkpt lat="39.94574220083176" lon="116.48190775735164">
        <ele>24.599999999999998</ele>
        <time>2023-06-30T13:06:43Z</time>
      </trkpt>
      <trkpt lat="39.946046716305325" lon="116.48174611535407">
        <ele>25.2</ele>
        <time>2023-06-30T13:07:01Z</time>
      </trkpt>
      <trkpt lat="39.94632523014227" lon="116.48158347315041">
        <ele>26.400000000000002</ele>
        <time>2023-06-30T13:07:16Z</time>
      </trkpt>
      <trkpt lat="39.94660469439783" lon="116.4814037674396">
        <ele>29.8</ele>
        <time>2023-06-30T13:07:31Z</time>
      </trkpt>
      <trkpt lat="39.946830287049416" lon="116.4812672298464">
        <ele>27.099999999999998</ele>
        <time>2023-06-30T13:07:40Z</time>
      </trkpt>
      <trkpt lat="39.94688506232394" lon="116.48119093843869">
        <ele>25.3</ele>
        <time>2023-06-30T13:07:46Z</time>
      </trkpt>
      <trkpt lat="39.94715960359146" lon="116.48103733144873">
        <ele>20.3</ele>
        <time>2023-06-30T13:08:04Z</time>
      </trkpt>
      <trkpt lat="39.94726743546104" lon="116.48098110843324">
        <ele>19.4</ele>
        <time>2023-06-30T13:08:10Z</time>
      </trkpt>
      <trkpt lat="39.9473123108118" lon="116.48093894569985">
        <ele>19.0</ele>
        <time>2023-06-30T13:08:13Z</time>
      </trkpt>
      <trkpt lat="39.94757192033123" lon="116.48080842703531">
        <ele>17.5</ele>
        <time>2023-06-30T13:08:25Z</time>
      </trkpt>
      <trkpt lat="39.94782640166128" lon="116.48063374478104">
        <ele>20.7</ele>
        <time>2023-06-30T13:08:40Z</time>
      </trkpt>
      <trkpt lat="39.94810687353619" lon="116.48045604844647">
        <ele>22.599999999999998</ele>
        <time>2023-06-30T13:08:55Z</time>
      </trkpt>
      <trkpt lat="39.94828452201684" lon="116.48033758561016">
        <ele>24.7</ele>
        <time>2023-06-30T13:09:04Z</time>
      </trkpt>
      <trkpt lat="39.948451870633505" lon="116.48011573994695">
        <ele>24.9</ele>
        <time>2023-06-30T13:09:16Z</time>
      </trkpt>
      <trkpt lat="39.948601725346144" lon="116.47972326364545">
        <ele>21.0</ele>
        <time>2023-06-30T13:09:31Z</time>
      </trkpt>
      <trkpt lat="39.94866959091043" lon="116.47933280711217">
        <ele>20.4</ele>
        <time>2023-06-30T13:09:49Z</time>
      </trkpt>
      <trkpt lat="39.94867938223593" lon="116.47891525967849">
        <ele>20.3</ele>
        <time>2023-06-30T13:10:04Z</time>
      </trkpt>
      <trkpt lat="39.94869192048039" lon="116.47875566778326">
        <ele>21.3</ele>
        <time>2023-06-30T13:10:10Z</time>
      </trkpt>
      <trkpt lat="39.948675492066265" lon="116.47860712068596">
        <ele>23.5</ele>
        <time>2023-06-30T13:10:16Z</time>
      </trkpt>
      <trkpt lat="39.94870985920918" lon="116.47838830807929">
        <ele>24.9</ele>
        <time>2023-06-30T13:10:22Z</time>
      </trkpt>
      <trkpt lat="39.94888995512879" lon="116.47807713732304">
        <ele>27.900000000000002</ele>
        <time>2023-06-30T13:10:37Z</time>
      </trkpt>
      <trkpt lat="39.948953669313916" lon="116.47797876666574">
        <ele>26.999999999999996</ele>
        <time>2023-06-30T13:10:43Z</time>
      </trkpt>
      <trkpt lat="39.94904639114347" lon="116.47788340361697">
        <ele>27.3</ele>
        <time>2023-06-30T13:10:49Z</time>
      </trkpt>
      <trkpt lat="39.94911340293574" lon="116.47788841371515">
        <ele>26.099999999999998</ele>
        <time>2023-06-30T13:10:55Z</time>
      </trkpt>
      <trkpt lat="39.949263584799844" lon="116.4779536353465">
        <ele>22.0</ele>
        <time>2023-06-30T13:11:04Z</time>
      </trkpt>
      <trkpt lat="39.94947466025613" lon="116.4779827162015">
        <ele>23.599999999999998</ele>
        <time>2023-06-30T13:11:16Z</time>
      </trkpt>
      <trkpt lat="39.94962991138866" lon="116.47807202612465">
        <ele>24.2</ele>
        <time>2023-06-30T13:11:25Z</time>
      </trkpt>
      <trkpt lat="39.94972989586744" lon="116.47806799879397">
        <ele>24.599999999999998</ele>
        <time>2023-06-30T13:11:31Z</time>
      </trkpt>
      <trkpt lat="39.94986971977339" lon="116.47800876292018">
        <ele>23.2</ele>
        <time>2023-06-30T13:11:37Z</time>
      </trkpt>
      <trkpt lat="39.950010243237664" lon="116.47784514233223">
        <ele>22.099999999999998</ele>
        <time>2023-06-30T13:11:46Z</time>
      </trkpt>
      <trkpt lat="39.95017453237605" lon="116.47760021989146">
        <ele>20.7</ele>
        <time>2023-06-30T13:11:58Z</time>
      </trkpt>
      <trkpt lat="39.95021950463168" lon="116.4775911810092">
        <ele>20.099999999999998</ele>
        <time>2023-06-30T13:12:01Z</time>
      </trkpt>
      <trkpt lat="39.95025366197483" lon="116.47764637992832">
        <ele>20.099999999999998</ele>
        <time>2023-06-30T13:12:04Z</time>
      </trkpt>
      <trkpt lat="39.950318389927205" lon="116.47790030714293">
        <ele>21.4</ele>
        <time>2023-06-30T13:12:16Z</time>
      </trkpt>
      <trkpt lat="39.95038480635427" lon="116.47804583532475">
        <ele>22.0</ele>
        <time>2023-06-30T13:12:22Z</time>
      </trkpt>
      <trkpt lat="39.950357085044764" lon="116.478142194176">
        <ele>23.8</ele>
        <time>2023-06-30T13:12:28Z</time>
      </trkpt>
      <trkpt lat="39.95026630848232" lon="116.47821848698761">
        <ele>25.9</ele>
        <time>2023-06-30T13:12:34Z</time>
      </trkpt>
      <trkpt lat="39.95018179806672" lon="116.4783871200129">
        <ele>26.599999999999998</ele>
        <time>2023-06-30T13:12:43Z</time>
      </trkpt>
      <trkpt lat="39.95010007931393" lon="116.47848348611714">
        <ele>27.599999999999998</ele>
        <time>2023-06-30T13:12:49Z</time>
      </trkpt>
      <trkpt lat="39.95005540847733" lon="116.47859691077394">
        <ele>27.8</ele>
        <time>2023-06-30T13:12:55Z</time>
      </trkpt>
      <trkpt lat="39.95002420714318" lon="116.47887293530395">
        <ele>24.9</ele>
        <time>2023-06-30T13:13:04Z</time>
      </trkpt>
      <trkpt lat="39.95008993319916" lon="116.47912485957676">
        <ele>24.5</ele>
        <time>2023-06-30T13:13:13Z</time>
      </trkpt>
      <trkpt lat="39.95016948213616" lon="116.47931555609036">
        <ele>27.8</ele>
        <time>2023-06-30T13:13:22Z</time>
      </trkpt>
      <trkpt lat="39.950317040454195" lon="116.47951025948441">
        <ele>28.8</ele>
        <time>2023-06-30T13:13:31Z</time>
      </trkpt>
      <trkpt lat="39.95037443685191" lon="116.47964776238514">
        <ele>32.300000000000004</ele>
        <time>2023-06-30T13:13:37Z</time>
      </trkpt>
      <trkpt lat="39.95040954608182" lon="116.47968589951918">
        <ele>34.2</ele>
        <time>2023-06-30T13:13:40Z</time>
      </trkpt>
      <trkpt lat="39.9505115711591" lon="116.47969592399484">
        <ele>36.7</ele>
        <time>2023-06-30T13:13:46Z</time>
      </trkpt>
      <trkpt lat="39.95076714775571" lon="116.4795533632058">
        <ele>37.7</ele>
        <time>2023-06-30T13:14:01Z</time>
      </trkpt>
      <trkpt lat="39.95095412290286" lon="116.47954731745982">
        <ele>38.5</ele>
        <time>2023-06-30T13:14:10Z</time>
      </trkpt>
      <trkpt lat="39.951005205266384" lon="116.47957641903321">
        <ele>37.800000000000004</ele>
        <time>2023-06-30T13:14:13Z</time>
      </trkpt>
      <trkpt lat="39.95103735532863" lon="116.47962860863623">
        <ele>37.400000000000006</ele>
        <time>2023-06-30T13:14:16Z</time>
      </trkpt>
      <trkpt lat="39.951070344294436" lon="116.47996987143877">
        <ele>39.1</ele>
        <time>2023-06-30T13:14:34Z</time>
      </trkpt>
      <trkpt lat="39.95107630355893" lon="116.48030009809887">
        <ele>31.8</ele>
        <time>2023-06-30T13:14:43Z</time>
      </trkpt>
      <trkpt lat="39.95125915478457" lon="116.4805951732335">
        <ele>31.7</ele>
        <time>2023-06-30T13:14:58Z</time>
      </trkpt>
      <trkpt lat="39.95124426927677" lon="116.48097759966055">
        <ele>29.900000000000002</ele>
        <time>2023-06-30T13:15:16Z</time>
      </trkpt>
      <trkpt lat="39.95117219424669" lon="116.48129378781013">
        <ele>29.7</ele>
        <time>2023-06-30T13:15:28Z</time>
      </trkpt>
      <trkpt lat="39.95108366359426" lon="116.4814533945161">
        <ele>30.599999999999998</ele>
        <time>2023-06-30T13:15:37Z</time>
      </trkpt>
      <trkpt lat="39.95087232281583" lon="116.4816762530814">
        <ele>31.2</ele>
        <time>2023-06-30T13:15:49Z</time>
      </trkpt>
      <trkpt lat="39.9507825522335" lon="116.48175355306354">
        <ele>31.999999999999996</ele>
        <time>2023-06-30T13:15:55Z</time>
      </trkpt>
      <trkpt lat="39.95074486769022" lon="116.48186095914377">
        <ele>32.7</ele>
        <time>2023-06-30T13:16:01Z</time>
      </trkpt>
      <trkpt lat="39.95073405752183" lon="116.4822674808482">
        <ele>33.300000000000004</ele>
        <time>2023-06-30T13:16:16Z</time>
      </trkpt>
      <trkpt lat="39.950729689754056" lon="116.4824832892242">
        <ele>33.0</ele>
        <time>2023-06-30T13:16:22Z</time>
      </trkpt>
      <trkpt lat="39.95075390056121" lon="116.48255555683656">
        <ele>33.7</ele>
        <time>2023-06-30T13:16:25Z</time>
      </trkpt>
      <trkpt lat="39.95084701454629" lon="116.4825956955732">
        <ele>34.6</ele>
        <time>2023-06-30T13:16:31Z</time>
      </trkpt>
      <trkpt lat="39.95114903201999" lon="116.48260569540797">
        <ele>36.0</ele>
        <time>2023-06-30T13:16:46Z</time>
      </trkpt>
      <trkpt lat="39.951351900441345" lon="116.48256351213874">
        <ele>32.1</ele>
        <time>2023-06-30T13:16:58Z</time>
      </trkpt>
      <trkpt lat="39.951537534296016" lon="116.48244103036025">
        <ele>28.3</ele>
        <time>2023-06-30T13:17:07Z</time>
      </trkpt>
      <trkpt lat="39.95171496289209" lon="116.48224828681542">
        <ele>25.5</ele>
        <time>2023-06-30T13:17:19Z</time>
      </trkpt>
      <trkpt lat="39.95196441836499" lon="116.48206557219996">
        <ele>24.099999999999998</ele>
        <time>2023-06-30T13:17:34Z</time>
      </trkpt>
      <trkpt lat="39.952173614579046" lon="116.48179352909699">
        <ele>20.0</ele>
        <time>2023-06-30T13:17:49Z</time>
      </trkpt>
      <trkpt lat="39.95221747788561" lon="116.48174735107567">
        <ele>19.4</ele>
        <time>2023-06-30T13:17:52Z</time>
      </trkpt>
      <trkpt lat="39.95232948539066" lon="116.48140907380242">
        <ele>18.7</ele>
        <time>2023-06-30T13:18:04Z</time>
      </trkpt>
      <trkpt lat="39.95235732900284" lon="116.4813558717663">
        <ele>19.4</ele>
        <time>2023-06-30T13:18:07Z</time>
      </trkpt>
      <trkpt lat="39.95258676641134" lon="116.48116613528443">
        <ele>20.9</ele>
        <time>2023-06-30T13:18:22Z</time>
      </trkpt>
      <trkpt lat="39.95262664188134" lon="116.48112397306942">
        <ele>20.8</ele>
        <time>2023-06-30T13:18:25Z</time>
      </trkpt>
      <trkpt lat="39.952884277577446" lon="116.48100248799095">
        <ele>20.8</ele>
        <time>2023-06-30T13:18:40Z</time>
      </trkpt>
      <trkpt lat="39.95293515268553" lon="116.48096032448157">
        <ele>21.2</ele>
        <time>2023-06-30T13:18:43Z</time>
      </trkpt>
      <trkpt lat="39.953143916275984" lon="116.4808820065771">
        <ele>22.3</ele>
        <time>2023-06-30T13:18:52Z</time>
      </trkpt>
      <trkpt lat="39.95342345787833" lon="116.48072839947173">
        <ele>21.7</ele>
        <time>2023-06-30T13:19:04Z</time>
      </trkpt>
      <trkpt lat="39.953658940132584" lon="116.48055371970425">
        <ele>20.5</ele>
        <time>2023-06-30T13:19:16Z</time>
      </trkpt>
      <trkpt lat="39.95393541818203" lon="116.4803780314504">
        <ele>22.4</ele>
        <time>2023-06-30T13:19:31Z</time>
      </trkpt>
      <trkpt lat="39.95418787126994" lon="116.48019331300682">
        <ele>22.2</ele>
        <time>2023-06-30T13:19:43Z</time>
      </trkpt>
      <trkpt lat="39.95444519338714" lon="116.47996342658755">
        <ele>21.3</ele>
        <time>2023-06-30T13:19:58Z</time>
      </trkpt>
      <trkpt lat="39.95447196503622" lon="116.47988513244155">
        <ele>20.5</ele>
        <time>2023-06-30T13:20:01Z</time>
      </trkpt>
      <trkpt lat="39.954468769980124" lon="116.47981788312165">
        <ele>20.3</ele>
        <time>2023-06-30T13:20:04Z</time>
      </trkpt>
      <trkpt lat="39.95438327835538" lon="116.47964726048">
        <ele>19.7</ele>
        <time>2023-06-30T13:20:13Z</time>
      </trkpt>
      <trkpt lat="39.95433811715463" lon="116.4795910575893">
        <ele>19.5</ele>
        <time>2023-06-30T13:20:16Z</time>
      </trkpt>
      <trkpt lat="39.954222179480126" lon="116.47926586637233">
        <ele>17.7</ele>
        <time>2023-06-30T13:20:28Z</time>
      </trkpt>
      <trkpt lat="39.954037167446394" lon="116.4789135849948">
        <ele>13.599999999999998</ele>
        <time>2023-06-30T13:20:43Z</time>
      </trkpt>
      <trkpt lat="39.95380925136055" lon="116.47859342946695">
        <ele>16.599999999999998</ele>
        <time>2023-06-30T13:20:58Z</time>
      </trkpt>
      <trkpt lat="39.95356938044153" lon="116.47828833251457">
        <ele>22.2</ele>
        <time>2023-06-30T13:21:13Z</time>
      </trkpt>
      <trkpt lat="39.95338162426835" lon="116.47802337845498">
        <ele>25.8</ele>
        <time>2023-06-30T13:21:25Z</time>
      </trkpt>
      <trkpt lat="39.95326214642907" lon="116.47785577558096">
        <ele>25.099999999999998</ele>
        <time>2023-06-30T13:21:37Z</time>
      </trkpt>
      <trkpt lat="39.95301159910022" lon="116.47766209348003">
        <ele>23.599999999999998</ele>
        <time>2023-06-30T13:21:52Z</time>
      </trkpt>
      <trkpt lat="39.952901280320766" lon="116.47754969352343">
        <ele>23.9</ele>
        <time>2023-06-30T13:21:58Z</time>
      </trkpt>
      <trkpt lat="39.952639739979546" lon="116.47735802111478">
        <ele>24.599999999999998</ele>
        <time>2023-06-30T13:22:13Z</time>
      </trkpt>
      <trkpt lat="39.95246923684672" lon="116.47718038951064">
        <ele>22.4</ele>
        <time>2023-06-30T13:22:25Z</time>
      </trkpt>
      <trkpt lat="39.95236379199239" lon="116.47702382764626">
        <ele>17.0</ele>
        <time>2023-06-30T13:22:34Z</time>
      </trkpt>
      <trkpt lat="39.95231441714088" lon="116.47689235122255">
        <ele>11.599999999999998</ele>
        <time>2023-06-30T13:22:43Z</time>
      </trkpt>
      <trkpt lat="39.95220996425082" lon="116.4767327789299">
        <ele>11.3</ele>
        <time>2023-06-30T13:22:49Z</time>
      </trkpt>
      <trkpt lat="39.95206496809389" lon="116.47638251368637">
        <ele>13.099999999999998</ele>
        <time>2023-06-30T13:23:04Z</time>
      </trkpt>
      <trkpt lat="39.95193911897214" lon="116.47608343523179">
        <ele>13.8</ele>
        <time>2023-06-30T13:23:16Z</time>
      </trkpt>
      <trkpt lat="39.951814965194444" lon="116.47567696614158">
        <ele>15.2</ele>
        <time>2023-06-30T13:23:31Z</time>
      </trkpt>
      <trkpt lat="39.95163693008112" lon="116.47531065293434">
        <ele>16.8</ele>
        <time>2023-06-30T13:23:46Z</time>
      </trkpt>
      <trkpt lat="39.95146609033163" lon="116.475012589418">
        <ele>21.4</ele>
        <time>2023-06-30T13:23:58Z</time>
      </trkpt>
      <trkpt lat="39.95137834818362" lon="116.47474964468289">
        <ele>20.599999999999998</ele>
        <time>2023-06-30T13:24:10Z</time>
      </trkpt>
      <trkpt lat="39.951352877331885" lon="116.47458304299403">
        <ele>19.599999999999998</ele>
        <time>2023-06-30T13:24:16Z</time>
      </trkpt>
      <trkpt lat="39.95122295707508" lon="116.47425587290469">
        <ele>16.5</ele>
        <time>2023-06-30T13:24:28Z</time>
      </trkpt>
      <trkpt lat="39.95105400609782" lon="116.47391666619691">
        <ele>17.599999999999998</ele>
        <time>2023-06-30T13:24:46Z</time>
      </trkpt>
      <trkpt lat="39.95089326010214" lon="116.47364972159467">
        <ele>15.3</ele>
        <time>2023-06-30T13:24:58Z</time>
      </trkpt>
      <trkpt lat="39.950743867679144" lon="116.47350822950804">
        <ele>16.4</ele>
        <time>2023-06-30T13:25:07Z</time>
      </trkpt>
      <trkpt lat="39.95054319836616" lon="116.47326738610018">
        <ele>19.3</ele>
        <time>2023-06-30T13:25:19Z</time>
      </trkpt>
      <trkpt lat="39.95045980986599" lon="116.47312789403703">
        <ele>19.9</ele>
        <time>2023-06-30T13:25:25Z</time>
      </trkpt>
      <trkpt lat="39.950416693250325" lon="116.47308574768283">
        <ele>20.7</ele>
        <time>2023-06-30T13:25:28Z</time>
      </trkpt>
      <trkpt lat="39.950303630123315" lon="116.47306167516817">
        <ele>23.3</ele>
        <time>2023-06-30T13:25:34Z</time>
      </trkpt>
      <trkpt lat="39.95015873725526" lon="116.47309782342214">
        <ele>27.7</ele>
        <time>2023-06-30T13:25:43Z</time>
      </trkpt>
      <trkpt lat="39.9498398118484" lon="116.47311994295319">
        <ele>31.8</ele>
        <time>2023-06-30T13:26:01Z</time>
      </trkpt>
      <trkpt lat="39.949649126586685" lon="116.47322936090428">
        <ele>30.999999999999996</ele>
        <time>2023-06-30T13:26:07Z</time>
      </trkpt>
      <trkpt lat="39.949353397726185" lon="116.47332173077231">
        <ele>24.0</ele>
        <time>2023-06-30T13:26:25Z</time>
      </trkpt>
      <trkpt lat="39.949063691349906" lon="116.47342212900861">
        <ele>20.8</ele>
        <time>2023-06-30T13:26:40Z</time>
      </trkpt>
      <trkpt lat="39.949015760989965" lon="116.4734462219038">
        <ele>21.099999999999998</ele>
        <time>2023-06-30T13:26:43Z</time>
      </trkpt>
      <trkpt lat="39.94895805411439" lon="116.47354960213487">
        <ele>21.3</ele>
        <time>2023-06-30T13:26:49Z</time>
      </trkpt>
      <trkpt lat="39.948951238015034" lon="116.47361483847996">
        <ele>21.2</ele>
        <time>2023-06-30T13:26:52Z</time>
      </trkpt>
      <trkpt lat="39.94899393475798" lon="116.47386272874354">
        <ele>21.8</ele>
        <time>2023-06-30T13:27:04Z</time>
      </trkpt>
      <trkpt lat="39.9490445188506" lon="116.47407047389778">
        <ele>22.8</ele>
        <time>2023-06-30T13:27:13Z</time>
      </trkpt>
      <trkpt lat="39.94905594637354" lon="116.47422202118419">
        <ele>24.0</ele>
        <time>2023-06-30T13:27:19Z</time>
      </trkpt>
      <trkpt lat="39.94919882616965" lon="116.47453513842167">
        <ele>21.7</ele>
        <time>2023-06-30T13:27:34Z</time>
      </trkpt>
      <trkpt lat="39.94935651916001" lon="116.47478201497101">
        <ele>20.599999999999998</ele>
        <time>2023-06-30T13:27:46Z</time>
      </trkpt>
      <trkpt lat="39.94949346746341" lon="116.47511822021882">
        <ele>19.7</ele>
        <time>2023-06-30T13:28:01Z</time>
      </trkpt>
      <trkpt lat="39.9495644172478" lon="116.47545343214128">
        <ele>17.099999999999998</ele>
        <time>2023-06-30T13:28:16Z</time>
      </trkpt>
      <trkpt lat="39.94961677497638" lon="116.475579886647">
        <ele>16.099999999999998</ele>
        <time>2023-06-30T13:28:22Z</time>
      </trkpt>
      <trkpt lat="39.94964892894733" lon="116.47598536286903">
        <ele>12.2</ele>
        <time>2023-06-30T13:28:37Z</time>
      </trkpt>
      <trkpt lat="39.949616087706396" lon="116.4760405687273">
        <ele>11.399999999999999</ele>
        <time>2023-06-30T13:28:40Z</time>
      </trkpt>
      <trkpt lat="39.94957119257121" lon="116.4760767064328">
        <ele>12.2</ele>
        <time>2023-06-30T13:28:43Z</time>
      </trkpt>
      <trkpt lat="39.949427235498234" lon="116.4760897721807">
        <ele>14.899999999999999</ele>
        <time>2023-06-30T13:28:52Z</time>
      </trkpt>
      <trkpt lat="39.949134006575214" lon="116.47600550078127">
        <ele>14.8</ele>
        <time>2023-06-30T13:29:07Z</time>
      </trkpt>
      <trkpt lat="39.94884461738109" lon="116.4758650237353">
        <ele>16.099999999999998</ele>
        <time>2023-06-30T13:29:22Z</time>
      </trkpt>
      <trkpt lat="39.94853934060611" lon="116.47576369189592">
        <ele>16.0</ele>
        <time>2023-06-30T13:29:37Z</time>
      </trkpt>
      <trkpt lat="39.9483640845572" lon="116.47567137689332">
        <ele>20.7</ele>
        <time>2023-06-30T13:29:46Z</time>
      </trkpt>
      <trkpt lat="39.9480888126003" lon="116.47557204896128">
        <ele>20.599999999999998</ele>
        <time>2023-06-30T13:30:01Z</time>
      </trkpt>
      <trkpt lat="39.947816486435215" lon="116.47545365133027">
        <ele>28.400000000000002</ele>
        <time>2023-06-30T13:30:16Z</time>
      </trkpt>
      <trkpt lat="39.94755619424042" lon="116.47534729631553">
        <ele>28.599999999999998</ele>
        <time>2023-06-30T13:30:31Z</time>
      </trkpt>
      <trkpt lat="39.94744412735895" lon="116.47532221897039">
        <ele>27.599999999999998</ele>
        <time>2023-06-30T13:30:37Z</time>
      </trkpt>
      <trkpt lat="39.94730387624008" lon="116.4752319076188">
        <ele>27.499999999999996</ele>
        <time>2023-06-30T13:30:46Z</time>
      </trkpt>
      <trkpt lat="39.947042538854596" lon="116.47510949473289">
        <ele>28.099999999999998</ele>
        <time>2023-06-30T13:30:58Z</time>
      </trkpt>
      <trkpt lat="39.94680828890628" lon="116.47501819187062">
        <ele>28.499999999999996</ele>
        <time>2023-06-30T13:31:10Z</time>
      </trkpt>
      <trkpt lat="39.94667611475197" lon="116.4749549785247">
        <ele>28.2</ele>
        <time>2023-06-30T13:31:19Z</time>
      </trkpt>
      <trkpt lat="39.94655411389321" lon="116.47495298652737">
        <ele>28.599999999999998</ele>
        <time>2023-06-30T13:31:25Z</time>
      </trkpt>
      <trkpt lat="39.94645288735108" lon="116.47487170372004">
        <ele>28.499999999999996</ele>
        <time>2023-06-30T13:31:34Z</time>
      </trkpt>
      <trkpt lat="39.94634172632837" lon="116.47446022378719">
        <ele>26.7</ele>
        <time>2023-06-30T13:31:52Z</time>
      </trkpt>
      <trkpt lat="39.94624955589127" lon="116.47404473013415">
        <ele>22.7</ele>
        <time>2023-06-30T13:32:10Z</time>
      </trkpt>
      <trkpt lat="39.94620436510092" lon="116.47397648888602">
        <ele>23.2</ele>
        <time>2023-06-30T13:32:13Z</time>
      </trkpt>
      <trkpt lat="39.94610821603359" lon="116.47392230493159">
        <ele>22.3</ele>
        <time>2023-06-30T13:32:19Z</time>
      </trkpt>
      <trkpt lat="39.9458593193228" lon="116.47395545594028">
        <ele>18.8</ele>
        <time>2023-06-30T13:32:34Z</time>
      </trkpt>
      <trkpt lat="39.945758408267565" lon="116.47398557751096">
        <ele>19.5</ele>
        <time>2023-06-30T13:32:40Z</time>
      </trkpt>
      <trkpt lat="39.94557835877791" lon="116.47396552749106">
        <ele>18.4</ele>
        <time>2023-06-30T13:32:49Z</time>
      </trkpt>
      <trkpt lat="39.94528154329476" lon="116.47402678620861">
        <ele>18.2</ele>
        <time>2023-06-30T13:33:04Z</time>
      </trkpt>
      <trkpt lat="39.945026737541376" lon="116.47409205425626">
        <ele>18.7</ele>
        <time>2023-06-30T13:33:16Z</time>
      </trkpt>
      <trkpt lat="39.94497888963293" lon="116.47414525281619">
        <ele>16.7</ele>
        <time>2023-06-30T13:33:19Z</time>
      </trkpt>
      <trkpt lat="39.944916991298086" lon="116.47418038777123">
        <ele>17.5</ele>
        <time>2023-06-30T13:33:22Z</time>
      </trkpt>
      <trkpt lat="39.94484338841408" lon="116.47431990236238">
        <ele>18.3</ele>
        <time>2023-06-30T13:33:28Z</time>
      </trkpt>
      <trkpt lat="39.944818428828846" lon="116.47468723790496">
        <ele>21.7</ele>
        <time>2023-06-30T13:33:43Z</time>
      </trkpt>
      <trkpt lat="39.94473939943607" lon="116.4750284878223">
        <ele>24.5</ele>
        <time>2023-06-30T13:33:58Z</time>
      </trkpt>
      <trkpt lat="39.9447088622489" lon="116.47519108322713">
        <ele>24.099999999999998</ele>
        <time>2023-06-30T13:34:04Z</time>
      </trkpt>
      <trkpt lat="39.94462339612274" lon="116.47537777374824">
        <ele>26.900000000000002</ele>
        <time>2023-06-30T13:34:13Z</time>
      </trkpt>
      <trkpt lat="39.94452346833895" lon="116.47575315507399">
        <ele>28.3</ele>
        <time>2023-06-30T13:34:31Z</time>
      </trkpt>
      <trkpt lat="39.94444492051577" lon="116.47591074026018">
        <ele>29.999999999999996</ele>
        <time>2023-06-30T13:34:40Z</time>
      </trkpt>
      <trkpt lat="39.94432838029232" lon="116.47607033797526">
        <ele>30.400000000000002</ele>
        <time>2023-06-30T13:34:49Z</time>
      </trkpt>
      <trkpt lat="39.94426970918317" lon="116.47618476367495">
        <ele>30.8</ele>
        <time>2023-06-30T13:34:55Z</time>
      </trkpt>
      <trkpt lat="39.94408897430571" lon="116.47627511675758">
        <ele>22.3</ele>
        <time>2023-06-30T13:35:10Z</time>
      </trkpt>
      <trkpt lat="39.94402901108888" lon="116.47628716834059">
        <ele>20.5</ele>
        <time>2023-06-30T13:35:13Z</time>
      </trkpt>
      <trkpt lat="39.94390829690729" lon="116.47638554344785">
        <ele>19.0</ele>
        <time>2023-06-30T13:35:19Z</time>
      </trkpt>
      <trkpt lat="39.94378844223225" lon="116.47643473851855">
        <ele>20.2</ele>
        <time>2023-06-30T13:35:25Z</time>
      </trkpt>
      <trkpt lat="39.94371841345647" lon="116.47642370687173">
        <ele>19.9</ele>
        <time>2023-06-30T13:35:31Z</time>
      </trkpt>
      <trkpt lat="39.943526672799806" lon="116.476161772383">
        <ele>21.7</ele>
        <time>2023-06-30T13:35:49Z</time>
      </trkpt>
      <trkpt lat="39.94339130298094" lon="116.4760303086961">
        <ele>22.7</ele>
        <time>2023-06-30T13:35:58Z</time>
      </trkpt>
      <trkpt lat="39.9431329840832" lon="116.475914919373">
        <ele>27.2</ele>
        <time>2023-06-30T13:36:13Z</time>
      </trkpt>
      <trkpt lat="39.94291187270583" lon="116.47587279313359">
        <ele>26.900000000000002</ele>
        <time>2023-06-30T13:36:25Z</time>
      </trkpt>
      <trkpt lat="39.942726857177135" lon="116.4758647870033">
        <ele>26.099999999999998</ele>
        <time>2023-06-30T13:36:34Z</time>
      </trkpt>
      <trkpt lat="39.9425109744824" lon="116.4759029533476">
        <ele>27.999999999999996</ele>
        <time>2023-06-30T13:36:46Z</time>
      </trkpt>
      <trkpt lat="39.9423889221152" lon="116.47588289533509">
        <ele>28.499999999999996</ele>
        <time>2023-06-30T13:36:52Z</time>
      </trkpt>
      <trkpt lat="39.94207396039793" lon="116.47589196780162">
        <ele>27.400000000000002</ele>
        <time>2023-06-30T13:37:07Z</time>
      </trkpt>
      <trkpt lat="39.94176221891883" lon="116.47597832217137">
        <ele>24.4</ele>
        <time>2023-06-30T13:37:25Z</time>
      </trkpt>
      <trkpt lat="39.9416464582937" lon="116.47606063743088">
        <ele>23.599999999999998</ele>
        <time>2023-06-30T13:37:31Z</time>
      </trkpt>
      <trkpt lat="39.94146992082029" lon="116.47622024304908">
        <ele>23.9</ele>
        <time>2023-06-30T13:37:43Z</time>
      </trkpt>
      <trkpt lat="39.94122414559457" lon="116.47629554923178">
        <ele>26.7</ele>
        <time>2023-06-30T13:37:55Z</time>
      </trkpt>
      <trkpt lat="39.94093407401596" lon="116.47626647908947">
        <ele>29.3</ele>
        <time>2023-06-30T13:38:10Z</time>
      </trkpt>
      <trkpt lat="39.94083199495967" lon="116.47623738540376">
        <ele>28.999999999999996</ele>
        <time>2023-06-30T13:38:16Z</time>
      </trkpt>
      <trkpt lat="39.94074483795155" lon="116.47618119075491">
        <ele>28.999999999999996</ele>
        <time>2023-06-30T13:38:22Z</time>
      </trkpt>
      <trkpt lat="39.940698687948256" lon="116.47612800202994">
        <ele>28.900000000000002</ele>
        <time>2023-06-30T13:38:25Z</time>
      </trkpt>
      <trkpt lat="39.94047438187628" lon="116.47601762659932">
        <ele>25.7</ele>
        <time>2023-06-30T13:38:37Z</time>
      </trkpt>
      <trkpt lat="39.940164213908886" lon="116.47595443444764">
        <ele>20.7</ele>
        <time>2023-06-30T13:38:58Z</time>
      </trkpt>
      <trkpt lat="39.94003305030661" lon="116.47589523459398">
        <ele>23.5</ele>
        <time>2023-06-30T13:39:04Z</time>
      </trkpt>
      <trkpt lat="39.93996478986461" lon="116.47580290600222">
        <ele>25.099999999999998</ele>
        <time>2023-06-30T13:39:10Z</time>
      </trkpt>
      <trkpt lat="39.939934250844004" lon="116.4756132176812">
        <ele>25.099999999999998</ele>
        <time>2023-06-30T13:39:19Z</time>
      </trkpt>
      <trkpt lat="39.93982330187449" lon="116.47527800998472">
        <ele>23.599999999999998</ele>
        <time>2023-06-30T13:39:34Z</time>
      </trkpt>
      <trkpt lat="39.939738031560616" lon="116.47518166992741">
        <ele>22.7</ele>
        <time>2023-06-30T13:39:40Z</time>
      </trkpt>
      <trkpt lat="39.939453854806224" lon="116.47511546451264">
        <ele>23.7</ele>
        <time>2023-06-30T13:39:55Z</time>
      </trkpt>
      <trkpt lat="39.93913695865274" lon="116.47514762109778">
        <ele>26.0</ele>
        <time>2023-06-30T13:40:10Z</time>
      </trkpt>
      <trkpt lat="39.939103079718095" lon="116.47518977874863">
        <ele>26.400000000000002</ele>
        <time>2023-06-30T13:40:13Z</time>
      </trkpt>
      <trkpt lat="39.9390748196658" lon="116.47544972898726">
        <ele>26.900000000000002</ele>
        <time>2023-06-30T13:40:25Z</time>
      </trkpt>
      <trkpt lat="39.939037009965574" lon="116.47586725679932">
        <ele>28.400000000000002</ele>
        <time>2023-06-30T13:40:46Z</time>
      </trkpt>
      <trkpt lat="39.93900188172024" lon="116.47617237613728">
        <ele>31.499999999999996</ele>
        <time>2023-06-30T13:40:58Z</time>
      </trkpt>
      <trkpt lat="39.93903506496075" lon="116.4765868892206">
        <ele>29.599999999999998</ele>
        <time>2023-06-30T13:41:13Z</time>
      </trkpt>
      <trkpt lat="39.939034878071645" lon="116.47687093056064">
        <ele>28.999999999999996</ele>
        <time>2023-06-30T13:41:25Z</time>
      </trkpt>
      <trkpt lat="39.93905891018453" lon="116.47723125041148">
        <ele>29.499999999999996</ele>
        <time>2023-06-30T13:41:40Z</time>
      </trkpt>
      <trkpt lat="39.93905735682891" lon="116.47738682240288">
        <ele>30.900000000000002</ele>
        <time>2023-06-30T13:41:46Z</time>
      </trkpt>
      <trkpt lat="39.9390277414688" lon="116.47752031705627">
        <ele>33.0</ele>
        <time>2023-06-30T13:41:52Z</time>
      </trkpt>
      <trkpt lat="39.93901895140206" lon="116.47794086663433">
        <ele>31.400000000000002</ele>
        <time>2023-06-30T13:42:13Z</time>
      </trkpt>
      <trkpt lat="39.939051251752986" lon="116.47839252863996">
        <ele>27.099999999999998</ele>
        <time>2023-06-30T13:42:28Z</time>
      </trkpt>
      <trkpt lat="39.939078537373824" lon="116.47849189216404">
        <ele>29.499999999999996</ele>
        <time>2023-06-30T13:42:31Z</time>
      </trkpt>
      <trkpt lat="39.939016829572786" lon="116.47859227068273">
        <ele>28.7</ele>
        <time>2023-06-30T13:42:40Z</time>
      </trkpt>
      <trkpt lat="39.93870863906287" lon="116.47852204969239">
        <ele>22.3</ele>
        <time>2023-06-30T13:42:58Z</time>
      </trkpt>
      <trkpt lat="39.938435415364694" lon="116.47844078362753">
        <ele>25.099999999999998</ele>
        <time>2023-06-30T13:43:13Z</time>
      </trkpt>
      <trkpt lat="39.938260150201664" lon="116.47834645723256">
        <ele>27.499999999999996</ele>
        <time>2023-06-30T13:43:22Z</time>
      </trkpt>
      <trkpt lat="39.93818914435747" lon="116.47834345500691">
        <ele>28.499999999999996</ele>
        <time>2023-06-30T13:43:25Z</time>
      </trkpt>
      <trkpt lat="39.93806898418114" lon="116.47828625889242">
        <ele>28.499999999999996</ele>
        <time>2023-06-30T13:43:31Z</time>
      </trkpt>
      <trkpt lat="39.93784216896978" lon="116.47800023224106">
        <ele>25.5</ele>
        <time>2023-06-30T13:43:49Z</time>
      </trkpt>
      <trkpt lat="39.93757446904997" lon="116.47775335609037">
        <ele>27.3</ele>
        <time>2023-06-30T13:44:04Z</time>
      </trkpt>
      <trkpt lat="39.93744221455726" lon="116.47766304008096">
        <ele>29.900000000000002</ele>
        <time>2023-06-30T13:44:13Z</time>
      </trkpt>
      <trkpt lat="39.93730306719422" lon="116.47760986171818">
        <ele>30.400000000000002</ele>
        <time>2023-06-30T13:44:22Z</time>
      </trkpt>
      <trkpt lat="39.937241948474615" lon="116.47756771425121">
        <ele>29.099999999999998</ele>
        <time>2023-06-30T13:44:25Z</time>
      </trkpt>
      <trkpt lat="39.93695678107705" lon="116.47750552102576">
        <ele>29.8</ele>
        <time>2023-06-30T13:44:40Z</time>
      </trkpt>
      <trkpt lat="39.93666856773229" lon="116.4774272691898">
        <ele>29.3</ele>
        <time>2023-06-30T13:44:55Z</time>
      </trkpt>
      <trkpt lat="39.9364785177005" lon="116.47740721917776">
        <ele>28.8</ele>
        <time>2023-06-30T13:45:07Z</time>
      </trkpt>
      <trkpt lat="39.936161772585685" lon="116.47749156889492">
        <ele>29.400000000000002</ele>
        <time>2023-06-30T13:45:19Z</time>
      </trkpt>
      <trkpt lat="39.93596188154386" lon="116.47752672314672">
        <ele>26.599999999999998</ele>
        <time>2023-06-30T13:45:31Z</time>
      </trkpt>
      <trkpt lat="39.935753506441394" lon="116.47739325830557">
        <ele>23.099999999999998</ele>
        <time>2023-06-30T13:45:43Z</time>
      </trkpt>
      <trkpt lat="39.93569134178605" lon="116.47733505208713">
        <ele>22.2</ele>
        <time>2023-06-30T13:45:49Z</time>
      </trkpt>
      <trkpt lat="39.93562908500383" lon="116.47724472791676">
        <ele>20.7</ele>
        <time>2023-06-30T13:45:52Z</time>
      </trkpt>
      <trkpt lat="39.93549475349816" lon="116.47712731337879">
        <ele>19.7</ele>
        <time>2023-06-30T13:46:01Z</time>
      </trkpt>
      <trkpt lat="39.93539359925467" lon="116.47707212334777">
        <ele>21.099999999999998</ele>
        <time>2023-06-30T13:46:07Z</time>
      </trkpt>
      <trkpt lat="39.935126549552955" lon="116.47705107941226">
        <ele>26.900000000000002</ele>
        <time>2023-06-30T13:46:19Z</time>
      </trkpt>
      <trkpt lat="39.93481185579744" lon="116.47715349474107">
        <ele>29.900000000000002</ele>
        <time>2023-06-30T13:46:34Z</time>
      </trkpt>
      <trkpt lat="39.93475296470042" lon="116.47719063851969">
        <ele>29.400000000000002</ele>
        <time>2023-06-30T13:46:37Z</time>
      </trkpt>
      <trkpt lat="39.934462036879" lon="116.47721175238061">
        <ele>31.599999999999998</ele>
        <time>2023-06-30T13:46:52Z</time>
      </trkpt>
      <trkpt lat="39.93435507286313" lon="116.47722280633576">
        <ele>28.8</ele>
        <time>2023-06-30T13:46:58Z</time>
      </trkpt>
    </trkseg>
  </trk>
</gpx>