<?xml version="1.0" encoding="UTF-8"?>
<gpx xmlns="http://www.topografix.com/GPX/1/1" xmlns:gpxtpx="http://www.garmin.com/xmlschemas/TrackPointExtension/v1" xmlns:xsi="http://www.w3.org/2001/XMLSchema-instance" xsi:schemaLocation="http://www.topografix.com/GPX/1/1 http://www.topografix.com/GPX/1/1/gpx.xsd" version="1.1" creator="gpx.py -- https://github.com/tkrajina/gpxpy">
  <trk>
    <name>gpx from keep</name>
    <type>Run</type>
    <trkseg>
      <trkpt lat="39.92393971835522" lon="116.4567697109247">
        <ele>49.9</ele>
        <time>2023-05-15T00:58:00Z</time>
      </trkpt>
      <trkpt lat="39.92386030166643" lon="116.456597178839">
        <ele>44.800000000000004</ele>
        <time>2023-05-15T00:58:03Z</time>
      </trkpt>
      <trkpt lat="39.923776207585234" lon="116.45655706352949">
        <ele>45.5</ele>
        <time>2023-05-15T00:58:06Z</time>
      </trkpt>
      <trkpt lat="39.92353113480305" lon="116.45652298746545">
        <ele>42.4</ele>
        <time>2023-05-15T00:58:15Z</time>
      </trkpt>
      <trkpt lat="39.923341993992" lon="116.45646181948732">
        <ele>39.1</ele>
        <time>2023-05-15T00:58:21Z</time>
      </trkpt>
      <trkpt lat="39.923139324054986" lon="116.45659426036374">
        <ele>36.0</ele>
        <time>2023-05-15T00:58:33Z</time>
      </trkpt>
      <trkpt lat="39.923063361337896" lon="116.45660831403194">
        <ele>37.4</ele>
        <time>2023-05-15T00:58:36Z</time>
      </trkpt>
      <trkpt lat="39.92298027696326" lon="116.4565722111713">
        <ele>38.6</ele>
        <time>2023-05-15T00:58:39Z</time>
      </trkpt>
      <trkpt lat="39.922894261006086" lon="116.45656419684313">
        <ele>39.5</ele>
        <time>2023-05-15T00:58:42Z</time>
      </trkpt>
      <trkpt lat="39.922823537183994" lon="116.45667655851018">
        <ele>39.2</ele>
        <time>2023-05-15T00:58:45Z</time>
      </trkpt>
      <trkpt lat="39.92266158650141" lon="116.45710392468172">
        <ele>41.2</ele>
        <time>2023-05-15T00:58:54Z</time>
      </trkpt>
      <trkpt lat="39.92263680845855" lon="116.45719421293614">
        <ele>40.4</ele>
        <time>2023-05-15T00:58:57Z</time>
      </trkpt>
      <trkpt lat="39.92307526379311" lon="116.45860163881756">
        <ele>0.0</ele>
        <time>2023-05-15T00:59:48Z</time>
      </trkpt>
      <trkpt lat="39.92311617978106" lon="116.45856852748179">
        <ele>40.4</ele>
        <time>2023-05-15T00:59:54Z</time>
      </trkpt>
      <trkpt lat="39.92316680210286" lon="116.45881932638702">
        <ele>40.5</ele>
        <time>2023-05-15T00:59:57Z</time>
      </trkpt>
      <trkpt lat="39.92321675239995" lon="116.4592005481541">
        <ele>38.9</ele>
        <time>2023-05-15T01:00:03Z</time>
      </trkpt>
      <trkpt lat="39.92319663636654" lon="116.45955268931198">
        <ele>37.1</ele>
        <time>2023-05-15T01:00:18Z</time>
      </trkpt>
      <trkpt lat="39.923252229717264" lon="116.45978945016545">
        <ele>37.0</ele>
        <time>2023-05-15T01:00:24Z</time>
      </trkpt>
      <trkpt lat="39.92330147546548" lon="116.45988776335449">
        <ele>37.300000000000004</ele>
        <time>2023-05-15T01:00:27Z</time>
      </trkpt>
      <trkpt lat="39.923432695300406" lon="116.4599770371536">
        <ele>31.700000000000003</ele>
        <time>2023-05-15T01:00:33Z</time>
      </trkpt>
      <trkpt lat="39.923467820486316" lon="116.46002719595097">
        <ele>29.200000000000003</ele>
        <time>2023-05-15T01:00:36Z</time>
      </trkpt>
      <trkpt lat="39.9236140222842" lon="116.46010944539074">
        <ele>27.6</ele>
        <time>2023-05-15T01:00:45Z</time>
      </trkpt>
      <trkpt lat="39.92387663599671" lon="116.46035621720384">
        <ele>26.9</ele>
        <time>2023-05-15T01:00:57Z</time>
      </trkpt>
      <trkpt lat="39.9239477169696" lon="116.46038931637169">
        <ele>26.6</ele>
        <time>2023-05-15T01:01:00Z</time>
      </trkpt>
      <trkpt lat="39.9240757574754" lon="116.46040735922965">
        <ele>28.5</ele>
        <time>2023-05-15T01:01:06Z</time>
      </trkpt>
      <trkpt lat="39.92429241307726" lon="116.46027489956334">
        <ele>27.200000000000003</ele>
        <time>2023-05-15T01:01:18Z</time>
      </trkpt>
      <trkpt lat="39.92435635711727" lon="116.46025382277192">
        <ele>26.9</ele>
        <time>2023-05-15T01:01:21Z</time>
      </trkpt>
      <trkpt lat="39.92449639961149" lon="116.46027286731136">
        <ele>25.4</ele>
        <time>2023-05-15T01:01:27Z</time>
      </trkpt>
      <trkpt lat="39.92461253964883" lon="116.46033003930744">
        <ele>25.0</ele>
        <time>2023-05-15T01:01:33Z</time>
      </trkpt>
      <trkpt lat="39.92480762313802" lon="116.46036613265129">
        <ele>24.299999999999997</ele>
        <time>2023-05-15T01:01:42Z</time>
      </trkpt>
      <trkpt lat="39.9249425870916" lon="116.4603540763303">
        <ele>25.4</ele>
        <time>2023-05-15T01:01:48Z</time>
      </trkpt>
      <trkpt lat="39.9250744215924" lon="116.46029085339609">
        <ele>36.7</ele>
        <time>2023-05-15T01:01:57Z</time>
      </trkpt>
      <trkpt lat="39.92518186149904" lon="116.46007112364568">
        <ele>39.800000000000004</ele>
        <time>2023-05-15T01:02:06Z</time>
      </trkpt>
      <trkpt lat="39.92520163775481" lon="116.45998283380031">
        <ele>39.800000000000004</ele>
        <time>2023-05-15T01:02:09Z</time>
      </trkpt>
      <trkpt lat="39.92524250950288" lon="116.45993266549293">
        <ele>39.5</ele>
        <time>2023-05-15T01:02:12Z</time>
      </trkpt>
      <trkpt lat="39.925339424554345" lon="116.45990054890099">
        <ele>39.0</ele>
        <time>2023-05-15T01:02:18Z</time>
      </trkpt>
      <trkpt lat="39.92550730890531" lon="116.45985738753683">
        <ele>35.6</ele>
        <time>2023-05-15T01:02:27Z</time>
      </trkpt>
      <trkpt lat="39.92569665462927" lon="116.45960053022064">
        <ele>28.6</ele>
        <time>2023-05-15T01:02:39Z</time>
      </trkpt>
      <trkpt lat="39.92590198133145" lon="116.45933564710475">
        <ele>25.4</ele>
        <time>2023-05-15T01:02:51Z</time>
      </trkpt>
      <trkpt lat="39.925947770806346" lon="116.45925237230071">
        <ele>27.6</ele>
        <time>2023-05-15T01:02:54Z</time>
      </trkpt>
      <trkpt lat="39.92604084163411" lon="116.45888216729354">
        <ele>34.0</ele>
        <time>2023-05-15T01:03:09Z</time>
      </trkpt>
      <trkpt lat="39.926031845572666" lon="116.45848188329236">
        <ele>39.300000000000004</ele>
        <time>2023-05-15T01:03:21Z</time>
      </trkpt>
      <trkpt lat="39.92601106036887" lon="116.45816487194624">
        <ele>37.2</ele>
        <time>2023-05-15T01:03:33Z</time>
      </trkpt>
      <trkpt lat="39.92602460833807" lon="116.45798228779327">
        <ele>33.7</ele>
        <time>2023-05-15T01:03:39Z</time>
      </trkpt>
      <trkpt lat="39.92600705960036" lon="116.45775958109542">
        <ele>31.9</ele>
        <time>2023-05-15T01:03:48Z</time>
      </trkpt>
      <trkpt lat="39.92597578419934" lon="116.45764722803783">
        <ele>33.6</ele>
        <time>2023-05-15T01:03:51Z</time>
      </trkpt>
      <trkpt lat="39.925966850903954" lon="116.45726702432657">
        <ele>39.4</ele>
        <time>2023-05-15T01:04:00Z</time>
      </trkpt>
      <trkpt lat="39.925961166413586" lon="116.45698714131434">
        <ele>44.7</ele>
        <time>2023-05-15T01:04:09Z</time>
      </trkpt>
      <trkpt lat="39.92589101742514" lon="116.45692495415288">
        <ele>46.4</ele>
        <time>2023-05-15T01:04:15Z</time>
      </trkpt>
      <trkpt lat="39.925817003317626" lon="116.45691794136974">
        <ele>46.2</ele>
        <time>2023-05-15T01:04:18Z</time>
      </trkpt>
      <trkpt lat="39.92575187381938" lon="116.45686377899119">
        <ele>45.9</ele>
        <time>2023-05-15T01:04:21Z</time>
      </trkpt>
      <trkpt lat="39.92566154014031" lon="116.45672535488991">
        <ele>44.800000000000004</ele>
        <time>2023-05-15T01:04:27Z</time>
      </trkpt>
      <trkpt lat="39.92558445293466" lon="116.45668824796748">
        <ele>45.0</ele>
        <time>2023-05-15T01:04:33Z</time>
      </trkpt>
      <trkpt lat="39.925525445586246" lon="116.45668424280544">
        <ele>46.0</ele>
        <time>2023-05-15T01:04:36Z</time>
      </trkpt>
      <trkpt lat="39.92546633328381" lon="116.456637102165">
        <ele>45.2</ele>
        <time>2023-05-15T01:04:39Z</time>
      </trkpt>
      <trkpt lat="39.92518413265902" lon="116.45654986384119">
        <ele>39.1</ele>
        <time>2023-05-15T01:04:51Z</time>
      </trkpt>
      <trkpt lat="39.92492475362229" lon="116.4563893934917">
        <ele>34.9</ele>
        <time>2023-05-15T01:05:03Z</time>
      </trkpt>
      <trkpt lat="39.9247303799456" lon="116.45623192526361">
        <ele>32.4</ele>
        <time>2023-05-15T01:05:12Z</time>
      </trkpt>
      <trkpt lat="39.92464933470672" lon="116.4562118727834">
        <ele>30.6</ele>
        <time>2023-05-15T01:05:15Z</time>
      </trkpt>
      <trkpt lat="39.92456449121969" lon="116.45627508106945">
        <ele>27.9</ele>
        <time>2023-05-15T01:05:21Z</time>
      </trkpt>
      <trkpt lat="39.9243873770387" lon="116.45622494660081">
        <ele>23.0</ele>
        <time>2023-05-15T01:05:30Z</time>
      </trkpt>
      <trkpt lat="39.92433843248411" lon="116.45624702176715">
        <ele>23.6</ele>
        <time>2023-05-15T01:05:34Z</time>
      </trkpt>
      <trkpt lat="39.924128961587584" lon="116.45646172018449">
        <ele>26.700000000000003</ele>
        <time>2023-05-15T01:05:46Z</time>
      </trkpt>
      <trkpt lat="39.92393622050354" lon="116.45656506851856">
        <ele>29.5</ele>
        <time>2023-05-15T01:05:55Z</time>
      </trkpt>
      <trkpt lat="39.92365226633202" lon="116.45657914841742">
        <ele>34.800000000000004</ele>
        <time>2023-05-15T01:06:07Z</time>
      </trkpt>
      <trkpt lat="39.92333130394444" lon="116.45658922039806">
        <ele>31.800000000000004</ele>
        <time>2023-05-15T01:06:22Z</time>
      </trkpt>
      <trkpt lat="39.92318136866852" lon="116.45661331488833">
        <ele>33.6</ele>
        <time>2023-05-15T01:06:31Z</time>
      </trkpt>
      <trkpt lat="39.923063607860044" lon="116.45670963223907">
        <ele>38.0</ele>
        <time>2023-05-15T01:06:37Z</time>
      </trkpt>
      <trkpt lat="39.922963604658825" lon="116.45670663539856">
        <ele>41.5</ele>
        <time>2023-05-15T01:06:43Z</time>
      </trkpt>
      <trkpt lat="39.92284185894361" lon="116.45680897250341">
        <ele>42.1</ele>
        <time>2023-05-15T01:06:49Z</time>
      </trkpt>
      <trkpt lat="39.92279405907036" lon="116.45689023429892">
        <ele>41.300000000000004</ele>
        <time>2023-05-15T01:06:52Z</time>
      </trkpt>
      <trkpt lat="39.9227455118951" lon="116.45707482228019">
        <ele>39.2</ele>
        <time>2023-05-15T01:06:58Z</time>
      </trkpt>
      <trkpt lat="39.92263122171165" lon="116.45736274664026">
        <ele>36.300000000000004</ele>
        <time>2023-05-15T01:07:10Z</time>
      </trkpt>
      <trkpt lat="39.92264198547658" lon="116.45767373137701">
        <ele>35.800000000000004</ele>
        <time>2023-05-15T01:07:19Z</time>
      </trkpt>
      <trkpt lat="39.9227318081488" lon="116.45800878621245">
        <ele>30.1</ele>
        <time>2023-05-15T01:07:31Z</time>
      </trkpt>
      <trkpt lat="39.92299520914649" lon="116.45817528431506">
        <ele>28.6</ele>
        <time>2023-05-15T01:07:43Z</time>
      </trkpt>
      <trkpt lat="39.92301459361136" lon="116.45833077883434">
        <ele>27.800000000000004</ele>
        <time>2023-05-15T01:07:52Z</time>
      </trkpt>
      <trkpt lat="39.92304582628961" lon="116.45842507667976">
        <ele>28.1</ele>
        <time>2023-05-15T01:07:58Z</time>
      </trkpt>
      <trkpt lat="39.923082638065296" lon="116.45875212097405">
        <ele>29.300000000000004</ele>
        <time>2023-05-15T01:08:10Z</time>
      </trkpt>
      <trkpt lat="39.9231341663866" lon="116.4589647985335">
        <ele>29.4</ele>
        <time>2023-05-15T01:08:19Z</time>
      </trkpt>
      <trkpt lat="39.92318651268255" lon="116.45910424126188">
        <ele>29.700000000000003</ele>
        <time>2023-05-15T01:08:25Z</time>
      </trkpt>
      <trkpt lat="39.92320958794273" lon="116.45953362594017">
        <ele>24.200000000000003</ele>
        <time>2023-05-15T01:08:43Z</time>
      </trkpt>
      <trkpt lat="39.923242785757395" lon="116.45961287854">
        <ele>25.200000000000003</ele>
        <time>2023-05-15T01:08:46Z</time>
      </trkpt>
      <trkpt lat="39.92330940684749" lon="116.45986067432676">
        <ele>27.6</ele>
        <time>2023-05-15T01:08:52Z</time>
      </trkpt>
      <trkpt lat="39.92334455212157" lon="116.45991885902454">
        <ele>27.0</ele>
        <time>2023-05-15T01:08:55Z</time>
      </trkpt>
      <trkpt lat="39.9234908575399" lon="116.46004224203092">
        <ele>22.9</ele>
        <time>2023-05-15T01:09:04Z</time>
      </trkpt>
      <trkpt lat="39.923521970302275" lon="116.46008738510348">
        <ele>22.5</ele>
        <time>2023-05-15T01:09:07Z</time>
      </trkpt>
      <trkpt lat="39.9236741795946" lon="116.46017264375692">
        <ele>21.200000000000003</ele>
        <time>2023-05-15T01:09:13Z</time>
      </trkpt>
      <trkpt lat="39.923912644682446" lon="116.46036022577059">
        <ele>22.200000000000003</ele>
        <time>2023-05-15T01:09:25Z</time>
      </trkpt>
      <trkpt lat="39.924026746775986" lon="116.46040234901761">
        <ele>21.5</ele>
        <time>2023-05-15T01:09:31Z</time>
      </trkpt>
      <trkpt lat="39.92408675193651" lon="116.4604053512891">
        <ele>22.200000000000003</ele>
        <time>2023-05-15T01:09:34Z</time>
      </trkpt>
      <trkpt lat="39.924314445191314" lon="116.46028793934347">
        <ele>25.799999999999997</ele>
        <time>2023-05-15T01:09:46Z</time>
      </trkpt>
      <trkpt lat="39.9246365564516" lon="116.46033705920793">
        <ele>28.6</ele>
        <time>2023-05-15T01:10:01Z</time>
      </trkpt>
      <trkpt lat="39.924897649949735" lon="116.46037816062513">
        <ele>26.700000000000003</ele>
        <time>2023-05-15T01:10:13Z</time>
      </trkpt>
      <trkpt lat="39.92509243101453" lon="116.46029486422253">
        <ele>27.800000000000004</ele>
        <time>2023-05-15T01:10:25Z</time>
      </trkpt>
      <trkpt lat="39.92515011130831" lon="116.46016944795058">
        <ele>27.6</ele>
        <time>2023-05-15T01:10:31Z</time>
      </trkpt>
      <trkpt lat="39.92518468656618" lon="116.46000189795743">
        <ele>28.200000000000003</ele>
        <time>2023-05-15T01:10:37Z</time>
      </trkpt>
      <trkpt lat="39.92521656118951" lon="116.45995273401599">
        <ele>27.700000000000003</ele>
        <time>2023-05-15T01:10:40Z</time>
      </trkpt>
      <trkpt lat="39.92538135706379" lon="116.4598744588341">
        <ele>27.800000000000004</ele>
        <time>2023-05-15T01:10:49Z</time>
      </trkpt>
      <trkpt lat="39.92548233016101" lon="116.4598654167651">
        <ele>27.1</ele>
        <time>2023-05-15T01:10:55Z</time>
      </trkpt>
      <trkpt lat="39.925529244793005" lon="116.45983230328565">
        <ele>26.1</ele>
        <time>2023-05-15T01:10:58Z</time>
      </trkpt>
      <trkpt lat="39.925702475393074" lon="116.45952929871693">
        <ele>21.799999999999997</ele>
        <time>2023-05-15T01:11:13Z</time>
      </trkpt>
      <trkpt lat="39.925731292831244" lon="116.4594570612341">
        <ele>20.5</ele>
        <time>2023-05-15T01:11:16Z</time>
      </trkpt>
      <trkpt lat="39.925912787315845" lon="116.45925839615145">
        <ele>19.700000000000003</ele>
        <time>2023-05-15T01:11:25Z</time>
      </trkpt>
      <trkpt lat="39.925949632570244" lon="116.45919719391841">
        <ele>21.299999999999997</ele>
        <time>2023-05-15T01:11:28Z</time>
      </trkpt>
      <trkpt lat="39.92604184659854" lon="116.45888417362214">
        <ele>28.5</ele>
        <time>2023-05-15T01:11:40Z</time>
      </trkpt>
      <trkpt lat="39.925999116193516" lon="116.45859023474439">
        <ele>31.1</ele>
        <time>2023-05-15T01:11:52Z</time>
      </trkpt>
      <trkpt lat="39.92602916394472" lon="116.45820700423445">
        <ele>33.0</ele>
        <time>2023-05-15T01:12:04Z</time>
      </trkpt>
      <trkpt lat="39.926009287045204" lon="116.45785187439125">
        <ele>30.4</ele>
        <time>2023-05-15T01:12:19Z</time>
      </trkpt>
      <trkpt lat="39.926009057046656" lon="116.45775857765402">
        <ele>31.1</ele>
        <time>2023-05-15T01:12:22Z</time>
      </trkpt>
      <trkpt lat="39.925959141477854" lon="116.45738539988356">
        <ele>37.800000000000004</ele>
        <time>2023-05-15T01:12:34Z</time>
      </trkpt>
      <trkpt lat="39.925916303057235" lon="116.45704232097023">
        <ele>49.9</ele>
        <time>2023-05-15T01:12:46Z</time>
      </trkpt>
      <trkpt lat="39.92573848569513" lon="116.45670427896809">
        <ele>53.300000000000004</ele>
        <time>2023-05-15T01:12:58Z</time>
      </trkpt>
      <trkpt lat="39.92567137857387" lon="116.45665914560465">
        <ele>52.5</ele>
        <time>2023-05-15T01:13:01Z</time>
      </trkpt>
      <trkpt lat="39.92561642476689" lon="116.45667720926289">
        <ele>49.800000000000004</ele>
        <time>2023-05-15T01:13:04Z</time>
      </trkpt>
      <trkpt lat="39.92553133061956" lon="116.45663709396324">
        <ele>49.300000000000004</ele>
        <time>2023-05-15T01:13:10Z</time>
      </trkpt>
      <trkpt lat="39.92525333469692" lon="116.45663411959184">
        <ele>50.7</ele>
        <time>2023-05-15T01:13:25Z</time>
      </trkpt>
      <trkpt lat="39.925192324998754" lon="116.45662911154028">
        <ele>49.7</ele>
        <time>2023-05-15T01:13:28Z</time>
      </trkpt>
      <trkpt lat="39.924931823907045" lon="116.45641848371497">
        <ele>49.6</ele>
        <time>2023-05-15T01:13:40Z</time>
      </trkpt>
      <trkpt lat="39.92484172540169" lon="116.45637636313428">
        <ele>49.0</ele>
        <time>2023-05-15T01:13:43Z</time>
      </trkpt>
      <trkpt lat="39.92478157952242" lon="116.45631517919449">
        <ele>47.5</ele>
        <time>2023-05-15T01:13:46Z</time>
      </trkpt>
      <trkpt lat="39.92464347339591" lon="116.45626905227894">
        <ele>44.1</ele>
        <time>2023-05-15T01:13:52Z</time>
      </trkpt>
      <trkpt lat="39.92459655552058" lon="116.45630216174324">
        <ele>42.1</ele>
        <time>2023-05-15T01:13:55Z</time>
      </trkpt>
      <trkpt lat="39.92437151616054" lon="116.45628212738414">
        <ele>32.800000000000004</ele>
        <time>2023-05-15T01:14:07Z</time>
      </trkpt>
      <trkpt lat="39.924209787864456" lon="116.45639148999743">
        <ele>30.9</ele>
        <time>2023-05-15T01:14:16Z</time>
      </trkpt>
      <trkpt lat="39.924104099030814" lon="116.45651789943769">
        <ele>31.300000000000004</ele>
        <time>2023-05-15T01:14:22Z</time>
      </trkpt>
      <trkpt lat="39.92397626518722" lon="116.45658412327634">
        <ele>33.300000000000004</ele>
        <time>2023-05-15T01:14:28Z</time>
      </trkpt>
      <trkpt lat="39.92390129266188" lon="116.45659416422079">
        <ele>34.5</ele>
        <time>2023-05-15T01:14:31Z</time>
      </trkpt>
      <trkpt lat="39.92371423939492" lon="116.45656910911873">
        <ele>36.6</ele>
        <time>2023-05-15T01:14:40Z</time>
      </trkpt>
      <trkpt lat="39.92356628694467" lon="116.4565861813035">
        <ele>34.9</ele>
        <time>2023-05-15T01:14:46Z</time>
      </trkpt>
      <trkpt lat="39.92339219171232" lon="116.45654407107261">
        <ele>34.9</ele>
        <time>2023-05-15T01:14:55Z</time>
      </trkpt>
      <trkpt lat="39.92314638962883" lon="116.45662134449702">
        <ele>36.2</ele>
        <time>2023-05-15T01:15:07Z</time>
      </trkpt>
      <trkpt lat="39.92308152165606" lon="116.4566745196573">
        <ele>38.300000000000004</ele>
        <time>2023-05-15T01:15:10Z</time>
      </trkpt>
      <trkpt lat="39.922923655158485" lon="116.4567267034971">
        <ele>42.800000000000004</ele>
        <time>2023-05-15T01:15:19Z</time>
      </trkpt>
      <trkpt lat="39.922809073136065" lon="116.45689625135952">
        <ele>42.9</ele>
        <time>2023-05-15T01:15:25Z</time>
      </trkpt>
      <trkpt lat="39.92267094463441" lon="116.45725038618684">
        <ele>35.7</ele>
        <time>2023-05-15T01:15:40Z</time>
      </trkpt>
      <trkpt lat="39.92263421174505" lon="116.45735873356116">
        <ele>34.4</ele>
        <time>2023-05-15T01:15:43Z</time>
      </trkpt>
      <trkpt lat="39.9226161866663" lon="116.4577549928374">
        <ele>32.6</ele>
        <time>2023-05-15T01:15:55Z</time>
      </trkpt>
      <trkpt lat="39.92273774346322" lon="116.45798270233112">
        <ele>25.5</ele>
        <time>2023-05-15T01:16:04Z</time>
      </trkpt>
      <trkpt lat="39.92294217408642" lon="116.45816024295331">
        <ele>21.0</ele>
        <time>2023-05-15T01:16:16Z</time>
      </trkpt>
      <trkpt lat="39.92302750105222" lon="116.45829365850216">
        <ele>21.299999999999997</ele>
        <time>2023-05-15T01:16:22Z</time>
      </trkpt>
      <trkpt lat="39.92305671380474" lon="116.45837993079843">
        <ele>22.200000000000003</ele>
        <time>2023-05-15T01:16:28Z</time>
      </trkpt>
      <trkpt lat="39.923061962632005" lon="116.45848025136013">
        <ele>21.9</ele>
        <time>2023-05-15T01:16:34Z</time>
      </trkpt>
      <trkpt lat="39.92309734523629" lon="116.45863474224717">
        <ele>21.799999999999997</ele>
        <time>2023-05-15T01:16:40Z</time>
      </trkpt>
      <trkpt lat="39.923091707680086" lon="116.45878021009085">
        <ele>21.299999999999997</ele>
        <time>2023-05-15T01:16:46Z</time>
      </trkpt>
      <trkpt lat="39.92312912150931" lon="116.45894674103057">
        <ele>22.6</ele>
        <time>2023-05-15T01:16:52Z</time>
      </trkpt>
      <trkpt lat="39.92316430797172" lon="116.45902197891192">
        <ele>23.1</ele>
        <time>2023-05-15T01:16:55Z</time>
      </trkpt>
      <trkpt lat="39.92316188026368" lon="116.45925071701791">
        <ele>22.299999999999997</ele>
        <time>2023-05-15T01:17:04Z</time>
      </trkpt>
      <trkpt lat="39.92317410852547" lon="116.4593420104332">
        <ele>22.799999999999997</ele>
        <time>2023-05-15T01:17:07Z</time>
      </trkpt>
      <trkpt lat="39.923164355540045" lon="116.45944032961589">
        <ele>23.200000000000003</ele>
        <time>2023-05-15T01:17:10Z</time>
      </trkpt>
      <trkpt lat="39.92328617272896" lon="116.45976737422987">
        <ele>27.6</ele>
        <time>2023-05-15T01:17:22Z</time>
      </trkpt>
      <trkpt lat="39.92343163711479" lon="116.45995396223141">
        <ele>23.200000000000003</ele>
        <time>2023-05-15T01:17:31Z</time>
      </trkpt>
      <trkpt lat="39.92354174398466" lon="116.45999809195511">
        <ele>19.799999999999997</ele>
        <time>2023-05-15T01:17:37Z</time>
      </trkpt>
      <trkpt lat="39.92361487270091" lon="116.46005025252981">
        <ele>19.5</ele>
        <time>2023-05-15T01:17:43Z</time>
      </trkpt>
      <trkpt lat="39.9237513490036" lon="116.46024085646945">
        <ele>19.200000000000003</ele>
        <time>2023-05-15T01:17:52Z</time>
      </trkpt>
      <trkpt lat="39.923937752981765" lon="116.46040336350889">
        <ele>20.9</ele>
        <time>2023-05-15T01:18:01Z</time>
      </trkpt>
      <trkpt lat="39.924072866980005" lon="116.46045050056156">
        <ele>21.200000000000003</ele>
        <time>2023-05-15T01:18:07Z</time>
      </trkpt>
      <trkpt lat="39.92413779307542" lon="116.46042240058078">
        <ele>22.0</ele>
        <time>2023-05-15T01:18:10Z</time>
      </trkpt>
      <trkpt lat="39.9241776566571" lon="116.46036922186305">
        <ele>24.1</ele>
        <time>2023-05-15T01:18:13Z</time>
      </trkpt>
      <trkpt lat="39.92430941999753" lon="116.46027790724047">
        <ele>24.1</ele>
        <time>2023-05-15T01:18:19Z</time>
      </trkpt>
      <trkpt lat="39.924379356171684" lon="116.46025381987367">
        <ele>24.5</ele>
        <time>2023-05-15T01:18:22Z</time>
      </trkpt>
      <trkpt lat="39.924591466828765" lon="116.46030094699688">
        <ele>25.299999999999997</ele>
        <time>2023-05-15T01:18:31Z</time>
      </trkpt>
      <trkpt lat="39.924827688420486" lon="116.46039221531842">
        <ele>23.9</ele>
        <time>2023-05-15T01:18:43Z</time>
      </trkpt>
      <trkpt lat="39.925046427821854" lon="116.46029286347171">
        <ele>22.0</ele>
        <time>2023-05-15T01:18:55Z</time>
      </trkpt>
      <trkpt lat="39.92508927876978" lon="116.46023466823513">
        <ele>22.4</ele>
        <time>2023-05-15T01:18:58Z</time>
      </trkpt>
      <trkpt lat="39.92517148963998" lon="116.45992364508452">
        <ele>20.5</ele>
        <time>2023-05-15T01:19:10Z</time>
      </trkpt>
      <trkpt lat="39.92547736071547" lon="116.45987745651529">
        <ele>18.700000000000003</ele>
        <time>2023-05-15T01:19:25Z</time>
      </trkpt>
      <trkpt lat="39.92560686015776" lon="116.45968080176095">
        <ele>19.1</ele>
        <time>2023-05-15T01:19:34Z</time>
      </trkpt>
      <trkpt lat="39.925717595771324" lon="116.45957745280623">
        <ele>19.6</ele>
        <time>2023-05-15T01:19:40Z</time>
      </trkpt>
      <trkpt lat="39.92585900321227" lon="116.45934367846567">
        <ele>23.200000000000003</ele>
        <time>2023-05-15T01:19:49Z</time>
      </trkpt>
      <trkpt lat="39.92590489823258" lon="116.45930253974531">
        <ele>22.700000000000003</ele>
        <time>2023-05-15T01:19:52Z</time>
      </trkpt>
      <trkpt lat="39.92602111790906" lon="116.45899252502188">
        <ele>30.300000000000004</ele>
        <time>2023-05-15T01:20:04Z</time>
      </trkpt>
      <trkpt lat="39.92604179905199" lon="116.45886511230812">
        <ele>31.9</ele>
        <time>2023-05-15T01:20:10Z</time>
      </trkpt>
      <trkpt lat="39.92606966032638" lon="116.45880993135823">
        <ele>33.4</ele>
        <time>2023-05-15T01:20:13Z</time>
      </trkpt>
      <trkpt lat="39.926066410515816" lon="116.4587096094166">
        <ele>34.300000000000004</ele>
        <time>2023-05-15T01:20:16Z</time>
      </trkpt>
      <trkpt lat="39.92601995323493" lon="116.45852502303137">
        <ele>35.1</ele>
        <time>2023-05-15T01:20:22Z</time>
      </trkpt>
      <trkpt lat="39.925996110649606" lon="116.45818493790577">
        <ele>38.0</ele>
        <time>2023-05-15T01:20:34Z</time>
      </trkpt>
      <trkpt lat="39.925987325064995" lon="116.45786692505489">
        <ele>37.4</ele>
        <time>2023-05-15T01:20:46Z</time>
      </trkpt>
      <trkpt lat="39.9260292592534" lon="116.45743454672859">
        <ele>42.4</ele>
        <time>2023-05-15T01:21:01Z</time>
      </trkpt>
      <trkpt lat="39.92602892949681" lon="116.45730012120244">
        <ele>45.4</ele>
        <time>2023-05-15T01:21:07Z</time>
      </trkpt>
      <trkpt lat="39.925990574796906" lon="116.45715466624638">
        <ele>48.9</ele>
        <time>2023-05-15T01:21:13Z</time>
      </trkpt>
      <trkpt lat="39.9258861229368" lon="116.4569680907001">
        <ele>53.6</ele>
        <time>2023-05-15T01:21:22Z</time>
      </trkpt>
      <trkpt lat="39.92582594664824" lon="116.45689486756727">
        <ele>53.800000000000004</ele>
        <time>2023-05-15T01:21:25Z</time>
      </trkpt>
      <trkpt lat="39.925731454236846" lon="116.45669123887446">
        <ele>54.5</ele>
        <time>2023-05-15T01:21:31Z</time>
      </trkpt>
      <trkpt lat="39.925681343995436" lon="116.45664510023651">
        <ele>54.0</ele>
        <time>2023-05-15T01:21:34Z</time>
      </trkpt>
      <trkpt lat="39.92555642722566" lon="116.45667721683367">
        <ele>52.300000000000004</ele>
        <time>2023-05-15T01:21:40Z</time>
      </trkpt>
      <trkpt lat="39.92543736619756" lon="116.45665014677606">
        <ele>52.6</ele>
        <time>2023-05-15T01:21:49Z</time>
      </trkpt>
      <trkpt lat="39.92533637766038" lon="116.45665316897146">
        <ele>53.300000000000004</ele>
        <time>2023-05-15T01:21:55Z</time>
      </trkpt>
      <trkpt lat="39.9250920097117" lon="116.45649771186454">
        <ele>52.5</ele>
        <time>2023-05-15T01:22:07Z</time>
      </trkpt>
      <trkpt lat="39.92479359604718" lon="116.45632219965013">
        <ele>44.9</ele>
        <time>2023-05-15T01:22:19Z</time>
      </trkpt>
      <trkpt lat="39.92464935170341" lon="116.45621889472744">
        <ele>38.5</ele>
        <time>2023-05-15T01:22:25Z</time>
      </trkpt>
      <trkpt lat="39.9245434726449" lon="116.45626705862469">
        <ele>32.4</ele>
        <time>2023-05-15T01:22:31Z</time>
      </trkpt>
      <trkpt lat="39.92448347996957" lon="116.45626907246968">
        <ele>30.4</ele>
        <time>2023-05-15T01:22:34Z</time>
      </trkpt>
      <trkpt lat="39.92436739000303" lon="116.45622996480108">
        <ele>26.200000000000003</ele>
        <time>2023-05-15T01:22:40Z</time>
      </trkpt>
      <trkpt lat="39.9243184041603" lon="116.45623498666183">
        <ele>25.1</ele>
        <time>2023-05-15T01:22:43Z</time>
      </trkpt>
      <trkpt lat="39.92410902329862" lon="116.4564868013098">
        <ele>22.299999999999997</ele>
        <time>2023-05-15T01:22:55Z</time>
      </trkpt>
      <trkpt lat="39.92405415957877" lon="116.4565419812516">
        <ele>22.6</ele>
        <time>2023-05-15T01:22:58Z</time>
      </trkpt>
      <trkpt lat="39.92381429624293" lon="116.4565941751979">
        <ele>18.6</ele>
        <time>2023-05-15T01:23:10Z</time>
      </trkpt>
      <trkpt lat="39.92374427961403" lon="116.45658615884471">
        <ele>18.0</ele>
        <time>2023-05-15T01:23:13Z</time>
      </trkpt>
      <trkpt lat="39.923582430220904" lon="116.4566453650794">
        <ele>16.5</ele>
        <time>2023-05-15T01:23:22Z</time>
      </trkpt>
      <trkpt lat="39.92336927067592" lon="116.45657617468113">
        <ele>18.6</ele>
        <time>2023-05-15T01:23:31Z</time>
      </trkpt>
      <trkpt lat="39.923310280423266" lon="116.45657919156834">
        <ele>20.6</ele>
        <time>2023-05-15T01:23:34Z</time>
      </trkpt>
      <trkpt lat="39.923202509342374" lon="116.45667149493798">
        <ele>23.700000000000003</ele>
        <time>2023-05-15T01:23:40Z</time>
      </trkpt>
      <trkpt lat="39.92308857508192" lon="116.4566965881073">
        <ele>26.700000000000003</ele>
        <time>2023-05-15T01:23:46Z</time>
      </trkpt>
      <trkpt lat="39.92297055553228" lon="116.45668657147756">
        <ele>30.4</ele>
        <time>2023-05-15T01:23:52Z</time>
      </trkpt>
      <trkpt lat="39.922851829191906" lon="116.45679693337412">
        <ele>31.700000000000003</ele>
        <time>2023-05-15T01:23:58Z</time>
      </trkpt>
      <trkpt lat="39.9227920273392" lon="116.45687719349094">
        <ele>32.9</ele>
        <time>2023-05-15T01:24:01Z</time>
      </trkpt>
      <trkpt lat="39.9227492715092" lon="116.45697651175556">
        <ele>33.5</ele>
        <time>2023-05-15T01:24:04Z</time>
      </trkpt>
      <trkpt lat="39.92271267273793" lon="116.45714003225469">
        <ele>35.2</ele>
        <time>2023-05-15T01:24:10Z</time>
      </trkpt>
      <trkpt lat="39.922656984537355" lon="116.4572664386985">
        <ele>35.1</ele>
        <time>2023-05-15T01:24:16Z</time>
      </trkpt>
      <trkpt lat="39.922598913182" lon="116.45764364123508">
        <ele>33.1</ele>
        <time>2023-05-15T01:24:28Z</time>
      </trkpt>
      <trkpt lat="39.922724526041954" lon="116.45789442279793">
        <ele>28.9</ele>
        <time>2023-05-15T01:24:37Z</time>
      </trkpt>
      <trkpt lat="39.92282078216708" lon="116.45799974621258">
        <ele>25.700000000000003</ele>
        <time>2023-05-15T01:24:43Z</time>
      </trkpt>
      <trkpt lat="39.92292890166888" lon="116.45804989249866">
        <ele>24.0</ele>
        <time>2023-05-15T01:24:49Z</time>
      </trkpt>
      <trkpt lat="39.92297702867929" lon="116.45810205283853">
        <ele>23.4</ele>
        <time>2023-05-15T01:24:52Z</time>
      </trkpt>
      <trkpt lat="39.92302907120207" lon="116.45812010390041">
        <ele>23.0</ele>
        <time>2023-05-15T01:24:55Z</time>
      </trkpt>
      <trkpt lat="39.92305419926254" lon="116.45817226726565">
        <ele>22.200000000000003</ele>
        <time>2023-05-15T01:24:58Z</time>
      </trkpt>
      <trkpt lat="39.923099252823256" lon="116.45859762292103">
        <ele>20.4</ele>
        <time>2023-05-15T01:25:16Z</time>
      </trkpt>
      <trkpt lat="39.92312085652589" lon="116.45884039991972">
        <ele>19.299999999999997</ele>
        <time>2023-05-15T01:25:25Z</time>
      </trkpt>
      <trkpt lat="39.92315924051424" lon="116.45899489229483">
        <ele>19.0</ele>
        <time>2023-05-15T01:25:31Z</time>
      </trkpt>
      <trkpt lat="39.92319740187464" lon="116.45906009758599">
        <ele>18.700000000000003</ele>
        <time>2023-05-15T01:25:34Z</time>
      </trkpt>
      <trkpt lat="39.92320958700564" lon="116.45913433541513">
        <ele>18.4</ele>
        <time>2023-05-15T01:25:37Z</time>
      </trkpt>
      <trkpt lat="39.92319136197966" lon="116.4594433359501">
        <ele>14.999999999999998</ele>
        <time>2023-05-15T01:25:49Z</time>
      </trkpt>
      <trkpt lat="39.923256812926645" lon="116.45962391254314">
        <ele>17.299999999999997</ele>
        <time>2023-05-15T01:25:55Z</time>
      </trkpt>
      <trkpt lat="39.92337126019123" lon="116.45980348077259">
        <ele>14.799999999999999</ele>
        <time>2023-05-15T01:26:01Z</time>
      </trkpt>
      <trkpt lat="39.923589906672845" lon="116.46006329813746">
        <ele>12.999999999999998</ele>
        <time>2023-05-15T01:26:16Z</time>
      </trkpt>
      <trkpt lat="39.92376434592946" lon="116.46023985155945">
        <ele>16.9</ele>
        <time>2023-05-15T01:26:25Z</time>
      </trkpt>
      <trkpt lat="39.924067709488746" lon="116.46038829797473">
        <ele>20.9</ele>
        <time>2023-05-15T01:26:37Z</time>
      </trkpt>
      <trkpt lat="39.92411672527224" lon="116.46039531473824">
        <ele>21.4</ele>
        <time>2023-05-15T01:26:40Z</time>
      </trkpt>
      <trkpt lat="39.92424252436597" lon="116.46031804663454">
        <ele>20.799999999999997</ele>
        <time>2023-05-15T01:26:46Z</time>
      </trkpt>
      <trkpt lat="39.924327457357464" lon="116.46029295407311">
        <ele>20.200000000000003</ele>
        <time>2023-05-15T01:26:49Z</time>
      </trkpt>
      <trkpt lat="39.924606580557416" lon="116.46034609246507">
        <ele>21.799999999999997</ele>
        <time>2023-05-15T01:27:01Z</time>
      </trkpt>
      <trkpt lat="39.9248866859979" lon="116.46039220788403">
        <ele>25.4</ele>
        <time>2023-05-15T01:27:13Z</time>
      </trkpt>
      <trkpt lat="39.92495765002896" lon="116.46037915634108">
        <ele>25.5</ele>
        <time>2023-05-15T01:27:16Z</time>
      </trkpt>
      <trkpt lat="39.92512227741564" lon="116.46023466407662">
        <ele>27.4</ele>
        <time>2023-05-15T01:27:25Z</time>
      </trkpt>
      <trkpt lat="39.92521754343025" lon="116.45994571105226">
        <ele>27.200000000000003</ele>
        <time>2023-05-15T01:27:37Z</time>
      </trkpt>
      <trkpt lat="39.925309392898335" lon="116.45988751029245">
        <ele>26.700000000000003</ele>
        <time>2023-05-15T01:27:43Z</time>
      </trkpt>
      <trkpt lat="39.925471398903646" lon="116.45989250617815">
        <ele>25.799999999999997</ele>
        <time>2023-05-15T01:27:52Z</time>
      </trkpt>
      <trkpt lat="39.92552432843931" lon="116.45986541147164">
        <ele>25.0</ele>
        <time>2023-05-15T01:27:55Z</time>
      </trkpt>
      <trkpt lat="39.925717653768864" lon="116.45960052757364">
        <ele>24.0</ele>
        <time>2023-05-15T01:28:04Z</time>
      </trkpt>
      <trkpt lat="39.92589106227146" lon="116.45936775226536">
        <ele>27.1</ele>
        <time>2023-05-15T01:28:13Z</time>
      </trkpt>
      <trkpt lat="39.92596759919051" lon="116.45918414956041">
        <ele>30.0</ele>
        <time>2023-05-15T01:28:19Z</time>
      </trkpt>
      <trkpt lat="39.926015135694826" lon="116.45899954839614">
        <ele>33.4</ele>
        <time>2023-05-15T01:28:25Z</time>
      </trkpt>
      <trkpt lat="39.926056815953956" lon="116.45887213300483">
        <ele>36.7</ele>
        <time>2023-05-15T01:28:31Z</time>
      </trkpt>
      <trkpt lat="39.92604733886391" lon="116.4586805184027">
        <ele>39.800000000000004</ele>
        <time>2023-05-15T01:28:37Z</time>
      </trkpt>
      <trkpt lat="39.925992314562144" lon="116.4582672012313">
        <ele>42.4</ele>
        <time>2023-05-15T01:28:49Z</time>
      </trkpt>
      <trkpt lat="39.92598755038847" lon="116.45795821574642">
        <ele>40.800000000000004</ele>
        <time>2023-05-15T01:29:01Z</time>
      </trkpt>
      <trkpt lat="39.9260211455585" lon="116.45779469097101">
        <ele>41.1</ele>
        <time>2023-05-15T01:29:07Z</time>
      </trkpt>
      <trkpt lat="39.92601256554709" lon="116.45755894320095">
        <ele>43.0</ele>
        <time>2023-05-15T01:29:13Z</time>
      </trkpt>
      <trkpt lat="39.926030816331625" lon="116.45725397501862">
        <ele>46.800000000000004</ele>
        <time>2023-05-15T01:29:22Z</time>
      </trkpt>
      <trkpt lat="39.92593621889656" lon="116.45700821088408">
        <ele>47.4</ele>
        <time>2023-05-15T01:29:31Z</time>
      </trkpt>
      <trkpt lat="39.925790583715745" lon="116.45674540168095">
        <ele>46.0</ele>
        <time>2023-05-15T01:29:37Z</time>
      </trkpt>
      <trkpt lat="39.92571641578714" lon="116.45667519034228">
        <ele>44.2</ele>
        <time>2023-05-15T01:29:40Z</time>
      </trkpt>
      <trkpt lat="39.92559142823269" lon="116.45667821556876">
        <ele>40.2</ele>
        <time>2023-05-15T01:29:46Z</time>
      </trkpt>
      <trkpt lat="39.92553133550001" lon="116.45663910026315">
        <ele>40.800000000000004</ele>
        <time>2023-05-15T01:29:49Z</time>
      </trkpt>
      <trkpt lat="39.925432288319044" lon="116.4566180466133">
        <ele>38.9</ele>
        <time>2023-05-15T01:29:55Z</time>
      </trkpt>
      <trkpt lat="39.9253263829518" lon="116.45665517653428">
        <ele>36.7</ele>
        <time>2023-05-15T01:30:01Z</time>
      </trkpt>
      <trkpt lat="39.925054016143385" lon="116.45649972294953">
        <ele>34.300000000000004</ele>
        <time>2023-05-15T01:30:13Z</time>
      </trkpt>
      <trkpt lat="39.924820553612804" lon="116.45630514289046">
        <ele>33.4</ele>
        <time>2023-05-15T01:30:22Z</time>
      </trkpt>
      <trkpt lat="39.92467927763822" lon="116.456188796908">
        <ele>29.9</ele>
        <time>2023-05-15T01:30:28Z</time>
      </trkpt>
      <trkpt lat="39.92462431145514" lon="116.45620184459267">
        <ele>27.5</ele>
        <time>2023-05-15T01:30:31Z</time>
      </trkpt>
      <trkpt lat="39.92456843031896" lon="116.45625000215104">
        <ele>24.799999999999997</ele>
        <time>2023-05-15T01:30:34Z</time>
      </trkpt>
      <trkpt lat="39.924445496109584" lon="116.45627509608624">
        <ele>20.1</ele>
        <time>2023-05-15T01:30:40Z</time>
      </trkpt>
      <trkpt lat="39.92438447917914" lon="116.45626707868917">
        <ele>18.200000000000003</ele>
        <time>2023-05-15T01:30:43Z</time>
      </trkpt>
      <trkpt lat="39.92425361580444" lon="116.45632126465381">
        <ele>20.299999999999997</ele>
        <time>2023-05-15T01:30:49Z</time>
      </trkpt>
      <trkpt lat="39.92413688821622" lon="116.45643162488243">
        <ele>20.9</ele>
        <time>2023-05-15T01:30:55Z</time>
      </trkpt>
      <trkpt lat="39.92385932122091" lon="116.45660520415365">
        <ele>17.299999999999997</ele>
        <time>2023-05-15T01:31:10Z</time>
      </trkpt>
      <trkpt lat="39.923790360653726" lon="116.45662026009406">
        <ele>15.9</ele>
        <time>2023-05-15T01:31:13Z</time>
      </trkpt>
      <trkpt lat="39.92371333454959" lon="116.45660823202113">
        <ele>15.999999999999998</ele>
        <time>2023-05-15T01:31:16Z</time>
      </trkpt>
      <trkpt lat="39.923633384197245" lon="116.45662730194847">
        <ele>17.1</ele>
        <time>2023-05-15T01:31:19Z</time>
      </trkpt>
      <trkpt lat="39.923366268361136" lon="116.456575171912">
        <ele>20.799999999999997</ele>
        <time>2023-05-15T01:31:31Z</time>
      </trkpt>
      <trkpt lat="39.92315849406925" lon="116.45666447843308">
        <ele>28.9</ele>
        <time>2023-05-15T01:31:40Z</time>
      </trkpt>
      <trkpt lat="39.92307164172447" lon="116.45672367536625">
        <ele>32.0</ele>
        <time>2023-05-15T01:31:43Z</time>
      </trkpt>
      <trkpt lat="39.92299370846093" lon="116.45674976719307">
        <ele>33.5</ele>
        <time>2023-05-15T01:31:46Z</time>
      </trkpt>
    </trkseg>
  </trk>
</gpx>