<?xml version="1.0" encoding="UTF-8"?>
<gpx xmlns="http://www.topografix.com/GPX/1/1" xmlns:gpxtpx="http://www.garmin.com/xmlschemas/TrackPointExtension/v1" xmlns:xsi="http://www.w3.org/2001/XMLSchema-instance" xsi:schemaLocation="http://www.topografix.com/GPX/1/1 http://www.topografix.com/GPX/1/1/gpx.xsd" version="1.1" creator="gpx.py -- https://github.com/tkrajina/gpxpy">
  <trk>
    <name>gpx from keep</name>
    <type>Run</type>
    <trkseg>
      <trkpt lat="39.923349194447894" lon="116.49878234105475">
        <ele>23.3</ele>
        <time>2023-08-03T23:45:03Z</time>
      </trkpt>
      <trkpt lat="39.923403039935636" lon="116.49873114116366">
        <ele>22.5</ele>
        <time>2023-08-03T23:45:09Z</time>
      </trkpt>
      <trkpt lat="39.923497510411345" lon="116.498554462536">
        <ele>22.3</ele>
        <time>2023-08-03T23:45:12Z</time>
      </trkpt>
      <trkpt lat="39.9235741846463" lon="116.49844604368309">
        <ele>22.1</ele>
        <time>2023-08-03T23:45:15Z</time>
      </trkpt>
      <trkpt lat="39.923601959446486" lon="116.49837075592725">
        <ele>22.1</ele>
        <time>2023-08-03T23:45:18Z</time>
      </trkpt>
      <trkpt lat="39.92355281998397" lon="116.49798731338426">
        <ele>22.3</ele>
        <time>2023-08-03T23:45:30Z</time>
      </trkpt>
      <trkpt lat="39.9235005904621" lon="116.49757375648203">
        <ele>20.5</ele>
        <time>2023-08-03T23:45:36Z</time>
      </trkpt>
      <trkpt lat="39.92345565326911" lon="116.49725856991357">
        <ele>19.6</ele>
        <time>2023-08-03T23:45:42Z</time>
      </trkpt>
      <trkpt lat="39.923504729879404" lon="116.49694939395984">
        <ele>20.6</ele>
        <time>2023-08-03T23:45:51Z</time>
      </trkpt>
      <trkpt lat="39.923460657478195" lon="116.49658903527505">
        <ele>21.6</ele>
        <time>2023-08-03T23:46:00Z</time>
      </trkpt>
      <trkpt lat="39.923455409296515" lon="116.496505720453">
        <ele>21.6</ele>
        <time>2023-08-03T23:46:03Z</time>
      </trkpt>
      <trkpt lat="39.92356388403522" lon="116.4963310455349">
        <ele>20.8</ele>
        <time>2023-08-03T23:46:06Z</time>
      </trkpt>
      <trkpt lat="39.923752642774" lon="116.49625272554569">
        <ele>25.8</ele>
        <time>2023-08-03T23:46:15Z</time>
      </trkpt>
      <trkpt lat="39.923988680935615" lon="116.49626875707553">
        <ele>36.099999999999994</ele>
        <time>2023-08-03T23:46:24Z</time>
      </trkpt>
      <trkpt lat="39.92406456106806" lon="116.49622959936958">
        <ele>39.3</ele>
        <time>2023-08-03T23:46:27Z</time>
      </trkpt>
      <trkpt lat="39.924298503536484" lon="116.4962135094877">
        <ele>40.0</ele>
        <time>2023-08-03T23:46:36Z</time>
      </trkpt>
      <trkpt lat="39.92460534123248" lon="116.49616328126866">
        <ele>41.300000000000004</ele>
        <time>2023-08-03T23:46:45Z</time>
      </trkpt>
      <trkpt lat="39.92474251519553" lon="116.49622349238425">
        <ele>40.099999999999994</ele>
        <time>2023-08-03T23:46:51Z</time>
      </trkpt>
      <trkpt lat="39.924975460715096" lon="116.49620840642662">
        <ele>38.599999999999994</ele>
        <time>2023-08-03T23:47:00Z</time>
      </trkpt>
      <trkpt lat="39.92507238189509" lon="116.49618329933143">
        <ele>35.6</ele>
        <time>2023-08-03T23:47:03Z</time>
      </trkpt>
      <trkpt lat="39.92515524378214" lon="116.49613811792595">
        <ele>37.300000000000004</ele>
        <time>2023-08-03T23:47:06Z</time>
      </trkpt>
      <trkpt lat="39.9254550907671" lon="116.49609090196363">
        <ele>38.400000000000006</ele>
        <time>2023-08-03T23:47:18Z</time>
      </trkpt>
      <trkpt lat="39.925625134677894" lon="116.49610794549835">
        <ele>27.7</ele>
        <time>2023-08-03T23:47:30Z</time>
      </trkpt>
      <trkpt lat="39.9259400259629" lon="116.4960757847051">
        <ele>27.3</ele>
        <time>2023-08-03T23:47:42Z</time>
      </trkpt>
      <trkpt lat="39.92607196067966" lon="116.49605569226189">
        <ele>25.3</ele>
        <time>2023-08-03T23:47:48Z</time>
      </trkpt>
      <trkpt lat="39.92612087784417" lon="116.49602858350332">
        <ele>25.0</ele>
        <time>2023-08-03T23:47:51Z</time>
      </trkpt>
      <trkpt lat="39.92624913303563" lon="116.49611589843936">
        <ele>25.0</ele>
        <time>2023-08-03T23:47:57Z</time>
      </trkpt>
      <trkpt lat="39.92656515002606" lon="116.49612589722726">
        <ele>30.2</ele>
        <time>2023-08-03T23:48:06Z</time>
      </trkpt>
      <trkpt lat="39.92662216265945" lon="116.49613090916192">
        <ele>34.0</ele>
        <time>2023-08-03T23:48:09Z</time>
      </trkpt>
      <trkpt lat="39.926699300196574" lon="116.49617807831106">
        <ele>34.0</ele>
        <time>2023-08-03T23:48:12Z</time>
      </trkpt>
      <trkpt lat="39.926992162485206" lon="116.49613588223184">
        <ele>36.400000000000006</ele>
        <time>2023-08-03T23:48:21Z</time>
      </trkpt>
      <trkpt lat="39.92711207675435" lon="116.49610876466423">
        <ele>38.6</ele>
        <time>2023-08-03T23:48:27Z</time>
      </trkpt>
      <trkpt lat="39.92719210940475" lon="116.49612080036081">
        <ele>38.400000000000006</ele>
        <time>2023-08-03T23:48:30Z</time>
      </trkpt>
      <trkpt lat="39.927500851307336" lon="116.49603845017191">
        <ele>37.900000000000006</ele>
        <time>2023-08-03T23:48:45Z</time>
      </trkpt>
      <trkpt lat="39.927665718835314" lon="116.49599626995949">
        <ele>36.1</ele>
        <time>2023-08-03T23:48:51Z</time>
      </trkpt>
      <trkpt lat="39.927999771060456" lon="116.4960183121487">
        <ele>28.599999999999998</ele>
        <time>2023-08-03T23:49:00Z</time>
      </trkpt>
      <trkpt lat="39.92827589151893" lon="116.49606244520108">
        <ele>26.3</ele>
        <time>2023-08-03T23:49:12Z</time>
      </trkpt>
      <trkpt lat="39.92856401747901" lon="116.49610858436186">
        <ele>26.0</ele>
        <time>2023-08-03T23:49:21Z</time>
      </trkpt>
      <trkpt lat="39.92868092590002" lon="116.49607945955493">
        <ele>26.0</ele>
        <time>2023-08-03T23:49:27Z</time>
      </trkpt>
      <trkpt lat="39.92900395764698" lon="116.49609447648506">
        <ele>26.900000000000002</ele>
        <time>2023-08-03T23:49:42Z</time>
      </trkpt>
      <trkpt lat="39.92907493978898" lon="116.49608944865452">
        <ele>26.400000000000002</ele>
        <time>2023-08-03T23:49:45Z</time>
      </trkpt>
      <trkpt lat="39.92926501886679" lon="116.49611853533737">
        <ele>25.7</ele>
        <time>2023-08-03T23:49:54Z</time>
      </trkpt>
      <trkpt lat="39.9293878791555" lon="116.49607334894058">
        <ele>26.599999999999998</ele>
        <time>2023-08-03T23:50:00Z</time>
      </trkpt>
      <trkpt lat="39.92965284742366" lon="116.49606628941137">
        <ele>28.2</ele>
        <time>2023-08-03T23:50:09Z</time>
      </trkpt>
      <trkpt lat="39.929934991623675" lon="116.49611845213394">
        <ele>25.5</ele>
        <time>2023-08-03T23:50:21Z</time>
      </trkpt>
      <trkpt lat="39.9300319876828" lon="116.49611844008786">
        <ele>26.900000000000002</ele>
        <time>2023-08-03T23:50:24Z</time>
      </trkpt>
      <trkpt lat="39.93016588644884" lon="116.4960863017593">
        <ele>27.3</ele>
        <time>2023-08-03T23:50:30Z</time>
      </trkpt>
      <trkpt lat="39.93051083352727" lon="116.4960732094768">
        <ele>29.999999999999996</ele>
        <time>2023-08-03T23:50:42Z</time>
      </trkpt>
      <trkpt lat="39.93066283634037" lon="116.49607620200823">
        <ele>31.900000000000002</ele>
        <time>2023-08-03T23:50:48Z</time>
      </trkpt>
      <trkpt lat="39.93076277840025" lon="116.49605812113668">
        <ele>32.300000000000004</ele>
        <time>2023-08-03T23:50:54Z</time>
      </trkpt>
      <trkpt lat="39.93093694496704" lon="116.49611632009132">
        <ele>31.400000000000002</ele>
        <time>2023-08-03T23:51:03Z</time>
      </trkpt>
      <trkpt lat="39.93126282698171" lon="116.49608114650628">
        <ele>34.7</ele>
        <time>2023-08-03T23:51:15Z</time>
      </trkpt>
      <trkpt lat="39.93159785232806" lon="116.49609415433785">
        <ele>40.900000000000006</ele>
        <time>2023-08-03T23:51:24Z</time>
      </trkpt>
      <trkpt lat="39.931685872713" lon="116.49610217383122">
        <ele>41.7</ele>
        <time>2023-08-03T23:51:27Z</time>
      </trkpt>
      <trkpt lat="39.93172498189149" lon="116.49613930968913">
        <ele>40.0</ele>
        <time>2023-08-03T23:51:30Z</time>
      </trkpt>
      <trkpt lat="39.93178895535356" lon="116.49613127131913">
        <ele>38.300000000000004</ele>
        <time>2023-08-03T23:51:33Z</time>
      </trkpt>
      <trkpt lat="39.93190904927901" lon="116.496164381903">
        <ele>32.5</ele>
        <time>2023-08-03T23:51:39Z</time>
      </trkpt>
      <trkpt lat="39.93206263892813" lon="116.49602884939115">
        <ele>28.8</ele>
        <time>2023-08-03T23:51:45Z</time>
      </trkpt>
      <trkpt lat="39.93236266271873" lon="116.49604085776755">
        <ele>27.8</ele>
        <time>2023-08-03T23:51:54Z</time>
      </trkpt>
      <trkpt lat="39.93249769318425" lon="116.49605288663696">
        <ele>27.999999999999996</ele>
        <time>2023-08-03T23:52:00Z</time>
      </trkpt>
      <trkpt lat="39.932547589381464" lon="116.49601875112062">
        <ele>27.900000000000002</ele>
        <time>2023-08-03T23:52:03Z</time>
      </trkpt>
      <trkpt lat="39.93284574198746" lon="116.49607392327745">
        <ele>28.3</ele>
        <time>2023-08-03T23:52:12Z</time>
      </trkpt>
      <trkpt lat="39.93290479648104" lon="116.49609298820555">
        <ele>27.499999999999996</ele>
        <time>2023-08-03T23:52:15Z</time>
      </trkpt>
      <trkpt lat="39.93323453768562" lon="116.49601063536412">
        <ele>31.599999999999998</ele>
        <time>2023-08-03T23:52:27Z</time>
      </trkpt>
      <trkpt lat="39.93328449675031" lon="116.49599757971092">
        <ele>32.300000000000004</ele>
        <time>2023-08-03T23:52:30Z</time>
      </trkpt>
      <trkpt lat="39.933364607279344" lon="116.49603571429716">
        <ele>32.7</ele>
        <time>2023-08-03T23:52:36Z</time>
      </trkpt>
      <trkpt lat="39.93344479863079" lon="116.49610095155826">
        <ele>33.300000000000004</ele>
        <time>2023-08-03T23:52:39Z</time>
      </trkpt>
      <trkpt lat="39.933532854949696" lon="116.49612101668572">
        <ele>34.5</ele>
        <time>2023-08-03T23:52:42Z</time>
      </trkpt>
      <trkpt lat="39.933815747745626" lon="116.49608885984189">
        <ele>35.800000000000004</ele>
        <time>2023-08-03T23:52:51Z</time>
      </trkpt>
      <trkpt lat="39.93416873351769" lon="116.49608881599585">
        <ele>34.300000000000004</ele>
        <time>2023-08-03T23:53:03Z</time>
      </trkpt>
      <trkpt lat="39.93446290128107" lon="116.49614900765164">
        <ele>35.7</ele>
        <time>2023-08-03T23:53:15Z</time>
      </trkpt>
      <trkpt lat="39.93446290128107" lon="116.49614900765164">
        <ele>35.7</ele>
        <time>2023-08-03T23:53:17Z</time>
      </trkpt>
      <trkpt lat="39.93467978478073" lon="116.49611284379506">
        <ele>28.499999999999996</ele>
        <time>2023-08-03T23:54:39Z</time>
      </trkpt>
      <trkpt lat="39.9346825840949" lon="116.49604558861688">
        <ele>27.8</ele>
        <time>2023-08-03T23:54:42Z</time>
      </trkpt>
      <trkpt lat="39.93463190652587" lon="116.49581773140382">
        <ele>26.599999999999998</ele>
        <time>2023-08-03T23:54:48Z</time>
      </trkpt>
      <trkpt lat="39.93461529937163" lon="116.49561396109516">
        <ele>24.4</ele>
        <time>2023-08-03T23:54:54Z</time>
      </trkpt>
      <trkpt lat="39.93447439171168" lon="116.4953078178813">
        <ele>22.5</ele>
        <time>2023-08-03T23:55:03Z</time>
      </trkpt>
      <trkpt lat="39.93442034867111" lon="116.49495749607662">
        <ele>12.8</ele>
        <time>2023-08-03T23:55:12Z</time>
      </trkpt>
      <trkpt lat="39.93439751394396" lon="116.49467743661938">
        <ele>9.899999999999999</ele>
        <time>2023-08-03T23:55:18Z</time>
      </trkpt>
      <trkpt lat="39.93427781486994" lon="116.49444155658678">
        <ele>8.600000000000001</ele>
        <time>2023-08-03T23:55:24Z</time>
      </trkpt>
      <trkpt lat="39.934212598835614" lon="116.49436828667528">
        <ele>6.6000000000000005</ele>
        <time>2023-08-03T23:55:27Z</time>
      </trkpt>
      <trkpt lat="39.934155720476326" lon="116.49407317394872">
        <ele>-0.5</ele>
        <time>2023-08-03T23:55:36Z</time>
      </trkpt>
      <trkpt lat="39.93405486784663" lon="116.4937860970154">
        <ele>-5.3999999999999995</ele>
        <time>2023-08-03T23:55:45Z</time>
      </trkpt>
      <trkpt lat="39.93398074457554" lon="116.49340867374329">
        <ele>0.20000000000000018</ele>
        <time>2023-08-03T23:55:54Z</time>
      </trkpt>
      <trkpt lat="39.9339643947883" lon="116.49329122999586">
        <ele>2.2</ele>
        <time>2023-08-03T23:55:57Z</time>
      </trkpt>
      <trkpt lat="39.93390488201598" lon="116.49311858203956">
        <ele>4.2</ele>
        <time>2023-08-03T23:56:03Z</time>
      </trkpt>
      <trkpt lat="39.93384972849389" lon="116.49306639076347">
        <ele>3.500000000000001</ele>
        <time>2023-08-03T23:56:06Z</time>
      </trkpt>
      <trkpt lat="39.933750756132284" lon="116.49273916088023">
        <ele>-3.6999999999999997</ele>
        <time>2023-08-03T23:56:18Z</time>
      </trkpt>
      <trkpt lat="39.933695294189185" lon="116.49258357715198">
        <ele>-3.3</ele>
        <time>2023-08-03T23:56:24Z</time>
      </trkpt>
      <trkpt lat="39.93367778277976" lon="116.49207665502287">
        <ele>-0.39999999999999947</ele>
        <time>2023-08-03T23:56:36Z</time>
      </trkpt>
      <trkpt lat="39.93366737005386" lon="116.49193813047944">
        <ele>2.6000000000000005</ele>
        <time>2023-08-03T23:56:39Z</time>
      </trkpt>
      <trkpt lat="39.93349516170865" lon="116.49153060494822">
        <ele>13.899999999999999</ele>
        <time>2023-08-03T23:56:51Z</time>
      </trkpt>
      <trkpt lat="39.9334455891035" lon="116.49133787960253">
        <ele>19.4</ele>
        <time>2023-08-03T23:56:57Z</time>
      </trkpt>
      <trkpt lat="39.93329246127944" lon="116.49095745481944">
        <ele>20.4</ele>
        <time>2023-08-03T23:57:12Z</time>
      </trkpt>
      <trkpt lat="39.93315751551784" lon="116.49063826033856">
        <ele>16.0</ele>
        <time>2023-08-03T23:57:24Z</time>
      </trkpt>
      <trkpt lat="39.93307234379852" lon="116.49024377425958">
        <ele>13.8</ele>
        <time>2023-08-03T23:57:36Z</time>
      </trkpt>
      <trkpt lat="39.93299022323921" lon="116.48986635288655">
        <ele>14.3</ele>
        <time>2023-08-03T23:57:48Z</time>
      </trkpt>
      <trkpt lat="39.93296056408445" lon="116.48964451531442">
        <ele>13.2</ele>
        <time>2023-08-03T23:57:54Z</time>
      </trkpt>
      <trkpt lat="39.93296770649889" lon="116.48935642214163">
        <ele>13.099999999999998</ele>
        <time>2023-08-03T23:58:00Z</time>
      </trkpt>
      <trkpt lat="39.93306415911617" lon="116.48917371759777">
        <ele>16.099999999999998</ele>
        <time>2023-08-03T23:58:06Z</time>
      </trkpt>
      <trkpt lat="39.933091853463154" lon="116.48907132607746">
        <ele>17.3</ele>
        <time>2023-08-03T23:58:09Z</time>
      </trkpt>
      <trkpt lat="39.933055658102965" lon="116.48866880531602">
        <ele>22.8</ele>
        <time>2023-08-03T23:58:21Z</time>
      </trkpt>
      <trkpt lat="39.932952662964524" lon="116.48833254442019">
        <ele>21.5</ele>
        <time>2023-08-03T23:58:33Z</time>
      </trkpt>
      <trkpt lat="39.93285764120634" lon="116.48798724883063">
        <ele>19.3</ele>
        <time>2023-08-03T23:58:45Z</time>
      </trkpt>
      <trkpt lat="39.93279939813726" lon="116.4875676681763">
        <ele>23.0</ele>
        <time>2023-08-03T23:59:00Z</time>
      </trkpt>
      <trkpt lat="39.932765351455615" lon="116.48721433593701">
        <ele>24.4</ele>
        <time>2023-08-03T23:59:12Z</time>
      </trkpt>
      <trkpt lat="39.93275185203502" lon="116.48704569999539">
        <ele>22.4</ele>
        <time>2023-08-03T23:59:18Z</time>
      </trkpt>
      <trkpt lat="39.932729722658976" lon="116.48666426111993">
        <ele>24.099999999999998</ele>
        <time>2023-08-03T23:59:30Z</time>
      </trkpt>
      <trkpt lat="39.932700603354256" lon="116.48628583538354">
        <ele>25.9</ele>
        <time>2023-08-03T23:59:42Z</time>
      </trkpt>
      <trkpt lat="39.932672562094766" lon="116.4859335089339">
        <ele>26.3</ele>
        <time>2023-08-03T23:59:54Z</time>
      </trkpt>
      <trkpt lat="39.932657805910665" lon="116.48567754511082">
        <ele>26.900000000000002</ele>
        <time>2023-08-04T00:00:03Z</time>
      </trkpt>
      <trkpt lat="39.9326900690308" lon="116.4854286023818">
        <ele>25.8</ele>
        <time>2023-08-04T00:00:12Z</time>
      </trkpt>
      <trkpt lat="39.93267759519939" lon="116.48526799856774">
        <ele>26.099999999999998</ele>
        <time>2023-08-04T00:00:18Z</time>
      </trkpt>
      <trkpt lat="39.932710167140044" lon="116.4851234498375">
        <ele>19.7</ele>
        <time>2023-08-04T00:00:24Z</time>
      </trkpt>
      <trkpt lat="39.932689930085104" lon="116.4847038722537">
        <ele>20.2</ele>
        <time>2023-08-04T00:00:39Z</time>
      </trkpt>
      <trkpt lat="39.93269506002144" lon="116.48440876110793">
        <ele>23.099999999999998</ele>
        <time>2023-08-04T00:00:48Z</time>
      </trkpt>
      <trkpt lat="39.93269506002144" lon="116.48440876110793">
        <ele>23.099999999999998</ele>
        <time>2023-08-04T00:00:51Z</time>
      </trkpt>
      <trkpt lat="39.93271189668861" lon="116.48435355134019">
        <ele>23.7</ele>
        <time>2023-08-04T00:00:51Z</time>
      </trkpt>
      <trkpt lat="39.93272731367167" lon="116.48415580581032">
        <ele>24.8</ele>
        <time>2023-08-04T00:01:00Z</time>
      </trkpt>
      <trkpt lat="39.932715572568114" lon="116.4839038603404">
        <ele>23.2</ele>
        <time>2023-08-04T00:01:09Z</time>
      </trkpt>
      <trkpt lat="39.932689358046765" lon="116.48383058831753">
        <ele>21.8</ele>
        <time>2023-08-04T00:01:12Z</time>
      </trkpt>
      <trkpt lat="39.93267980934921" lon="116.48364388829351">
        <ele>21.2</ele>
        <time>2023-08-04T00:01:18Z</time>
      </trkpt>
      <trkpt lat="39.932715465619594" lon="116.48352744668738">
        <ele>22.0</ele>
        <time>2023-08-04T00:01:21Z</time>
      </trkpt>
      <trkpt lat="39.93273547695978" lon="116.48319118244571">
        <ele>28.900000000000002</ele>
        <time>2023-08-04T00:01:30Z</time>
      </trkpt>
      <trkpt lat="39.93337125778286" lon="116.47657555461242">
        <ele>33.7</ele>
        <time>2023-08-04T00:09:46Z</time>
      </trkpt>
      <trkpt lat="39.93351488970196" lon="116.47679835326365">
        <ele>30.7</ele>
        <time>2023-08-04T00:09:58Z</time>
      </trkpt>
      <trkpt lat="39.933649830607955" lon="116.47712854811225">
        <ele>27.8</ele>
        <time>2023-08-04T00:10:10Z</time>
      </trkpt>
      <trkpt lat="39.93374503119466" lon="116.4771997979245">
        <ele>25.7</ele>
        <time>2023-08-04T00:10:16Z</time>
      </trkpt>
      <trkpt lat="39.9339001315036" lon="116.47723691493114">
        <ele>24.8</ele>
        <time>2023-08-04T00:10:22Z</time>
      </trkpt>
      <trkpt lat="39.934170123510235" lon="116.47723788480882">
        <ele>23.3</ele>
        <time>2023-08-04T00:10:31Z</time>
      </trkpt>
      <trkpt lat="39.93445919828635" lon="116.47726795924471">
        <ele>28.7</ele>
        <time>2023-08-04T00:10:40Z</time>
      </trkpt>
      <trkpt lat="39.93457911568933" lon="116.47724084465472">
        <ele>31.599999999999998</ele>
        <time>2023-08-04T00:10:46Z</time>
      </trkpt>
      <trkpt lat="39.93476478571856" lon="116.4771284084839">
        <ele>32.5</ele>
        <time>2023-08-04T00:10:55Z</time>
      </trkpt>
      <trkpt lat="39.934839779823704" lon="116.4771273954061">
        <ele>32.2</ele>
        <time>2023-08-04T00:10:58Z</time>
      </trkpt>
      <trkpt lat="39.935112576014" lon="116.47706011432476">
        <ele>31.499999999999996</ele>
        <time>2023-08-04T00:11:10Z</time>
      </trkpt>
      <trkpt lat="39.935241599606606" lon="116.47707013501444">
        <ele>32.7</ele>
        <time>2023-08-04T00:11:16Z</time>
      </trkpt>
      <trkpt lat="39.93530466902409" lon="116.47709521924467">
        <ele>31.7</ele>
        <time>2023-08-04T00:11:19Z</time>
      </trkpt>
      <trkpt lat="39.9355882364386" lon="116.47729692481941">
        <ele>31.2</ele>
        <time>2023-08-04T00:11:31Z</time>
      </trkpt>
      <trkpt lat="39.935829754192945" lon="116.47748056986312">
        <ele>29.099999999999998</ele>
        <time>2023-08-04T00:11:43Z</time>
      </trkpt>
      <trkpt lat="39.93602182434208" lon="116.47750764548974">
        <ele>28.3</ele>
        <time>2023-08-04T00:11:52Z</time>
      </trkpt>
      <trkpt lat="39.93623467450761" lon="116.47745843794642">
        <ele>26.599999999999998</ele>
        <time>2023-08-04T00:12:01Z</time>
      </trkpt>
      <trkpt lat="39.93655677692624" lon="116.47749854527329">
        <ele>29.2</ele>
        <time>2023-08-04T00:12:13Z</time>
      </trkpt>
      <trkpt lat="39.936733934217926" lon="116.47755573355235">
        <ele>30.2</ele>
        <time>2023-08-04T00:12:19Z</time>
      </trkpt>
      <trkpt lat="39.937028994508445" lon="116.47758078892882">
        <ele>30.999999999999996</ele>
        <time>2023-08-04T00:12:31Z</time>
      </trkpt>
      <trkpt lat="39.937080001119185" lon="116.47758379362125">
        <ele>30.599999999999998</ele>
        <time>2023-08-04T00:12:34Z</time>
      </trkpt>
      <trkpt lat="39.93717716457195" lon="116.47764199568974">
        <ele>29.599999999999998</ele>
        <time>2023-08-04T00:12:40Z</time>
      </trkpt>
      <trkpt lat="39.937381286263715" lon="116.4776871363834">
        <ele>29.2</ele>
        <time>2023-08-04T00:12:49Z</time>
      </trkpt>
      <trkpt lat="39.93765180383965" lon="116.47787077893757">
        <ele>31.400000000000002</ele>
        <time>2023-08-04T00:13:01Z</time>
      </trkpt>
      <trkpt lat="39.937864515015406" lon="116.4781206735232">
        <ele>27.599999999999998</ele>
        <time>2023-08-04T00:13:13Z</time>
      </trkpt>
      <trkpt lat="39.938035034740736" lon="116.47830332611427">
        <ele>29.499999999999996</ele>
        <time>2023-08-04T00:13:25Z</time>
      </trkpt>
      <trkpt lat="39.93832845149975" lon="116.4784518377893">
        <ele>30.900000000000002</ele>
        <time>2023-08-04T00:13:43Z</time>
      </trkpt>
      <trkpt lat="39.938621772916946" lon="116.47856722742448">
        <ele>33.900000000000006</ele>
        <time>2023-08-04T00:13:58Z</time>
      </trkpt>
      <trkpt lat="39.93881693899739" lon="116.4786274255175">
        <ele>33.300000000000004</ele>
        <time>2023-08-04T00:14:07Z</time>
      </trkpt>
      <trkpt lat="39.939116958892065" lon="116.47863842876312">
        <ele>31.400000000000002</ele>
        <time>2023-08-04T00:14:22Z</time>
      </trkpt>
      <trkpt lat="39.93937494279011" lon="116.47863638904981">
        <ele>31.900000000000002</ele>
        <time>2023-08-04T00:14:37Z</time>
      </trkpt>
      <trkpt lat="39.93962856175583" lon="116.47850788262463">
        <ele>37.1</ele>
        <time>2023-08-04T00:14:52Z</time>
      </trkpt>
      <trkpt lat="39.93974627032585" lon="116.47840850092162">
        <ele>37.300000000000004</ele>
        <time>2023-08-04T00:14:58Z</time>
      </trkpt>
      <trkpt lat="39.939949556057734" lon="116.47816357165024">
        <ele>35.6</ele>
        <time>2023-08-04T00:15:10Z</time>
      </trkpt>
      <trkpt lat="39.940124679017664" lon="116.47786143600614">
        <ele>28.7</ele>
        <time>2023-08-04T00:15:22Z</time>
      </trkpt>
      <trkpt lat="39.940179451564724" lon="116.47778314077011">
        <ele>28.999999999999996</ele>
        <time>2023-08-04T00:15:25Z</time>
      </trkpt>
      <trkpt lat="39.940344624028604" lon="116.477845349301">
        <ele>26.7</ele>
        <time>2023-08-04T00:15:34Z</time>
      </trkpt>
      <trkpt lat="39.94056219039499" lon="116.47804505816694">
        <ele>26.2</ele>
        <time>2023-08-04T00:15:46Z</time>
      </trkpt>
      <trkpt lat="39.940589411952665" lon="116.47812233974832">
        <ele>26.599999999999998</ele>
        <time>2023-08-04T00:15:49Z</time>
      </trkpt>
      <trkpt lat="39.94061019242704" lon="116.47839333717137">
        <ele>29.3</ele>
        <time>2023-08-04T00:15:58Z</time>
      </trkpt>
      <trkpt lat="39.940748908257625" lon="116.47864324301582">
        <ele>25.5</ele>
        <time>2023-08-04T00:16:10Z</time>
      </trkpt>
      <trkpt lat="39.94080432067766" lon="116.47878676668924">
        <ele>23.599999999999998</ele>
        <time>2023-08-04T00:16:16Z</time>
      </trkpt>
      <trkpt lat="39.941034179288486" lon="116.47908684833246">
        <ele>19.3</ele>
        <time>2023-08-04T00:16:31Z</time>
      </trkpt>
      <trkpt lat="39.941109481284215" lon="116.47919222915614">
        <ele>20.9</ele>
        <time>2023-08-04T00:16:37Z</time>
      </trkpt>
      <trkpt lat="39.9413040403087" lon="116.47938792996621">
        <ele>22.099999999999998</ele>
        <time>2023-08-04T00:16:46Z</time>
      </trkpt>
      <trkpt lat="39.94136948272257" lon="116.4795414911195">
        <ele>23.2</ele>
        <time>2023-08-04T00:16:52Z</time>
      </trkpt>
      <trkpt lat="39.941447615226714" lon="116.47993293405635">
        <ele>20.2</ele>
        <time>2023-08-04T00:17:07Z</time>
      </trkpt>
      <trkpt lat="39.94149002745693" lon="116.4800754581935">
        <ele>18.2</ele>
        <time>2023-08-04T00:17:13Z</time>
      </trkpt>
      <trkpt lat="39.941615474537166" lon="116.48023102071625">
        <ele>18.9</ele>
        <time>2023-08-04T00:17:22Z</time>
      </trkpt>
      <trkpt lat="39.94185207511935" lon="116.4804407712741">
        <ele>21.7</ele>
        <time>2023-08-04T00:17:34Z</time>
      </trkpt>
      <trkpt lat="39.94195826070537" lon="116.4805060007382">
        <ele>22.9</ele>
        <time>2023-08-04T00:17:40Z</time>
      </trkpt>
      <trkpt lat="39.942202329849316" lon="116.48053307105566">
        <ele>24.4</ele>
        <time>2023-08-04T00:17:49Z</time>
      </trkpt>
      <trkpt lat="39.942500291704675" lon="116.48052400016354">
        <ele>28.7</ele>
        <time>2023-08-04T00:18:04Z</time>
      </trkpt>
      <trkpt lat="39.9428473100292" lon="116.48053499784038">
        <ele>28.8</ele>
        <time>2023-08-04T00:18:19Z</time>
      </trkpt>
      <trkpt lat="39.94290220854185" lon="116.48050086397575">
        <ele>29.8</ele>
        <time>2023-08-04T00:18:22Z</time>
      </trkpt>
      <trkpt lat="39.942932011707015" lon="116.48043361003187">
        <ele>29.900000000000002</ele>
        <time>2023-08-04T00:18:25Z</time>
      </trkpt>
      <trkpt lat="39.9429868343607" lon="116.48037337914829">
        <ele>28.999999999999996</ele>
        <time>2023-08-04T00:18:28Z</time>
      </trkpt>
      <trkpt lat="39.943156760467474" lon="116.48035027202467">
        <ele>28.2</ele>
        <time>2023-08-04T00:18:34Z</time>
      </trkpt>
      <trkpt lat="39.94318399292786" lon="116.48043056730494">
        <ele>28.7</ele>
        <time>2023-08-04T00:18:37Z</time>
      </trkpt>
      <trkpt lat="39.943224259531235" lon="116.48086618406147">
        <ele>23.8</ele>
        <time>2023-08-04T00:18:52Z</time>
      </trkpt>
      <trkpt lat="39.943235569138885" lon="116.48097257910996">
        <ele>24.5</ele>
        <time>2023-08-04T00:18:55Z</time>
      </trkpt>
      <trkpt lat="39.94326681661441" lon="116.48105789321961">
        <ele>25.2</ele>
        <time>2023-08-04T00:18:58Z</time>
      </trkpt>
      <trkpt lat="39.94329498988606" lon="116.48146039116624">
        <ele>19.8</ele>
        <time>2023-08-04T00:19:13Z</time>
      </trkpt>
      <trkpt lat="39.943289620447466" lon="116.48167619764605">
        <ele>18.3</ele>
        <time>2023-08-04T00:19:19Z</time>
      </trkpt>
      <trkpt lat="39.943313918694706" lon="116.48177857708485">
        <ele>19.099999999999998</ele>
        <time>2023-08-04T00:19:22Z</time>
      </trkpt>
      <trkpt lat="39.943364972412446" lon="116.48179764196017">
        <ele>21.0</ele>
        <time>2023-08-04T00:19:25Z</time>
      </trkpt>
      <trkpt lat="39.94357474403973" lon="116.48172233446898">
        <ele>26.499999999999996</ele>
        <time>2023-08-04T00:19:37Z</time>
      </trkpt>
      <trkpt lat="39.94367844662762" lon="116.48162194658543">
        <ele>27.599999999999998</ele>
        <time>2023-08-04T00:19:46Z</time>
      </trkpt>
      <trkpt lat="39.9438702836017" lon="116.48156872393723">
        <ele>29.900000000000002</ele>
        <time>2023-08-04T00:19:55Z</time>
      </trkpt>
      <trkpt lat="39.94391728759782" lon="116.48157072555533">
        <ele>29.999999999999996</ele>
        <time>2023-08-04T00:19:58Z</time>
      </trkpt>
      <trkpt lat="39.94403412758068" lon="116.48151751231578">
        <ele>32.300000000000004</ele>
        <time>2023-08-04T00:20:07Z</time>
      </trkpt>
      <trkpt lat="39.944344115267384" lon="116.48151747355016">
        <ele>33.7</ele>
        <time>2023-08-04T00:20:16Z</time>
      </trkpt>
      <trkpt lat="39.94445711371109" lon="116.48151846316638">
        <ele>34.6</ele>
        <time>2023-08-04T00:20:22Z</time>
      </trkpt>
      <trkpt lat="39.944512237579296" lon="116.48156161742332">
        <ele>34.900000000000006</ele>
        <time>2023-08-04T00:20:25Z</time>
      </trkpt>
      <trkpt lat="39.94463874284065" lon="116.48173625392043">
        <ele>34.300000000000004</ele>
        <time>2023-08-04T00:20:34Z</time>
      </trkpt>
      <trkpt lat="39.94489409654056" lon="116.48186068707227">
        <ele>33.400000000000006</ele>
        <time>2023-08-04T00:20:49Z</time>
      </trkpt>
      <trkpt lat="39.94521425113272" lon="116.48191786088712">
        <ele>26.400000000000002</ele>
        <time>2023-08-04T00:21:07Z</time>
      </trkpt>
      <trkpt lat="39.94544738279044" lon="116.48196601184736">
        <ele>24.099999999999998</ele>
        <time>2023-08-04T00:21:19Z</time>
      </trkpt>
      <trkpt lat="39.94573413657824" lon="116.48188567581988">
        <ele>27.7</ele>
        <time>2023-08-04T00:21:34Z</time>
      </trkpt>
      <trkpt lat="39.94597984217984" lon="116.48178828123267">
        <ele>24.0</ele>
        <time>2023-08-04T00:21:49Z</time>
      </trkpt>
      <trkpt lat="39.94624029215242" lon="116.48160355874106">
        <ele>26.099999999999998</ele>
        <time>2023-08-04T00:22:07Z</time>
      </trkpt>
      <trkpt lat="39.94636211140786" lon="116.48154331861551">
        <ele>25.9</ele>
        <time>2023-08-04T00:22:13Z</time>
      </trkpt>
      <trkpt lat="39.94640200136419" lon="116.48150617496493">
        <ele>27.3</ele>
        <time>2023-08-04T00:22:16Z</time>
      </trkpt>
      <trkpt lat="39.94639779051021" lon="116.48143390570925">
        <ele>27.499999999999996</ele>
        <time>2023-08-04T00:22:22Z</time>
      </trkpt>
      <trkpt lat="39.946349833439335" lon="116.48144796416021">
        <ele>27.999999999999996</ele>
        <time>2023-08-04T00:22:25Z</time>
      </trkpt>
      <trkpt lat="39.94616933015364" lon="116.48161561259869">
        <ele>29.999999999999996</ele>
        <time>2023-08-04T00:22:37Z</time>
      </trkpt>
      <trkpt lat="39.94585971492133" lon="116.4817431274888">
        <ele>29.8</ele>
        <time>2023-08-04T00:22:52Z</time>
      </trkpt>
      <trkpt lat="39.94562508220562" lon="116.48186561442483">
        <ele>29.499999999999996</ele>
        <time>2023-08-04T00:23:04Z</time>
      </trkpt>
      <trkpt lat="39.94544917723466" lon="116.4818957489696">
        <ele>28.900000000000002</ele>
        <time>2023-08-04T00:23:13Z</time>
      </trkpt>
      <trkpt lat="39.94516715027033" lon="116.48188273546242">
        <ele>27.099999999999998</ele>
        <time>2023-08-04T00:23:28Z</time>
      </trkpt>
      <trkpt lat="39.94484398994903" lon="116.48182355454469">
        <ele>28.900000000000002</ele>
        <time>2023-08-04T00:23:46Z</time>
      </trkpt>
      <trkpt lat="39.944726839089455" lon="116.48177037040936">
        <ele>27.8</ele>
        <time>2023-08-04T00:23:52Z</time>
      </trkpt>
      <trkpt lat="39.944494293997586" lon="116.48158069088014">
        <ele>26.499999999999996</ele>
        <time>2023-08-04T00:24:04Z</time>
      </trkpt>
      <trkpt lat="39.944390218970995" lon="116.48155360269921">
        <ele>26.599999999999998</ele>
        <time>2023-08-04T00:24:10Z</time>
      </trkpt>
      <trkpt lat="39.94427026771176" lon="116.48156867391842">
        <ele>27.099999999999998</ele>
        <time>2023-08-04T00:24:16Z</time>
      </trkpt>
      <trkpt lat="39.9439951027495" lon="116.4815084834699">
        <ele>27.7</ele>
        <time>2023-08-04T00:24:28Z</time>
      </trkpt>
      <trkpt lat="39.943850208174574" lon="116.48154262900404">
        <ele>31.400000000000002</ele>
        <time>2023-08-04T00:24:37Z</time>
      </trkpt>
      <trkpt lat="39.943712492194294" lon="116.48163800230706">
        <ele>34.1</ele>
        <time>2023-08-04T00:24:46Z</time>
      </trkpt>
      <trkpt lat="39.943455625580036" lon="116.48168019188523">
        <ele>31.499999999999996</ele>
        <time>2023-08-04T00:25:01Z</time>
      </trkpt>
      <trkpt lat="39.943388554924674" lon="116.4816551065445">
        <ele>30.900000000000002</ele>
        <time>2023-08-04T00:25:04Z</time>
      </trkpt>
      <trkpt lat="39.94334440419141" lon="116.4816029171354">
        <ele>29.900000000000002</ele>
        <time>2023-08-04T00:25:07Z</time>
      </trkpt>
      <trkpt lat="39.94328897547157" lon="116.48145537318504">
        <ele>28.900000000000002</ele>
        <time>2023-08-04T00:25:13Z</time>
      </trkpt>
      <trkpt lat="39.94322483291645" lon="116.4810629171804">
        <ele>26.999999999999996</ele>
        <time>2023-08-04T00:25:31Z</time>
      </trkpt>
      <trkpt lat="39.94320903205871" lon="116.48078789431783">
        <ele>28.400000000000002</ele>
        <time>2023-08-04T00:25:43Z</time>
      </trkpt>
      <trkpt lat="39.94319176966031" lon="116.48069756005387">
        <ele>28.900000000000002</ele>
        <time>2023-08-04T00:25:46Z</time>
      </trkpt>
      <trkpt lat="39.94314959599648" lon="116.48063734110376">
        <ele>29.7</ele>
        <time>2023-08-04T00:25:49Z</time>
      </trkpt>
      <trkpt lat="39.94308243797262" lon="116.4805821440047">
        <ele>26.999999999999996</ele>
        <time>2023-08-04T00:25:55Z</time>
      </trkpt>
      <trkpt lat="39.94280031189852" lon="116.48053500371985">
        <ele>26.400000000000002</ele>
        <time>2023-08-04T00:26:10Z</time>
      </trkpt>
      <trkpt lat="39.94252141938866" lon="116.48056816188407">
        <ele>29.3</ele>
        <time>2023-08-04T00:26:25Z</time>
      </trkpt>
      <trkpt lat="39.94224246554502" lon="116.48058024161055">
        <ele>27.7</ele>
        <time>2023-08-04T00:26:40Z</time>
      </trkpt>
      <trkpt lat="39.94207441672946" lon="116.48056119165183">
        <ele>27.3</ele>
        <time>2023-08-04T00:26:49Z</time>
      </trkpt>
      <trkpt lat="39.9419664911374" lon="116.48058529481307">
        <ele>29.2</ele>
        <time>2023-08-04T00:26:55Z</time>
      </trkpt>
      <trkpt lat="39.9419174551118" lon="116.4805722523802">
        <ele>29.599999999999998</ele>
        <time>2023-08-04T00:26:58Z</time>
      </trkpt>
      <trkpt lat="39.94183226572182" lon="116.48050601649975">
        <ele>30.499999999999996</ele>
        <time>2023-08-04T00:27:04Z</time>
      </trkpt>
      <trkpt lat="39.94162787968504" lon="116.48037053796162">
        <ele>28.999999999999996</ele>
        <time>2023-08-04T00:27:16Z</time>
      </trkpt>
      <trkpt lat="39.94144236474121" lon="116.4801908931265">
        <ele>29.099999999999998</ele>
        <time>2023-08-04T00:27:28Z</time>
      </trkpt>
      <trkpt lat="39.9413172822178" lon="116.48016079685401">
        <ele>28.599999999999998</ele>
        <time>2023-08-04T00:27:34Z</time>
      </trkpt>
      <trkpt lat="39.940995359216366" lon="116.48018291920437">
        <ele>26.3</ele>
        <time>2023-08-04T00:27:52Z</time>
      </trkpt>
      <trkpt lat="39.940822339860816" lon="116.48017390727398">
        <ele>28.999999999999996</ele>
        <time>2023-08-04T00:28:01Z</time>
      </trkpt>
      <trkpt lat="39.940822339860816" lon="116.48017390727398">
        <ele>28.999999999999996</ele>
        <time>2023-08-04T00:28:04Z</time>
      </trkpt>
    </trkseg>
  </trk>
</gpx>