<?xml version="1.0" encoding="UTF-8"?>
<gpx xmlns="http://www.topografix.com/GPX/1/1" xmlns:gpxtpx="http://www.garmin.com/xmlschemas/TrackPointExtension/v1" xmlns:xsi="http://www.w3.org/2001/XMLSchema-instance" xsi:schemaLocation="http://www.topografix.com/GPX/1/1 http://www.topografix.com/GPX/1/1/gpx.xsd" version="1.1" creator="gpx.py -- https://github.com/tkrajina/gpxpy">
  <trk>
    <name>gpx from keep</name>
    <type>Run</type>
    <trkseg>
      <trkpt lat="39.924100028852735" lon="116.48900820269675">
        <ele>28.8</ele>
        <time>2023-06-14T11:12:58Z</time>
      </trkpt>
      <trkpt lat="39.9241570265051" lon="116.48900819559805">
        <ele>28.900000000000002</ele>
        <time>2023-06-14T11:13:01Z</time>
      </trkpt>
      <trkpt lat="39.92432067948258" lon="116.48889374161662">
        <ele>29.2</ele>
        <time>2023-06-14T11:13:04Z</time>
      </trkpt>
      <trkpt lat="39.92459562041326" lon="116.48887764651988">
        <ele>26.499999999999996</ele>
        <time>2023-06-14T11:13:19Z</time>
      </trkpt>
      <trkpt lat="39.92485565150503" lon="116.4888916673779">
        <ele>27.400000000000002</ele>
        <time>2023-06-14T11:13:28Z</time>
      </trkpt>
      <trkpt lat="39.92496255757164" lon="116.48886153996455">
        <ele>30.499999999999996</ele>
        <time>2023-06-14T11:13:34Z</time>
      </trkpt>
      <trkpt lat="39.92527261049528" lon="116.48888358501698">
        <ele>27.499999999999996</ele>
        <time>2023-06-14T11:13:49Z</time>
      </trkpt>
      <trkpt lat="39.92547746777905" lon="116.48883838835532">
        <ele>29.599999999999998</ele>
        <time>2023-06-14T11:13:58Z</time>
      </trkpt>
      <trkpt lat="39.92576443809762" lon="116.48883232979112">
        <ele>32.2</ele>
        <time>2023-06-14T11:14:10Z</time>
      </trkpt>
      <trkpt lat="39.92606519000879" lon="116.48875299189206">
        <ele>31.099999999999998</ele>
        <time>2023-06-14T11:14:31Z</time>
      </trkpt>
      <trkpt lat="39.92625789267513" lon="116.48865559902983">
        <ele>33.900000000000006</ele>
        <time>2023-06-14T11:14:37Z</time>
      </trkpt>
      <trkpt lat="39.92631586344754" lon="116.48864655758615">
        <ele>32.900000000000006</ele>
        <time>2023-06-14T11:14:40Z</time>
      </trkpt>
      <trkpt lat="39.926355739488855" lon="116.48860539672248">
        <ele>33.0</ele>
        <time>2023-06-14T11:14:43Z</time>
      </trkpt>
      <trkpt lat="39.92637216905838" lon="116.48841366852041">
        <ele>31.3</ele>
        <time>2023-06-14T11:14:52Z</time>
      </trkpt>
      <trkpt lat="39.926350815038035" lon="116.488294218839">
        <ele>28.499999999999996</ele>
        <time>2023-06-14T11:14:58Z</time>
      </trkpt>
      <trkpt lat="39.92638756604071" lon="116.48821089879816">
        <ele>27.7</ele>
        <time>2023-06-14T11:15:01Z</time>
      </trkpt>
      <trkpt lat="39.92647242243443" lon="116.48816370960373">
        <ele>27.900000000000002</ele>
        <time>2023-06-14T11:15:04Z</time>
      </trkpt>
      <trkpt lat="39.92678226665094" lon="116.48811548858403">
        <ele>28.900000000000002</ele>
        <time>2023-06-14T11:15:16Z</time>
      </trkpt>
      <trkpt lat="39.92697520807966" lon="116.48809839994026">
        <ele>29.7</ele>
        <time>2023-06-14T11:15:25Z</time>
      </trkpt>
      <trkpt lat="39.92711387749995" lon="116.48798896847994">
        <ele>29.999999999999996</ele>
        <time>2023-06-14T11:15:31Z</time>
      </trkpt>
      <trkpt lat="39.927169636792236" lon="116.48790865758136">
        <ele>29.8</ele>
        <time>2023-06-14T11:15:34Z</time>
      </trkpt>
      <trkpt lat="39.92743200928859" lon="116.48770083855652">
        <ele>27.400000000000002</ele>
        <time>2023-06-14T11:15:43Z</time>
      </trkpt>
      <trkpt lat="39.92756268819701" lon="116.48759441969214">
        <ele>23.8</ele>
        <time>2023-06-14T11:15:49Z</time>
      </trkpt>
      <trkpt lat="39.9276621093801" lon="116.4874006744556">
        <ele>16.7</ele>
        <time>2023-06-14T11:15:58Z</time>
      </trkpt>
      <trkpt lat="39.92770215225529" lon="116.48707845103749">
        <ele>8.399999999999999</ele>
        <time>2023-06-14T11:16:10Z</time>
      </trkpt>
      <trkpt lat="39.92767725784924" lon="116.48677631216759">
        <ele>7.7</ele>
        <time>2023-06-14T11:16:19Z</time>
      </trkpt>
      <trkpt lat="39.92769900717174" lon="116.48669199086257">
        <ele>8.8</ele>
        <time>2023-06-14T11:16:22Z</time>
      </trkpt>
      <trkpt lat="39.92778061437319" lon="116.48656048391996">
        <ele>10.599999999999998</ele>
        <time>2023-06-14T11:16:28Z</time>
      </trkpt>
      <trkpt lat="39.927789758140015" lon="116.48627139103466">
        <ele>14.8</ele>
        <time>2023-06-14T11:16:37Z</time>
      </trkpt>
      <trkpt lat="39.92784936955412" lon="116.48614089097681">
        <ele>15.599999999999998</ele>
        <time>2023-06-14T11:16:43Z</time>
      </trkpt>
      <trkpt lat="39.92789518949686" lon="116.48608065793572">
        <ele>14.599999999999998</ele>
        <time>2023-06-14T11:16:46Z</time>
      </trkpt>
      <trkpt lat="39.927967477002795" lon="116.48584074364793">
        <ele>10.3</ele>
        <time>2023-06-14T11:16:55Z</time>
      </trkpt>
      <trkpt lat="39.92797889493797" lon="116.48564400012613">
        <ele>12.5</ele>
        <time>2023-06-14T11:17:01Z</time>
      </trkpt>
      <trkpt lat="39.92794721408059" lon="116.48541313360764">
        <ele>14.7</ele>
        <time>2023-06-14T11:17:07Z</time>
      </trkpt>
      <trkpt lat="39.92784217214848" lon="116.4850588115116">
        <ele>25.4</ele>
        <time>2023-06-14T11:17:16Z</time>
      </trkpt>
      <trkpt lat="39.92781036200078" lon="116.48478377977061">
        <ele>26.599999999999998</ele>
        <time>2023-06-14T11:17:28Z</time>
      </trkpt>
      <trkpt lat="39.9278301214232" lon="116.48470247124467">
        <ele>24.9</ele>
        <time>2023-06-14T11:17:31Z</time>
      </trkpt>
      <trkpt lat="39.927884953447524" lon="116.48464625283634">
        <ele>26.400000000000002</ele>
        <time>2023-06-14T11:17:34Z</time>
      </trkpt>
      <trkpt lat="39.92806277456177" lon="116.48458801155">
        <ele>28.7</ele>
        <time>2023-06-14T11:17:43Z</time>
      </trkpt>
      <trkpt lat="39.928173728612705" lon="116.48457394482186">
        <ele>28.599999999999998</ele>
        <time>2023-06-14T11:17:49Z</time>
      </trkpt>
      <trkpt lat="39.92828246383222" lon="116.4844855988957">
        <ele>25.8</ele>
        <time>2023-06-14T11:17:55Z</time>
      </trkpt>
      <trkpt lat="39.92834020710682" lon="116.4843992669503">
        <ele>24.4</ele>
        <time>2023-06-14T11:17:58Z</time>
      </trkpt>
      <trkpt lat="39.92840563970873" lon="116.4842075377902">
        <ele>22.3</ele>
        <time>2023-06-14T11:18:10Z</time>
      </trkpt>
      <trkpt lat="39.92832553360914" lon="116.48417040815777">
        <ele>23.4</ele>
        <time>2023-06-14T11:18:16Z</time>
      </trkpt>
      <trkpt lat="39.92837435592505" lon="116.48377090085631">
        <ele>24.8</ele>
        <time>2023-06-14T11:18:22Z</time>
      </trkpt>
      <trkpt lat="39.92839791515933" lon="116.48362133627984">
        <ele>26.499999999999996</ele>
        <time>2023-06-14T11:18:25Z</time>
      </trkpt>
      <trkpt lat="39.92839415127242" lon="116.4833613609857">
        <ele>26.3</ele>
        <time>2023-06-14T11:18:28Z</time>
      </trkpt>
      <trkpt lat="39.92843981919719" lon="116.48324893353161">
        <ele>26.400000000000002</ele>
        <time>2023-06-14T11:18:31Z</time>
      </trkpt>
      <trkpt lat="39.92850759537222" lon="116.48317364271367">
        <ele>27.900000000000002</ele>
        <time>2023-06-14T11:18:34Z</time>
      </trkpt>
      <trkpt lat="39.92858458928858" lon="116.4831726293342">
        <ele>33.1</ele>
        <time>2023-06-14T11:18:40Z</time>
      </trkpt>
      <trkpt lat="39.92864251619968" lon="116.48314853175864">
        <ele>33.6</ele>
        <time>2023-06-14T11:18:43Z</time>
      </trkpt>
      <trkpt lat="39.928789554417506" lon="116.48316356985889">
        <ele>29.8</ele>
        <time>2023-06-14T11:18:49Z</time>
      </trkpt>
      <trkpt lat="39.92907949841116" lon="116.48314847718635">
        <ele>24.7</ele>
        <time>2023-06-14T11:19:04Z</time>
      </trkpt>
      <trkpt lat="39.929359313174906" lon="116.48308922017377">
        <ele>23.0</ele>
        <time>2023-06-14T11:19:16Z</time>
      </trkpt>
      <trkpt lat="39.92949043454854" lon="116.48313236564059">
        <ele>22.099999999999998</ele>
        <time>2023-06-14T11:19:22Z</time>
      </trkpt>
      <trkpt lat="39.92953942077013" lon="116.48312834446683">
        <ele>22.4</ele>
        <time>2023-06-14T11:19:25Z</time>
      </trkpt>
      <trkpt lat="39.92957427497227" lon="116.48307915569174">
        <ele>22.3</ele>
        <time>2023-06-14T11:19:28Z</time>
      </trkpt>
      <trkpt lat="39.9295426871703" lon="116.48287840714431">
        <ele>25.5</ele>
        <time>2023-06-14T11:19:37Z</time>
      </trkpt>
      <trkpt lat="39.92952391090276" lon="116.48261341682758">
        <ele>23.4</ele>
        <time>2023-06-14T11:19:46Z</time>
      </trkpt>
      <trkpt lat="39.929496750207214" lon="116.48255821350746">
        <ele>21.7</ele>
        <time>2023-06-14T11:19:49Z</time>
      </trkpt>
      <trkpt lat="39.92926226863411" lon="116.48239061534164">
        <ele>16.2</ele>
        <time>2023-06-14T11:20:01Z</time>
      </trkpt>
      <trkpt lat="39.929169666971696" lon="116.48218385333554">
        <ele>19.099999999999998</ele>
        <time>2023-06-14T11:20:10Z</time>
      </trkpt>
      <trkpt lat="39.929145206824536" lon="116.48202626713466">
        <ele>21.8</ele>
        <time>2023-06-14T11:20:16Z</time>
      </trkpt>
      <trkpt lat="39.92911696428294" lon="116.48194295925619">
        <ele>23.0</ele>
        <time>2023-06-14T11:20:19Z</time>
      </trkpt>
      <trkpt lat="39.92901666898224" lon="116.48184058920124">
        <ele>23.9</ele>
        <time>2023-06-14T11:20:25Z</time>
      </trkpt>
      <trkpt lat="39.92895457760684" lon="116.48180847695694">
        <ele>23.4</ele>
        <time>2023-06-14T11:20:28Z</time>
      </trkpt>
      <trkpt lat="39.928898571083465" lon="116.48180547270563">
        <ele>22.7</ele>
        <time>2023-06-14T11:20:31Z</time>
      </trkpt>
      <trkpt lat="39.928743782806954" lon="116.48187575456562">
        <ele>21.4</ele>
        <time>2023-06-14T11:20:40Z</time>
      </trkpt>
      <trkpt lat="39.92864205994291" lon="116.48196911613528">
        <ele>19.5</ele>
        <time>2023-06-14T11:20:46Z</time>
      </trkpt>
      <trkpt lat="39.92832715791672" lon="116.48199826428421">
        <ele>20.9</ele>
        <time>2023-06-14T11:20:58Z</time>
      </trkpt>
      <trkpt lat="39.928145458989235" lon="116.48209866224113">
        <ele>25.0</ele>
        <time>2023-06-14T11:21:07Z</time>
      </trkpt>
      <trkpt lat="39.92804476273547" lon="116.48220105769514">
        <ele>23.7</ele>
        <time>2023-06-14T11:21:13Z</time>
      </trkpt>
      <trkpt lat="39.92788475408128" lon="116.48253733595355">
        <ele>23.8</ele>
        <time>2023-06-14T11:21:28Z</time>
      </trkpt>
      <trkpt lat="39.927877263382165" lon="116.48271098714936">
        <ele>22.4</ele>
        <time>2023-06-14T11:21:34Z</time>
      </trkpt>
      <trkpt lat="39.92781839234082" lon="116.48275415617623">
        <ele>22.7</ele>
        <time>2023-06-14T11:21:37Z</time>
      </trkpt>
      <trkpt lat="39.927674418820345" lon="116.48276120047919">
        <ele>24.0</ele>
        <time>2023-06-14T11:21:43Z</time>
      </trkpt>
      <trkpt lat="39.92745033084089" lon="116.4827281043887">
        <ele>29.099999999999998</ele>
        <time>2023-06-14T11:21:52Z</time>
      </trkpt>
      <trkpt lat="39.927314365826284" lon="116.48273815896889">
        <ele>30.900000000000002</ele>
        <time>2023-06-14T11:21:58Z</time>
      </trkpt>
      <trkpt lat="39.927254836348745" lon="116.48289776435564">
        <ele>31.3</ele>
        <time>2023-06-14T11:22:04Z</time>
      </trkpt>
      <trkpt lat="39.92725983786464" lon="116.48323904323037">
        <ele>29.599999999999998</ele>
        <time>2023-06-14T11:22:19Z</time>
      </trkpt>
      <trkpt lat="39.92722502796179" lon="116.4833032885525">
        <ele>29.999999999999996</ele>
        <time>2023-06-14T11:22:22Z</time>
      </trkpt>
      <trkpt lat="39.927284636017745" lon="116.48351106078772">
        <ele>31.999999999999996</ele>
        <time>2023-06-14T11:22:31Z</time>
      </trkpt>
      <trkpt lat="39.92733685516884" lon="116.48358633686176">
        <ele>32.7</ele>
        <time>2023-06-14T11:22:34Z</time>
      </trkpt>
      <trkpt lat="39.92732211842442" lon="116.48367567411556">
        <ele>33.400000000000006</ele>
        <time>2023-06-14T11:22:37Z</time>
      </trkpt>
      <trkpt lat="39.927329295239154" lon="116.4837358993833">
        <ele>33.0</ele>
        <time>2023-06-14T11:22:40Z</time>
      </trkpt>
      <trkpt lat="39.92729476613281" lon="116.48389550318937">
        <ele>31.8</ele>
        <time>2023-06-14T11:22:43Z</time>
      </trkpt>
      <trkpt lat="39.92721522134877" lon="116.48404909021008">
        <ele>28.499999999999996</ele>
        <time>2023-06-14T11:22:46Z</time>
      </trkpt>
      <trkpt lat="39.927192692163054" lon="116.48420869296676">
        <ele>24.7</ele>
        <time>2023-06-14T11:22:49Z</time>
      </trkpt>
      <trkpt lat="39.92705714710082" lon="116.48436128362444">
        <ele>20.599999999999998</ele>
        <time>2023-06-14T11:22:55Z</time>
      </trkpt>
      <trkpt lat="39.92696524253441" lon="116.48439241213211">
        <ele>18.7</ele>
        <time>2023-06-14T11:22:58Z</time>
      </trkpt>
      <trkpt lat="39.92666228450106" lon="116.48440248769884">
        <ele>17.2</ele>
        <time>2023-06-14T11:23:10Z</time>
      </trkpt>
      <trkpt lat="39.92635227057399" lon="116.48439349241013">
        <ele>18.3</ele>
        <time>2023-06-14T11:23:22Z</time>
      </trkpt>
      <trkpt lat="39.92610738116217" lon="116.48442765134475">
        <ele>20.7</ele>
        <time>2023-06-14T11:23:31Z</time>
      </trkpt>
      <trkpt lat="39.92581518907653" lon="116.48435842730316">
        <ele>14.2</ele>
        <time>2023-06-14T11:23:43Z</time>
      </trkpt>
      <trkpt lat="39.925504290547465" lon="116.48438857936247">
        <ele>10.899999999999999</ele>
        <time>2023-06-14T11:23:55Z</time>
      </trkpt>
      <trkpt lat="39.92533038049548" lon="116.48441670678098">
        <ele>12.599999999999998</ele>
        <time>2023-06-14T11:24:01Z</time>
      </trkpt>
      <trkpt lat="39.925004361351924" lon="116.48440570593566">
        <ele>18.3</ele>
        <time>2023-06-14T11:24:16Z</time>
      </trkpt>
      <trkpt lat="39.92481012967754" lon="116.48466370076515">
        <ele>22.099999999999998</ele>
        <time>2023-06-14T11:24:28Z</time>
      </trkpt>
      <trkpt lat="39.924654982795545" lon="116.48495080088074">
        <ele>25.7</ele>
        <time>2023-06-14T11:24:40Z</time>
      </trkpt>
      <trkpt lat="39.9246344901987" lon="116.48512244993911">
        <ele>29.599999999999998</ele>
        <time>2023-06-14T11:24:46Z</time>
      </trkpt>
      <trkpt lat="39.92464674157392" lon="116.48520776985691">
        <ele>30.8</ele>
        <time>2023-06-14T11:24:49Z</time>
      </trkpt>
      <trkpt lat="39.92480263642798" lon="116.48551290050838">
        <ele>28.999999999999996</ele>
        <time>2023-06-14T11:25:01Z</time>
      </trkpt>
      <trkpt lat="39.92494211717387" lon="116.48567750384697">
        <ele>25.3</ele>
        <time>2023-06-14T11:25:10Z</time>
      </trkpt>
      <trkpt lat="39.92502784965241" lon="116.48592643219934">
        <ele>21.7</ele>
        <time>2023-06-14T11:25:19Z</time>
      </trkpt>
      <trkpt lat="39.92502441097437" lon="116.48611614856135">
        <ele>20.0</ele>
        <time>2023-06-14T11:25:25Z</time>
      </trkpt>
      <trkpt lat="39.9249976942354" lon="116.48621151184553">
        <ele>19.7</ele>
        <time>2023-06-14T11:25:28Z</time>
      </trkpt>
      <trkpt lat="39.924954835614706" lon="116.48625869529397">
        <ele>19.599999999999998</ele>
        <time>2023-06-14T11:25:31Z</time>
      </trkpt>
      <trkpt lat="39.924844899549484" lon="116.48627878479586">
        <ele>19.4</ele>
        <time>2023-06-14T11:25:37Z</time>
      </trkpt>
      <trkpt lat="39.92473721595378" lon="116.48638419618072">
        <ele>16.9</ele>
        <time>2023-06-14T11:25:43Z</time>
      </trkpt>
      <trkpt lat="39.92462423248642" lon="116.48638822543009">
        <ele>18.099999999999998</ele>
        <time>2023-06-14T11:25:49Z</time>
      </trkpt>
      <trkpt lat="39.92438495411872" lon="116.486290887625">
        <ele>20.4</ele>
        <time>2023-06-14T11:26:01Z</time>
      </trkpt>
      <trkpt lat="39.92417199259565" lon="116.48630095207746">
        <ele>22.5</ele>
        <time>2023-06-14T11:26:07Z</time>
      </trkpt>
      <trkpt lat="39.923935341081" lon="116.48641541366811">
        <ele>20.599999999999998</ele>
        <time>2023-06-14T11:26:19Z</time>
      </trkpt>
      <trkpt lat="39.923870522067695" lon="116.48647564919554">
        <ele>18.8</ele>
        <time>2023-06-14T11:26:22Z</time>
      </trkpt>
      <trkpt lat="39.923650503347176" lon="116.48680391660116">
        <ele>19.4</ele>
        <time>2023-06-14T11:26:34Z</time>
      </trkpt>
      <trkpt lat="39.92343522915744" lon="116.48704585771546">
        <ele>22.099999999999998</ele>
        <time>2023-06-14T11:26:46Z</time>
      </trkpt>
      <trkpt lat="39.92333773017184" lon="116.48721350361127">
        <ele>21.5</ele>
        <time>2023-06-14T11:26:52Z</time>
      </trkpt>
      <trkpt lat="39.923289836328394" lon="116.4872486424209">
        <ele>21.3</ele>
        <time>2023-06-14T11:26:55Z</time>
      </trkpt>
      <trkpt lat="39.923021996228094" lon="116.48729886558571">
        <ele>23.8</ele>
        <time>2023-06-14T11:27:07Z</time>
      </trkpt>
      <trkpt lat="39.922895069943024" lon="116.48732196870915">
        <ele>25.099999999999998</ele>
        <time>2023-06-14T11:27:13Z</time>
      </trkpt>
      <trkpt lat="39.92284550670182" lon="116.48746852914788">
        <ele>23.8</ele>
        <time>2023-06-14T11:27:19Z</time>
      </trkpt>
      <trkpt lat="39.9228078160529" lon="116.48790920109812">
        <ele>25.7</ele>
        <time>2023-06-14T11:27:34Z</time>
      </trkpt>
      <trkpt lat="39.92277909739732" lon="116.48800356179856">
        <ele>27.499999999999996</ele>
        <time>2023-06-14T11:27:37Z</time>
      </trkpt>
      <trkpt lat="39.92273183869826" lon="116.48825251008064">
        <ele>30.400000000000002</ele>
        <time>2023-06-14T11:27:46Z</time>
      </trkpt>
      <trkpt lat="39.922739595915715" lon="116.4885074745952">
        <ele>31.7</ele>
        <time>2023-06-14T11:27:58Z</time>
      </trkpt>
      <trkpt lat="39.92282720689172" lon="116.48871424691205">
        <ele>31.7</ele>
        <time>2023-06-14T11:28:07Z</time>
      </trkpt>
      <trkpt lat="39.92304560372373" lon="116.48885073688926">
        <ele>29.499999999999996</ele>
        <time>2023-06-14T11:28:19Z</time>
      </trkpt>
      <trkpt lat="39.92332965168653" lon="116.48887077757406">
        <ele>29.2</ele>
        <time>2023-06-14T11:28:31Z</time>
      </trkpt>
      <trkpt lat="39.923628552802334" lon="116.48884163005653">
        <ele>31.599999999999998</ele>
        <time>2023-06-14T11:28:43Z</time>
      </trkpt>
      <trkpt lat="39.92390253255346" lon="116.48883858452295">
        <ele>30.400000000000002</ele>
        <time>2023-06-14T11:28:55Z</time>
      </trkpt>
      <trkpt lat="39.924225659517255" lon="116.48888572302528">
        <ele>29.499999999999996</ele>
        <time>2023-06-14T11:29:07Z</time>
      </trkpt>
      <trkpt lat="39.924523638297984" lon="116.48888267450172">
        <ele>28.599999999999998</ele>
        <time>2023-06-14T11:29:19Z</time>
      </trkpt>
      <trkpt lat="39.924710714174616" lon="116.4889107576938">
        <ele>27.3</ele>
        <time>2023-06-14T11:29:28Z</time>
      </trkpt>
      <trkpt lat="39.92495454596266" lon="116.48885752574968">
        <ele>27.8</ele>
        <time>2023-06-14T11:29:37Z</time>
      </trkpt>
      <trkpt lat="39.92524366839325" lon="116.48890266088529">
        <ele>25.3</ele>
        <time>2023-06-14T11:29:49Z</time>
      </trkpt>
      <trkpt lat="39.92532765002082" lon="116.48889763140807">
        <ele>25.7</ele>
        <time>2023-06-14T11:29:52Z</time>
      </trkpt>
      <trkpt lat="39.92560247160241" lon="116.48884138419423">
        <ele>31.099999999999998</ele>
        <time>2023-06-14T11:30:01Z</time>
      </trkpt>
      <trkpt lat="39.92582322678588" lon="116.48876205625838">
        <ele>35.400000000000006</ele>
        <time>2023-06-14T11:30:10Z</time>
      </trkpt>
      <trkpt lat="39.926097143938115" lon="116.48873793086945">
        <ele>36.400000000000006</ele>
        <time>2023-06-14T11:30:22Z</time>
      </trkpt>
      <trkpt lat="39.926177080982534" lon="116.48871784485685">
        <ele>36.0</ele>
        <time>2023-06-14T11:30:25Z</time>
      </trkpt>
      <trkpt lat="39.92625892843716" lon="116.48866764453061">
        <ele>35.400000000000006</ele>
        <time>2023-06-14T11:30:28Z</time>
      </trkpt>
      <trkpt lat="39.926321702098406" lon="116.48859235153378">
        <ele>33.900000000000006</ele>
        <time>2023-06-14T11:30:32Z</time>
      </trkpt>
      <trkpt lat="39.926378700582234" lon="116.48825607093247">
        <ele>26.2</ele>
        <time>2023-06-14T11:30:44Z</time>
      </trkpt>
      <trkpt lat="39.92643453728271" lon="116.48820185874071">
        <ele>26.2</ele>
        <time>2023-06-14T11:30:47Z</time>
      </trkpt>
      <trkpt lat="39.92663735605555" lon="116.48814361304635">
        <ele>24.3</ele>
        <time>2023-06-14T11:30:56Z</time>
      </trkpt>
      <trkpt lat="39.92683448215356" lon="116.48818875950056">
        <ele>24.599999999999998</ele>
        <time>2023-06-14T11:31:08Z</time>
      </trkpt>
      <trkpt lat="39.92697036031998" lon="116.48814959435413">
        <ele>24.7</ele>
        <time>2023-06-14T11:31:14Z</time>
      </trkpt>
      <trkpt lat="39.92725760935568" lon="116.48790061622488">
        <ele>21.9</ele>
        <time>2023-06-14T11:31:29Z</time>
      </trkpt>
      <trkpt lat="39.92749191747115" lon="116.48767071714722">
        <ele>20.0</ele>
        <time>2023-06-14T11:31:41Z</time>
      </trkpt>
      <trkpt lat="39.92758076490252" lon="116.48762051617918">
        <ele>21.2</ele>
        <time>2023-06-14T11:31:44Z</time>
      </trkpt>
      <trkpt lat="39.927675397680225" lon="116.4874980410955">
        <ele>21.2</ele>
        <time>2023-06-14T11:31:50Z</time>
      </trkpt>
      <trkpt lat="39.92773899607778" lon="116.48736352440075">
        <ele>17.4</ele>
        <time>2023-06-14T11:31:56Z</time>
      </trkpt>
      <trkpt lat="39.927749766402954" lon="116.48728623075081">
        <ele>16.4</ele>
        <time>2023-06-14T11:31:59Z</time>
      </trkpt>
      <trkpt lat="39.92771067884396" lon="116.4869188466722">
        <ele>15.7</ele>
        <time>2023-06-14T11:32:11Z</time>
      </trkpt>
      <trkpt lat="39.92768947743811" lon="116.48685059134503">
        <ele>16.3</ele>
        <time>2023-06-14T11:32:14Z</time>
      </trkpt>
      <trkpt lat="39.92769228102764" lon="116.48678434063892">
        <ele>15.7</ele>
        <time>2023-06-14T11:32:17Z</time>
      </trkpt>
      <trkpt lat="39.927784637990236" lon="116.48656851375206">
        <ele>14.099999999999998</ele>
        <time>2023-06-14T11:32:26Z</time>
      </trkpt>
      <trkpt lat="39.92781045133438" lon="116.48616799813539">
        <ele>14.8</ele>
        <time>2023-06-14T11:32:38Z</time>
      </trkpt>
      <trkpt lat="39.92795948623284" lon="116.48584375600542">
        <ele>13.0</ele>
        <time>2023-06-14T11:32:50Z</time>
      </trkpt>
      <trkpt lat="39.92797678229567" lon="116.48560585654577">
        <ele>14.8</ele>
        <time>2023-06-14T11:32:56Z</time>
      </trkpt>
      <trkpt lat="39.92791268485808" lon="116.48523346073789">
        <ele>24.7</ele>
        <time>2023-06-14T11:33:08Z</time>
      </trkpt>
      <trkpt lat="39.92785888710028" lon="116.48496244648041">
        <ele>27.400000000000002</ele>
        <time>2023-06-14T11:33:17Z</time>
      </trkpt>
      <trkpt lat="39.92783732537566" lon="116.48477173106015">
        <ele>29.400000000000002</ele>
        <time>2023-06-14T11:33:23Z</time>
      </trkpt>
      <trkpt lat="39.92786912871106" lon="116.48470547771133">
        <ele>29.599999999999998</ele>
        <time>2023-06-14T11:33:26Z</time>
      </trkpt>
      <trkpt lat="39.9280118151072" lon="116.48460106701475">
        <ele>31.900000000000002</ele>
        <time>2023-06-14T11:33:35Z</time>
      </trkpt>
      <trkpt lat="39.92819262428771" lon="116.48453881026906">
        <ele>34.0</ele>
        <time>2023-06-14T11:33:44Z</time>
      </trkpt>
      <trkpt lat="39.92830427363773" lon="116.48442135450188">
        <ele>31.499999999999996</ele>
        <time>2023-06-14T11:33:50Z</time>
      </trkpt>
      <trkpt lat="39.92833909477398" lon="116.48436112362035">
        <ele>30.900000000000002</ele>
        <time>2023-06-14T11:33:53Z</time>
      </trkpt>
      <trkpt lat="39.92833966013348" lon="116.48421356867024">
        <ele>32.5</ele>
        <time>2023-06-14T11:33:59Z</time>
      </trkpt>
      <trkpt lat="39.92835735203326" lon="116.48410917400876">
        <ele>34.0</ele>
        <time>2023-06-14T11:34:05Z</time>
      </trkpt>
      <trkpt lat="39.928320217618705" lon="116.48406300509006">
        <ele>34.5</ele>
        <time>2023-06-14T11:34:08Z</time>
      </trkpt>
      <trkpt lat="39.92824427685633" lon="116.484082086253">
        <ele>34.900000000000006</ele>
        <time>2023-06-14T11:34:11Z</time>
      </trkpt>
      <trkpt lat="39.92828984366747" lon="116.48393552982031">
        <ele>35.900000000000006</ele>
        <time>2023-06-14T11:34:17Z</time>
      </trkpt>
      <trkpt lat="39.92830253010277" lon="116.48382912850236">
        <ele>36.300000000000004</ele>
        <time>2023-06-14T11:34:20Z</time>
      </trkpt>
      <trkpt lat="39.928444933901154" lon="116.48362835679012">
        <ele>34.800000000000004</ele>
        <time>2023-06-14T11:34:26Z</time>
      </trkpt>
      <trkpt lat="39.928504438756214" lon="116.48346072011408">
        <ele>30.7</ele>
        <time>2023-06-14T11:34:29Z</time>
      </trkpt>
      <trkpt lat="39.9285720319757" lon="116.48332319566528">
        <ele>27.8</ele>
        <time>2023-06-14T11:34:32Z</time>
      </trkpt>
      <trkpt lat="39.92872061027379" lon="116.48318164622721">
        <ele>24.099999999999998</ele>
        <time>2023-06-14T11:34:38Z</time>
      </trkpt>
      <trkpt lat="39.92903043852332" lon="116.48312740426863">
        <ele>25.2</ele>
        <time>2023-06-14T11:34:53Z</time>
      </trkpt>
      <trkpt lat="39.92935736039827" lon="116.4831052806359">
        <ele>22.2</ele>
        <time>2023-06-14T11:35:08Z</time>
      </trkpt>
      <trkpt lat="39.92947540274522" lon="116.48312132611453">
        <ele>23.5</ele>
        <time>2023-06-14T11:35:14Z</time>
      </trkpt>
      <trkpt lat="39.92951830965726" lon="116.48309020408014">
        <ele>22.0</ele>
        <time>2023-06-14T11:35:17Z</time>
      </trkpt>
      <trkpt lat="39.92952929323195" lon="116.48274390487576">
        <ele>21.099999999999998</ele>
        <time>2023-06-14T11:35:32Z</time>
      </trkpt>
      <trkpt lat="39.92951705829647" lon="116.4826636056321">
        <ele>20.7</ele>
        <time>2023-06-14T11:35:35Z</time>
      </trkpt>
      <trkpt lat="39.929367567219195" lon="116.48249398914687">
        <ele>20.2</ele>
        <time>2023-06-14T11:35:44Z</time>
      </trkpt>
      <trkpt lat="39.92931547229145" lon="116.48246087166498">
        <ele>20.2</ele>
        <time>2023-06-14T11:35:47Z</time>
      </trkpt>
      <trkpt lat="39.92927431224488" lon="116.48240567018333">
        <ele>19.7</ele>
        <time>2023-06-14T11:35:50Z</time>
      </trkpt>
      <trkpt lat="39.92921167113911" lon="116.48218585559586">
        <ele>21.099999999999998</ele>
        <time>2023-06-14T11:35:59Z</time>
      </trkpt>
      <trkpt lat="39.92920741574327" lon="116.48209852956079">
        <ele>21.099999999999998</ele>
        <time>2023-06-14T11:36:02Z</time>
      </trkpt>
      <trkpt lat="39.92917013240266" lon="116.48200117021477">
        <ele>21.099999999999998</ele>
        <time>2023-06-14T11:36:05Z</time>
      </trkpt>
      <trkpt lat="39.92907672523269" lon="116.48186065670473">
        <ele>21.5</ele>
        <time>2023-06-14T11:36:11Z</time>
      </trkpt>
      <trkpt lat="39.929029618568514" lon="116.48182352383006">
        <ele>20.2</ele>
        <time>2023-06-14T11:36:14Z</time>
      </trkpt>
      <trkpt lat="39.92890163551471" lon="116.48182755482266">
        <ele>17.4</ele>
        <time>2023-06-14T11:36:23Z</time>
      </trkpt>
      <trkpt lat="39.92864903030075" lon="116.48195907774796">
        <ele>17.0</ele>
        <time>2023-06-14T11:36:35Z</time>
      </trkpt>
      <trkpt lat="39.92834014857884" lon="116.48199525140517">
        <ele>21.099999999999998</ele>
        <time>2023-06-14T11:36:50Z</time>
      </trkpt>
      <trkpt lat="39.92817537846993" lon="116.48207155717326">
        <ele>18.599999999999998</ele>
        <time>2023-06-14T11:36:59Z</time>
      </trkpt>
      <trkpt lat="39.928044889079565" lon="116.48224421912096">
        <ele>19.099999999999998</ele>
        <time>2023-06-14T11:37:08Z</time>
      </trkpt>
      <trkpt lat="39.927928740521494" lon="116.48253331542791">
        <ele>22.5</ele>
        <time>2023-06-14T11:37:20Z</time>
      </trkpt>
      <trkpt lat="39.92788518948725" lon="116.48268589217174">
        <ele>21.599999999999998</ele>
        <time>2023-06-14T11:37:26Z</time>
      </trkpt>
      <trkpt lat="39.92783232702018" lon="116.48273207171657">
        <ele>21.599999999999998</ele>
        <time>2023-06-14T11:37:29Z</time>
      </trkpt>
      <trkpt lat="39.927555311838546" lon="116.48272307247778">
        <ele>21.5</ele>
        <time>2023-06-14T11:37:41Z</time>
      </trkpt>
      <trkpt lat="39.92741333235194" lon="116.48272810900977">
        <ele>23.7</ele>
        <time>2023-06-14T11:37:47Z</time>
      </trkpt>
      <trkpt lat="39.92736440793158" lon="116.48275320911821">
        <ele>23.8</ele>
        <time>2023-06-14T11:37:50Z</time>
      </trkpt>
      <trkpt lat="39.92728978486237" lon="116.48288069604659">
        <ele>24.7</ele>
        <time>2023-06-14T11:37:56Z</time>
      </trkpt>
      <trkpt lat="39.92725262889061" lon="116.48316777684559">
        <ele>22.4</ele>
        <time>2023-06-14T11:38:08Z</time>
      </trkpt>
      <trkpt lat="39.92725422432648" lon="116.48337053722096">
        <ele>23.3</ele>
        <time>2023-06-14T11:38:17Z</time>
      </trkpt>
      <trkpt lat="39.92719893752712" lon="116.48361245205928">
        <ele>22.7</ele>
        <time>2023-06-14T11:38:26Z</time>
      </trkpt>
      <trkpt lat="39.927084600485976" lon="116.48383630694471">
        <ele>22.5</ele>
        <time>2023-06-14T11:38:32Z</time>
      </trkpt>
      <trkpt lat="39.92715888392012" lon="116.48393366346207">
        <ele>22.3</ele>
        <time>2023-06-14T11:38:35Z</time>
      </trkpt>
      <trkpt lat="39.927202207107406" lon="116.48404407297211">
        <ele>22.9</ele>
        <time>2023-06-14T11:38:38Z</time>
      </trkpt>
      <trkpt lat="39.92720246122424" lon="116.48413039740687">
        <ele>22.8</ele>
        <time>2023-06-14T11:38:41Z</time>
      </trkpt>
      <trkpt lat="39.927178766633475" lon="116.48423378905618">
        <ele>20.7</ele>
        <time>2023-06-14T11:38:44Z</time>
      </trkpt>
      <trkpt lat="39.927133987241014" lon="116.4843080739571">
        <ele>19.099999999999998</ele>
        <time>2023-06-14T11:38:47Z</time>
      </trkpt>
      <trkpt lat="39.926959171806885" lon="116.48436832227969">
        <ele>18.4</ele>
        <time>2023-06-14T11:38:56Z</time>
      </trkpt>
      <trkpt lat="39.92666227267162" lon="116.484398472598">
        <ele>18.2</ele>
        <time>2023-06-14T11:39:08Z</time>
      </trkpt>
      <trkpt lat="39.92635424091944" lon="116.48438345440967">
        <ele>22.099999999999998</ele>
        <time>2023-06-14T11:39:20Z</time>
      </trkpt>
      <trkpt lat="39.926107354544314" lon="116.4844186173664">
        <ele>22.9</ele>
        <time>2023-06-14T11:39:29Z</time>
      </trkpt>
      <trkpt lat="39.92591318210181" lon="116.48435741129813">
        <ele>20.4</ele>
        <time>2023-06-14T11:39:38Z</time>
      </trkpt>
      <trkpt lat="39.92557223452789" lon="116.48437050292698">
        <ele>22.2</ele>
        <time>2023-06-14T11:39:50Z</time>
      </trkpt>
      <trkpt lat="39.925285275878416" lon="116.48438057649241">
        <ele>23.5</ele>
        <time>2023-06-14T11:40:02Z</time>
      </trkpt>
      <trkpt lat="39.9251471869187" lon="116.4843484729198">
        <ele>23.9</ele>
        <time>2023-06-14T11:40:08Z</time>
      </trkpt>
      <trkpt lat="39.92503523291733" lon="116.48436253974306">
        <ele>24.3</ele>
        <time>2023-06-14T11:40:14Z</time>
      </trkpt>
      <trkpt lat="39.92483506650396" lon="116.48464261832365">
        <ele>21.9</ele>
        <time>2023-06-14T11:40:29Z</time>
      </trkpt>
      <trkpt lat="39.924693765016144" lon="116.48487752012113">
        <ele>23.3</ele>
        <time>2023-06-14T11:40:38Z</time>
      </trkpt>
      <trkpt lat="39.924667020803305" lon="116.4849638485199">
        <ele>22.599999999999998</ele>
        <time>2023-06-14T11:40:41Z</time>
      </trkpt>
      <trkpt lat="39.924676749230684" lon="116.48521077745961">
        <ele>19.599999999999998</ele>
        <time>2023-06-14T11:40:53Z</time>
      </trkpt>
      <trkpt lat="39.9247824474635" lon="116.48544866084242">
        <ele>16.8</ele>
        <time>2023-06-14T11:41:05Z</time>
      </trkpt>
      <trkpt lat="39.92491195227781" lon="116.48562129562835">
        <ele>13.3</ele>
        <time>2023-06-14T11:41:14Z</time>
      </trkpt>
      <trkpt lat="39.924980444967254" lon="116.48578891931056">
        <ele>13.599999999999998</ele>
        <time>2023-06-14T11:41:20Z</time>
      </trkpt>
      <trkpt lat="39.92503924703398" lon="116.4860609383455">
        <ele>12.7</ele>
        <time>2023-06-14T11:41:29Z</time>
      </trkpt>
      <trkpt lat="39.92502255064005" lon="116.48616332686757">
        <ele>12.099999999999998</ele>
        <time>2023-06-14T11:41:32Z</time>
      </trkpt>
      <trkpt lat="39.92494191635818" lon="116.48628579922665">
        <ele>15.899999999999999</ele>
        <time>2023-06-14T11:41:38Z</time>
      </trkpt>
      <trkpt lat="39.924712258582254" lon="116.48639825235901">
        <ele>20.5</ele>
        <time>2023-06-14T11:41:50Z</time>
      </trkpt>
      <trkpt lat="39.92462531564825" lon="116.48641633142971">
        <ele>21.0</ele>
        <time>2023-06-14T11:41:53Z</time>
      </trkpt>
      <trkpt lat="39.92434798535014" lon="116.48630093013286">
        <ele>21.9</ele>
        <time>2023-06-14T11:42:05Z</time>
      </trkpt>
      <trkpt lat="39.92424996858805" lon="116.48629391582588">
        <ele>22.599999999999998</ele>
        <time>2023-06-14T11:42:08Z</time>
      </trkpt>
      <trkpt lat="39.92406213676492" lon="116.48634814390475">
        <ele>24.5</ele>
        <time>2023-06-14T11:42:14Z</time>
      </trkpt>
      <trkpt lat="39.92389249738537" lon="116.48646761612824">
        <ele>22.8</ele>
        <time>2023-06-14T11:42:23Z</time>
      </trkpt>
      <trkpt lat="39.92365536931779" lon="116.48675874531666">
        <ele>25.2</ele>
        <time>2023-06-14T11:42:35Z</time>
      </trkpt>
      <trkpt lat="39.92360561524429" lon="116.48684106254116">
        <ele>25.4</ele>
        <time>2023-06-14T11:42:38Z</time>
      </trkpt>
      <trkpt lat="39.92340233466136" lon="116.4870809946229">
        <ele>27.3</ele>
        <time>2023-06-14T11:42:50Z</time>
      </trkpt>
      <trkpt lat="39.92331072830982" lon="116.48721250318134">
        <ele>29.7</ele>
        <time>2023-06-14T11:42:56Z</time>
      </trkpt>
      <trkpt lat="39.923263849307794" lon="116.48725266084193">
        <ele>30.999999999999996</ele>
        <time>2023-06-14T11:42:59Z</time>
      </trkpt>
      <trkpt lat="39.922920012349095" lon="116.48730289347914">
        <ele>30.7</ele>
        <time>2023-06-14T11:43:14Z</time>
      </trkpt>
      <trkpt lat="39.92285217591636" lon="116.48735710691537">
        <ele>30.900000000000002</ele>
        <time>2023-06-14T11:43:17Z</time>
      </trkpt>
      <trkpt lat="39.92282741811578" lon="116.48743841750328">
        <ele>30.8</ele>
        <time>2023-06-14T11:43:20Z</time>
      </trkpt>
      <trkpt lat="39.92285524199573" lon="116.48771646588176">
        <ele>32.1</ele>
        <time>2023-06-14T11:43:29Z</time>
      </trkpt>
      <trkpt lat="39.92282005099567" lon="116.48798849970566">
        <ele>36.1</ele>
        <time>2023-06-14T11:43:38Z</time>
      </trkpt>
      <trkpt lat="39.922754745316624" lon="116.48822138941223">
        <ele>30.499999999999996</ele>
        <time>2023-06-14T11:43:44Z</time>
      </trkpt>
      <trkpt lat="39.92275249694521" lon="116.4884743475359">
        <ele>31.499999999999996</ele>
        <time>2023-06-14T11:43:53Z</time>
      </trkpt>
      <trkpt lat="39.92272480534969" lon="116.48857774256363">
        <ele>29.599999999999998</ele>
        <time>2023-06-14T11:43:56Z</time>
      </trkpt>
      <trkpt lat="39.92272518126993" lon="116.48870422159474">
        <ele>28.599999999999998</ele>
        <time>2023-06-14T11:43:59Z</time>
      </trkpt>
      <trkpt lat="39.92281863399376" lon="116.48885779177877">
        <ele>28.2</ele>
        <time>2023-06-14T11:44:05Z</time>
      </trkpt>
      <trkpt lat="39.92307949189942" lon="116.48881359195819">
        <ele>33.5</ele>
        <time>2023-06-14T11:44:17Z</time>
      </trkpt>
      <trkpt lat="39.92337242608726" lon="116.48879548702133">
        <ele>33.0</ele>
        <time>2023-06-14T11:44:29Z</time>
      </trkpt>
      <trkpt lat="39.923659572414586" lon="116.4888486528145">
        <ele>29.599999999999998</ele>
        <time>2023-06-14T11:44:41Z</time>
      </trkpt>
      <trkpt lat="39.92392053181169" lon="116.4888385822811">
        <ele>27.499999999999996</ele>
        <time>2023-06-14T11:44:50Z</time>
      </trkpt>
      <trkpt lat="39.92424064397693" lon="116.48888070214274">
        <ele>23.3</ele>
        <time>2023-06-14T11:45:02Z</time>
      </trkpt>
      <trkpt lat="39.92437957259614" lon="116.48885860116856">
        <ele>26.900000000000002</ele>
        <time>2023-06-14T11:45:08Z</time>
      </trkpt>
      <trkpt lat="39.924102643690944" lon="116.48887871172434">
        <ele>33.1</ele>
        <time>2023-06-14T11:45:29Z</time>
      </trkpt>
      <trkpt lat="39.92396552995741" lon="116.4888385766765">
        <ele>32.900000000000006</ele>
        <time>2023-06-14T11:45:35Z</time>
      </trkpt>
      <trkpt lat="39.92386260881209" lon="116.48886368457302">
        <ele>33.2</ele>
        <time>2023-06-14T11:45:41Z</time>
      </trkpt>
    </trkseg>
  </trk>
</gpx>