<?xml version="1.0" encoding="UTF-8"?>
<gpx xmlns="http://www.topografix.com/GPX/1/1" xmlns:gpxtpx="http://www.garmin.com/xmlschemas/TrackPointExtension/v1" xmlns:xsi="http://www.w3.org/2001/XMLSchema-instance" xsi:schemaLocation="http://www.topografix.com/GPX/1/1 http://www.topografix.com/GPX/1/1/gpx.xsd" version="1.1" creator="gpx.py -- https://github.com/tkrajina/gpxpy">
  <trk>
    <name>gpx from keep</name>
    <type>Run</type>
    <trkseg>
      <trkpt lat="39.93387418439458" lon="116.47725498455931">
        <ele>29.900000000000002</ele>
        <time>2023-07-27T07:02:12Z</time>
      </trkpt>
      <trkpt lat="39.93400625973219" lon="116.477283071287">
        <ele>30.2</ele>
        <time>2023-07-27T07:02:18Z</time>
      </trkpt>
      <trkpt lat="39.93419116298736" lon="116.4772519338022">
        <ele>30.900000000000002</ele>
        <time>2023-07-27T07:02:30Z</time>
      </trkpt>
      <trkpt lat="39.934290225252035" lon="116.47727500622157">
        <ele>28.499999999999996</ele>
        <time>2023-07-27T07:02:36Z</time>
      </trkpt>
      <trkpt lat="39.934552157098835" lon="116.47725489965973">
        <ele>26.3</ele>
        <time>2023-07-27T07:02:48Z</time>
      </trkpt>
      <trkpt lat="39.934783854044596" lon="116.47715249456158">
        <ele>30.999999999999996</ele>
        <time>2023-07-27T07:03:03Z</time>
      </trkpt>
      <trkpt lat="39.9349717543663" lon="116.47712035307742">
        <ele>27.3</ele>
        <time>2023-07-27T07:03:15Z</time>
      </trkpt>
      <trkpt lat="39.93506459233189" lon="116.47706513875839">
        <ele>26.499999999999996</ele>
        <time>2023-07-27T07:03:21Z</time>
      </trkpt>
      <trkpt lat="39.935334495155345" lon="116.4770349944164">
        <ele>28.999999999999996</ele>
        <time>2023-07-27T07:03:36Z</time>
      </trkpt>
      <trkpt lat="39.93540367368087" lon="116.47709821790149">
        <ele>31.2</ele>
        <time>2023-07-27T07:03:42Z</time>
      </trkpt>
      <trkpt lat="39.93548502166712" lon="116.47722065745604">
        <ele>33.900000000000006</ele>
        <time>2023-07-27T07:03:48Z</time>
      </trkpt>
      <trkpt lat="39.93553710309997" lon="116.47724975787516">
        <ele>34.5</ele>
        <time>2023-07-27T07:03:51Z</time>
      </trkpt>
      <trkpt lat="39.93558410697275" lon="116.47725175936448">
        <ele>35.1</ele>
        <time>2023-07-27T07:03:54Z</time>
      </trkpt>
      <trkpt lat="39.93566825051138" lon="116.47730293693125">
        <ele>36.900000000000006</ele>
        <time>2023-07-27T07:04:00Z</time>
      </trkpt>
      <trkpt lat="39.93583374826562" lon="116.47747856197988">
        <ele>32.1</ele>
        <time>2023-07-27T07:04:09Z</time>
      </trkpt>
      <trkpt lat="39.9359168891182" lon="116.47752873616534">
        <ele>29.499999999999996</ele>
        <time>2023-07-27T07:04:15Z</time>
      </trkpt>
      <trkpt lat="39.93618671103144" lon="116.47747048824864">
        <ele>32.2</ele>
        <time>2023-07-27T07:04:30Z</time>
      </trkpt>
      <trkpt lat="39.936439666284244" lon="116.477458412276">
        <ele>32.2</ele>
        <time>2023-07-27T07:04:45Z</time>
      </trkpt>
      <trkpt lat="39.936758875530614" lon="116.47753565657628">
        <ele>28.099999999999998</ele>
        <time>2023-07-27T07:05:03Z</time>
      </trkpt>
      <trkpt lat="39.93687494587264" lon="116.47756173805139">
        <ele>27.499999999999996</ele>
        <time>2023-07-27T07:05:09Z</time>
      </trkpt>
      <trkpt lat="39.9370620018404" lon="116.47758379587519">
        <ele>27.2</ele>
        <time>2023-07-27T07:05:21Z</time>
      </trkpt>
      <trkpt lat="39.93736830410146" lon="116.47769316017866">
        <ele>26.499999999999996</ele>
        <time>2023-07-27T07:05:39Z</time>
      </trkpt>
      <trkpt lat="39.9374563265539" lon="116.47770218241199">
        <ele>28.599999999999998</ele>
        <time>2023-07-27T07:05:45Z</time>
      </trkpt>
      <trkpt lat="39.937664788876546" lon="116.47786575882311">
        <ele>28.999999999999996</ele>
        <time>2023-07-27T07:05:57Z</time>
      </trkpt>
      <trkpt lat="39.93788851983863" lon="116.478122677921">
        <ele>29.999999999999996</ele>
        <time>2023-07-27T07:06:12Z</time>
      </trkpt>
      <trkpt lat="39.938079015615465" lon="116.47829729838243">
        <ele>35.1</ele>
        <time>2023-07-27T07:06:27Z</time>
      </trkpt>
      <trkpt lat="39.938351317373844" lon="116.47840566444042">
        <ele>32.400000000000006</ele>
        <time>2023-07-27T07:06:45Z</time>
      </trkpt>
      <trkpt lat="39.93865161237233" lon="116.47851201975573">
        <ele>32.7</ele>
        <time>2023-07-27T07:07:03Z</time>
      </trkpt>
      <trkpt lat="39.93891689442621" lon="116.47861336107805">
        <ele>33.5</ele>
        <time>2023-07-27T07:07:18Z</time>
      </trkpt>
      <trkpt lat="39.939196923814315" lon="116.47862737795103">
        <ele>31.499999999999996</ele>
        <time>2023-07-27T07:07:33Z</time>
      </trkpt>
      <trkpt lat="39.93949179321354" lon="116.47858618897335">
        <ele>31.8</ele>
        <time>2023-07-27T07:07:51Z</time>
      </trkpt>
      <trkpt lat="39.939583688125936" lon="116.47855104767696">
        <ele>31.999999999999996</ele>
        <time>2023-07-27T07:07:57Z</time>
      </trkpt>
      <trkpt lat="39.939844031918696" lon="116.47832718854471">
        <ele>28.900000000000002</ele>
        <time>2023-07-27T07:08:15Z</time>
      </trkpt>
      <trkpt lat="39.93999159776908" lon="116.47817862192312">
        <ele>27.900000000000002</ele>
        <time>2023-07-27T07:08:24Z</time>
      </trkpt>
      <trkpt lat="39.940181653636586" lon="116.47785339928993">
        <ele>26.999999999999996</ele>
        <time>2023-07-27T07:08:42Z</time>
      </trkpt>
      <trkpt lat="39.94025128701813" lon="116.47772692479226">
        <ele>27.2</ele>
        <time>2023-07-27T07:08:48Z</time>
      </trkpt>
      <trkpt lat="39.94029725054422" lon="116.47771487468916">
        <ele>26.499999999999996</ele>
        <time>2023-07-27T07:08:51Z</time>
      </trkpt>
      <trkpt lat="39.940556939139775" lon="116.47795773693197">
        <ele>27.599999999999998</ele>
        <time>2023-07-27T07:09:09Z</time>
      </trkpt>
      <trkpt lat="39.9406042754518" lon="116.47807516392143">
        <ele>28.8</ele>
        <time>2023-07-27T07:09:15Z</time>
      </trkpt>
      <trkpt lat="39.94067129133953" lon="116.47842845923479">
        <ele>31.599999999999998</ele>
        <time>2023-07-27T07:09:30Z</time>
      </trkpt>
      <trkpt lat="39.94068750502429" lon="116.47850273151539">
        <ele>31.499999999999996</ele>
        <time>2023-07-27T07:09:33Z</time>
      </trkpt>
      <trkpt lat="39.9408223953717" lon="116.47881286093326">
        <ele>29.099999999999998</ele>
        <time>2023-07-27T07:09:48Z</time>
      </trkpt>
      <trkpt lat="39.940851698847815" lon="116.47891824710297">
        <ele>29.999999999999996</ele>
        <time>2023-07-27T07:09:54Z</time>
      </trkpt>
      <trkpt lat="39.9409089200594" lon="116.4789955259225">
        <ele>30.900000000000002</ele>
        <time>2023-07-27T07:10:00Z</time>
      </trkpt>
      <trkpt lat="39.941057207412264" lon="116.47909688260991">
        <ele>33.1</ele>
        <time>2023-07-27T07:10:09Z</time>
      </trkpt>
      <trkpt lat="39.94124466767827" lon="116.47925845761539">
        <ele>37.0</ele>
        <time>2023-07-27T07:10:21Z</time>
      </trkpt>
      <trkpt lat="39.941319978614224" lon="116.47936684985163">
        <ele>38.0</ele>
        <time>2023-07-27T07:10:27Z</time>
      </trkpt>
      <trkpt lat="39.94138361019122" lon="116.47958565314404">
        <ele>38.800000000000004</ele>
        <time>2023-07-27T07:10:36Z</time>
      </trkpt>
      <trkpt lat="39.94144976086116" lon="116.47998312018122">
        <ele>35.5</ele>
        <time>2023-07-27T07:10:51Z</time>
      </trkpt>
      <trkpt lat="39.94145916573873" lon="116.48012263735191">
        <ele>33.300000000000004</ele>
        <time>2023-07-27T07:10:57Z</time>
      </trkpt>
      <trkpt lat="39.941726840715965" lon="116.48035848078317">
        <ele>30.599999999999998</ele>
        <time>2023-07-27T07:11:15Z</time>
      </trkpt>
      <trkpt lat="39.94197427759134" lon="116.48051202114476">
        <ele>27.599999999999998</ele>
        <time>2023-07-27T07:11:30Z</time>
      </trkpt>
      <trkpt lat="39.9422773034988" lon="116.48052503179423">
        <ele>27.400000000000002</ele>
        <time>2023-07-27T07:11:48Z</time>
      </trkpt>
      <trkpt lat="39.94245228777319" lon="116.4805219986983">
        <ele>25.2</ele>
        <time>2023-07-27T07:11:57Z</time>
      </trkpt>
      <trkpt lat="39.94268219684962" lon="116.48049386535509">
        <ele>29.400000000000002</ele>
        <time>2023-07-27T07:12:09Z</time>
      </trkpt>
      <trkpt lat="39.942914246030746" lon="116.4805139110257">
        <ele>26.7</ele>
        <time>2023-07-27T07:12:21Z</time>
      </trkpt>
      <trkpt lat="39.94295715378922" lon="116.48048278987426">
        <ele>26.2</ele>
        <time>2023-07-27T07:12:24Z</time>
      </trkpt>
      <trkpt lat="39.943028788907085" lon="116.48035831790034">
        <ele>27.8</ele>
        <time>2023-07-27T07:12:30Z</time>
      </trkpt>
      <trkpt lat="39.94312665075678" lon="116.4803121339442">
        <ele>30.599999999999998</ele>
        <time>2023-07-27T07:12:36Z</time>
      </trkpt>
      <trkpt lat="39.943191782426105" lon="116.48035829750805">
        <ele>31.400000000000002</ele>
        <time>2023-07-27T07:12:42Z</time>
      </trkpt>
      <trkpt lat="39.943249647538806" lon="116.48065639958766">
        <ele>35.300000000000004</ele>
        <time>2023-07-27T07:12:54Z</time>
      </trkpt>
      <trkpt lat="39.943270649666246" lon="116.48100067947128">
        <ele>35.300000000000004</ele>
        <time>2023-07-27T07:13:09Z</time>
      </trkpt>
      <trkpt lat="39.943271697789" lon="116.48136001946851">
        <ele>30.099999999999998</ele>
        <time>2023-07-27T07:13:24Z</time>
      </trkpt>
      <trkpt lat="39.94330675762587" lon="116.48172337172782">
        <ele>24.2</ele>
        <time>2023-07-27T07:13:39Z</time>
      </trkpt>
      <trkpt lat="39.943331967856224" lon="116.48179563858581">
        <ele>25.099999999999998</ele>
        <time>2023-07-27T07:13:42Z</time>
      </trkpt>
      <trkpt lat="39.9434339579335" lon="116.48179361833226">
        <ele>28.3</ele>
        <time>2023-07-27T07:13:48Z</time>
      </trkpt>
      <trkpt lat="39.94372440668083" lon="116.48160889210757">
        <ele>35.0</ele>
        <time>2023-07-27T07:14:09Z</time>
      </trkpt>
      <trkpt lat="39.94391397407735" lon="116.48146332499925">
        <ele>33.7</ele>
        <time>2023-07-27T07:14:24Z</time>
      </trkpt>
      <trkpt lat="39.94400488254683" lon="116.48143320123279">
        <ele>33.800000000000004</ele>
        <time>2023-07-27T07:14:30Z</time>
      </trkpt>
      <trkpt lat="39.94419194544993" lon="116.4814572677564">
        <ele>32.800000000000004</ele>
        <time>2023-07-27T07:14:42Z</time>
      </trkpt>
      <trkpt lat="39.94427191296696" lon="116.48144722028923">
        <ele>31.599999999999998</ele>
        <time>2023-07-27T07:14:45Z</time>
      </trkpt>
      <trkpt lat="39.944388984516685" lon="116.48147330306384">
        <ele>31.400000000000002</ele>
        <time>2023-07-27T07:14:51Z</time>
      </trkpt>
      <trkpt lat="39.944436929858426" lon="116.48145522962541">
        <ele>31.999999999999996</ele>
        <time>2023-07-27T07:14:54Z</time>
      </trkpt>
      <trkpt lat="39.944524061221195" lon="116.48150139108937">
        <ele>32.5</ele>
        <time>2023-07-27T07:15:00Z</time>
      </trkpt>
      <trkpt lat="39.944670668237386" lon="116.48171115618308">
        <ele>32.7</ele>
        <time>2023-07-27T07:15:12Z</time>
      </trkpt>
      <trkpt lat="39.94481485906643" lon="116.48177838940605">
        <ele>33.1</ele>
        <time>2023-07-27T07:15:21Z</time>
      </trkpt>
      <trkpt lat="39.94492488990687" lon="116.48179042065337">
        <ele>36.0</ele>
        <time>2023-07-27T07:15:27Z</time>
      </trkpt>
      <trkpt lat="39.94511014079298" lon="116.48187872758453">
        <ele>33.900000000000006</ele>
        <time>2023-07-27T07:15:36Z</time>
      </trkpt>
      <trkpt lat="39.94542414300696" lon="116.4818837070792">
        <ele>32.1</ele>
        <time>2023-07-27T07:15:54Z</time>
      </trkpt>
      <trkpt lat="39.945746989328576" lon="116.4818354866418">
        <ele>30.499999999999996</ele>
        <time>2023-07-27T07:16:12Z</time>
      </trkpt>
      <trkpt lat="39.94600964443747" lon="116.48172102624017">
        <ele>33.800000000000004</ele>
        <time>2023-07-27T07:16:27Z</time>
      </trkpt>
      <trkpt lat="39.94628913482286" lon="116.48155035397744">
        <ele>33.6</ele>
        <time>2023-07-27T07:16:45Z</time>
      </trkpt>
      <trkpt lat="39.94654365872623" lon="116.48139072637387">
        <ele>34.2</ele>
        <time>2023-07-27T07:17:00Z</time>
      </trkpt>
      <trkpt lat="39.94681414712138" lon="116.48121905213765">
        <ele>30.8</ele>
        <time>2023-07-27T07:17:18Z</time>
      </trkpt>
      <trkpt lat="39.94710659106071" lon="116.48103231937125">
        <ele>30.3</ele>
        <time>2023-07-27T07:17:36Z</time>
      </trkpt>
      <trkpt lat="39.94740002071107" lon="116.48084056819886">
        <ele>29.8</ele>
        <time>2023-07-27T07:17:54Z</time>
      </trkpt>
      <trkpt lat="39.94766859201852" lon="116.4806969999775">
        <ele>28.8</ele>
        <time>2023-07-27T07:18:09Z</time>
      </trkpt>
      <trkpt lat="39.94776545375059" lon="116.48065081593656">
        <ele>27.499999999999996</ele>
        <time>2023-07-27T07:18:15Z</time>
      </trkpt>
      <trkpt lat="39.94785723682656" lon="116.48057753167447">
        <ele>26.8</ele>
        <time>2023-07-27T07:18:21Z</time>
      </trkpt>
      <trkpt lat="39.94803699019295" lon="116.48049520285404">
        <ele>25.5</ele>
        <time>2023-07-27T07:18:30Z</time>
      </trkpt>
      <trkpt lat="39.94830443367246" lon="116.48030747112834">
        <ele>28.2</ele>
        <time>2023-07-27T07:18:45Z</time>
      </trkpt>
      <trkpt lat="39.94847384060221" lon="116.48010569989471">
        <ele>26.8</ele>
        <time>2023-07-27T07:18:57Z</time>
      </trkpt>
      <trkpt lat="39.948592104344094" lon="116.47985374922933">
        <ele>32.7</ele>
        <time>2023-07-27T07:19:09Z</time>
      </trkpt>
      <trkpt lat="39.9486450688004" lon="116.4794974204122">
        <ele>30.3</ele>
        <time>2023-07-27T07:19:24Z</time>
      </trkpt>
      <trkpt lat="39.94864894084955" lon="116.47910797681963">
        <ele>30.400000000000002</ele>
        <time>2023-07-27T07:19:42Z</time>
      </trkpt>
      <trkpt lat="39.94866013057202" lon="116.47882793903584">
        <ele>26.900000000000002</ele>
        <time>2023-07-27T07:19:54Z</time>
      </trkpt>
      <trkpt lat="39.94865366684218" lon="116.47866734601075">
        <ele>28.3</ele>
        <time>2023-07-27T07:20:03Z</time>
      </trkpt>
      <trkpt lat="39.94868925101831" lon="116.47852381113172">
        <ele>27.3</ele>
        <time>2023-07-27T07:20:09Z</time>
      </trkpt>
      <trkpt lat="39.94869006270117" lon="116.47845857002858">
        <ele>26.2</ele>
        <time>2023-07-27T07:20:12Z</time>
      </trkpt>
      <trkpt lat="39.94880635178656" lon="116.47821365134263">
        <ele>27.400000000000002</ele>
        <time>2023-07-27T07:20:24Z</time>
      </trkpt>
      <trkpt lat="39.94901350223116" lon="116.47792154829379">
        <ele>28.400000000000002</ele>
        <time>2023-07-27T07:20:42Z</time>
      </trkpt>
      <trkpt lat="39.949054376383316" lon="116.47787838412397">
        <ele>27.599999999999998</ele>
        <time>2023-07-27T07:20:45Z</time>
      </trkpt>
      <trkpt lat="39.94918935659746" lon="116.47787334872203">
        <ele>26.900000000000002</ele>
        <time>2023-07-27T07:20:54Z</time>
      </trkpt>
      <trkpt lat="39.949273454382684" lon="116.477908467641">
        <ele>26.599999999999998</ele>
        <time>2023-07-27T07:21:00Z</time>
      </trkpt>
      <trkpt lat="39.949424405072925" lon="116.47789339324784">
        <ele>27.8</ele>
        <time>2023-07-27T07:21:09Z</time>
      </trkpt>
      <trkpt lat="39.949681767677916" lon="116.47802283827411">
        <ele>27.3</ele>
        <time>2023-07-27T07:21:27Z</time>
      </trkpt>
      <trkpt lat="39.94977383341532" lon="116.47804691556327">
        <ele>29.599999999999998</ele>
        <time>2023-07-27T07:21:33Z</time>
      </trkpt>
      <trkpt lat="39.95001216518095" lon="116.47781804225022">
        <ele>31.8</ele>
        <time>2023-07-27T07:21:51Z</time>
      </trkpt>
      <trkpt lat="39.95015859936725" lon="116.47762330685924">
        <ele>29.7</ele>
        <time>2023-07-27T07:22:03Z</time>
      </trkpt>
      <trkpt lat="39.95020351680415" lon="116.4775951977889">
        <ele>28.999999999999996</ele>
        <time>2023-07-27T07:22:06Z</time>
      </trkpt>
      <trkpt lat="39.95037716229457" lon="116.4778220113126">
        <ele>25.8</ele>
        <time>2023-07-27T07:22:21Z</time>
      </trkpt>
      <trkpt lat="39.95042988841492" lon="116.47807493701642">
        <ele>26.499999999999996</ele>
        <time>2023-07-27T07:22:33Z</time>
      </trkpt>
      <trkpt lat="39.950414062545725" lon="116.47813516112078">
        <ele>26.499999999999996</ele>
        <time>2023-07-27T07:22:36Z</time>
      </trkpt>
      <trkpt lat="39.95028943777501" lon="116.47826365077381">
        <ele>28.2</ele>
        <time>2023-07-27T07:22:45Z</time>
      </trkpt>
      <trkpt lat="39.950213950267454" lon="116.47844031243822">
        <ele>29.3</ele>
        <time>2023-07-27T07:22:54Z</time>
      </trkpt>
      <trkpt lat="39.95010743540001" lon="116.47860694135218">
        <ele>30.2</ele>
        <time>2023-07-27T07:23:03Z</time>
      </trkpt>
      <trkpt lat="39.95006695307159" lon="116.47878560694399">
        <ele>27.8</ele>
        <time>2023-07-27T07:23:12Z</time>
      </trkpt>
      <trkpt lat="39.950096558351646" lon="116.47899537937984">
        <ele>30.3</ele>
        <time>2023-07-27T07:23:21Z</time>
      </trkpt>
      <trkpt lat="39.95025453691091" lon="116.47933561983633">
        <ele>29.999999999999996</ele>
        <time>2023-07-27T07:23:39Z</time>
      </trkpt>
      <trkpt lat="39.95043228903838" lon="116.47959756894981">
        <ele>29.7</ele>
        <time>2023-07-27T07:23:54Z</time>
      </trkpt>
      <trkpt lat="39.95047934538349" lon="116.47961763753187">
        <ele>30.499999999999996</ele>
        <time>2023-07-27T07:23:57Z</time>
      </trkpt>
      <trkpt lat="39.95061929037217" lon="116.47960055670939">
        <ele>31.400000000000002</ele>
        <time>2023-07-27T07:24:06Z</time>
      </trkpt>
      <trkpt lat="39.950788885072434" lon="116.47946302547615">
        <ele>32.2</ele>
        <time>2023-07-27T07:24:21Z</time>
      </trkpt>
      <trkpt lat="39.95088980836921" lon="116.47943791980232">
        <ele>33.0</ele>
        <time>2023-07-27T07:24:27Z</time>
      </trkpt>
      <trkpt lat="39.951004896889785" lon="116.47947002448349">
        <ele>34.7</ele>
        <time>2023-07-27T07:24:33Z</time>
      </trkpt>
      <trkpt lat="39.95106514178951" lon="116.47955533334392">
        <ele>36.1</ele>
        <time>2023-07-27T07:24:39Z</time>
      </trkpt>
      <trkpt lat="39.95109469950201" lon="116.4797480447064">
        <ele>36.6</ele>
        <time>2023-07-27T07:24:48Z</time>
      </trkpt>
      <trkpt lat="39.95108395606093" lon="116.48018065302203">
        <ele>33.7</ele>
        <time>2023-07-27T07:25:06Z</time>
      </trkpt>
      <trkpt lat="39.951077160542866" lon="116.48025091509679">
        <ele>32.1</ele>
        <time>2023-07-27T07:25:09Z</time>
      </trkpt>
      <trkpt lat="39.95111052986529" lon="116.48037838501807">
        <ele>29.400000000000002</ele>
        <time>2023-07-27T07:25:16Z</time>
      </trkpt>
      <trkpt lat="39.95115960090698" lon="116.48040347222755">
        <ele>30.099999999999998</ele>
        <time>2023-07-27T07:25:19Z</time>
      </trkpt>
      <trkpt lat="39.95126007294911" lon="116.4805670684978">
        <ele>34.900000000000006</ele>
        <time>2023-07-27T07:25:28Z</time>
      </trkpt>
      <trkpt lat="39.95127824745345" lon="116.4809705692198">
        <ele>34.800000000000004</ele>
        <time>2023-07-27T07:25:43Z</time>
      </trkpt>
      <trkpt lat="39.95125903558874" lon="116.48124057846849">
        <ele>29.8</ele>
        <time>2023-07-27T07:25:55Z</time>
      </trkpt>
      <trkpt lat="39.95119167397599" lon="116.48145839973968">
        <ele>29.7</ele>
        <time>2023-07-27T07:26:07Z</time>
      </trkpt>
      <trkpt lat="39.951064192052215" lon="116.48163407160784">
        <ele>29.400000000000002</ele>
        <time>2023-07-27T07:26:16Z</time>
      </trkpt>
      <trkpt lat="39.950822805913404" lon="116.48184087436401">
        <ele>33.2</ele>
        <time>2023-07-27T07:26:31Z</time>
      </trkpt>
      <trkpt lat="39.950776942729625" lon="116.48188705268002">
        <ele>34.0</ele>
        <time>2023-07-27T07:26:34Z</time>
      </trkpt>
      <trkpt lat="39.95075412268936" lon="116.48194828442657">
        <ele>34.300000000000004</ele>
        <time>2023-07-27T07:26:37Z</time>
      </trkpt>
      <trkpt lat="39.95081510133779" lon="116.48228353081399">
        <ele>30.7</ele>
        <time>2023-07-27T07:26:52Z</time>
      </trkpt>
      <trkpt lat="39.95080057226479" lon="116.4824441337875">
        <ele>29.2</ele>
        <time>2023-07-27T07:26:58Z</time>
      </trkpt>
      <trkpt lat="39.9508117717955" lon="116.48251238796178">
        <ele>28.8</ele>
        <time>2023-07-27T07:27:01Z</time>
      </trkpt>
      <trkpt lat="39.95084691158981" lon="116.48256056400328">
        <ele>29.499999999999996</ele>
        <time>2023-07-27T07:27:04Z</time>
      </trkpt>
      <trkpt lat="39.95115377591499" lon="116.48251836775088">
        <ele>29.8</ele>
        <time>2023-07-27T07:27:25Z</time>
      </trkpt>
      <trkpt lat="39.95136874388403" lon="116.48251031080021">
        <ele>31.2</ele>
        <time>2023-07-27T07:27:37Z</time>
      </trkpt>
      <trkpt lat="39.951512467659775" lon="116.48241794706139">
        <ele>35.2</ele>
        <time>2023-07-27T07:27:46Z</time>
      </trkpt>
      <trkpt lat="39.95173968572951" lon="116.48215393070468">
        <ele>35.0</ele>
        <time>2023-07-27T07:28:04Z</time>
      </trkpt>
      <trkpt lat="39.951890532892754" lon="116.48210372410232">
        <ele>32.900000000000006</ele>
        <time>2023-07-27T07:28:13Z</time>
      </trkpt>
      <trkpt lat="39.95197738261125" lon="116.48205352553077">
        <ele>31.599999999999998</ele>
        <time>2023-07-27T07:28:19Z</time>
      </trkpt>
      <trkpt lat="39.95215033680296" lon="116.48169817571393">
        <ele>27.400000000000002</ele>
        <time>2023-07-27T07:28:37Z</time>
      </trkpt>
      <trkpt lat="39.952319324646105" lon="116.48135386902908">
        <ele>25.5</ele>
        <time>2023-07-27T07:28:55Z</time>
      </trkpt>
      <trkpt lat="39.95249676118671" lon="116.48116313531477">
        <ele>27.499999999999996</ele>
        <time>2023-07-27T07:29:10Z</time>
      </trkpt>
      <trkpt lat="39.95278228160965" lon="116.48100250075373">
        <ele>32.400000000000006</ele>
        <time>2023-07-27T07:29:28Z</time>
      </trkpt>
      <trkpt lat="39.95307990125876" lon="116.48087599214625">
        <ele>30.8</ele>
        <time>2023-07-27T07:29:46Z</time>
      </trkpt>
      <trkpt lat="39.95333151120565" lon="116.4807454745335">
        <ele>33.7</ele>
        <time>2023-07-27T07:30:01Z</time>
      </trkpt>
      <trkpt lat="39.95361197704291" lon="116.48056577041787">
        <ele>31.999999999999996</ele>
        <time>2023-07-27T07:30:19Z</time>
      </trkpt>
      <trkpt lat="39.953882469902105" lon="116.4803951015581">
        <ele>31.400000000000002</ele>
        <time>2023-07-27T07:30:34Z</time>
      </trkpt>
      <trkpt lat="39.95415680540807" lon="116.48017023107113">
        <ele>32.6</ele>
        <time>2023-07-27T07:30:52Z</time>
      </trkpt>
      <trkpt lat="39.95438014932817" lon="116.47994737507402">
        <ele>30.599999999999998</ele>
        <time>2023-07-27T07:31:07Z</time>
      </trkpt>
      <trkpt lat="39.95451658169626" lon="116.47975363865329">
        <ele>32.400000000000006</ele>
        <time>2023-07-27T07:31:19Z</time>
      </trkpt>
      <trkpt lat="39.95446633037985" lon="116.47966632084727">
        <ele>33.5</ele>
        <time>2023-07-27T07:31:25Z</time>
      </trkpt>
      <trkpt lat="39.954391847349136" lon="116.47949870834432">
        <ele>33.300000000000004</ele>
        <time>2023-07-27T07:31:34Z</time>
      </trkpt>
      <trkpt lat="39.954197038081745" lon="116.47921668729946">
        <ele>31.7</ele>
        <time>2023-07-27T07:31:52Z</time>
      </trkpt>
      <trkpt lat="39.95399011707265" lon="116.47889552403535">
        <ele>25.7</ele>
        <time>2023-07-27T07:32:10Z</time>
      </trkpt>
      <trkpt lat="39.95378504948929" lon="116.47852317286979">
        <ele>22.2</ele>
        <time>2023-07-27T07:32:31Z</time>
      </trkpt>
      <trkpt lat="39.953604344331175" lon="116.47827628367584">
        <ele>23.0</ele>
        <time>2023-07-27T07:32:46Z</time>
      </trkpt>
      <trkpt lat="39.95343155003192" lon="116.47799827968069">
        <ele>24.4</ele>
        <time>2023-07-27T07:33:01Z</time>
      </trkpt>
      <trkpt lat="39.95337929779638" lon="116.47790996063704">
        <ele>23.599999999999998</ele>
        <time>2023-07-27T07:33:07Z</time>
      </trkpt>
      <trkpt lat="39.95312864065051" lon="116.47767813794157">
        <ele>25.599999999999998</ele>
        <time>2023-07-27T07:33:25Z</time>
      </trkpt>
      <trkpt lat="39.95299348727507" lon="116.47762295164277">
        <ele>28.400000000000002</ele>
        <time>2023-07-27T07:33:34Z</time>
      </trkpt>
      <trkpt lat="39.952729909350396" lon="116.47741823127576">
        <ele>30.999999999999996</ele>
        <time>2023-07-27T07:33:52Z</time>
      </trkpt>
      <trkpt lat="39.952601568602255" lon="116.47729780449527">
        <ele>31.3</ele>
        <time>2023-07-27T07:34:01Z</time>
      </trkpt>
      <trkpt lat="39.95250717776116" lon="116.47716031100511">
        <ele>30.7</ele>
        <time>2023-07-27T07:34:10Z</time>
      </trkpt>
      <trkpt lat="39.952450108042676" lon="116.47713522597888">
        <ele>29.900000000000002</ele>
        <time>2023-07-27T07:34:13Z</time>
      </trkpt>
      <trkpt lat="39.95236890113676" lon="116.47706196705296">
        <ele>27.099999999999998</ele>
        <time>2023-07-27T07:34:19Z</time>
      </trkpt>
      <trkpt lat="39.95222494067348" lon="116.4767247476103">
        <ele>24.2</ele>
        <time>2023-07-27T07:34:37Z</time>
      </trkpt>
      <trkpt lat="39.95210432231138" lon="116.47650696451788">
        <ele>23.9</ele>
        <time>2023-07-27T07:34:49Z</time>
      </trkpt>
      <trkpt lat="39.95199425714257" lon="116.47613260813773">
        <ele>23.8</ele>
        <time>2023-07-27T07:35:07Z</time>
      </trkpt>
      <trkpt lat="39.95197907157164" lon="116.47606737151482">
        <ele>23.4</ele>
        <time>2023-07-27T07:35:10Z</time>
      </trkpt>
      <trkpt lat="39.95193191595456" lon="116.47601217565423">
        <ele>22.8</ele>
        <time>2023-07-27T07:35:13Z</time>
      </trkpt>
      <trkpt lat="39.95181681652795" lon="116.47562477549582">
        <ele>17.7</ele>
        <time>2023-07-27T07:35:34Z</time>
      </trkpt>
      <trkpt lat="39.95165478106849" lon="116.47525846062251">
        <ele>17.8</ele>
        <time>2023-07-27T07:35:55Z</time>
      </trkpt>
      <trkpt lat="39.951464996402635" lon="116.47497946910559">
        <ele>20.599999999999998</ele>
        <time>2023-07-27T07:36:10Z</time>
      </trkpt>
      <trkpt lat="39.951403697090065" lon="116.47487309003233">
        <ele>23.599999999999998</ele>
        <time>2023-07-27T07:36:16Z</time>
      </trkpt>
      <trkpt lat="39.951289729266314" lon="116.47452985790002">
        <ele>26.7</ele>
        <time>2023-07-27T07:36:31Z</time>
      </trkpt>
      <trkpt lat="39.951186785537246" lon="116.47419465567546">
        <ele>26.999999999999996</ele>
        <time>2023-07-27T07:36:46Z</time>
      </trkpt>
      <trkpt lat="39.95101482652414" lon="116.47385243886029">
        <ele>27.900000000000002</ele>
        <time>2023-07-27T07:37:04Z</time>
      </trkpt>
      <trkpt lat="39.950951517879055" lon="116.47374204780749">
        <ele>29.400000000000002</ele>
        <time>2023-07-27T07:37:10Z</time>
      </trkpt>
      <trkpt lat="39.9508061166077" lon="116.47359754409209">
        <ele>28.099999999999998</ele>
        <time>2023-07-27T07:37:19Z</time>
      </trkpt>
      <trkpt lat="39.9506615745188" lon="116.47340285968431">
        <ele>27.099999999999998</ele>
        <time>2023-07-27T07:37:31Z</time>
      </trkpt>
      <trkpt lat="39.950496059258356" lon="116.47321721120585">
        <ele>30.099999999999998</ele>
        <time>2023-07-27T07:37:43Z</time>
      </trkpt>
      <trkpt lat="39.950438745900584" lon="116.47310481356644">
        <ele>31.900000000000002</ele>
        <time>2023-07-27T07:37:49Z</time>
      </trkpt>
      <trkpt lat="39.95035355774404" lon="116.47303657859275">
        <ele>31.2</ele>
        <time>2023-07-27T07:37:55Z</time>
      </trkpt>
      <trkpt lat="39.95008285858578" lon="116.47313998472318">
        <ele>30.099999999999998</ele>
        <time>2023-07-27T07:38:10Z</time>
      </trkpt>
      <trkpt lat="39.94997398406978" lon="116.47318315381638">
        <ele>29.3</ele>
        <time>2023-07-27T07:38:16Z</time>
      </trkpt>
      <trkpt lat="39.94970204838025" lon="116.47320225663898">
        <ele>29.499999999999996</ele>
        <time>2023-07-27T07:38:31Z</time>
      </trkpt>
      <trkpt lat="39.9493984918578" lon="116.47335584812788">
        <ele>29.900000000000002</ele>
        <time>2023-07-27T07:38:49Z</time>
      </trkpt>
      <trkpt lat="39.94916570142572" lon="116.47342713430471">
        <ele>30.8</ele>
        <time>2023-07-27T07:39:01Z</time>
      </trkpt>
      <trkpt lat="39.949047680693845" lon="116.47341811653921">
        <ele>31.900000000000002</ele>
        <time>2023-07-27T07:39:07Z</time>
      </trkpt>
      <trkpt lat="39.94900272198782" lon="116.47343217285908">
        <ele>32.2</ele>
        <time>2023-07-27T07:39:10Z</time>
      </trkpt>
      <trkpt lat="39.9489290072489" lon="116.47353254420446">
        <ele>29.8</ele>
        <time>2023-07-27T07:39:16Z</time>
      </trkpt>
      <trkpt lat="39.94891637221762" lon="116.47366201318464">
        <ele>30.599999999999998</ele>
        <time>2023-07-27T07:39:22Z</time>
      </trkpt>
      <trkpt lat="39.949011902921335" lon="116.47385168657735">
        <ele>28.599999999999998</ele>
        <time>2023-07-27T07:39:34Z</time>
      </trkpt>
      <trkpt lat="39.94907606184602" lon="116.47426316772639">
        <ele>28.7</ele>
        <time>2023-07-27T07:39:52Z</time>
      </trkpt>
      <trkpt lat="39.9491647139137" lon="116.47449499706396">
        <ele>28.099999999999998</ele>
        <time>2023-07-27T07:40:04Z</time>
      </trkpt>
      <trkpt lat="39.94925697159418" lon="116.47458732050092">
        <ele>28.499999999999996</ele>
        <time>2023-07-27T07:40:10Z</time>
      </trkpt>
      <trkpt lat="39.94940495830157" lon="116.47493757423698">
        <ele>30.599999999999998</ele>
        <time>2023-07-27T07:40:28Z</time>
      </trkpt>
      <trkpt lat="39.949499715182455" lon="116.47520553723835">
        <ele>29.3</ele>
        <time>2023-07-27T07:40:40Z</time>
      </trkpt>
      <trkpt lat="39.94960883242369" lon="116.47559996085498">
        <ele>25.0</ele>
        <time>2023-07-27T07:40:58Z</time>
      </trkpt>
      <trkpt lat="39.94967151886657" lon="116.4758418357571">
        <ele>25.7</ele>
        <time>2023-07-27T07:41:10Z</time>
      </trkpt>
      <trkpt lat="39.9496791682527" lon="116.47606966721229">
        <ele>21.5</ele>
        <time>2023-07-27T07:41:19Z</time>
      </trkpt>
      <trkpt lat="39.949612402904336" lon="116.47615097282801">
        <ele>22.2</ele>
        <time>2023-07-27T07:41:25Z</time>
      </trkpt>
      <trkpt lat="39.94955841077042" lon="116.47615298693769">
        <ele>23.0</ele>
        <time>2023-07-27T07:41:28Z</time>
      </trkpt>
      <trkpt lat="39.94928311806141" lon="116.47604663248379">
        <ele>24.8</ele>
        <time>2023-07-27T07:41:43Z</time>
      </trkpt>
      <trkpt lat="39.9490048599787" lon="116.475952322601">
        <ele>27.900000000000002</ele>
        <time>2023-07-27T07:41:58Z</time>
      </trkpt>
      <trkpt lat="39.94873457310637" lon="116.47584797522327">
        <ele>29.8</ele>
        <time>2023-07-27T07:42:13Z</time>
      </trkpt>
      <trkpt lat="39.94845319821442" lon="116.47571251587571">
        <ele>26.999999999999996</ele>
        <time>2023-07-27T07:42:31Z</time>
      </trkpt>
      <trkpt lat="39.948169897944915" lon="116.47560315226893">
        <ele>27.599999999999998</ele>
        <time>2023-07-27T07:42:46Z</time>
      </trkpt>
      <trkpt lat="39.947841505427064" lon="116.47546067380003">
        <ele>31.7</ele>
        <time>2023-07-27T07:43:10Z</time>
      </trkpt>
      <trkpt lat="39.94758124460478" lon="116.475365358988">
        <ele>28.599999999999998</ele>
        <time>2023-07-27T07:43:28Z</time>
      </trkpt>
      <trkpt lat="39.94733888910954" lon="116.47523692149862">
        <ele>25.2</ele>
        <time>2023-07-27T07:43:43Z</time>
      </trkpt>
      <trkpt lat="39.9470746458702" lon="116.47514762948896">
        <ele>26.099999999999998</ele>
        <time>2023-07-27T07:43:58Z</time>
      </trkpt>
      <trkpt lat="39.94687448283079" lon="116.4750874354729">
        <ele>28.400000000000002</ele>
        <time>2023-07-27T07:44:10Z</time>
      </trkpt>
      <trkpt lat="39.94659420341553" lon="116.47498509827493">
        <ele>27.900000000000002</ele>
        <time>2023-07-27T07:44:28Z</time>
      </trkpt>
      <trkpt lat="39.94650425823749" lon="116.47500317524944">
        <ele>26.999999999999996</ele>
        <time>2023-07-27T07:44:34Z</time>
      </trkpt>
      <trkpt lat="39.94641414791151" lon="116.47496304057108">
        <ele>27.7</ele>
        <time>2023-07-27T07:44:40Z</time>
      </trkpt>
      <trkpt lat="39.94637600708609" lon="116.47491286292211">
        <ele>28.999999999999996</ele>
        <time>2023-07-27T07:44:43Z</time>
      </trkpt>
      <trkpt lat="39.94627194208505" lon="116.4745355055742">
        <ele>26.3</ele>
        <time>2023-07-27T07:45:01Z</time>
      </trkpt>
      <trkpt lat="39.946253695747814" lon="116.47444819115404">
        <ele>25.4</ele>
        <time>2023-07-27T07:45:04Z</time>
      </trkpt>
      <trkpt lat="39.9462614647831" lon="116.47401261243223">
        <ele>18.3</ele>
        <time>2023-07-27T07:45:22Z</time>
      </trkpt>
      <trkpt lat="39.94624416818593" lon="116.47390723343513">
        <ele>17.0</ele>
        <time>2023-07-27T07:45:28Z</time>
      </trkpt>
      <trkpt lat="39.94596133509641" lon="116.47396246855216">
        <ele>21.9</ele>
        <time>2023-07-27T07:45:46Z</time>
      </trkpt>
      <trkpt lat="39.945843458699706" lon="116.47400463582625">
        <ele>24.099999999999998</ele>
        <time>2023-07-27T07:45:52Z</time>
      </trkpt>
      <trkpt lat="39.94560852465974" lon="116.47402473792432">
        <ele>29.3</ele>
        <time>2023-07-27T07:46:04Z</time>
      </trkpt>
      <trkpt lat="39.94530371238523" lon="116.47408700134663">
        <ele>26.8</ele>
        <time>2023-07-27T07:46:22Z</time>
      </trkpt>
      <trkpt lat="39.94508982288129" lon="116.47412315896376">
        <ele>28.099999999999998</ele>
        <time>2023-07-27T07:46:34Z</time>
      </trkpt>
      <trkpt lat="39.94493798479536" lon="116.47417837786907">
        <ele>25.099999999999998</ele>
        <time>2023-07-27T07:46:43Z</time>
      </trkpt>
      <trkpt lat="39.94484600828942" lon="116.47418541484754">
        <ele>24.8</ele>
        <time>2023-07-27T07:46:49Z</time>
      </trkpt>
      <trkpt lat="39.94484318626103" lon="116.47460192513459">
        <ele>22.5</ele>
        <time>2023-07-27T07:47:10Z</time>
      </trkpt>
      <trkpt lat="39.944823008913524" lon="116.47489198107775">
        <ele>23.7</ele>
        <time>2023-07-27T07:47:25Z</time>
      </trkpt>
      <trkpt lat="39.94471417569979" lon="116.4753014845206">
        <ele>26.099999999999998</ele>
        <time>2023-07-27T07:47:46Z</time>
      </trkpt>
      <trkpt lat="39.944604150727244" lon="116.47564274211338">
        <ele>28.8</ele>
        <time>2023-07-27T07:48:04Z</time>
      </trkpt>
      <trkpt lat="39.94448695890781" lon="116.47592478631573">
        <ele>26.7</ele>
        <time>2023-07-27T07:48:19Z</time>
      </trkpt>
      <trkpt lat="39.944301899919246" lon="116.47625200561457">
        <ele>26.499999999999996</ele>
        <time>2023-07-27T07:48:37Z</time>
      </trkpt>
      <trkpt lat="39.944188202615216" lon="116.47635640182702">
        <ele>25.8</ele>
        <time>2023-07-27T07:48:46Z</time>
      </trkpt>
      <trkpt lat="39.9438935183953" lon="116.47646282825441">
        <ele>26.900000000000002</ele>
        <time>2023-07-27T07:49:04Z</time>
      </trkpt>
      <trkpt lat="39.94368859827599" lon="116.47648794582457">
        <ele>25.2</ele>
        <time>2023-07-27T07:49:16Z</time>
      </trkpt>
      <trkpt lat="39.94363457172589" lon="116.47647791583796">
        <ele>25.7</ele>
        <time>2023-07-27T07:49:19Z</time>
      </trkpt>
      <trkpt lat="39.94361639169126" lon="116.47641468658549">
        <ele>26.099999999999998</ele>
        <time>2023-07-27T07:49:22Z</time>
      </trkpt>
      <trkpt lat="39.94360982996188" lon="116.47621796752159">
        <ele>24.4</ele>
        <time>2023-07-27T07:49:31Z</time>
      </trkpt>
      <trkpt lat="39.94355950534569" lon="116.47610355542254">
        <ele>23.099999999999998</ele>
        <time>2023-07-27T07:49:37Z</time>
      </trkpt>
      <trkpt lat="39.94329614931159" lon="116.47597511891054">
        <ele>21.9</ele>
        <time>2023-07-27T07:49:52Z</time>
      </trkpt>
      <trkpt lat="39.94301504600431" lon="116.47593500747843">
        <ele>28.7</ele>
        <time>2023-07-27T07:50:07Z</time>
      </trkpt>
      <trkpt lat="39.94269603007345" lon="116.47592501080254">
        <ele>30.499999999999996</ele>
        <time>2023-07-27T07:50:25Z</time>
      </trkpt>
      <trkpt lat="39.94238400814717" lon="116.47591300591972">
        <ele>27.999999999999996</ele>
        <time>2023-07-27T07:50:40Z</time>
      </trkpt>
      <trkpt lat="39.942217986139504" lon="116.47590299007105">
        <ele>29.599999999999998</ele>
        <time>2023-07-27T07:50:49Z</time>
      </trkpt>
      <trkpt lat="39.94194318022936" lon="116.47596725915481">
        <ele>27.900000000000002</ele>
        <time>2023-07-27T07:51:04Z</time>
      </trkpt>
      <trkpt lat="39.94164855558092" lon="116.47609476190377">
        <ele>24.3</ele>
        <time>2023-07-27T07:51:22Z</time>
      </trkpt>
      <trkpt lat="39.94155870811135" lon="116.47614696397478">
        <ele>24.4</ele>
        <time>2023-07-27T07:51:28Z</time>
      </trkpt>
      <trkpt lat="39.94139708136855" lon="116.47627545411548">
        <ele>25.7</ele>
        <time>2023-07-27T07:51:40Z</time>
      </trkpt>
      <trkpt lat="39.94114433515969" lon="116.47636079797539">
        <ele>27.099999999999998</ele>
        <time>2023-07-27T07:51:55Z</time>
      </trkpt>
      <trkpt lat="39.94082418160207" lon="116.47630262505966">
        <ele>30.3</ele>
        <time>2023-07-27T07:52:16Z</time>
      </trkpt>
      <trkpt lat="39.94077017515353" lon="116.47629962080985">
        <ele>29.7</ele>
        <time>2023-07-27T07:52:19Z</time>
      </trkpt>
      <trkpt lat="39.94068199520665" lon="116.4762353968582">
        <ele>28.400000000000002</ele>
        <time>2023-07-27T07:52:25Z</time>
      </trkpt>
      <trkpt lat="39.94055960756238" lon="116.47609790938203">
        <ele>23.0</ele>
        <time>2023-07-27T07:52:34Z</time>
      </trkpt>
      <trkpt lat="39.940286383647795" lon="116.47601564282489">
        <ele>24.4</ele>
        <time>2023-07-27T07:52:52Z</time>
      </trkpt>
      <trkpt lat="39.94011431894244" lon="116.47599057270543">
        <ele>25.8</ele>
        <time>2023-07-27T07:53:01Z</time>
      </trkpt>
      <trkpt lat="39.93997608405335" lon="116.47590628205442">
        <ele>28.400000000000002</ele>
        <time>2023-07-27T07:53:10Z</time>
      </trkpt>
      <trkpt lat="39.93989983535537" lon="116.47581796910255">
        <ele>27.900000000000002</ele>
        <time>2023-07-27T07:53:16Z</time>
      </trkpt>
      <trkpt lat="39.93987752173157" lon="116.47570756895574">
        <ele>26.400000000000002</ele>
        <time>2023-07-27T07:53:22Z</time>
      </trkpt>
      <trkpt lat="39.93986461117904" lon="116.475387403253">
        <ele>25.0</ele>
        <time>2023-07-27T07:53:34Z</time>
      </trkpt>
      <trkpt lat="39.93982326480189" lon="116.47526496248257">
        <ele>22.2</ele>
        <time>2023-07-27T07:53:40Z</time>
      </trkpt>
      <trkpt lat="39.9397430171094" lon="116.47517665103892">
        <ele>21.0</ele>
        <time>2023-07-27T07:53:46Z</time>
      </trkpt>
      <trkpt lat="39.93969397346232" lon="116.47516059874724">
        <ele>21.4</ele>
        <time>2023-07-27T07:53:49Z</time>
      </trkpt>
      <trkpt lat="39.93937404039088" lon="116.47517970825302">
        <ele>25.0</ele>
        <time>2023-07-27T07:54:07Z</time>
      </trkpt>
      <trkpt lat="39.93915311192795" lon="116.47520181631214">
        <ele>29.7</ele>
        <time>2023-07-27T07:54:19Z</time>
      </trkpt>
      <trkpt lat="39.93910919921269" lon="116.47523193141731">
        <ele>29.900000000000002</ele>
        <time>2023-07-27T07:54:22Z</time>
      </trkpt>
      <trkpt lat="39.939103493200335" lon="116.47533530855118">
        <ele>31.099999999999998</ele>
        <time>2023-07-27T07:54:28Z</time>
      </trkpt>
      <trkpt lat="39.939141348214434" lon="116.47563640125898">
        <ele>32.2</ele>
        <time>2023-07-27T07:54:43Z</time>
      </trkpt>
      <trkpt lat="39.939119435953025" lon="116.47601779640235">
        <ele>28.900000000000002</ele>
        <time>2023-07-27T07:55:01Z</time>
      </trkpt>
      <trkpt lat="39.93909627635467" lon="116.47631187463062">
        <ele>28.400000000000002</ele>
        <time>2023-07-27T07:55:13Z</time>
      </trkpt>
      <trkpt lat="39.93908974416564" lon="116.47647547430377">
        <ele>34.300000000000004</ele>
        <time>2023-07-27T08:08:28Z</time>
      </trkpt>
      <trkpt lat="39.93909141022345" lon="116.47670832722574">
        <ele>30.999999999999996</ele>
        <time>2023-07-27T08:08:37Z</time>
      </trkpt>
      <trkpt lat="39.93910887224038" lon="116.47686991760929">
        <ele>28.599999999999998</ele>
        <time>2023-07-27T08:08:43Z</time>
      </trkpt>
      <trkpt lat="39.9391015255479" lon="116.47709775474347">
        <ele>30.099999999999998</ele>
        <time>2023-07-27T08:08:52Z</time>
      </trkpt>
      <trkpt lat="39.93911397711133" lon="116.47725533202525">
        <ele>29.400000000000002</ele>
        <time>2023-07-27T08:08:58Z</time>
      </trkpt>
      <trkpt lat="39.939115006255456" lon="116.47761364958606">
        <ele>27.499999999999996</ele>
        <time>2023-07-27T08:09:13Z</time>
      </trkpt>
      <trkpt lat="39.939110040236955" lon="116.47797297360147">
        <ele>29.8</ele>
        <time>2023-07-27T08:09:28Z</time>
      </trkpt>
      <trkpt lat="39.939118202752745" lon="116.47837646096843">
        <ele>30.999999999999996</ele>
        <time>2023-07-27T08:09:46Z</time>
      </trkpt>
      <trkpt lat="39.939128381875186" lon="116.47843868946322">
        <ele>29.7</ele>
        <time>2023-07-27T08:09:49Z</time>
      </trkpt>
      <trkpt lat="39.93911982545773" lon="116.47859225778947">
        <ele>29.2</ele>
        <time>2023-07-27T08:09:55Z</time>
      </trkpt>
      <trkpt lat="39.93914198108119" lon="116.47864645530615">
        <ele>30.2</ele>
        <time>2023-07-27T08:09:58Z</time>
      </trkpt>
      <trkpt lat="39.93930187035125" lon="116.47861030175935">
        <ele>34.5</ele>
        <time>2023-07-27T08:10:10Z</time>
      </trkpt>
      <trkpt lat="39.93948883969934" lon="116.47860224868273">
        <ele>35.0</ele>
        <time>2023-07-27T08:10:22Z</time>
      </trkpt>
      <trkpt lat="39.93975937695019" lon="116.47844563641303">
        <ele>34.0</ele>
        <time>2023-07-27T08:10:40Z</time>
      </trkpt>
      <trkpt lat="39.940011588293366" lon="116.47817560831247">
        <ele>35.800000000000004</ele>
        <time>2023-07-27T08:10:58Z</time>
      </trkpt>
      <trkpt lat="39.940174665469314" lon="116.47785741495565">
        <ele>32.7</ele>
        <time>2023-07-27T08:11:16Z</time>
      </trkpt>
      <trkpt lat="39.940265274913116" lon="116.47772290825796">
        <ele>34.1</ele>
        <time>2023-07-27T08:11:25Z</time>
      </trkpt>
      <trkpt lat="39.94043864338612" lon="116.47785336710768">
        <ele>33.300000000000004</ele>
        <time>2023-07-27T08:11:37Z</time>
      </trkpt>
      <trkpt lat="39.94061220285584" lon="116.47805007040753">
        <ele>31.099999999999998</ele>
        <time>2023-07-27T08:11:52Z</time>
      </trkpt>
      <trkpt lat="39.940694354132845" lon="116.47845053789064">
        <ele>29.599999999999998</ele>
        <time>2023-07-27T08:12:10Z</time>
      </trkpt>
      <trkpt lat="39.94070953601194" lon="116.47851376954004">
        <ele>29.2</ele>
        <time>2023-07-27T08:12:13Z</time>
      </trkpt>
      <trkpt lat="39.94082511975082" lon="116.47871750801946">
        <ele>29.400000000000002</ele>
        <time>2023-07-27T08:12:25Z</time>
      </trkpt>
      <trkpt lat="39.94089665933041" lon="116.47890519320073">
        <ele>30.400000000000002</ele>
        <time>2023-07-27T08:12:34Z</time>
      </trkpt>
      <trkpt lat="39.94097196980193" lon="116.47901358489577">
        <ele>31.900000000000002</ele>
        <time>2023-07-27T08:12:40Z</time>
      </trkpt>
      <trkpt lat="39.94113035262808" lon="116.4791480629919">
        <ele>34.1</ele>
        <time>2023-07-27T08:12:52Z</time>
      </trkpt>
      <trkpt lat="39.9411635256181" lon="116.47920828187209">
        <ele>33.6</ele>
        <time>2023-07-27T08:12:55Z</time>
      </trkpt>
      <trkpt lat="39.94126173093704" lon="116.47928053728654">
        <ele>32.400000000000006</ele>
        <time>2023-07-27T08:13:01Z</time>
      </trkpt>
      <trkpt lat="39.941399429159716" lon="116.47952342037348">
        <ele>30.900000000000002</ele>
        <time>2023-07-27T08:13:13Z</time>
      </trkpt>
      <trkpt lat="39.94146664361042" lon="116.47994296895145">
        <ele>25.8</ele>
        <time>2023-07-27T08:13:31Z</time>
      </trkpt>
      <trkpt lat="39.94147406599833" lon="116.48008850867409">
        <ele>25.2</ele>
        <time>2023-07-27T08:13:37Z</time>
      </trkpt>
      <trkpt lat="39.9416366225023" lon="116.48028220839151">
        <ele>28.2</ele>
        <time>2023-07-27T08:13:52Z</time>
      </trkpt>
      <trkpt lat="39.94188018788261" lon="116.48047991339932">
        <ele>31.3</ele>
        <time>2023-07-27T08:14:07Z</time>
      </trkpt>
      <trkpt lat="39.941966371372196" lon="116.48054414166268">
        <ele>31.7</ele>
        <time>2023-07-27T08:14:13Z</time>
      </trkpt>
      <trkpt lat="39.94212225417708" lon="116.48050598022306">
        <ele>29.3</ele>
        <time>2023-07-27T08:14:22Z</time>
      </trkpt>
      <trkpt lat="39.94244432021913" lon="116.48053304078329">
        <ele>26.999999999999996</ele>
        <time>2023-07-27T08:14:40Z</time>
      </trkpt>
      <trkpt lat="39.94275025255341" lon="116.4805139315415">
        <ele>27.599999999999998</ele>
        <time>2023-07-27T08:14:58Z</time>
      </trkpt>
      <trkpt lat="39.94294520099104" lon="116.48049885112732">
        <ele>30.7</ele>
        <time>2023-07-27T08:15:10Z</time>
      </trkpt>
      <trkpt lat="39.94300696493098" lon="116.48041854464417">
        <ele>30.599999999999998</ele>
        <time>2023-07-27T08:15:16Z</time>
      </trkpt>
      <trkpt lat="39.943091806834026" lon="116.48036533614865">
        <ele>29.999999999999996</ele>
        <time>2023-07-27T08:15:22Z</time>
      </trkpt>
      <trkpt lat="39.94318877962657" lon="116.48035729415055">
        <ele>28.900000000000002</ele>
        <time>2023-07-27T08:15:28Z</time>
      </trkpt>
      <trkpt lat="39.94322194762405" lon="116.48041550654635">
        <ele>28.499999999999996</ele>
        <time>2023-07-27T08:15:31Z</time>
      </trkpt>
      <trkpt lat="39.94325697168183" lon="116.48076781355157">
        <ele>30.400000000000002</ele>
        <time>2023-07-27T08:15:46Z</time>
      </trkpt>
      <trkpt lat="39.943285252054466" lon="116.4812074485923">
        <ele>29.2</ele>
        <time>2023-07-27T08:16:07Z</time>
      </trkpt>
      <trkpt lat="39.943289400513734" lon="116.48160091651671">
        <ele>25.5</ele>
        <time>2023-07-27T08:16:25Z</time>
      </trkpt>
      <trkpt lat="39.94330497773173" lon="116.48179865321224">
        <ele>26.3</ele>
        <time>2023-07-27T08:16:34Z</time>
      </trkpt>
      <trkpt lat="39.94337409235925" lon="116.48183879460309">
        <ele>27.499999999999996</ele>
        <time>2023-07-27T08:16:40Z</time>
      </trkpt>
      <trkpt lat="39.94363870923055" lon="116.48171128522428">
        <ele>26.099999999999998</ele>
        <time>2023-07-27T08:17:01Z</time>
      </trkpt>
      <trkpt lat="39.94373862019848" lon="116.48168216399715">
        <ele>27.099999999999998</ele>
        <time>2023-07-27T08:17:07Z</time>
      </trkpt>
      <trkpt lat="39.94379435991817" lon="116.48159382713467">
        <ele>28.999999999999996</ele>
        <time>2023-07-27T08:17:13Z</time>
      </trkpt>
      <trkpt lat="39.9438721516043" lon="116.4815235550561">
        <ele>29.7</ele>
        <time>2023-07-27T08:17:19Z</time>
      </trkpt>
      <trkpt lat="39.94411908316807" lon="116.48150344922915">
        <ele>34.5</ele>
        <time>2023-07-27T08:17:37Z</time>
      </trkpt>
      <trkpt lat="39.94417002252285" lon="116.48148336791635">
        <ele>35.800000000000004</ele>
        <time>2023-07-27T08:17:40Z</time>
      </trkpt>
      <trkpt lat="39.94444904661327" lon="116.48149537798733">
        <ele>38.2</ele>
        <time>2023-07-27T08:17:58Z</time>
      </trkpt>
      <trkpt lat="39.9445220935428" lon="116.48151243255577">
        <ele>39.300000000000004</ele>
        <time>2023-07-27T08:18:04Z</time>
      </trkpt>
      <trkpt lat="39.94457020302853" lon="116.48155056894781">
        <ele>40.6</ele>
        <time>2023-07-27T08:18:07Z</time>
      </trkpt>
      <trkpt lat="39.94459939244973" lon="116.48161580892996">
        <ele>39.900000000000006</ele>
        <time>2023-07-27T08:18:10Z</time>
      </trkpt>
      <trkpt lat="39.94460254775251" lon="116.4816690072257">
        <ele>38.400000000000006</ele>
        <time>2023-07-27T08:18:14Z</time>
      </trkpt>
    </trkseg>
  </trk>
</gpx>