<?xml version="1.0" encoding="UTF-8"?>
<gpx xmlns="http://www.topografix.com/GPX/1/1" xmlns:gpxtpx="http://www.garmin.com/xmlschemas/TrackPointExtension/v1" xmlns:xsi="http://www.w3.org/2001/XMLSchema-instance" xsi:schemaLocation="http://www.topografix.com/GPX/1/1 http://www.topografix.com/GPX/1/1/gpx.xsd" version="1.1" creator="gpx.py -- https://github.com/tkrajina/gpxpy">
  <trk>
    <name>gpx from keep</name>
    <type>Run</type>
    <trkseg>
      <trkpt lat="34.973297268285705" lon="118.41746383445181">
        <ele>68.2</ele>
        <time>2023-01-20T06:17:51Z</time>
      </trkpt>
      <trkpt lat="34.97305429560199" lon="118.41719848440626">
        <ele>66.4</ele>
        <time>2023-01-20T06:18:03Z</time>
      </trkpt>
      <trkpt lat="34.97282630199668" lon="118.41692512531529">
        <ele>65.7</ele>
        <time>2023-01-20T06:18:15Z</time>
      </trkpt>
      <trkpt lat="34.972594326919314" lon="118.41666378720834">
        <ele>66.89999999999999</ele>
        <time>2023-01-20T06:18:27Z</time>
      </trkpt>
      <trkpt lat="34.972401303261556" lon="118.41639343624816">
        <ele>66.8</ele>
        <time>2023-01-20T06:18:39Z</time>
      </trkpt>
      <trkpt lat="34.972179310115415" lon="118.41611708413429">
        <ele>70.1</ele>
        <time>2023-01-20T06:18:51Z</time>
      </trkpt>
      <trkpt lat="34.97195431258773" lon="118.41582771899077">
        <ele>72.1</ele>
        <time>2023-01-20T06:19:06Z</time>
      </trkpt>
      <trkpt lat="34.971749296396" lon="118.41553835616871">
        <ele>71.5</ele>
        <time>2023-01-20T06:19:21Z</time>
      </trkpt>
      <trkpt lat="34.97154127982279" lon="118.41523998635321">
        <ele>70.2</ele>
        <time>2023-01-20T06:19:36Z</time>
      </trkpt>
      <trkpt lat="34.971344250821424" lon="118.41493661364902">
        <ele>68.3</ele>
        <time>2023-01-20T06:19:51Z</time>
      </trkpt>
      <trkpt lat="34.97115824095611" lon="118.41466728805956">
        <ele>68.7</ele>
        <time>2023-01-20T06:20:03Z</time>
      </trkpt>
      <trkpt lat="34.970972237505" lon="118.41440197138786">
        <ele>69.2</ele>
        <time>2023-01-20T06:20:15Z</time>
      </trkpt>
      <trkpt lat="34.970779214610786" lon="118.41409761056455">
        <ele>77.5</ele>
        <time>2023-01-20T06:20:33Z</time>
      </trkpt>
      <trkpt lat="34.970697209357475" lon="118.41397246391553">
        <ele>76.3</ele>
        <time>2023-01-20T06:20:42Z</time>
      </trkpt>
    </trkseg>
  </trk>
</gpx>