<?xml version="1.0" encoding="UTF-8"?>
<gpx xmlns="http://www.topografix.com/GPX/1/1" xmlns:gpxtpx="http://www.garmin.com/xmlschemas/TrackPointExtension/v1" xmlns:xsi="http://www.w3.org/2001/XMLSchema-instance" xsi:schemaLocation="http://www.topografix.com/GPX/1/1 http://www.topografix.com/GPX/1/1/gpx.xsd" version="1.1" creator="gpx.py -- https://github.com/tkrajina/gpxpy">
  <trk>
    <name>gpx from keep</name>
    <type>Walk</type>
    <trkseg>
      <trkpt lat="39.93100213740114" lon="116.4785882552592">
        <ele>51.0</ele>
        <time>2023-06-29T12:41:23Z</time>
      </trkpt>
      <trkpt lat="39.93092016680406" lon="116.47859729889097">
        <ele>49.0</ele>
        <time>2023-06-29T12:41:32Z</time>
      </trkpt>
      <trkpt lat="39.930892301255945" lon="116.4786434729755">
        <ele>49.0</ele>
        <time>2023-06-29T12:41:35Z</time>
      </trkpt>
      <trkpt lat="39.93075951536998" lon="116.4787157566755">
        <ele>51.900000000000006</ele>
        <time>2023-06-29T12:41:47Z</time>
      </trkpt>
      <trkpt lat="39.93052459448648" lon="116.47873987511552">
        <ele>56.300000000000004</ele>
        <time>2023-06-29T12:42:11Z</time>
      </trkpt>
      <trkpt lat="39.93029178664314" lon="116.47880313802696">
        <ele>59.3</ele>
        <time>2023-06-29T12:42:26Z</time>
      </trkpt>
      <trkpt lat="39.93024856218802" lon="116.47872485400096">
        <ele>55.7</ele>
        <time>2023-06-29T12:42:32Z</time>
      </trkpt>
      <trkpt lat="39.93023518878315" lon="116.47859537718938">
        <ele>51.400000000000006</ele>
        <time>2023-06-29T12:42:35Z</time>
      </trkpt>
      <trkpt lat="39.930192103597044" lon="116.47856527134029">
        <ele>46.6</ele>
        <time>2023-06-29T12:42:41Z</time>
      </trkpt>
      <trkpt lat="39.930134120438545" lon="116.47857029713515">
        <ele>43.300000000000004</ele>
        <time>2023-06-29T12:42:47Z</time>
      </trkpt>
      <trkpt lat="39.93002635087136" lon="116.47864859987864">
        <ele>40.800000000000004</ele>
        <time>2023-06-29T12:42:59Z</time>
      </trkpt>
      <trkpt lat="39.93006448557486" lon="116.47869576944645">
        <ele>50.800000000000004</ele>
        <time>2023-06-29T12:43:08Z</time>
      </trkpt>
      <trkpt lat="39.93005696152774" lon="116.47886037897376">
        <ele>53.1</ele>
        <time>2023-06-29T12:43:17Z</time>
      </trkpt>
      <trkpt lat="39.93006715552954" lon="116.47892762643993">
        <ele>53.2</ele>
        <time>2023-06-29T12:43:20Z</time>
      </trkpt>
      <trkpt lat="39.930033273000475" lon="116.4789677792123">
        <ele>53.400000000000006</ele>
        <time>2023-06-29T12:43:23Z</time>
      </trkpt>
      <trkpt lat="39.92996224105361" lon="116.47895574353697">
        <ele>55.2</ele>
        <time>2023-06-29T12:43:38Z</time>
      </trkpt>
      <trkpt lat="39.92992901604635" lon="116.47887745808939">
        <ele>55.6</ele>
        <time>2023-06-29T12:43:41Z</time>
      </trkpt>
      <trkpt lat="39.9299796977965" lon="116.47876804719132">
        <ele>56.300000000000004</ele>
        <time>2023-06-29T12:43:44Z</time>
      </trkpt>
      <trkpt lat="39.93007942698558" lon="116.47867569338584">
        <ele>44.6</ele>
        <time>2023-06-29T12:44:26Z</time>
      </trkpt>
      <trkpt lat="39.93007874888078" lon="116.47878710530452">
        <ele>41.1</ele>
        <time>2023-06-29T12:44:35Z</time>
      </trkpt>
      <trkpt lat="39.93006391192512" lon="116.4788433150009">
        <ele>40.300000000000004</ele>
        <time>2023-06-29T12:44:38Z</time>
      </trkpt>
      <trkpt lat="39.93002005877583" lon="116.47889350609735">
        <ele>39.300000000000004</ele>
        <time>2023-06-29T12:44:44Z</time>
      </trkpt>
      <trkpt lat="39.92998825741245" lon="116.47896176256289">
        <ele>38.900000000000006</ele>
        <time>2023-06-29T12:44:50Z</time>
      </trkpt>
      <trkpt lat="39.930039388264504" lon="116.47935320552213">
        <ele>43.5</ele>
        <time>2023-06-29T12:45:14Z</time>
      </trkpt>
      <trkpt lat="39.93007456711248" lon="116.47941543172887">
        <ele>36.6</ele>
        <time>2023-06-29T12:45:20Z</time>
      </trkpt>
      <trkpt lat="39.93006518426752" lon="116.47962822183187">
        <ele>31.999999999999996</ele>
        <time>2023-06-29T12:45:38Z</time>
      </trkpt>
      <trkpt lat="39.9300766409065" lon="116.47978580504889">
        <ele>33.900000000000006</ele>
        <time>2023-06-29T12:45:50Z</time>
      </trkpt>
      <trkpt lat="39.93006686559342" lon="116.47986309313227">
        <ele>35.400000000000006</ele>
        <time>2023-06-29T12:45:56Z</time>
      </trkpt>
      <trkpt lat="39.93007906905784" lon="116.47993335245754">
        <ele>37.7</ele>
        <time>2023-06-29T12:46:02Z</time>
      </trkpt>
      <trkpt lat="39.9300388812571" lon="116.48021239407689">
        <ele>39.5</ele>
        <time>2023-06-29T12:46:23Z</time>
      </trkpt>
      <trkpt lat="39.93005009963066" lon="116.48028767250403">
        <ele>38.400000000000006</ele>
        <time>2023-06-29T12:46:29Z</time>
      </trkpt>
      <trkpt lat="39.93007728239249" lon="116.48035090421858">
        <ele>37.400000000000006</ele>
        <time>2023-06-29T12:46:35Z</time>
      </trkpt>
      <trkpt lat="39.9300767933823" lon="116.48052655764052">
        <ele>35.0</ele>
        <time>2023-06-29T12:46:47Z</time>
      </trkpt>
      <trkpt lat="39.930125215048875" lon="116.48067209323771">
        <ele>34.7</ele>
        <time>2023-06-29T12:47:02Z</time>
      </trkpt>
      <trkpt lat="39.93013232605509" lon="116.4810535130926">
        <ele>33.400000000000006</ele>
        <time>2023-06-29T12:47:29Z</time>
      </trkpt>
      <trkpt lat="39.93012254596966" lon="116.48112879493424">
        <ele>32.7</ele>
        <time>2023-06-29T12:47:35Z</time>
      </trkpt>
      <trkpt lat="39.930164531361164" lon="116.48146705143353">
        <ele>35.900000000000006</ele>
        <time>2023-06-29T12:47:59Z</time>
      </trkpt>
      <trkpt lat="39.93013252679573" lon="116.48180732601081">
        <ele>37.6</ele>
        <time>2023-06-29T12:48:23Z</time>
      </trkpt>
      <trkpt lat="39.93015177397536" lon="116.4822339183518">
        <ele>35.5</ele>
        <time>2023-06-29T12:48:53Z</time>
      </trkpt>
      <trkpt lat="39.930151705953406" lon="116.48255210914077">
        <ele>33.800000000000004</ele>
        <time>2023-06-29T12:49:17Z</time>
      </trkpt>
      <trkpt lat="39.93017727279869" lon="116.48274583145587">
        <ele>35.6</ele>
        <time>2023-06-29T12:49:29Z</time>
      </trkpt>
      <trkpt lat="39.93014013414175" lon="116.48303893448742">
        <ele>27.8</ele>
        <time>2023-06-29T12:49:47Z</time>
      </trkpt>
      <trkpt lat="39.930102265310616" lon="116.48308310480324">
        <ele>28.599999999999998</ele>
        <time>2023-06-29T12:49:53Z</time>
      </trkpt>
      <trkpt lat="39.93008956050831" lon="116.48318348279393">
        <ele>28.999999999999996</ele>
        <time>2023-06-29T12:49:59Z</time>
      </trkpt>
      <trkpt lat="39.92996236822601" lon="116.48311624647765">
        <ele>29.999999999999996</ele>
        <time>2023-06-29T12:50:14Z</time>
      </trkpt>
      <trkpt lat="39.929755335382886" lon="116.48310221964138">
        <ele>29.2</ele>
        <time>2023-06-29T12:50:35Z</time>
      </trkpt>
      <trkpt lat="39.929684403091" lon="116.48312431130425">
        <ele>30.2</ele>
        <time>2023-06-29T12:50:41Z</time>
      </trkpt>
      <trkpt lat="39.929610320649815" lon="116.4830952114068">
        <ele>30.400000000000002</ele>
        <time>2023-06-29T12:50:47Z</time>
      </trkpt>
      <trkpt lat="39.929544016959554" lon="116.48299082832416">
        <ele>30.099999999999998</ele>
        <time>2023-06-29T12:50:53Z</time>
      </trkpt>
      <trkpt lat="39.92952236709842" lon="116.48276899974579">
        <ele>30.599999999999998</ele>
        <time>2023-06-29T12:51:08Z</time>
      </trkpt>
      <trkpt lat="39.92946888077752" lon="116.48260238235663">
        <ele>31.900000000000002</ele>
        <time>2023-06-29T12:51:20Z</time>
      </trkpt>
      <trkpt lat="39.92928168835688" lon="116.48253415018101">
        <ele>34.2</ele>
        <time>2023-06-29T12:51:41Z</time>
      </trkpt>
      <trkpt lat="39.9292544835937" lon="116.48246389055521">
        <ele>32.1</ele>
        <time>2023-06-29T12:51:53Z</time>
      </trkpt>
      <trkpt lat="39.92915411722841" lon="116.4823374297823">
        <ele>26.2</ele>
        <time>2023-06-29T12:52:05Z</time>
      </trkpt>
      <trkpt lat="39.92912488329183" lon="116.48225713300857">
        <ele>25.099999999999998</ele>
        <time>2023-06-29T12:52:11Z</time>
      </trkpt>
      <trkpt lat="39.92908692440738" lon="116.48192891049077">
        <ele>23.7</ele>
        <time>2023-06-29T12:52:32Z</time>
      </trkpt>
      <trkpt lat="39.92906174932075" lon="116.48186868858043">
        <ele>23.9</ele>
        <time>2023-06-29T12:52:38Z</time>
      </trkpt>
      <trkpt lat="39.9290136045481" lon="116.48181850708083">
        <ele>26.099999999999998</ele>
        <time>2023-06-29T12:52:44Z</time>
      </trkpt>
      <trkpt lat="39.92887549866942" lon="116.48178038184545">
        <ele>31.3</ele>
        <time>2023-06-29T12:52:56Z</time>
      </trkpt>
      <trkpt lat="39.92881851565913" lon="116.48178540771397">
        <ele>32.800000000000004</ele>
        <time>2023-06-29T12:53:05Z</time>
      </trkpt>
      <trkpt lat="39.928629810927994" lon="116.48188379881212">
        <ele>32.800000000000004</ele>
        <time>2023-06-29T12:53:26Z</time>
      </trkpt>
      <trkpt lat="39.928580006690346" lon="116.48195005260844">
        <ele>32.5</ele>
        <time>2023-06-29T12:53:32Z</time>
      </trkpt>
      <trkpt lat="39.92840223413733" lon="116.48202535621223">
        <ele>31.499999999999996</ele>
        <time>2023-06-29T12:53:44Z</time>
      </trkpt>
      <trkpt lat="39.928330193027726" lon="116.48201030892986">
        <ele>33.0</ele>
        <time>2023-06-29T12:53:50Z</time>
      </trkpt>
      <trkpt lat="39.92815239702837" lon="116.48207758256154">
        <ele>39.300000000000004</ele>
        <time>2023-06-29T12:54:05Z</time>
      </trkpt>
      <trkpt lat="39.92800983467825" lon="116.48222515216312">
        <ele>31.499999999999996</ele>
        <time>2023-06-29T12:54:23Z</time>
      </trkpt>
      <trkpt lat="39.92787768966194" lon="116.48251525416653">
        <ele>28.3</ele>
        <time>2023-06-29T12:54:47Z</time>
      </trkpt>
      <trkpt lat="39.92784016778245" lon="116.48267786772048">
        <ele>27.599999999999998</ele>
        <time>2023-06-29T12:54:59Z</time>
      </trkpt>
      <trkpt lat="39.92780936327593" lon="116.4827441197037">
        <ele>28.099999999999998</ele>
        <time>2023-06-29T12:55:05Z</time>
      </trkpt>
      <trkpt lat="39.927765479861826" lon="116.48278327183151">
        <ele>27.999999999999996</ele>
        <time>2023-06-29T12:55:11Z</time>
      </trkpt>
      <trkpt lat="39.92747948270607" lon="116.48278029627073">
        <ele>26.8</ele>
        <time>2023-06-29T12:55:35Z</time>
      </trkpt>
      <trkpt lat="39.927332429841655" lon="116.48276023943272">
        <ele>24.2</ele>
        <time>2023-06-29T12:55:47Z</time>
      </trkpt>
      <trkpt lat="39.927275523417364" lon="116.48279136310856">
        <ele>26.099999999999998</ele>
        <time>2023-06-29T12:55:53Z</time>
      </trkpt>
      <trkpt lat="39.92717893074035" lon="116.48292889044724">
        <ele>25.9</ele>
        <time>2023-06-29T12:56:05Z</time>
      </trkpt>
      <trkpt lat="39.92716648801202" lon="116.48311860316748">
        <ele>24.4</ele>
        <time>2023-06-29T12:56:17Z</time>
      </trkpt>
      <trkpt lat="39.92720532069455" lon="116.48340266385081">
        <ele>29.999999999999996</ele>
        <time>2023-06-29T12:56:44Z</time>
      </trkpt>
      <trkpt lat="39.92725362843428" lon="116.48350805335659">
        <ele>30.7</ele>
        <time>2023-06-29T12:56:53Z</time>
      </trkpt>
      <trkpt lat="39.927016758474984" lon="116.48422879040686">
        <ele>43.6</ele>
        <time>2023-06-29T12:57:26Z</time>
      </trkpt>
      <trkpt lat="39.92697181648008" lon="116.48424786772597">
        <ele>38.1</ele>
        <time>2023-06-29T12:57:32Z</time>
      </trkpt>
      <trkpt lat="39.926984034766264" lon="116.48432214552109">
        <ele>29.400000000000002</ele>
        <time>2023-06-29T12:57:38Z</time>
      </trkpt>
      <trkpt lat="39.92704432802711" lon="116.48442251553138">
        <ele>34.6</ele>
        <time>2023-06-29T12:57:41Z</time>
      </trkpt>
      <trkpt lat="39.92700226468028" lon="116.48440043771596">
        <ele>32.7</ele>
        <time>2023-06-29T12:57:53Z</time>
      </trkpt>
      <trkpt lat="39.92693432660938" lon="116.48442052170869">
        <ele>29.2</ele>
        <time>2023-06-29T12:57:59Z</time>
      </trkpt>
      <trkpt lat="39.92688426950521" lon="116.48440045244259">
        <ele>26.8</ele>
        <time>2023-06-29T12:58:05Z</time>
      </trkpt>
      <trkpt lat="39.92677531832466" lon="116.4844155226751">
        <ele>22.099999999999998</ele>
        <time>2023-06-29T12:58:17Z</time>
      </trkpt>
      <trkpt lat="39.92671726746401" lon="116.48439746195878">
        <ele>20.7</ele>
        <time>2023-06-29T12:58:23Z</time>
      </trkpt>
      <trkpt lat="39.92658449768658" lon="116.48447376549564">
        <ele>15.3</ele>
        <time>2023-06-29T12:58:35Z</time>
      </trkpt>
      <trkpt lat="39.92632447875137" lon="116.48446376018468">
        <ele>18.099999999999998</ele>
        <time>2023-06-29T12:58:56Z</time>
      </trkpt>
      <trkpt lat="39.926283575085954" lon="116.48449588612895">
        <ele>21.0</ele>
        <time>2023-06-29T12:59:02Z</time>
      </trkpt>
      <trkpt lat="39.9262204001938" lon="116.48443566744639">
        <ele>20.3</ele>
        <time>2023-06-29T12:59:17Z</time>
      </trkpt>
      <trkpt lat="39.92613446878678" lon="116.48445776124149">
        <ele>20.099999999999998</ele>
        <time>2023-06-29T12:59:23Z</time>
      </trkpt>
      <trkpt lat="39.92601548253635" lon="116.48446078741901">
        <ele>21.7</ele>
        <time>2023-06-29T12:59:35Z</time>
      </trkpt>
      <trkpt lat="39.92596538106613" lon="116.48442566151493">
        <ele>21.2</ele>
        <time>2023-06-29T12:59:41Z</time>
      </trkpt>
      <trkpt lat="39.92587231094179" lon="116.48440057873903">
        <ele>20.4</ele>
        <time>2023-06-29T12:59:53Z</time>
      </trkpt>
      <trkpt lat="39.925825159096625" lon="116.48434838830761">
        <ele>16.3</ele>
        <time>2023-06-29T12:59:59Z</time>
      </trkpt>
      <trkpt lat="39.92572724591288" lon="116.48437650623308">
        <ele>15.099999999999998</ele>
        <time>2023-06-29T13:00:05Z</time>
      </trkpt>
      <trkpt lat="39.92567418007374" lon="116.48435342602578">
        <ele>13.0</ele>
        <time>2023-06-29T13:00:11Z</time>
      </trkpt>
      <trkpt lat="39.925577175181864" lon="116.48435042680691">
        <ele>11.8</ele>
        <time>2023-06-29T13:00:17Z</time>
      </trkpt>
      <trkpt lat="39.925499237523105" lon="116.48437051203707">
        <ele>9.2</ele>
        <time>2023-06-29T13:00:23Z</time>
      </trkpt>
      <trkpt lat="39.92541519070037" lon="116.48435345834814">
        <ele>7.2</ele>
        <time>2023-06-29T13:00:32Z</time>
      </trkpt>
      <trkpt lat="39.92514225809314" lon="116.48437256413854">
        <ele>9.2</ele>
        <time>2023-06-29T13:00:53Z</time>
      </trkpt>
      <trkpt lat="39.92506919012252" lon="116.48434848265379">
        <ele>11.3</ele>
        <time>2023-06-29T13:00:59Z</time>
      </trkpt>
      <trkpt lat="39.92500521936464" lon="116.48435752461302">
        <ele>10.5</ele>
        <time>2023-06-29T13:01:05Z</time>
      </trkpt>
      <trkpt lat="39.92479504743363" lon="116.48463559687487">
        <ele>13.8</ele>
        <time>2023-06-29T13:01:32Z</time>
      </trkpt>
      <trkpt lat="39.92467963531353" lon="116.48483335559645">
        <ele>19.4</ele>
        <time>2023-06-29T13:01:47Z</time>
      </trkpt>
      <trkpt lat="39.92455887717037" lon="116.48491367301588">
        <ele>20.7</ele>
        <time>2023-06-29T13:01:59Z</time>
      </trkpt>
      <trkpt lat="39.92451532918528" lon="116.4850662530601">
        <ele>19.0</ele>
        <time>2023-06-29T13:02:11Z</time>
      </trkpt>
      <trkpt lat="39.92464426634478" lon="116.4853854397093">
        <ele>21.7</ele>
        <time>2023-06-29T13:02:26Z</time>
      </trkpt>
      <trkpt lat="39.9247169454619" lon="116.48561630102583">
        <ele>19.8</ele>
        <time>2023-06-29T13:02:41Z</time>
      </trkpt>
      <trkpt lat="39.92471923908316" lon="116.48571567550272">
        <ele>21.8</ele>
        <time>2023-06-29T13:02:47Z</time>
      </trkpt>
      <trkpt lat="39.924703411841" lon="116.48577389706774">
        <ele>23.0</ele>
        <time>2023-06-29T13:02:50Z</time>
      </trkpt>
      <trkpt lat="39.92464955353871" lon="116.48582108174695">
        <ele>25.2</ele>
        <time>2023-06-29T13:02:56Z</time>
      </trkpt>
      <trkpt lat="39.92459737168946" lon="116.48575885350016">
        <ele>25.9</ele>
        <time>2023-06-29T13:03:05Z</time>
      </trkpt>
      <trkpt lat="39.92463723355407" lon="116.4857126743733">
        <ele>24.7</ele>
        <time>2023-06-29T13:03:14Z</time>
      </trkpt>
      <trkpt lat="39.92465741373261" lon="116.48577390280468">
        <ele>27.499999999999996</ele>
        <time>2023-06-29T13:03:26Z</time>
      </trkpt>
      <trkpt lat="39.92471749138864" lon="116.48580099754335">
        <ele>24.0</ele>
        <time>2023-06-29T13:03:47Z</time>
      </trkpt>
      <trkpt lat="39.92465742560242" lon="116.48577791794827">
        <ele>28.2</ele>
        <time>2023-06-29T13:04:08Z</time>
      </trkpt>
      <trkpt lat="39.924624646570585" lon="116.48585220224102">
        <ele>24.9</ele>
        <time>2023-06-29T13:04:11Z</time>
      </trkpt>
      <trkpt lat="39.92465450881749" lon="116.48580602433086">
        <ele>22.3</ele>
        <time>2023-06-29T13:04:27Z</time>
      </trkpt>
      <trkpt lat="39.92457952080514" lon="116.48580904504276">
        <ele>18.2</ele>
        <time>2023-06-29T13:04:41Z</time>
      </trkpt>
      <trkpt lat="39.924629524684" lon="116.48581104637935">
        <ele>18.2</ele>
        <time>2023-06-29T13:05:05Z</time>
      </trkpt>
      <trkpt lat="39.92461576269654" lon="116.48589135103991">
        <ele>15.599999999999998</ele>
        <time>2023-06-29T13:05:23Z</time>
      </trkpt>
      <trkpt lat="39.92468909217783" lon="116.4860037660924">
        <ele>16.3</ele>
        <time>2023-06-29T13:05:35Z</time>
      </trkpt>
      <trkpt lat="39.924902350655664" lon="116.48609408043417">
        <ele>22.599999999999998</ele>
        <time>2023-06-29T13:06:02Z</time>
      </trkpt>
      <trkpt lat="39.924584681511334" lon="116.48620152545504">
        <ele>25.599999999999998</ele>
        <time>2023-06-29T13:21:33Z</time>
      </trkpt>
      <trkpt lat="39.92454179912522" lon="116.4862406785863">
        <ele>26.0</ele>
        <time>2023-06-29T13:21:39Z</time>
      </trkpt>
      <trkpt lat="39.924514987390914" lon="116.48630392067874">
        <ele>23.4</ele>
        <time>2023-06-29T13:21:45Z</time>
      </trkpt>
      <trkpt lat="39.92442022007898" lon="116.48638122433502">
        <ele>18.4</ele>
        <time>2023-06-29T13:22:00Z</time>
      </trkpt>
      <trkpt lat="39.924352187221096" lon="116.48636918733382">
        <ele>18.3</ele>
        <time>2023-06-29T13:22:06Z</time>
      </trkpt>
      <trkpt lat="39.9242299664406" lon="116.48629291453015">
        <ele>20.5</ele>
        <time>2023-06-29T13:22:18Z</time>
      </trkpt>
      <trkpt lat="39.9240748837009" lon="116.486262820177">
        <ele>19.5</ele>
        <time>2023-06-29T13:22:30Z</time>
      </trkpt>
      <trkpt lat="39.92398817249673" lon="116.48635919481902">
        <ele>23.7</ele>
        <time>2023-06-29T13:22:42Z</time>
      </trkpt>
      <trkpt lat="39.9239342192912" lon="116.48637425840003">
        <ele>24.0</ele>
        <time>2023-06-29T13:22:48Z</time>
      </trkpt>
      <trkpt lat="39.9237039807655" lon="116.48662824625657">
        <ele>27.499999999999996</ele>
        <time>2023-06-29T13:23:18Z</time>
      </trkpt>
      <trkpt lat="39.92363419177167" lon="116.48669852040548">
        <ele>26.599999999999998</ele>
        <time>2023-06-29T13:23:27Z</time>
      </trkpt>
      <trkpt lat="39.92351588963322" lon="116.4869324189316">
        <ele>25.599999999999998</ele>
        <time>2023-06-29T13:23:48Z</time>
      </trkpt>
      <trkpt lat="39.92329768420193" lon="116.48719744787773">
        <ele>24.099999999999998</ele>
        <time>2023-06-29T13:24:27Z</time>
      </trkpt>
      <trkpt lat="39.9232338832887" lon="116.48726370632815">
        <ele>25.2</ele>
        <time>2023-06-29T13:24:36Z</time>
      </trkpt>
      <trkpt lat="39.92316498734582" lon="116.48729784396888">
        <ele>24.4</ele>
        <time>2023-06-29T13:24:45Z</time>
      </trkpt>
      <trkpt lat="39.92289487942979" lon="116.4872577258054">
        <ele>28.599999999999998</ele>
        <time>2023-06-29T13:25:09Z</time>
      </trkpt>
      <trkpt lat="39.92284392618671" lon="116.48727278908984">
        <ele>28.400000000000002</ele>
        <time>2023-06-29T13:25:15Z</time>
      </trkpt>
      <trkpt lat="39.92278688686949" lon="116.48725874306021">
        <ele>28.599999999999998</ele>
        <time>2023-06-29T13:25:21Z</time>
      </trkpt>
      <trkpt lat="39.92273212431139" lon="116.48733804975191">
        <ele>30.099999999999998</ele>
        <time>2023-06-29T13:25:27Z</time>
      </trkpt>
      <trkpt lat="39.9227795898306" lon="116.48749563987535">
        <ele>32.6</ele>
        <time>2023-06-29T13:25:39Z</time>
      </trkpt>
      <trkpt lat="39.922754460675456" lon="116.48778875190804">
        <ele>32.800000000000004</ele>
        <time>2023-06-29T13:26:03Z</time>
      </trkpt>
      <trkpt lat="39.922773659523244" lon="116.48785600401665">
        <ele>34.900000000000006</ele>
        <time>2023-06-29T13:26:09Z</time>
      </trkpt>
      <trkpt lat="39.92275808932383" lon="116.48800055301781">
        <ele>34.900000000000006</ele>
        <time>2023-06-29T13:26:24Z</time>
      </trkpt>
      <trkpt lat="39.922710553343826" lon="116.48815614790095">
        <ele>29.499999999999996</ele>
        <time>2023-06-29T13:26:33Z</time>
      </trkpt>
      <trkpt lat="39.922689974616574" lon="116.48829768632491">
        <ele>20.599999999999998</ele>
        <time>2023-06-29T13:26:45Z</time>
      </trkpt>
      <trkpt lat="39.92270214708021" lon="116.48835590525924">
        <ele>20.7</ele>
        <time>2023-06-29T13:26:51Z</time>
      </trkpt>
      <trkpt lat="39.922699938420344" lon="116.48828563947507">
        <ele>20.9</ele>
        <time>2023-06-29T13:27:03Z</time>
      </trkpt>
      <trkpt lat="39.92276428878003" lon="116.48806780681475">
        <ele>23.9</ele>
        <time>2023-06-29T13:27:21Z</time>
      </trkpt>
      <trkpt lat="39.9227477350938" lon="116.48788110221544">
        <ele>24.0</ele>
        <time>2023-06-29T13:27:33Z</time>
      </trkpt>
      <trkpt lat="39.92275843667486" lon="116.48778072102598">
        <ele>26.999999999999996</ele>
        <time>2023-06-29T13:27:42Z</time>
      </trkpt>
      <trkpt lat="39.922730238225" lon="116.48771347006407">
        <ele>28.3</ele>
        <time>2023-06-29T13:27:48Z</time>
      </trkpt>
      <trkpt lat="39.92260015720997" lon="116.48768437613403">
        <ele>31.2</ele>
        <time>2023-06-29T13:28:00Z</time>
      </trkpt>
      <trkpt lat="39.92247917710901" lon="116.48768941019806">
        <ele>30.2</ele>
        <time>2023-06-29T13:28:12Z</time>
      </trkpt>
      <trkpt lat="39.92232044883177" lon="116.48777876800327">
        <ele>29.3</ele>
        <time>2023-06-29T13:28:30Z</time>
      </trkpt>
      <trkpt lat="39.922294613781304" lon="116.48783398013511">
        <ele>26.0</ele>
        <time>2023-06-29T13:28:33Z</time>
      </trkpt>
      <trkpt lat="39.922245636667185" lon="116.48784101282746">
        <ele>23.099999999999998</ele>
        <time>2023-06-29T13:28:39Z</time>
      </trkpt>
      <trkpt lat="39.92220878718991" lon="116.48789120735397">
        <ele>23.099999999999998</ele>
        <time>2023-06-29T13:28:45Z</time>
      </trkpt>
      <trkpt lat="39.92212989476199" lon="116.48792635014523">
        <ele>26.0</ele>
        <time>2023-06-29T13:28:51Z</time>
      </trkpt>
      <trkpt lat="39.9220647871925" lon="116.48788921769777">
        <ele>26.900000000000002</ele>
        <time>2023-06-29T13:28:57Z</time>
      </trkpt>
      <trkpt lat="39.922020854574704" lon="116.48791130674638">
        <ele>26.3</ele>
        <time>2023-06-29T13:29:03Z</time>
      </trkpt>
      <trkpt lat="39.922012144035904" lon="116.488008676349">
        <ele>25.599999999999998</ele>
        <time>2023-06-29T13:29:09Z</time>
      </trkpt>
      <trkpt lat="39.92205384588031" lon="116.48824556793821">
        <ele>27.599999999999998</ele>
        <time>2023-06-29T13:29:27Z</time>
      </trkpt>
      <trkpt lat="39.92204408484425" lon="116.48832587320665">
        <ele>26.499999999999996</ele>
        <time>2023-06-29T13:29:33Z</time>
      </trkpt>
      <trkpt lat="39.921998563938935" lon="116.48848648706608">
        <ele>24.3</ele>
        <time>2023-06-29T13:29:45Z</time>
      </trkpt>
      <trkpt lat="39.92199258162445" lon="116.48882878437132">
        <ele>22.5</ele>
        <time>2023-06-29T13:30:15Z</time>
      </trkpt>
      <trkpt lat="39.922024442981744" lon="116.48911887960317">
        <ele>24.4</ele>
        <time>2023-06-29T13:30:39Z</time>
      </trkpt>
      <trkpt lat="39.92200214862656" lon="116.48935578021809">
        <ele>27.2</ele>
        <time>2023-06-29T13:30:57Z</time>
      </trkpt>
      <trkpt lat="39.92203421971773" lon="116.48971614235498">
        <ele>28.999999999999996</ele>
        <time>2023-06-29T13:31:27Z</time>
      </trkpt>
      <trkpt lat="39.922055696936376" lon="116.48987674866625">
        <ele>27.999999999999996</ele>
        <time>2023-06-29T13:31:39Z</time>
      </trkpt>
      <trkpt lat="39.92203941493607" lon="116.49011766430141">
        <ele>25.599999999999998</ele>
        <time>2023-06-29T13:31:57Z</time>
      </trkpt>
      <trkpt lat="39.92202065785273" lon="116.49019897501209">
        <ele>25.099999999999998</ele>
        <time>2023-06-29T13:32:03Z</time>
      </trkpt>
      <trkpt lat="39.92203386657872" lon="116.49026923987854">
        <ele>25.5</ele>
        <time>2023-06-29T13:32:09Z</time>
      </trkpt>
      <trkpt lat="39.9220119978141" lon="116.49064868194506">
        <ele>27.400000000000002</ele>
        <time>2023-06-29T13:32:39Z</time>
      </trkpt>
      <trkpt lat="39.92199851283657" lon="116.49082133865755">
        <ele>25.9</ele>
        <time>2023-06-29T13:32:54Z</time>
      </trkpt>
      <trkpt lat="39.92201299386935" lon="116.49098295004512">
        <ele>21.099999999999998</ele>
        <time>2023-06-29T13:33:06Z</time>
      </trkpt>
      <trkpt lat="39.92205921035644" lon="116.49105622233846">
        <ele>19.5</ele>
        <time>2023-06-29T13:33:12Z</time>
      </trkpt>
      <trkpt lat="39.92208096049507" lon="116.49130817570418">
        <ele>17.599999999999998</ele>
        <time>2023-06-29T13:33:30Z</time>
      </trkpt>
      <trkpt lat="39.92205934145294" lon="116.49143566217342">
        <ele>18.4</ele>
        <time>2023-06-29T13:33:42Z</time>
      </trkpt>
      <trkpt lat="39.92206900848794" lon="116.49165951048298">
        <ele>17.9</ele>
        <time>2023-06-29T13:34:00Z</time>
      </trkpt>
      <trkpt lat="39.9220872202561" lon="116.49173077869948">
        <ele>18.5</ele>
        <time>2023-06-29T13:34:06Z</time>
      </trkpt>
      <trkpt lat="39.92205953564931" lon="116.49217145462855">
        <ele>22.4</ele>
        <time>2023-06-29T13:34:36Z</time>
      </trkpt>
      <trkpt lat="39.92206564629916" lon="116.49254386733689">
        <ele>28.599999999999998</ele>
        <time>2023-06-29T13:35:00Z</time>
      </trkpt>
      <trkpt lat="39.922094130258024" lon="116.4927064809954">
        <ele>30.400000000000002</ele>
        <time>2023-06-29T13:35:12Z</time>
      </trkpt>
      <trkpt lat="39.92207736155329" lon="116.49278377643842">
        <ele>30.400000000000002</ele>
        <time>2023-06-29T13:35:18Z</time>
      </trkpt>
      <trkpt lat="39.922099779913616" lon="116.4929243070237">
        <ele>29.3</ele>
        <time>2023-06-29T13:35:30Z</time>
      </trkpt>
      <trkpt lat="39.92208702603364" lon="116.49300662100853">
        <ele>27.900000000000002</ele>
        <time>2023-06-29T13:35:36Z</time>
      </trkpt>
      <trkpt lat="39.92208769691727" lon="116.49323147428557">
        <ele>26.599999999999998</ele>
        <time>2023-06-29T13:35:54Z</time>
      </trkpt>
      <trkpt lat="39.92206226707255" lon="116.49342220124555">
        <ele>28.900000000000002</ele>
        <time>2023-06-29T13:36:06Z</time>
      </trkpt>
      <trkpt lat="39.922069497414235" lon="116.49349949366542">
        <ele>31.400000000000002</ele>
        <time>2023-06-29T13:36:12Z</time>
      </trkpt>
      <trkpt lat="39.92204776190756" lon="116.49358783157967">
        <ele>29.999999999999996</ele>
        <time>2023-06-29T13:36:18Z</time>
      </trkpt>
      <trkpt lat="39.9220799287942" lon="116.49397931305838">
        <ele>26.0</ele>
        <time>2023-06-29T13:36:48Z</time>
      </trkpt>
      <trkpt lat="39.922125104129805" lon="116.49437380409255">
        <ele>13.3</ele>
        <time>2023-06-29T13:37:18Z</time>
      </trkpt>
      <trkpt lat="39.92214456461052" lon="116.49452838806313">
        <ele>14.3</ele>
        <time>2023-06-29T13:37:30Z</time>
      </trkpt>
      <trkpt lat="39.92208581305596" lon="116.4949459790921">
        <ele>19.5</ele>
        <time>2023-06-29T13:37:57Z</time>
      </trkpt>
      <trkpt lat="39.92212588657206" lon="116.49530634046987">
        <ele>26.499999999999996</ele>
        <time>2023-06-29T13:38:21Z</time>
      </trkpt>
      <trkpt lat="39.922100118376235" lon="116.49571890744404">
        <ele>23.9</ele>
        <time>2023-06-29T13:38:51Z</time>
      </trkpt>
      <trkpt lat="39.92211429444556" lon="116.49577813011985">
        <ele>23.7</ele>
        <time>2023-06-29T13:39:18Z</time>
      </trkpt>
      <trkpt lat="39.92207545474164" lon="116.4958313365437">
        <ele>23.4</ele>
        <time>2023-06-29T13:39:27Z</time>
      </trkpt>
      <trkpt lat="39.922079637202906" lon="116.49589256804327">
        <ele>29.099999999999998</ele>
        <time>2023-06-29T13:40:57Z</time>
      </trkpt>
      <trkpt lat="39.92214417640965" lon="116.49607424839753">
        <ele>26.3</ele>
        <time>2023-06-29T13:41:12Z</time>
      </trkpt>
      <trkpt lat="39.92218428551266" lon="116.4961113841184">
        <ele>26.2</ele>
        <time>2023-06-29T13:41:18Z</time>
      </trkpt>
      <trkpt lat="39.9224243504126" lon="116.49613644937948">
        <ele>24.0</ele>
        <time>2023-06-29T13:41:39Z</time>
      </trkpt>
      <trkpt lat="39.92248021937602" lon="116.49609327892966">
        <ele>22.0</ele>
        <time>2023-06-29T13:41:45Z</time>
      </trkpt>
      <trkpt lat="39.92258024816691" lon="116.4961043083407">
        <ele>23.7</ele>
        <time>2023-06-29T13:41:54Z</time>
      </trkpt>
      <trkpt lat="39.922632362760375" lon="116.49614345017262">
        <ele>26.599999999999998</ele>
        <time>2023-06-29T13:42:03Z</time>
      </trkpt>
      <trkpt lat="39.92264554182434" lon="116.49620367668159">
        <ele>28.400000000000002</ele>
        <time>2023-06-29T13:42:09Z</time>
      </trkpt>
      <trkpt lat="39.92296087301853" lon="116.49631907477297">
        <ele>30.2</ele>
        <time>2023-06-29T13:42:36Z</time>
      </trkpt>
      <trkpt lat="39.92310497182547" lon="116.49635418994625">
        <ele>28.8</ele>
        <time>2023-06-29T13:42:48Z</time>
      </trkpt>
      <trkpt lat="39.92319292928106" lon="116.49634112960455">
        <ele>29.3</ele>
        <time>2023-06-29T13:42:54Z</time>
      </trkpt>
      <trkpt lat="39.92322206875436" lon="116.49638830466523">
        <ele>29.000000000000004</ele>
        <time>2023-06-29T13:43:03Z</time>
      </trkpt>
      <trkpt lat="39.92322560732906" lon="116.49656898843715">
        <ele>28.599999999999998</ele>
        <time>2023-06-29T13:43:15Z</time>
      </trkpt>
      <trkpt lat="39.92326399178473" lon="116.49669847393558">
        <ele>28.3</ele>
        <time>2023-06-29T13:43:21Z</time>
      </trkpt>
      <trkpt lat="39.92330715458217" lon="116.49675367758198">
        <ele>27.900000000000002</ele>
        <time>2023-06-29T13:43:27Z</time>
      </trkpt>
      <trkpt lat="39.92336926273126" lon="116.49679081046789">
        <ele>26.8</ele>
        <time>2023-06-29T13:43:30Z</time>
      </trkpt>
      <trkpt lat="39.92341547027279" lon="116.4968610707054">
        <ele>26.0</ele>
        <time>2023-06-29T13:43:36Z</time>
      </trkpt>
      <trkpt lat="39.923485170459195" lon="116.49709695479078">
        <ele>32.699999999999996</ele>
        <time>2023-06-29T13:43:51Z</time>
      </trkpt>
      <trkpt lat="39.92347960143263" lon="116.49724150238394">
        <ele>38.9</ele>
        <time>2023-06-29T13:44:00Z</time>
      </trkpt>
      <trkpt lat="39.92343705182059" lon="116.49739207723911">
        <ele>37.099999999999994</ele>
        <time>2023-06-29T13:44:12Z</time>
      </trkpt>
      <trkpt lat="39.923435282166736" lon="116.49746936979402">
        <ele>36.3</ele>
        <time>2023-06-29T13:44:18Z</time>
      </trkpt>
      <trkpt lat="39.9233995318398" lon="116.49755268930846">
        <ele>34.699999999999996</ele>
        <time>2023-06-29T13:44:24Z</time>
      </trkpt>
      <trkpt lat="39.92340380077012" lon="116.49764303038717">
        <ele>33.3</ele>
        <time>2023-06-29T13:44:30Z</time>
      </trkpt>
      <trkpt lat="39.92338804359553" lon="116.49772433975083">
        <ele>32.4</ele>
        <time>2023-06-29T13:44:36Z</time>
      </trkpt>
      <trkpt lat="39.923395554476265" lon="116.49789598766917">
        <ele>29.099999999999998</ele>
        <time>2023-06-29T13:44:48Z</time>
      </trkpt>
      <trkpt lat="39.92342582821419" lon="116.49798833293168">
        <ele>27.400000000000002</ele>
        <time>2023-06-29T13:44:54Z</time>
      </trkpt>
      <trkpt lat="39.92342555740279" lon="116.49823325837474">
        <ele>25.2</ele>
        <time>2023-06-29T13:45:12Z</time>
      </trkpt>
      <trkpt lat="39.9234470465015" lon="116.49839787749774">
        <ele>27.500000000000004</ele>
        <time>2023-06-29T13:45:24Z</time>
      </trkpt>
      <trkpt lat="39.92341682435276" lon="116.49865886665198">
        <ele>31.099999999999998</ele>
        <time>2023-06-29T13:45:42Z</time>
      </trkpt>
      <trkpt lat="39.9234451218094" lon="116.49875924202519">
        <ele>35.8</ele>
        <time>2023-06-29T13:45:48Z</time>
      </trkpt>
      <trkpt lat="39.923394998618384" lon="116.49905335797">
        <ele>39.599999999999994</ele>
        <time>2023-06-29T13:46:06Z</time>
      </trkpt>
      <trkpt lat="39.923420713799445" lon="116.49929426331967">
        <ele>39.699999999999996</ele>
        <time>2023-06-29T13:46:24Z</time>
      </trkpt>
      <trkpt lat="39.92341394382032" lon="116.49937155555888">
        <ele>36.0</ele>
        <time>2023-06-29T13:46:30Z</time>
      </trkpt>
      <trkpt lat="39.92337204101952" lon="116.49940368184217">
        <ele>32.699999999999996</ele>
        <time>2023-06-29T13:46:36Z</time>
      </trkpt>
      <trkpt lat="39.92330701387102" lon="116.49939365206494">
        <ele>29.7</ele>
        <time>2023-06-29T13:46:42Z</time>
      </trkpt>
      <trkpt lat="39.92327414052684" lon="116.49943581506001">
        <ele>27.900000000000002</ele>
        <time>2023-06-29T13:46:48Z</time>
      </trkpt>
      <trkpt lat="39.923268358526876" lon="116.4995090919623">
        <ele>27.500000000000004</ele>
        <time>2023-06-29T13:46:54Z</time>
      </trkpt>
      <trkpt lat="39.9232395267509" lon="116.49956530737732">
        <ele>26.599999999999998</ele>
        <time>2023-06-29T13:47:00Z</time>
      </trkpt>
      <trkpt lat="39.92317250267584" lon="116.49955628164206">
        <ele>26.7</ele>
        <time>2023-06-29T13:47:09Z</time>
      </trkpt>
      <trkpt lat="39.92307929773006" lon="116.49948602838778">
        <ele>26.7</ele>
        <time>2023-06-29T13:47:12Z</time>
      </trkpt>
      <trkpt lat="39.923492008392486" lon="116.49973090011213">
        <ele>0.0</ele>
        <time>2023-06-29T13:47:51Z</time>
      </trkpt>
      <trkpt lat="39.922781963181045" lon="116.499705893593">
        <ele>0.0</ele>
        <time>2023-06-29T13:48:33Z</time>
      </trkpt>
      <trkpt lat="39.92281031682704" lon="116.4998253400265">
        <ele>0.0</ele>
        <time>2023-06-29T13:49:21Z</time>
      </trkpt>
      <trkpt lat="39.92274073227962" lon="116.49962760371993">
        <ele>0.0</ele>
        <time>2023-06-29T13:49:27Z</time>
      </trkpt>
      <trkpt lat="39.92282443354577" lon="116.49952821887297">
        <ele>0.0</ele>
        <time>2023-06-29T13:49:36Z</time>
      </trkpt>
      <trkpt lat="39.9227531492446" lon="116.49976813160531">
        <ele>0.0</ele>
        <time>2023-06-29T13:49:42Z</time>
      </trkpt>
      <trkpt lat="39.92274688411738" lon="116.49967879583689">
        <ele>0.0</ele>
        <time>2023-06-29T13:50:18Z</time>
      </trkpt>
      <trkpt lat="39.92280494732075" lon="116.4997008718361">
        <ele>0.0</ele>
        <time>2023-06-29T13:50:45Z</time>
      </trkpt>
      <trkpt lat="39.92273251978619" lon="116.49989260295204">
        <ele>0.0</ele>
        <time>2023-06-29T13:50:54Z</time>
      </trkpt>
    </trkseg>
  </trk>
</gpx>