<?xml version="1.0" encoding="UTF-8"?>
<gpx xmlns="http://www.topografix.com/GPX/1/1" xmlns:gpxtpx="http://www.garmin.com/xmlschemas/TrackPointExtension/v1" xmlns:xsi="http://www.w3.org/2001/XMLSchema-instance" xsi:schemaLocation="http://www.topografix.com/GPX/1/1 http://www.topografix.com/GPX/1/1/gpx.xsd" version="1.1" creator="gpx.py -- https://github.com/tkrajina/gpxpy">
  <trk>
    <name>gpx from keep</name>
    <type>Run</type>
    <trkseg>
      <trkpt lat="39.90304251953109" lon="116.67036719381244">
        <ele>0.0</ele>
        <time>2022-11-23T08:22:58Z</time>
      </trkpt>
      <trkpt lat="39.90292338716766" lon="116.67043900387338">
        <ele>9.0</ele>
        <time>2022-11-23T08:23:01Z</time>
      </trkpt>
      <trkpt lat="39.90305860677387" lon="116.67032132257816">
        <ele>8.2</ele>
        <time>2022-11-23T08:23:04Z</time>
      </trkpt>
      <trkpt lat="39.9029864608386" lon="116.67039910977688">
        <ele>7.9</ele>
        <time>2022-11-23T08:23:05Z</time>
      </trkpt>
      <trkpt lat="39.903100614468755" lon="116.67031633160695">
        <ele>8.0</ele>
        <time>2022-11-23T08:23:10Z</time>
      </trkpt>
      <trkpt lat="39.903443566738126" lon="116.67033324096488">
        <ele>6.800000000000001</ele>
        <time>2022-11-23T08:23:22Z</time>
      </trkpt>
      <trkpt lat="39.90370950140893" lon="116.6703611285603">
        <ele>15.100000000000001</ele>
        <time>2022-11-23T08:23:31Z</time>
      </trkpt>
      <trkpt lat="39.90391556494272" lon="116.6703232111446">
        <ele>19.4</ele>
        <time>2022-11-23T08:23:44Z</time>
      </trkpt>
      <trkpt lat="39.90399562259074" lon="116.67029129222732">
        <ele>18.7</ele>
        <time>2022-11-23T08:23:51Z</time>
      </trkpt>
      <trkpt lat="39.904057533800774" lon="116.67033615667279">
        <ele>18.3</ele>
        <time>2022-11-23T08:24:00Z</time>
      </trkpt>
      <trkpt lat="39.904159619159294" lon="116.67028927767511">
        <ele>17.3</ele>
        <time>2022-11-23T08:24:06Z</time>
      </trkpt>
      <trkpt lat="39.90420272817236" lon="116.6702314372328">
        <ele>16.2</ele>
        <time>2022-11-23T08:24:12Z</time>
      </trkpt>
      <trkpt lat="39.90425077003652" lon="116.67020849668971">
        <ele>15.899999999999999</ele>
        <time>2022-11-23T08:24:18Z</time>
      </trkpt>
      <trkpt lat="39.90431271948428" lon="116.67023341797426">
        <ele>15.600000000000001</ele>
        <time>2022-11-23T08:24:24Z</time>
      </trkpt>
      <trkpt lat="39.90439282496178" lon="116.67017657013378">
        <ele>15.5</ele>
        <time>2022-11-23T08:24:27Z</time>
      </trkpt>
      <trkpt lat="39.90452090920333" lon="116.67012968795144">
        <ele>15.3</ele>
        <time>2022-11-23T08:24:33Z</time>
      </trkpt>
      <trkpt lat="39.904671168485635" lon="116.66999106463068">
        <ele>15.399999999999999</ele>
        <time>2022-11-23T08:24:42Z</time>
      </trkpt>
      <trkpt lat="39.904723191062665" lon="116.66997809517736">
        <ele>15.0</ele>
        <time>2022-11-23T08:24:45Z</time>
      </trkpt>
      <trkpt lat="39.90483610381036" lon="116.67002095897465">
        <ele>14.100000000000001</ele>
        <time>2022-11-23T08:24:51Z</time>
      </trkpt>
      <trkpt lat="39.90505511711219" lon="116.67000896607102">
        <ele>12.3</ele>
        <time>2022-11-23T08:24:57Z</time>
      </trkpt>
      <trkpt lat="39.90533296138975" lon="116.67008371853244">
        <ele>11.100000000000001</ele>
        <time>2022-11-23T08:25:03Z</time>
      </trkpt>
      <trkpt lat="39.90552586490611" lon="116.67012956393992">
        <ele>9.5</ele>
        <time>2022-11-23T08:25:09Z</time>
      </trkpt>
      <trkpt lat="39.905623885462134" lon="116.67011658880521">
        <ele>7.5</ele>
        <time>2022-11-23T08:25:12Z</time>
      </trkpt>
      <trkpt lat="39.90589066716407" lon="116.67022424883379">
        <ele>6.0</ele>
        <time>2022-11-23T08:25:18Z</time>
      </trkpt>
      <trkpt lat="39.906013644550505" lon="116.67023320807131">
        <ele>7.0</ele>
        <time>2022-11-23T08:25:21Z</time>
      </trkpt>
      <trkpt lat="39.906104697929756" lon="116.67020328212203">
        <ele>10.4</ele>
        <time>2022-11-23T08:25:24Z</time>
      </trkpt>
      <trkpt lat="39.9062816327899" lon="116.67023317499874">
        <ele>12.399999999999999</ele>
        <time>2022-11-23T08:25:33Z</time>
      </trkpt>
      <trkpt lat="39.90637556173534" lon="116.67026806390759">
        <ele>11.2</ele>
        <time>2022-11-23T08:25:39Z</time>
      </trkpt>
      <trkpt lat="39.906693589872845" lon="116.6702460872007">
        <ele>17.6</ele>
        <time>2022-11-23T08:26:01Z</time>
      </trkpt>
      <trkpt lat="39.906809645991935" lon="116.670214163851">
        <ele>19.1</ele>
        <time>2022-11-23T08:26:07Z</time>
      </trkpt>
      <trkpt lat="39.90686771039234" lon="116.67017925619068">
        <ele>19.7</ele>
        <time>2022-11-23T08:26:10Z</time>
      </trkpt>
      <trkpt lat="39.90718269087819" lon="116.67018220878879">
        <ele>17.3</ele>
        <time>2022-11-23T08:26:22Z</time>
      </trkpt>
      <trkpt lat="39.907430743160845" lon="116.67014927199887">
        <ele>8.6</ele>
        <time>2022-11-23T08:26:31Z</time>
      </trkpt>
      <trkpt lat="39.90754491607879" lon="116.6700565223368">
        <ele>7.199999999999999</ele>
        <time>2022-11-23T08:26:37Z</time>
      </trkpt>
      <trkpt lat="39.907570823123756" lon="116.67010438265726">
        <ele>11.899999999999999</ele>
        <time>2022-11-23T08:26:58Z</time>
      </trkpt>
      <trkpt lat="39.90757830834031" lon="116.67037261698806">
        <ele>13.100000000000001</ele>
        <time>2022-11-23T08:27:22Z</time>
      </trkpt>
      <trkpt lat="39.90760007988449" lon="116.67049127606417">
        <ele>11.7</ele>
        <time>2022-11-23T08:27:25Z</time>
      </trkpt>
      <trkpt lat="39.907655899685274" lon="116.67058400486967">
        <ele>10.4</ele>
        <time>2022-11-23T08:27:28Z</time>
      </trkpt>
      <trkpt lat="39.90770382114682" lon="116.67062388528385">
        <ele>8.6</ele>
        <time>2022-11-23T08:27:31Z</time>
      </trkpt>
      <trkpt lat="39.90785296265917" lon="116.67106859982353">
        <ele>5.1</ele>
        <time>2022-11-23T08:27:43Z</time>
      </trkpt>
      <trkpt lat="39.90791568119483" lon="116.67121417746655">
        <ele>4.199999999999999</ele>
        <time>2022-11-23T08:27:50Z</time>
      </trkpt>
      <trkpt lat="39.90802591320467" lon="116.67161302836922">
        <ele>8.3</ele>
        <time>2022-11-23T08:28:02Z</time>
      </trkpt>
      <trkpt lat="39.90812547607196" lon="116.67183937199208">
        <ele>11.899999999999999</ele>
        <time>2022-11-23T08:28:11Z</time>
      </trkpt>
      <trkpt lat="39.90825510073762" lon="116.67203280572126">
        <ele>9.5</ele>
        <time>2022-11-23T08:28:20Z</time>
      </trkpt>
      <trkpt lat="39.90830159020825" lon="116.67229904295479">
        <ele>6.6</ele>
        <time>2022-11-23T08:28:29Z</time>
      </trkpt>
      <trkpt lat="39.90833344604622" lon="116.67237382643683">
        <ele>6.1</ele>
        <time>2022-11-23T08:28:32Z</time>
      </trkpt>
      <trkpt lat="39.90843327802113" lon="116.67245957037912">
        <ele>6.800000000000001</ele>
        <time>2022-11-23T08:28:38Z</time>
      </trkpt>
      <trkpt lat="39.90846015316449" lon="116.6725243828728">
        <ele>8.1</ele>
        <time>2022-11-23T08:28:43Z</time>
      </trkpt>
      <trkpt lat="39.90860836475097" lon="116.6726428997865">
        <ele>0.0</ele>
        <time>2022-11-23T08:28:55Z</time>
      </trkpt>
      <trkpt lat="39.90874273571757" lon="116.67273674455761">
        <ele>5.4</ele>
        <time>2022-11-23T08:29:07Z</time>
      </trkpt>
      <trkpt lat="39.90880560749153" lon="116.67280254986888">
        <ele>5.5</ele>
        <time>2022-11-23T08:29:10Z</time>
      </trkpt>
      <trkpt lat="39.90884845924952" lon="116.67287932653001">
        <ele>5.9</ele>
        <time>2022-11-23T08:29:13Z</time>
      </trkpt>
      <trkpt lat="39.908865293166066" lon="116.6729660781279">
        <ele>8.0</ele>
        <time>2022-11-23T08:29:16Z</time>
      </trkpt>
      <trkpt lat="39.909003705905185" lon="116.67327119500015">
        <ele>18.4</ele>
        <time>2022-11-23T08:29:28Z</time>
      </trkpt>
      <trkpt lat="39.909206154343416" lon="116.67355636107045">
        <ele>15.899999999999999</ele>
        <time>2022-11-23T08:29:46Z</time>
      </trkpt>
      <trkpt lat="39.90937860457467" lon="116.6738415313608">
        <ele>16.2</ele>
        <time>2022-11-23T08:30:02Z</time>
      </trkpt>
      <trkpt lat="39.909579987794174" lon="116.6741615997863">
        <ele>16.4</ele>
        <time>2022-11-23T08:30:25Z</time>
      </trkpt>
      <trkpt lat="39.909718514363846" lon="116.67440788547952">
        <ele>13.100000000000001</ele>
        <time>2022-11-23T08:30:43Z</time>
      </trkpt>
      <trkpt lat="39.9097684195215" lon="116.67445674105437">
        <ele>12.5</ele>
        <time>2022-11-23T08:30:50Z</time>
      </trkpt>
      <trkpt lat="39.90981024752072" lon="116.67454648198867">
        <ele>9.6</ele>
        <time>2022-11-23T08:30:56Z</time>
      </trkpt>
      <trkpt lat="39.909883072343014" lon="116.67463721633014">
        <ele>10.2</ele>
        <time>2022-11-23T08:31:02Z</time>
      </trkpt>
      <trkpt lat="39.90994580886124" lon="116.67477481947664">
        <ele>11.399999999999999</ele>
        <time>2022-11-23T08:31:11Z</time>
      </trkpt>
      <trkpt lat="39.910131253281065" lon="116.67506397935063">
        <ele>11.100000000000001</ele>
        <time>2022-11-23T08:31:32Z</time>
      </trkpt>
      <trkpt lat="39.91031565122513" lon="116.67537806964854">
        <ele>13.5</ele>
        <time>2022-11-23T08:31:54Z</time>
      </trkpt>
      <trkpt lat="39.910528027987795" lon="116.67570312636215">
        <ele>12.8</ele>
        <time>2022-11-23T08:32:12Z</time>
      </trkpt>
      <trkpt lat="39.91070342407864" lon="116.67601921382365">
        <ele>11.5</ele>
        <time>2022-11-23T08:32:24Z</time>
      </trkpt>
      <trkpt lat="39.91087585112911" lon="116.67631934742849">
        <ele>9.1</ele>
        <time>2022-11-23T08:32:36Z</time>
      </trkpt>
      <trkpt lat="39.911020214499395" lon="116.67665438721">
        <ele>8.0</ele>
        <time>2022-11-23T08:32:48Z</time>
      </trkpt>
      <trkpt lat="39.911126705885245" lon="116.67692262034915">
        <ele>12.5</ele>
        <time>2022-11-23T08:32:58Z</time>
      </trkpt>
      <trkpt lat="39.9109933506663" lon="116.6765825923796">
        <ele>12.0</ele>
        <time>2022-11-23T08:33:13Z</time>
      </trkpt>
      <trkpt lat="39.910922597590854" lon="116.67645296569896">
        <ele>11.600000000000001</ele>
        <time>2022-11-23T08:33:19Z</time>
      </trkpt>
      <trkpt lat="39.91087984720167" lon="116.67632134132184">
        <ele>10.0</ele>
        <time>2022-11-23T08:33:25Z</time>
      </trkpt>
      <trkpt lat="39.910709418180154" lon="116.67602220465571">
        <ele>7.5</ele>
        <time>2022-11-23T08:33:40Z</time>
      </trkpt>
      <trkpt lat="39.91056086471096" lon="116.67578888053525">
        <ele>5.9</ele>
        <time>2022-11-23T08:33:53Z</time>
      </trkpt>
      <trkpt lat="39.91040342884084" lon="116.67549373239066">
        <ele>7.300000000000001</ele>
        <time>2022-11-23T08:34:08Z</time>
      </trkpt>
      <trkpt lat="39.910275713269584" lon="116.67534616464863">
        <ele>6.4</ele>
        <time>2022-11-23T08:34:17Z</time>
      </trkpt>
      <trkpt lat="39.91011531436163" lon="116.67503207146318">
        <ele>7.9</ele>
        <time>2022-11-23T08:34:32Z</time>
      </trkpt>
      <trkpt lat="39.909979703502344" lon="116.67482966025095">
        <ele>10.4</ele>
        <time>2022-11-23T08:34:45Z</time>
      </trkpt>
      <trkpt lat="39.909960827103326" lon="116.67476484581074">
        <ele>10.1</ele>
        <time>2022-11-23T08:34:48Z</time>
      </trkpt>
      <trkpt lat="39.90976543289006" lon="116.67444976117342">
        <ele>8.5</ele>
        <time>2022-11-23T08:35:06Z</time>
      </trkpt>
      <trkpt lat="39.90957603529818" lon="116.67413667086383">
        <ele>11.100000000000001</ele>
        <time>2022-11-23T08:35:24Z</time>
      </trkpt>
      <trkpt lat="39.909380623439944" lon="116.67383155936804">
        <ele>12.100000000000001</ele>
        <time>2022-11-23T08:35:43Z</time>
      </trkpt>
      <trkpt lat="39.90918425584167" lon="116.67350351364199">
        <ele>11.7</ele>
        <time>2022-11-23T08:36:01Z</time>
      </trkpt>
      <trkpt lat="39.90906066546088" lon="116.67329113137872">
        <ele>9.6</ele>
        <time>2022-11-23T08:36:16Z</time>
      </trkpt>
      <trkpt lat="39.9088731408138" lon="116.67304585069324">
        <ele>7.300000000000001</ele>
        <time>2022-11-23T08:36:35Z</time>
      </trkpt>
      <trkpt lat="39.90875851638263" lon="116.67285141692652">
        <ele>9.0</ele>
        <time>2022-11-23T08:36:50Z</time>
      </trkpt>
      <trkpt lat="39.90864773414176" lon="116.67273974779626">
        <ele>8.5</ele>
        <time>2022-11-23T08:37:02Z</time>
      </trkpt>
      <trkpt lat="39.908500229437045" lon="116.6724834940994">
        <ele>8.9</ele>
        <time>2022-11-23T08:37:20Z</time>
      </trkpt>
      <trkpt lat="39.90832559487508" lon="116.67229604849389">
        <ele>8.5</ele>
        <time>2022-11-23T08:37:36Z</time>
      </trkpt>
      <trkpt lat="39.90824983619581" lon="116.67217141222113">
        <ele>9.4</ele>
        <time>2022-11-23T08:37:45Z</time>
      </trkpt>
      <trkpt lat="39.90815428042239" lon="116.67194107909962">
        <ele>9.4</ele>
        <time>2022-11-23T08:38:00Z</time>
      </trkpt>
      <trkpt lat="39.90811654317634" lon="116.67180447238799">
        <ele>9.5</ele>
        <time>2022-11-23T08:38:06Z</time>
      </trkpt>
      <trkpt lat="39.90802985582193" lon="116.67164294274822">
        <ele>9.1</ele>
        <time>2022-11-23T08:38:12Z</time>
      </trkpt>
      <trkpt lat="39.90792155687469" lon="116.67127899217971">
        <ele>10.3</ele>
        <time>2022-11-23T08:38:24Z</time>
      </trkpt>
      <trkpt lat="39.907816206788596" lon="116.67094196508451">
        <ele>12.399999999999999</ele>
        <time>2022-11-23T08:38:37Z</time>
      </trkpt>
      <trkpt lat="39.90773279121671" lon="116.67063883908276">
        <ele>13.399999999999999</ele>
        <time>2022-11-23T08:38:49Z</time>
      </trkpt>
      <trkpt lat="39.907699928345124" lon="116.67056804490483">
        <ele>13.399999999999999</ele>
        <time>2022-11-23T08:38:52Z</time>
      </trkpt>
      <trkpt lat="39.90765498573583" lon="116.6705391328683">
        <ele>12.3</ele>
        <time>2022-11-23T08:38:55Z</time>
      </trkpt>
      <trkpt lat="39.90760007414995" lon="116.67049426753849">
        <ele>13.7</ele>
        <time>2022-11-23T08:40:36Z</time>
      </trkpt>
      <trkpt lat="39.90760030355635" lon="116.67037460858832">
        <ele>12.899999999999999</ele>
        <time>2022-11-23T08:40:39Z</time>
      </trkpt>
      <trkpt lat="39.90757456474537" lon="116.67023899837439">
        <ele>11.399999999999999</ele>
        <time>2022-11-23T08:40:42Z</time>
      </trkpt>
      <trkpt lat="39.90752573518786" lon="116.67015125458914">
        <ele>10.3</ele>
        <time>2022-11-23T08:40:45Z</time>
      </trkpt>
      <trkpt lat="39.90746785057429" lon="116.67009242948527">
        <ele>9.8</ele>
        <time>2022-11-23T08:40:48Z</time>
      </trkpt>
      <trkpt lat="39.90737981424726" lon="116.67011338064042">
        <ele>9.4</ele>
        <time>2022-11-23T08:40:51Z</time>
      </trkpt>
      <trkpt lat="39.907289827742815" lon="116.67010840596222">
        <ele>8.8</ele>
        <time>2022-11-23T08:40:54Z</time>
      </trkpt>
      <trkpt lat="39.90716977560342" lon="116.6701383354807">
        <ele>8.5</ele>
        <time>2022-11-23T08:41:01Z</time>
      </trkpt>
      <trkpt lat="39.90686485397763" lon="116.67010446978144">
        <ele>13.2</ele>
        <time>2022-11-23T08:41:13Z</time>
      </trkpt>
      <trkpt lat="39.90669791484901" lon="116.670076569996">
        <ele>13.5</ele>
        <time>2022-11-23T08:41:19Z</time>
      </trkpt>
      <trkpt lat="39.906570830507334" lon="116.67012345204465">
        <ele>13.399999999999999</ele>
        <time>2022-11-23T08:41:25Z</time>
      </trkpt>
      <trkpt lat="39.90662777827919" lon="116.67014937109408">
        <ele>0.0</ele>
        <time>2022-11-23T08:41:27Z</time>
      </trkpt>
      <trkpt lat="39.90660083684423" lon="116.67011945971451">
        <ele>12.5</ele>
        <time>2022-11-23T08:41:33Z</time>
      </trkpt>
      <trkpt lat="39.90643655523658" lon="116.6702700506946">
        <ele>0.0</ele>
        <time>2022-11-23T08:48:09Z</time>
      </trkpt>
      <trkpt lat="39.906515586196015" lon="116.67025209211168">
        <ele>13.399999999999999</ele>
        <time>2022-11-23T08:48:12Z</time>
      </trkpt>
      <trkpt lat="39.90649555160054" lon="116.67025608078482">
        <ele>0.0</ele>
        <time>2022-11-23T08:48:13Z</time>
      </trkpt>
      <trkpt lat="39.9064806546642" lon="116.67021719592377">
        <ele>13.2</ele>
        <time>2022-11-23T08:48:16Z</time>
      </trkpt>
      <trkpt lat="39.9062895846297" lon="116.67025810294622">
        <ele>13.2</ele>
        <time>2022-11-23T08:48:28Z</time>
      </trkpt>
      <trkpt lat="39.905991525041024" lon="116.67029603170609">
        <ele>13.2</ele>
        <time>2022-11-23T08:48:34Z</time>
      </trkpt>
      <trkpt lat="39.90587349580447" lon="116.67031399510462">
        <ele>13.2</ele>
        <time>2022-11-23T08:48:38Z</time>
      </trkpt>
      <trkpt lat="39.90564261112967" lon="116.6702591799468">
        <ele>9.3</ele>
        <time>2022-11-23T08:48:44Z</time>
      </trkpt>
      <trkpt lat="39.905510603548926" lon="116.67026617633832">
        <ele>9.7</ele>
        <time>2022-11-23T08:48:50Z</time>
      </trkpt>
      <trkpt lat="39.90527567126249" lon="116.67023629061443">
        <ele>12.8</ele>
        <time>2022-11-23T08:48:59Z</time>
      </trkpt>
      <trkpt lat="39.90514465408366" lon="116.67024827266896">
        <ele>12.600000000000001</ele>
        <time>2022-11-23T08:49:04Z</time>
      </trkpt>
      <trkpt lat="39.904981492992164" lon="116.6703360426506">
        <ele>12.5</ele>
        <time>2022-11-23T08:49:11Z</time>
      </trkpt>
      <trkpt lat="39.9049816345832" lon="116.6702883740732">
        <ele>0.0</ele>
        <time>2022-11-23T08:49:13Z</time>
      </trkpt>
      <trkpt lat="39.904876472765416" lon="116.67034901865857">
        <ele>12.3</ele>
        <time>2022-11-23T08:49:16Z</time>
      </trkpt>
      <trkpt lat="39.90479653939266" lon="116.67031612232616">
        <ele>12.3</ele>
        <time>2022-11-23T08:49:19Z</time>
      </trkpt>
      <trkpt lat="39.90448053422105" lon="116.67032613289764">
        <ele>19.1</ele>
        <time>2022-11-23T08:49:31Z</time>
      </trkpt>
      <trkpt lat="39.90425038569305" lon="116.67040892538087">
        <ele>22.3</ele>
        <time>2022-11-23T08:49:40Z</time>
      </trkpt>
      <trkpt lat="39.903990347488445" lon="116.67043488357405">
        <ele>21.7</ele>
        <time>2022-11-23T08:49:56Z</time>
      </trkpt>
      <trkpt lat="39.90378944624269" lon="116.6703880419515">
        <ele>19.8</ele>
        <time>2022-11-23T08:50:02Z</time>
      </trkpt>
      <trkpt lat="39.90361162430124" lon="116.67029931687216">
        <ele>16.1</ele>
        <time>2022-11-23T08:50:09Z</time>
      </trkpt>
      <trkpt lat="39.90353363349583" lon="116.6702963350239">
        <ele>13.100000000000001</ele>
        <time>2022-11-23T08:50:14Z</time>
      </trkpt>
      <trkpt lat="39.90347052156378" lon="116.67035617226284">
        <ele>0.0</ele>
        <time>2022-11-23T08:50:15Z</time>
      </trkpt>
      <trkpt lat="39.90354062936105" lon="116.67029832847547">
        <ele>13.100000000000001</ele>
        <time>2022-11-23T08:50:18Z</time>
      </trkpt>
    </trkseg>
  </trk>
</gpx>