<?xml version="1.0" encoding="UTF-8"?>
<gpx xmlns="http://www.topografix.com/GPX/1/1" xmlns:gpxtpx="http://www.garmin.com/xmlschemas/TrackPointExtension/v1" xmlns:xsi="http://www.w3.org/2001/XMLSchema-instance" xsi:schemaLocation="http://www.topografix.com/GPX/1/1 http://www.topografix.com/GPX/1/1/gpx.xsd" version="1.1" creator="gpx.py -- https://github.com/tkrajina/gpxpy">
  <trk>
    <name>gpx from keep</name>
    <type>Run</type>
    <trkseg>
      <trkpt lat="39.92352412099202" lon="116.49842396649854">
        <ele>32.4</ele>
        <time>2023-07-17T23:39:53Z</time>
      </trkpt>
      <trkpt lat="39.923531911548686" lon="116.4983537001669">
        <ele>29.900000000000002</ele>
        <time>2023-07-17T23:39:56Z</time>
      </trkpt>
      <trkpt lat="39.9234904381896" lon="116.49819410243744">
        <ele>26.599999999999998</ele>
        <time>2023-07-17T23:40:02Z</time>
      </trkpt>
      <trkpt lat="39.923469437836495" lon="116.4978578343288">
        <ele>25.7</ele>
        <time>2023-07-17T23:40:14Z</time>
      </trkpt>
      <trkpt lat="39.923489656695814" lon="116.49759584134463">
        <ele>28.900000000000002</ele>
        <time>2023-07-17T23:40:23Z</time>
      </trkpt>
      <trkpt lat="39.92352902409916" lon="116.49738403545214">
        <ele>37.199999999999996</ele>
        <time>2023-07-17T23:40:32Z</time>
      </trkpt>
      <trkpt lat="39.92350748960972" lon="116.49720435840979">
        <ele>39.5</ele>
        <time>2023-07-17T23:40:38Z</time>
      </trkpt>
      <trkpt lat="39.92354421960323" lon="116.49677874315455">
        <ele>36.699999999999996</ele>
        <time>2023-07-17T23:40:53Z</time>
      </trkpt>
      <trkpt lat="39.92352018814034" lon="116.49643243492174">
        <ele>35.8</ele>
        <time>2023-07-17T23:41:02Z</time>
      </trkpt>
      <trkpt lat="39.92354484590918" lon="116.49631799847437">
        <ele>34.3</ele>
        <time>2023-07-17T23:41:05Z</time>
      </trkpt>
      <trkpt lat="39.9235372595162" lon="116.49612125416947">
        <ele>36.6</ele>
        <time>2023-07-17T23:41:11Z</time>
      </trkpt>
      <trkpt lat="39.92357978774855" lon="116.49596365182055">
        <ele>35.800000000000004</ele>
        <time>2023-07-17T23:41:17Z</time>
      </trkpt>
      <trkpt lat="39.92351944593572" lon="116.49584822191012">
        <ele>37.7</ele>
        <time>2023-07-17T23:41:20Z</time>
      </trkpt>
      <trkpt lat="39.92342026439648" lon="116.49578599838844">
        <ele>37.2</ele>
        <time>2023-07-17T23:41:23Z</time>
      </trkpt>
      <trkpt lat="39.923350276268025" lon="116.4957890184909">
        <ele>36.1</ele>
        <time>2023-07-17T23:41:26Z</time>
      </trkpt>
      <trkpt lat="39.923304218286994" lon="116.49576894813094">
        <ele>34.6</ele>
        <time>2023-07-17T23:41:29Z</time>
      </trkpt>
      <trkpt lat="39.92316726586072" lon="116.49578301839225">
        <ele>33.900000000000006</ele>
        <time>2023-07-17T23:41:35Z</time>
      </trkpt>
      <trkpt lat="39.92295315793496" lon="116.4957438966227">
        <ele>31.7</ele>
        <time>2023-07-17T23:41:47Z</time>
      </trkpt>
      <trkpt lat="39.92289722611846" lon="116.49576598725639">
        <ele>31.499999999999996</ele>
        <time>2023-07-17T23:41:50Z</time>
      </trkpt>
      <trkpt lat="39.922785131944785" lon="116.49573287564218">
        <ele>31.499999999999996</ele>
        <time>2023-07-17T23:41:56Z</time>
      </trkpt>
      <trkpt lat="39.92272224832367" lon="116.49577102800345">
        <ele>32.7</ele>
        <time>2023-07-17T23:41:59Z</time>
      </trkpt>
      <trkpt lat="39.92257414067133" lon="116.49573290184149">
        <ele>31.2</ele>
        <time>2023-07-17T23:42:05Z</time>
      </trkpt>
      <trkpt lat="39.92248915317041" lon="116.49573592380676">
        <ele>30.3</ele>
        <time>2023-07-17T23:42:08Z</time>
      </trkpt>
      <trkpt lat="39.92221533217849" lon="116.49579217082852">
        <ele>23.8</ele>
        <time>2023-07-17T23:42:20Z</time>
      </trkpt>
      <trkpt lat="39.92213429361713" lon="116.49577812763661">
        <ele>24.9</ele>
        <time>2023-07-17T23:42:23Z</time>
      </trkpt>
      <trkpt lat="39.92210700730368" lon="116.4956817658343">
        <ele>26.3</ele>
        <time>2023-07-17T23:42:29Z</time>
      </trkpt>
      <trkpt lat="39.92214978076574" lon="116.49527120430896">
        <ele>24.599999999999998</ele>
        <time>2023-07-17T23:42:47Z</time>
      </trkpt>
      <trkpt lat="39.922143984359614" lon="116.49500419263975">
        <ele>20.4</ele>
        <time>2023-07-17T23:42:59Z</time>
      </trkpt>
      <trkpt lat="39.92212773045215" lon="116.49491887110861">
        <ele>19.599999999999998</ele>
        <time>2023-07-17T23:43:02Z</time>
      </trkpt>
      <trkpt lat="39.92212070637908" lon="116.49457556997929">
        <ele>18.0</ele>
        <time>2023-07-17T23:43:17Z</time>
      </trkpt>
      <trkpt lat="39.92213924432738" lon="116.49442098130385">
        <ele>16.0</ele>
        <time>2023-07-17T23:43:23Z</time>
      </trkpt>
      <trkpt lat="39.92213502835741" lon="116.4940134357036">
        <ele>12.399999999999999</ele>
        <time>2023-07-17T23:43:41Z</time>
      </trkpt>
      <trkpt lat="39.92212745653943" lon="116.49382170917929">
        <ele>12.8</ele>
        <time>2023-07-17T23:43:47Z</time>
      </trkpt>
      <trkpt lat="39.92219735133748" lon="116.49345229873629">
        <ele>11.7</ele>
        <time>2023-07-17T23:43:59Z</time>
      </trkpt>
      <trkpt lat="39.92222050571472" lon="116.49316922158215">
        <ele>13.399999999999999</ele>
        <time>2023-07-17T23:44:08Z</time>
      </trkpt>
      <trkpt lat="39.9221797017292" lon="116.49289920184319">
        <ele>14.2</ele>
        <time>2023-07-17T23:44:14Z</time>
      </trkpt>
      <trkpt lat="39.92211209058214" lon="116.49269342923412">
        <ele>17.3</ele>
        <time>2023-07-17T23:44:20Z</time>
      </trkpt>
      <trkpt lat="39.92209230980837" lon="116.49243143731312">
        <ele>18.7</ele>
        <time>2023-07-17T23:44:29Z</time>
      </trkpt>
      <trkpt lat="39.9220456919173" lon="116.49222365446317">
        <ele>22.8</ele>
        <time>2023-07-17T23:44:38Z</time>
      </trkpt>
      <trkpt lat="39.92202564189286" lon="116.49187131971382">
        <ele>23.099999999999998</ele>
        <time>2023-07-17T23:44:50Z</time>
      </trkpt>
      <trkpt lat="39.922042497776744" lon="116.49148786235688">
        <ele>21.0</ele>
        <time>2023-07-17T23:45:02Z</time>
      </trkpt>
      <trkpt lat="39.92201495724424" lon="116.49130617629712">
        <ele>21.5</ele>
        <time>2023-07-17T23:45:08Z</time>
      </trkpt>
      <trkpt lat="39.922034375942914" lon="116.49111143491866">
        <ele>21.7</ele>
        <time>2023-07-17T23:45:14Z</time>
      </trkpt>
      <trkpt lat="39.92201681421289" lon="116.49092272104694">
        <ele>19.099999999999998</ele>
        <time>2023-07-17T23:45:20Z</time>
      </trkpt>
      <trkpt lat="39.922044700380575" lon="116.49054930087509">
        <ele>23.4</ele>
        <time>2023-07-17T23:45:32Z</time>
      </trkpt>
      <trkpt lat="39.92203945239181" lon="116.49046598547251">
        <ele>25.2</ele>
        <time>2023-07-17T23:45:35Z</time>
      </trkpt>
      <trkpt lat="39.922067784452324" lon="116.49024213285864">
        <ele>19.5</ele>
        <time>2023-07-17T23:45:44Z</time>
      </trkpt>
      <trkpt lat="39.92204401421537" lon="116.48998315361224">
        <ele>19.599999999999998</ele>
        <time>2023-07-17T23:45:53Z</time>
      </trkpt>
      <trkpt lat="39.92205555051234" lon="116.48982756217511">
        <ele>20.7</ele>
        <time>2023-07-17T23:45:59Z</time>
      </trkpt>
      <trkpt lat="39.922030302767055" lon="116.48940797456679">
        <ele>19.9</ele>
        <time>2023-07-17T23:46:17Z</time>
      </trkpt>
      <trkpt lat="39.92202920394653" lon="116.4890385747025">
        <ele>19.599999999999998</ele>
        <time>2023-07-17T23:46:32Z</time>
      </trkpt>
      <trkpt lat="39.92204007236593" lon="116.48865813201826">
        <ele>16.8</ele>
        <time>2023-07-17T23:46:47Z</time>
      </trkpt>
      <trkpt lat="39.92204554707823" lon="116.48848146220625">
        <ele>15.8</ele>
        <time>2023-07-17T23:46:53Z</time>
      </trkpt>
      <trkpt lat="39.92206739106874" lon="116.48842926181271">
        <ele>14.899999999999999</ele>
        <time>2023-07-17T23:46:56Z</time>
      </trkpt>
      <trkpt lat="39.922109333763856" lon="116.48807391121059">
        <ele>18.7</ele>
        <time>2023-07-17T23:47:11Z</time>
      </trkpt>
      <trkpt lat="39.922142070101216" lon="116.4879855727773">
        <ele>18.4</ele>
        <time>2023-07-17T23:47:17Z</time>
      </trkpt>
      <trkpt lat="39.922189969762734" lon="116.48795244143592">
        <ele>18.599999999999998</ele>
        <time>2023-07-17T23:47:20Z</time>
      </trkpt>
      <trkpt lat="39.92228793590377" lon="116.48794239123924">
        <ele>20.099999999999998</ele>
        <time>2023-07-17T23:47:26Z</time>
      </trkpt>
      <trkpt lat="39.92233399062481" lon="116.48796145768466">
        <ele>19.7</ele>
        <time>2023-07-17T23:47:29Z</time>
      </trkpt>
      <trkpt lat="39.922389669444165" lon="116.48785404426353">
        <ele>21.7</ele>
        <time>2023-07-17T23:47:38Z</time>
      </trkpt>
      <trkpt lat="39.92240546617023" lon="116.48778578399818">
        <ele>23.8</ele>
        <time>2023-07-17T23:47:41Z</time>
      </trkpt>
      <trkpt lat="39.92251561655603" lon="116.48783796779296">
        <ele>26.8</ele>
        <time>2023-07-17T23:47:50Z</time>
      </trkpt>
      <trkpt lat="39.92268374667929" lon="116.48788412158461">
        <ele>27.599999999999998</ele>
        <time>2023-07-17T23:47:56Z</time>
      </trkpt>
      <trkpt lat="39.922744973625726" lon="116.48796140647963">
        <ele>27.599999999999998</ele>
        <time>2023-07-17T23:47:59Z</time>
      </trkpt>
      <trkpt lat="39.92275848577316" lon="116.48813405832813">
        <ele>28.7</ele>
        <time>2023-07-17T23:48:05Z</time>
      </trkpt>
      <trkpt lat="39.92267908838804" lon="116.48833583211254">
        <ele>27.400000000000002</ele>
        <time>2023-07-17T23:48:14Z</time>
      </trkpt>
      <trkpt lat="39.922737091262654" lon="116.48867410603927">
        <ele>27.099999999999998</ele>
        <time>2023-07-17T23:48:29Z</time>
      </trkpt>
      <trkpt lat="39.922820523489975" lon="116.48882065083254">
        <ele>27.3</ele>
        <time>2023-07-17T23:48:35Z</time>
      </trkpt>
      <trkpt lat="39.92304371721674" lon="116.48888888164306">
        <ele>28.3</ele>
        <time>2023-07-17T23:48:47Z</time>
      </trkpt>
      <trkpt lat="39.92332058640027" lon="116.48884869503483">
        <ele>22.099999999999998</ele>
        <time>2023-07-17T23:49:05Z</time>
      </trkpt>
      <trkpt lat="39.92356270474799" lon="116.48889182841508">
        <ele>21.9</ele>
        <time>2023-07-17T23:49:20Z</time>
      </trkpt>
      <trkpt lat="39.92366986747801" lon="116.48894802805594">
        <ele>23.0</ele>
        <time>2023-07-17T23:49:29Z</time>
      </trkpt>
      <trkpt lat="39.92392277944505" lon="116.48892189766799">
        <ele>20.2</ele>
        <time>2023-07-17T23:49:41Z</time>
      </trkpt>
      <trkpt lat="39.924245757186235" lon="116.48891884603154">
        <ele>17.4</ele>
        <time>2023-07-17T23:49:53Z</time>
      </trkpt>
      <trkpt lat="39.92454564933103" lon="116.48888668697326">
        <ele>15.5</ele>
        <time>2023-07-17T23:50:05Z</time>
      </trkpt>
      <trkpt lat="39.92485758874766" lon="116.48887058726795">
        <ele>15.8</ele>
        <time>2023-07-17T23:50:20Z</time>
      </trkpt>
      <trkpt lat="39.924970643793635" lon="116.4888906492518">
        <ele>13.3</ele>
        <time>2023-07-17T23:50:26Z</time>
      </trkpt>
      <trkpt lat="39.92507184857365" lon="116.48896090288777">
        <ele>11.8</ele>
        <time>2023-07-17T23:50:32Z</time>
      </trkpt>
      <trkpt lat="39.92522182151793" lon="116.4889538575833">
        <ele>12.7</ele>
        <time>2023-07-17T23:50:38Z</time>
      </trkpt>
      <trkpt lat="39.92548457194656" lon="116.48887352058269">
        <ele>16.0</ele>
        <time>2023-07-17T23:50:50Z</time>
      </trkpt>
      <trkpt lat="39.925752355030454" lon="116.48880422481007">
        <ele>21.3</ele>
        <time>2023-07-17T23:51:05Z</time>
      </trkpt>
      <trkpt lat="39.925842217054694" lon="116.48875904248426">
        <ele>22.4</ele>
        <time>2023-07-17T23:51:11Z</time>
      </trkpt>
      <trkpt lat="39.92600924601642" lon="116.48877106731256">
        <ele>24.4</ele>
        <time>2023-07-17T23:51:26Z</time>
      </trkpt>
      <trkpt lat="39.92627574276554" lon="116.48860540668827">
        <ele>24.3</ele>
        <time>2023-07-17T23:51:35Z</time>
      </trkpt>
      <trkpt lat="39.926325481184506" lon="116.48851806971125">
        <ele>24.4</ele>
        <time>2023-07-17T23:51:38Z</time>
      </trkpt>
      <trkpt lat="39.926380745226794" lon="116.48827112768963">
        <ele>25.7</ele>
        <time>2023-07-17T23:51:47Z</time>
      </trkpt>
      <trkpt lat="39.926432525438756" lon="116.48819784378937">
        <ele>25.2</ele>
        <time>2023-07-17T23:51:53Z</time>
      </trkpt>
      <trkpt lat="39.92649539764264" lon="116.48815567633831">
        <ele>26.999999999999996</ele>
        <time>2023-07-17T23:51:59Z</time>
      </trkpt>
      <trkpt lat="39.92674238157104" lon="116.48815363796264">
        <ele>28.099999999999998</ele>
        <time>2023-07-17T23:52:11Z</time>
      </trkpt>
      <trkpt lat="39.9269294126781" lon="116.48816666406232">
        <ele>26.7</ele>
        <time>2023-07-17T23:52:23Z</time>
      </trkpt>
      <trkpt lat="39.92710014633131" lon="116.48807931217118">
        <ele>24.9</ele>
        <time>2023-07-17T23:52:32Z</time>
      </trkpt>
      <trkpt lat="39.927317434072975" lon="116.4878423884269">
        <ele>23.599999999999998</ele>
        <time>2023-07-17T23:52:44Z</time>
      </trkpt>
      <trkpt lat="39.92760371630726" lon="116.487604452555">
        <ele>25.2</ele>
        <time>2023-07-17T23:52:59Z</time>
      </trkpt>
      <trkpt lat="39.927694233128264" lon="116.48744282991372">
        <ele>26.499999999999996</ele>
        <time>2023-07-17T23:53:05Z</time>
      </trkpt>
      <trkpt lat="39.927721833035605" lon="116.48730831774591">
        <ele>27.999999999999996</ele>
        <time>2023-07-17T23:53:11Z</time>
      </trkpt>
      <trkpt lat="39.927674724934036" lon="116.48693390806373">
        <ele>26.0</ele>
        <time>2023-07-17T23:53:26Z</time>
      </trkpt>
      <trkpt lat="39.927660552980235" lon="116.48687568979017">
        <ele>24.8</ele>
        <time>2023-07-17T23:53:29Z</time>
      </trkpt>
      <trkpt lat="39.927756674804186" lon="116.48658056274044">
        <ele>22.2</ele>
        <time>2023-07-17T23:53:44Z</time>
      </trkpt>
      <trkpt lat="39.927779936801954" lon="116.4863316196619">
        <ele>19.2</ele>
        <time>2023-07-17T23:53:53Z</time>
      </trkpt>
      <trkpt lat="39.927954922791656" lon="116.48599131332972">
        <ele>18.0</ele>
        <time>2023-07-17T23:54:08Z</time>
      </trkpt>
      <trkpt lat="39.92799272827771" lon="116.48592606241135">
        <ele>16.7</ele>
        <time>2023-07-17T23:54:11Z</time>
      </trkpt>
      <trkpt lat="39.92800387018603" lon="116.48563596672673">
        <ele>12.5</ele>
        <time>2023-07-17T23:54:23Z</time>
      </trkpt>
      <trkpt lat="39.92794700358787" lon="116.48534186500336">
        <ele>14.2</ele>
        <time>2023-07-17T23:54:32Z</time>
      </trkpt>
      <trkpt lat="39.927885540749244" lon="116.48518427879496">
        <ele>15.5</ele>
        <time>2023-07-17T23:54:38Z</time>
      </trkpt>
      <trkpt lat="39.927893799787" lon="116.48493333249857">
        <ele>12.399999999999999</ele>
        <time>2023-07-17T23:54:50Z</time>
      </trkpt>
      <trkpt lat="39.92791258876764" lon="116.48486206178941">
        <ele>12.5</ele>
        <time>2023-07-17T23:54:53Z</time>
      </trkpt>
      <trkpt lat="39.92796533199455" lon="116.48477573020102">
        <ele>12.2</ele>
        <time>2023-07-17T23:54:59Z</time>
      </trkpt>
      <trkpt lat="39.928015205630636" lon="116.48473356527491">
        <ele>12.0</ele>
        <time>2023-07-17T23:55:05Z</time>
      </trkpt>
      <trkpt lat="39.92810410432694" lon="116.4847004294962">
        <ele>12.2</ele>
        <time>2023-07-17T23:55:11Z</time>
      </trkpt>
      <trkpt lat="39.92832949741345" lon="116.4844976383428">
        <ele>12.3</ele>
        <time>2023-07-17T23:55:23Z</time>
      </trkpt>
      <trkpt lat="39.92837702521531" lon="116.48433803205562">
        <ele>14.0</ele>
        <time>2023-07-17T23:55:29Z</time>
      </trkpt>
      <trkpt lat="39.928421937635804" lon="116.48430891697443">
        <ele>14.399999999999999</ele>
        <time>2023-07-17T23:55:32Z</time>
      </trkpt>
      <trkpt lat="39.92848397058977" lon="116.48432095453074">
        <ele>15.0</ele>
        <time>2023-07-17T23:55:38Z</time>
      </trkpt>
      <trkpt lat="39.92842992565931" lon="116.48362534735783">
        <ele>22.5</ele>
        <time>2023-07-17T23:55:56Z</time>
      </trkpt>
      <trkpt lat="39.92847776436239" lon="116.48357113788853">
        <ele>22.9</ele>
        <time>2023-07-17T23:55:59Z</time>
      </trkpt>
      <trkpt lat="39.928497312217516" lon="116.48341755902563">
        <ele>22.9</ele>
        <time>2023-07-17T23:56:05Z</time>
      </trkpt>
      <trkpt lat="39.9285619291951" lon="116.48328806512909">
        <ele>20.5</ele>
        <time>2023-07-17T23:56:11Z</time>
      </trkpt>
      <trkpt lat="39.92872260724523" lon="116.4831806422134">
        <ele>18.8</ele>
        <time>2023-07-17T23:56:17Z</time>
      </trkpt>
      <trkpt lat="39.92904448215438" lon="116.48314245897475">
        <ele>23.2</ele>
        <time>2023-07-17T23:56:32Z</time>
      </trkpt>
      <trkpt lat="39.92930743020215" lon="116.48312837343983">
        <ele>27.8</ele>
        <time>2023-07-17T23:56:47Z</time>
      </trkpt>
      <trkpt lat="39.929459509478804" lon="116.4831574636058">
        <ele>27.099999999999998</ele>
        <time>2023-07-17T23:56:59Z</time>
      </trkpt>
      <trkpt lat="39.929544158350154" lon="116.48303900892225">
        <ele>26.8</ele>
        <time>2023-07-17T23:57:08Z</time>
      </trkpt>
      <trkpt lat="39.92951662934094" lon="116.48285833517215">
        <ele>25.7</ele>
        <time>2023-07-17T23:57:17Z</time>
      </trkpt>
      <trkpt lat="39.92946720746143" lon="116.48271379983368">
        <ele>23.5</ele>
        <time>2023-07-17T23:57:26Z</time>
      </trkpt>
      <trkpt lat="39.92945394316812" lon="116.48262346315528">
        <ele>21.4</ele>
        <time>2023-07-17T23:57:29Z</time>
      </trkpt>
      <trkpt lat="39.929418773968266" lon="116.48256524955532">
        <ele>19.5</ele>
        <time>2023-07-17T23:57:32Z</time>
      </trkpt>
      <trkpt lat="39.929305602089904" lon="116.48250503822015">
        <ele>16.5</ele>
        <time>2023-07-17T23:57:38Z</time>
      </trkpt>
      <trkpt lat="39.92926548902745" lon="116.48246589669462">
        <ele>14.599999999999998</ele>
        <time>2023-07-17T23:57:41Z</time>
      </trkpt>
      <trkpt lat="39.92922209976593" lon="116.48233240251062">
        <ele>12.8</ele>
        <time>2023-07-17T23:57:47Z</time>
      </trkpt>
      <trkpt lat="39.92919042524586" lon="116.48210154294316">
        <ele>11.2</ele>
        <time>2023-07-17T23:57:59Z</time>
      </trkpt>
      <trkpt lat="39.929137104384765" lon="116.48199113682129">
        <ele>12.2</ele>
        <time>2023-07-17T23:58:05Z</time>
      </trkpt>
      <trkpt lat="39.92892360821056" lon="116.48181851832642">
        <ele>13.899999999999999</ele>
        <time>2023-07-17T23:58:17Z</time>
      </trkpt>
      <trkpt lat="39.92886456073088" lon="116.48180146195605">
        <ele>15.599999999999998</ele>
        <time>2023-07-17T23:58:20Z</time>
      </trkpt>
      <trkpt lat="39.92875167976819" lon="116.4818406223128">
        <ele>17.0</ele>
        <time>2023-07-17T23:58:26Z</time>
      </trkpt>
      <trkpt lat="39.92855417802909" lon="116.48200827344024">
        <ele>17.7</ele>
        <time>2023-07-17T23:58:38Z</time>
      </trkpt>
      <trkpt lat="39.92826935114439" lon="116.48206351541032">
        <ele>22.9</ele>
        <time>2023-07-17T23:58:53Z</time>
      </trkpt>
      <trkpt lat="39.92810953976042" lon="116.48212576806654">
        <ele>22.9</ele>
        <time>2023-07-17T23:59:02Z</time>
      </trkpt>
      <trkpt lat="39.92799484410482" lon="116.48222816529938">
        <ele>24.0</ele>
        <time>2023-07-17T23:59:11Z</time>
      </trkpt>
      <trkpt lat="39.92795416022927" lon="116.4823355721769">
        <ele>24.9</ele>
        <time>2023-07-17T23:59:17Z</time>
      </trkpt>
      <trkpt lat="39.92788753045228" lon="116.48246105004316">
        <ele>25.3</ele>
        <time>2023-07-17T23:59:23Z</time>
      </trkpt>
      <trkpt lat="39.927818148082444" lon="116.48267084415608">
        <ele>24.8</ele>
        <time>2023-07-17T23:59:29Z</time>
      </trkpt>
      <trkpt lat="39.92776833551775" lon="116.48273408722889">
        <ele>24.9</ele>
        <time>2023-07-17T23:59:32Z</time>
      </trkpt>
      <trkpt lat="39.927495449674794" lon="116.48276925291351">
        <ele>25.2</ele>
        <time>2023-07-17T23:59:47Z</time>
      </trkpt>
      <trkpt lat="39.92731868946094" lon="116.4828485720788">
        <ele>25.3</ele>
        <time>2023-07-17T23:59:56Z</time>
      </trkpt>
      <trkpt lat="39.92722404670322" lon="116.48296903529426">
        <ele>24.099999999999998</ele>
        <time>2023-07-18T00:00:05Z</time>
      </trkpt>
      <trkpt lat="39.92719563121962" lon="116.48316778396314">
        <ele>25.4</ele>
        <time>2023-07-18T00:00:14Z</time>
      </trkpt>
      <trkpt lat="39.92711500965255" lon="116.48342745437337">
        <ele>25.599999999999998</ele>
        <time>2023-07-18T00:00:26Z</time>
      </trkpt>
      <trkpt lat="39.927083270056215" lon="116.48348337736547">
        <ele>25.599999999999998</ele>
        <time>2023-07-18T00:00:29Z</time>
      </trkpt>
      <trkpt lat="39.92713208489582" lon="116.48434119876785">
        <ele>22.4</ele>
        <time>2023-07-18T00:00:56Z</time>
      </trkpt>
      <trkpt lat="39.927067267937794" lon="116.48440243715427">
        <ele>23.4</ele>
        <time>2023-07-18T00:00:59Z</time>
      </trkpt>
      <trkpt lat="39.926787400646326" lon="116.48444362689052">
        <ele>20.2</ele>
        <time>2023-07-18T00:01:14Z</time>
      </trkpt>
      <trkpt lat="39.92647236917155" lon="116.48442860956932">
        <ele>21.7</ele>
        <time>2023-07-18T00:01:29Z</time>
      </trkpt>
      <trkpt lat="39.926225503511176" lon="116.48447079896965">
        <ele>25.3</ele>
        <time>2023-07-18T00:01:41Z</time>
      </trkpt>
      <trkpt lat="39.92592232959385" lon="116.4844075989256">
        <ele>22.099999999999998</ele>
        <time>2023-07-18T00:01:59Z</time>
      </trkpt>
      <trkpt lat="39.92561532148114" lon="116.48440061081143">
        <ele>21.4</ele>
        <time>2023-07-18T00:02:11Z</time>
      </trkpt>
      <trkpt lat="39.92555727358659" lon="116.48438355387323">
        <ele>21.8</ele>
        <time>2023-07-18T00:02:14Z</time>
      </trkpt>
      <trkpt lat="39.92535944437171" lon="116.48443878622015">
        <ele>22.9</ele>
        <time>2023-07-18T00:02:23Z</time>
      </trkpt>
      <trkpt lat="39.92506044777694" lon="116.48443581220619">
        <ele>19.9</ele>
        <time>2023-07-18T00:02:38Z</time>
      </trkpt>
      <trkpt lat="39.92487075434581" lon="116.48453721727641">
        <ele>21.0</ele>
        <time>2023-07-18T00:02:50Z</time>
      </trkpt>
      <trkpt lat="39.924651666072364" lon="116.48484339687745">
        <ele>27.900000000000002</ele>
        <time>2023-07-18T00:03:08Z</time>
      </trkpt>
      <trkpt lat="39.92460750019772" lon="116.48512546465047">
        <ele>29.8</ele>
        <time>2023-07-18T00:03:20Z</time>
      </trkpt>
      <trkpt lat="39.924675368840354" lon="116.48542056825347">
        <ele>33.0</ele>
        <time>2023-07-18T00:03:35Z</time>
      </trkpt>
      <trkpt lat="39.92474662390211" lon="116.48550788857342">
        <ele>33.400000000000006</ele>
        <time>2023-07-18T00:03:41Z</time>
      </trkpt>
      <trkpt lat="39.92483984548524" lon="116.48558416457608">
        <ele>30.900000000000002</ele>
        <time>2023-07-18T00:03:47Z</time>
      </trkpt>
      <trkpt lat="39.924959496279335" lon="116.48580598629282">
        <ele>27.900000000000002</ele>
        <time>2023-07-18T00:03:56Z</time>
      </trkpt>
      <trkpt lat="39.925020301263956" lon="116.48607900889832">
        <ele>23.2</ele>
        <time>2023-07-18T00:04:08Z</time>
      </trkpt>
      <trkpt lat="39.92500771164658" lon="116.48621753333224">
        <ele>21.2</ele>
        <time>2023-07-18T00:04:14Z</time>
      </trkpt>
      <trkpt lat="39.9249548772041" lon="116.4862727483439">
        <ele>20.2</ele>
        <time>2023-07-18T00:04:20Z</time>
      </trkpt>
      <trkpt lat="39.92489382920977" lon="116.48625569153248">
        <ele>17.5</ele>
        <time>2023-07-18T00:04:26Z</time>
      </trkpt>
      <trkpt lat="39.92469020897217" lon="116.48638119067074">
        <ele>15.0</ele>
        <time>2023-07-18T00:04:35Z</time>
      </trkpt>
      <trkpt lat="39.92452027539374" lon="116.48640128766834">
        <ele>15.0</ele>
        <time>2023-07-18T00:04:44Z</time>
      </trkpt>
      <trkpt lat="39.92445023964447" lon="116.48638824712478">
        <ele>15.099999999999998</ele>
        <time>2023-07-18T00:04:47Z</time>
      </trkpt>
      <trkpt lat="39.92433702442507" lon="116.48631398076816">
        <ele>15.399999999999999</ele>
        <time>2023-07-18T00:04:53Z</time>
      </trkpt>
      <trkpt lat="39.92414501747484" lon="116.48630898575989">
        <ele>17.5</ele>
        <time>2023-07-18T00:05:02Z</time>
      </trkpt>
      <trkpt lat="39.92385344252677" lon="116.48644854897162">
        <ele>26.3</ele>
        <time>2023-07-18T00:05:14Z</time>
      </trkpt>
      <trkpt lat="39.92374472639841" lon="116.48654291888731">
        <ele>27.8</ele>
        <time>2023-07-18T00:05:20Z</time>
      </trkpt>
      <trkpt lat="39.92364911087479" lon="116.48667141615473">
        <ele>28.3</ele>
        <time>2023-07-18T00:05:26Z</time>
      </trkpt>
      <trkpt lat="39.92343695833795" lon="116.48695451223412">
        <ele>26.999999999999996</ele>
        <time>2023-07-18T00:05:41Z</time>
      </trkpt>
      <trkpt lat="39.92329067258587" lon="116.48719343357068">
        <ele>21.599999999999998</ele>
        <time>2023-07-18T00:05:53Z</time>
      </trkpt>
      <trkpt lat="39.92324180259164" lon="116.48723660286153">
        <ele>20.4</ele>
        <time>2023-07-18T00:05:56Z</time>
      </trkpt>
      <trkpt lat="39.9229500557629" lon="116.48731794667273">
        <ele>22.9</ele>
        <time>2023-07-18T00:06:11Z</time>
      </trkpt>
      <trkpt lat="39.922834143912006" lon="116.48734606740577">
        <ele>22.9</ele>
        <time>2023-07-18T00:06:17Z</time>
      </trkpt>
      <trkpt lat="39.9228003983887" lon="116.48743139429484">
        <ele>22.099999999999998</ele>
        <time>2023-07-18T00:06:23Z</time>
      </trkpt>
      <trkpt lat="39.92278459351487" lon="116.48783391908438">
        <ele>25.9</ele>
        <time>2023-07-18T00:06:38Z</time>
      </trkpt>
      <trkpt lat="39.92276415762849" lon="116.48802363964883">
        <ele>29.499999999999996</ele>
        <time>2023-07-18T00:06:44Z</time>
      </trkpt>
      <trkpt lat="39.922740397084986" lon="116.48810394658355">
        <ele>30.2</ele>
        <time>2023-07-18T00:06:47Z</time>
      </trkpt>
      <trkpt lat="39.92267380829754" lon="116.48824147550418">
        <ele>29.400000000000002</ele>
        <time>2023-07-18T00:06:53Z</time>
      </trkpt>
      <trkpt lat="39.922672037982316" lon="116.48831876837596">
        <ele>28.999999999999996</ele>
        <time>2023-07-18T00:06:56Z</time>
      </trkpt>
      <trkpt lat="39.922645185223665" lon="116.48836795796734">
        <ele>28.099999999999998</ele>
        <time>2023-07-18T00:06:59Z</time>
      </trkpt>
      <trkpt lat="39.92268311736441" lon="116.48868214318077">
        <ele>26.3</ele>
        <time>2023-07-18T00:07:08Z</time>
      </trkpt>
      <trkpt lat="39.92272238131652" lon="116.48877147671739">
        <ele>25.3</ele>
        <time>2023-07-18T00:07:11Z</time>
      </trkpt>
      <trkpt lat="39.92277356422856" lon="116.48883370611948">
        <ele>24.099999999999998</ele>
        <time>2023-07-18T00:07:14Z</time>
      </trkpt>
      <trkpt lat="39.92283267221315" lon="116.48887083947062">
        <ele>23.4</ele>
        <time>2023-07-18T00:07:17Z</time>
      </trkpt>
      <trkpt lat="39.922989609021386" lon="116.48885174766625">
        <ele>23.099999999999998</ele>
        <time>2023-07-18T00:07:26Z</time>
      </trkpt>
      <trkpt lat="39.92317061945241" lon="116.48885774794049">
        <ele>24.099999999999998</ele>
        <time>2023-07-18T00:07:32Z</time>
      </trkpt>
      <trkpt lat="39.92327076455082" lon="116.48890792562717">
        <ele>24.0</ele>
        <time>2023-07-18T00:07:35Z</time>
      </trkpt>
      <trkpt lat="39.92353475664139" lon="116.48890889655152">
        <ele>25.9</ele>
        <time>2023-07-18T00:07:53Z</time>
      </trkpt>
      <trkpt lat="39.923675816489386" lon="116.48893096265678">
        <ele>25.8</ele>
        <time>2023-07-18T00:08:02Z</time>
      </trkpt>
      <trkpt lat="39.92399569286709" lon="116.48889378209374">
        <ele>25.7</ele>
        <time>2023-07-18T00:08:11Z</time>
      </trkpt>
      <trkpt lat="39.92418962518535" lon="116.48887368187465">
        <ele>24.4</ele>
        <time>2023-07-18T00:08:17Z</time>
      </trkpt>
      <trkpt lat="39.924520751836894" lon="116.48892081938776">
        <ele>24.099999999999998</ele>
        <time>2023-07-18T00:08:35Z</time>
      </trkpt>
      <trkpt lat="39.92457081245939" lon="116.48894189302499">
        <ele>23.8</ele>
        <time>2023-07-18T00:08:38Z</time>
      </trkpt>
      <trkpt lat="39.92490071531691" lon="116.48891374543881">
        <ele>18.5</ele>
        <time>2023-07-18T00:08:56Z</time>
      </trkpt>
      <trkpt lat="39.92520572666248" lon="116.48892173787587">
        <ele>18.5</ele>
        <time>2023-07-18T00:09:12Z</time>
      </trkpt>
      <trkpt lat="39.92541973578366" lon="116.48892773404079">
        <ele>19.9</ele>
        <time>2023-07-18T00:09:21Z</time>
      </trkpt>
      <trkpt lat="39.92564257740102" lon="116.48887751611487">
        <ele>21.9</ele>
        <time>2023-07-18T00:09:27Z</time>
      </trkpt>
      <trkpt lat="39.92595038272206" lon="116.48881624577959">
        <ele>24.7</ele>
        <time>2023-07-18T00:09:39Z</time>
      </trkpt>
      <trkpt lat="39.92606231844696" lon="116.48879615577546">
        <ele>26.2</ele>
        <time>2023-07-18T00:09:45Z</time>
      </trkpt>
      <trkpt lat="39.92620912741328" lon="116.48873390170863">
        <ele>29.400000000000002</ele>
        <time>2023-07-18T00:09:54Z</time>
      </trkpt>
      <trkpt lat="39.92632473180851" lon="116.48860238917858">
        <ele>31.999999999999996</ele>
        <time>2023-07-18T00:10:00Z</time>
      </trkpt>
      <trkpt lat="39.92636930041417" lon="116.48845783614593">
        <ele>33.7</ele>
        <time>2023-07-18T00:10:06Z</time>
      </trkpt>
      <trkpt lat="39.92640565475118" lon="116.48824101056313">
        <ele>27.8</ele>
        <time>2023-07-18T00:10:15Z</time>
      </trkpt>
      <trkpt lat="39.926437495419755" lon="116.48818780516531">
        <ele>26.900000000000002</ele>
        <time>2023-07-18T00:10:18Z</time>
      </trkpt>
      <trkpt lat="39.926499391516394" lon="116.48815366824005">
        <ele>26.2</ele>
        <time>2023-07-18T00:10:24Z</time>
      </trkpt>
      <trkpt lat="39.92672553729756" lon="116.4882058376841">
        <ele>24.9</ele>
        <time>2023-07-18T00:10:39Z</time>
      </trkpt>
      <trkpt lat="39.92687049260666" lon="116.48819277021553">
        <ele>25.9</ele>
        <time>2023-07-18T00:10:45Z</time>
      </trkpt>
      <trkpt lat="39.92705213935106" lon="116.48807630675338">
        <ele>23.8</ele>
        <time>2023-07-18T00:10:54Z</time>
      </trkpt>
      <trkpt lat="39.927302458523606" lon="116.4878504206843">
        <ele>24.9</ele>
        <time>2023-07-18T00:11:06Z</time>
      </trkpt>
      <trkpt lat="39.927552819660654" lon="116.48763858802273">
        <ele>25.3</ele>
        <time>2023-07-18T00:11:21Z</time>
      </trkpt>
      <trkpt lat="39.92766944259428" lon="116.4875130987953">
        <ele>27.099999999999998</ele>
        <time>2023-07-18T00:11:30Z</time>
      </trkpt>
      <trkpt lat="39.92770724450805" lon="116.48744684347928">
        <ele>28.599999999999998</ele>
        <time>2023-07-18T00:11:33Z</time>
      </trkpt>
      <trkpt lat="39.92773184155804" lon="116.48731132788666">
        <ele>29.599999999999998</ele>
        <time>2023-07-18T00:11:39Z</time>
      </trkpt>
      <trkpt lat="39.92768673931796" lon="116.48693892553578">
        <ele>27.499999999999996</ele>
        <time>2023-07-18T00:11:54Z</time>
      </trkpt>
      <trkpt lat="39.92769036735385" lon="116.48681345087944">
        <ele>24.9</ele>
        <time>2023-07-18T00:12:00Z</time>
      </trkpt>
      <trkpt lat="39.927800836512645" lon="116.48663576579399">
        <ele>19.8</ele>
        <time>2023-07-18T00:12:09Z</time>
      </trkpt>
      <trkpt lat="39.92782558875684" lon="116.48655244797838">
        <ele>17.5</ele>
        <time>2023-07-18T00:12:12Z</time>
      </trkpt>
      <trkpt lat="39.92783907404233" lon="116.48637879043555">
        <ele>12.599999999999998</ele>
        <time>2023-07-18T00:12:18Z</time>
      </trkpt>
      <trkpt lat="39.92792467836578" lon="116.48624627946435">
        <ele>7.500000000000001</ele>
        <time>2023-07-18T00:12:27Z</time>
      </trkpt>
      <trkpt lat="39.92798402552384" lon="116.48602644228278">
        <ele>5.000000000000001</ele>
        <time>2023-07-18T00:12:36Z</time>
      </trkpt>
      <trkpt lat="39.9280121606092" lon="116.48573433670131">
        <ele>5.000000000000001</ele>
        <time>2023-07-18T00:12:45Z</time>
      </trkpt>
      <trkpt lat="39.92798023645416" lon="116.48542115975845">
        <ele>9.600000000000001</ele>
        <time>2023-07-18T00:12:54Z</time>
      </trkpt>
      <trkpt lat="39.92794383178521" lon="116.4852836459829">
        <ele>11.8</ele>
        <time>2023-07-18T00:13:00Z</time>
      </trkpt>
      <trkpt lat="39.92794853521574" lon="116.48518326715308">
        <ele>12.5</ele>
        <time>2023-07-18T00:13:06Z</time>
      </trkpt>
      <trkpt lat="39.927884729081484" lon="116.48490924291113">
        <ele>14.2</ele>
        <time>2023-07-18T00:13:15Z</time>
      </trkpt>
      <trkpt lat="39.92789533781047" lon="116.48477674271456">
        <ele>15.599999999999998</ele>
        <time>2023-07-18T00:13:21Z</time>
      </trkpt>
      <trkpt lat="39.928170696189596" lon="116.48456290365236">
        <ele>24.3</ele>
        <time>2023-07-18T00:13:42Z</time>
      </trkpt>
      <trkpt lat="39.92828226566192" lon="116.48441834592127">
        <ele>25.8</ele>
        <time>2023-07-18T00:13:48Z</time>
      </trkpt>
      <trkpt lat="39.92831206039042" lon="116.48434908169136">
        <ele>26.999999999999996</ele>
        <time>2023-07-18T00:13:51Z</time>
      </trkpt>
      <trkpt lat="39.92841878993638" lon="116.48425872863407">
        <ele>28.7</ele>
        <time>2023-07-18T00:14:00Z</time>
      </trkpt>
      <trkpt lat="39.92845749958097" lon="116.48411278541809">
        <ele>30.499999999999996</ele>
        <time>2023-07-18T00:14:06Z</time>
      </trkpt>
      <trkpt lat="39.928460064191434" lon="116.48401279900789">
        <ele>30.999999999999996</ele>
        <time>2023-07-18T00:14:09Z</time>
      </trkpt>
      <trkpt lat="39.92855941333859" lon="116.4837929606958">
        <ele>32.300000000000004</ele>
        <time>2023-07-18T00:14:18Z</time>
      </trkpt>
      <trkpt lat="39.928554162617715" lon="116.48370764091183">
        <ele>32.800000000000004</ele>
        <time>2023-07-18T00:14:21Z</time>
      </trkpt>
      <trkpt lat="39.92842670743144" lon="116.48355106890153">
        <ele>33.2</ele>
        <time>2023-07-18T00:14:24Z</time>
      </trkpt>
      <trkpt lat="39.928404333702105" lon="116.48342359323618">
        <ele>33.6</ele>
        <time>2023-07-18T00:14:27Z</time>
      </trkpt>
      <trkpt lat="39.9285119105956" lon="116.48328104501708">
        <ele>34.1</ele>
        <time>2023-07-18T00:14:33Z</time>
      </trkpt>
      <trkpt lat="39.92870357265408" lon="116.483168599418">
        <ele>30.599999999999998</ele>
        <time>2023-07-18T00:14:42Z</time>
      </trkpt>
      <trkpt lat="39.92901457178259" lon="116.48317257563676">
        <ele>19.099999999999998</ele>
        <time>2023-07-18T00:15:00Z</time>
      </trkpt>
      <trkpt lat="39.929065549078274" lon="116.48316554292013">
        <ele>19.5</ele>
        <time>2023-07-18T00:15:03Z</time>
      </trkpt>
      <trkpt lat="39.92912942860212" lon="116.48312538437824">
        <ele>19.599999999999998</ele>
        <time>2023-07-18T00:15:09Z</time>
      </trkpt>
      <trkpt lat="39.929372377467224" lon="116.48311130134293">
        <ele>20.9</ele>
        <time>2023-07-18T00:15:21Z</time>
      </trkpt>
      <trkpt lat="39.92942441660496" lon="116.48312534753777">
        <ele>21.3</ele>
        <time>2023-07-18T00:15:24Z</time>
      </trkpt>
      <trkpt lat="39.92949237848171" lon="116.48311329388366">
        <ele>23.0</ele>
        <time>2023-07-18T00:15:30Z</time>
      </trkpt>
      <trkpt lat="39.929539232202565" lon="116.48306410361737">
        <ele>23.599999999999998</ele>
        <time>2023-07-18T00:15:33Z</time>
      </trkpt>
      <trkpt lat="39.92952958465036" lon="116.48284327713652">
        <ele>26.7</ele>
        <time>2023-07-18T00:15:45Z</time>
      </trkpt>
      <trkpt lat="39.92949034485228" lon="116.48276097366336">
        <ele>27.8</ele>
        <time>2023-07-18T00:15:51Z</time>
      </trkpt>
      <trkpt lat="39.92925747465011" lon="116.48246087891025">
        <ele>26.0</ele>
        <time>2023-07-18T00:16:09Z</time>
      </trkpt>
      <trkpt lat="39.929154385592334" lon="116.48208749490242">
        <ele>20.599999999999998</ele>
        <time>2023-07-18T00:16:27Z</time>
      </trkpt>
      <trkpt lat="39.92907698352342" lon="116.48194898676056">
        <ele>20.3</ele>
        <time>2023-07-18T00:16:33Z</time>
      </trkpt>
      <trkpt lat="39.92894168083771" lon="116.48184360982223">
        <ele>22.099999999999998</ele>
        <time>2023-07-18T00:16:39Z</time>
      </trkpt>
      <trkpt lat="39.92887362491702" lon="116.48182354332235">
        <ele>23.0</ele>
        <time>2023-07-18T00:16:42Z</time>
      </trkpt>
      <trkpt lat="39.928704790264575" lon="116.48187776693912">
        <ele>24.099999999999998</ele>
        <time>2023-07-18T00:16:51Z</time>
      </trkpt>
      <trkpt lat="39.928595091215115" lon="116.48197915952133">
        <ele>23.099999999999998</ele>
        <time>2023-07-18T00:16:57Z</time>
      </trkpt>
      <trkpt lat="39.92844531166936" lon="116.48205245214649">
        <ele>24.8</ele>
        <time>2023-07-18T00:17:06Z</time>
      </trkpt>
      <trkpt lat="39.928290262192306" lon="116.48203340022097">
        <ele>26.999999999999996</ele>
        <time>2023-07-18T00:17:15Z</time>
      </trkpt>
      <trkpt lat="39.92812645095284" lon="116.48209565335668">
        <ele>26.3</ele>
        <time>2023-07-18T00:17:24Z</time>
      </trkpt>
      <trkpt lat="39.92803666904986" lon="116.48216893857686">
        <ele>24.2</ele>
        <time>2023-07-18T00:17:30Z</time>
      </trkpt>
      <trkpt lat="39.927902362246414" lon="116.48240383405812">
        <ele>22.2</ele>
        <time>2023-07-18T00:17:42Z</time>
      </trkpt>
      <trkpt lat="39.92779017865026" lon="116.48268088524222">
        <ele>20.3</ele>
        <time>2023-07-18T00:17:54Z</time>
      </trkpt>
      <trkpt lat="39.92774531879807" lon="116.48272806754468">
        <ele>19.8</ele>
        <time>2023-07-18T00:17:57Z</time>
      </trkpt>
      <trkpt lat="39.92753730080164" lon="116.48271905968846">
        <ele>18.9</ele>
        <time>2023-07-18T00:18:09Z</time>
      </trkpt>
      <trkpt lat="39.92730157239773" lon="116.48280842378402">
        <ele>20.8</ele>
        <time>2023-07-18T00:18:21Z</time>
      </trkpt>
      <trkpt lat="39.927231751899626" lon="116.48286865815894">
        <ele>22.2</ele>
        <time>2023-07-18T00:18:27Z</time>
      </trkpt>
      <trkpt lat="39.92719406265528" lon="116.48297405785014">
        <ele>21.2</ele>
        <time>2023-07-18T00:18:33Z</time>
      </trkpt>
      <trkpt lat="39.92718266122137" lon="116.48317782322547">
        <ele>21.7</ele>
        <time>2023-07-18T00:18:42Z</time>
      </trkpt>
      <trkpt lat="39.92719190549334" lon="116.48326113454385">
        <ele>23.3</ele>
        <time>2023-07-18T00:18:48Z</time>
      </trkpt>
      <trkpt lat="39.92714953828877" lon="116.48347594579705">
        <ele>25.3</ele>
        <time>2023-07-18T00:18:54Z</time>
      </trkpt>
      <trkpt lat="39.92708318679039" lon="116.48369765180729">
        <ele>27.2</ele>
        <time>2023-07-18T00:19:03Z</time>
      </trkpt>
      <trkpt lat="39.92733377930602" lon="116.48390051717496">
        <ele>15.2</ele>
        <time>2023-07-18T00:19:18Z</time>
      </trkpt>
      <trkpt lat="39.92712769186363" lon="116.48420769730605">
        <ele>15.399999999999999</ele>
        <time>2023-07-18T00:19:24Z</time>
      </trkpt>
      <trkpt lat="39.92709989402269" lon="116.48427595742312">
        <ele>20.3</ele>
        <time>2023-07-18T00:19:27Z</time>
      </trkpt>
      <trkpt lat="39.927012243570125" lon="116.48439341004155">
        <ele>23.2</ele>
        <time>2023-07-18T00:19:30Z</time>
      </trkpt>
      <trkpt lat="39.92679520217089" lon="116.48437637294721">
        <ele>16.7</ele>
        <time>2023-07-18T00:19:42Z</time>
      </trkpt>
      <trkpt lat="39.926624422103686" lon="116.48444866611064">
        <ele>15.3</ele>
        <time>2023-07-18T00:19:51Z</time>
      </trkpt>
      <trkpt lat="39.926332454761145" lon="116.48445572898073">
        <ele>13.099999999999998</ele>
        <time>2023-07-18T00:20:03Z</time>
      </trkpt>
      <trkpt lat="39.92610739890777" lon="116.48443367399737">
        <ele>18.8</ele>
        <time>2023-07-18T00:20:15Z</time>
      </trkpt>
      <trkpt lat="39.92592017590085" lon="116.48435540287497">
        <ele>21.9</ele>
        <time>2023-07-18T00:20:24Z</time>
      </trkpt>
      <trkpt lat="39.92584419380159" lon="116.48436043123363">
        <ele>22.3</ele>
        <time>2023-07-18T00:20:27Z</time>
      </trkpt>
      <trkpt lat="39.925769069731246" lon="116.48431727828445">
        <ele>22.099999999999998</ele>
        <time>2023-07-18T00:20:30Z</time>
      </trkpt>
      <trkpt lat="39.92570517880229" lon="116.48435342215704">
        <ele>22.3</ele>
        <time>2023-07-18T00:20:33Z</time>
      </trkpt>
      <trkpt lat="39.92555524409676" lon="116.48437351637322">
        <ele>22.7</ele>
        <time>2023-07-18T00:20:39Z</time>
      </trkpt>
      <trkpt lat="39.92548734151975" lon="116.48440564566093">
        <ele>23.599999999999998</ele>
        <time>2023-07-18T00:20:42Z</time>
      </trkpt>
      <trkpt lat="39.92518543376991" lon="116.48443278528117">
        <ele>23.2</ele>
        <time>2023-07-18T00:20:54Z</time>
      </trkpt>
      <trkpt lat="39.924944446627634" lon="116.48443381913093">
        <ele>21.8</ele>
        <time>2023-07-18T00:21:06Z</time>
      </trkpt>
      <trkpt lat="39.9247739447298" lon="116.48460046730206">
        <ele>24.4</ele>
        <time>2023-07-18T00:21:21Z</time>
      </trkpt>
      <trkpt lat="39.92470729669137" lon="116.48471892138247">
        <ele>24.599999999999998</ele>
        <time>2023-07-18T00:21:27Z</time>
      </trkpt>
      <trkpt lat="39.92470553062445" lon="116.48479822010242">
        <ele>24.099999999999998</ele>
        <time>2023-07-18T00:21:33Z</time>
      </trkpt>
      <trkpt lat="39.92465487026075" lon="116.48491265725941">
        <ele>21.5</ele>
        <time>2023-07-18T00:21:39Z</time>
      </trkpt>
      <trkpt lat="39.924642492832554" lon="116.48512345272214">
        <ele>18.5</ele>
        <time>2023-07-18T00:21:48Z</time>
      </trkpt>
      <trkpt lat="39.92473750861882" lon="116.4854687421273">
        <ele>15.7</ele>
        <time>2023-07-18T00:22:09Z</time>
      </trkpt>
      <trkpt lat="39.9249074835781" lon="116.48580097384747">
        <ele>12.7</ele>
        <time>2023-07-18T00:22:24Z</time>
      </trkpt>
      <trkpt lat="39.92498019898017" lon="116.48604388130951">
        <ele>12.3</ele>
        <time>2023-07-18T00:22:33Z</time>
      </trkpt>
      <trkpt lat="39.92498253149366" lon="116.48615630533538">
        <ele>10.3</ele>
        <time>2023-07-18T00:22:39Z</time>
      </trkpt>
      <trkpt lat="39.92496571337238" lon="116.48621753856938">
        <ele>9.8</ele>
        <time>2023-07-18T00:22:42Z</time>
      </trkpt>
      <trkpt lat="39.92476938104751" lon="116.48644040444348">
        <ele>11.8</ele>
        <time>2023-07-18T00:22:57Z</time>
      </trkpt>
      <trkpt lat="39.924720406836585" lon="116.48644844087626">
        <ele>12.0</ele>
        <time>2023-07-18T00:23:00Z</time>
      </trkpt>
      <trkpt lat="39.92437512387802" lon="116.48634810487913">
        <ele>16.9</ele>
        <time>2023-07-18T00:23:18Z</time>
      </trkpt>
      <trkpt lat="39.92412304809062" lon="116.48631902639845">
        <ele>19.099999999999998</ele>
        <time>2023-07-18T00:23:27Z</time>
      </trkpt>
      <trkpt lat="39.92384039551416" lon="116.4864324899467">
        <ele>19.9</ele>
        <time>2023-07-18T00:23:42Z</time>
      </trkpt>
      <trkpt lat="39.923639212379115" lon="116.4867055463261">
        <ele>19.9</ele>
        <time>2023-07-18T00:23:54Z</time>
      </trkpt>
      <trkpt lat="39.923582384223074" lon="116.48676276958602">
        <ele>19.5</ele>
        <time>2023-07-18T00:23:57Z</time>
      </trkpt>
      <trkpt lat="39.923471971768386" lon="116.48695952683906">
        <ele>20.3</ele>
        <time>2023-07-18T00:24:06Z</time>
      </trkpt>
      <trkpt lat="39.9232767862646" lon="116.48723157952409">
        <ele>20.4</ele>
        <time>2023-07-18T00:24:21Z</time>
      </trkpt>
      <trkpt lat="39.92316202616873" lon="116.48731089368381">
        <ele>21.7</ele>
        <time>2023-07-18T00:24:27Z</time>
      </trkpt>
      <trkpt lat="39.922893171245036" lon="116.48735609801018">
        <ele>20.8</ele>
        <time>2023-07-18T00:24:42Z</time>
      </trkpt>
      <trkpt lat="39.92284231626123" lon="116.4874042865672">
        <ele>20.099999999999998</ele>
        <time>2023-07-18T00:24:48Z</time>
      </trkpt>
      <trkpt lat="39.92283051923273" lon="116.48747254620247">
        <ele>19.7</ele>
        <time>2023-07-18T00:24:51Z</time>
      </trkpt>
      <trkpt lat="39.922800678301776" lon="116.4875257511552">
        <ele>19.7</ele>
        <time>2023-07-18T00:24:54Z</time>
      </trkpt>
      <trkpt lat="39.92260385024693" lon="116.4875809845259">
        <ele>18.8</ele>
        <time>2023-07-18T00:25:06Z</time>
      </trkpt>
      <trkpt lat="39.922525207974644" lon="116.48770044623888">
        <ele>18.9</ele>
        <time>2023-07-18T00:25:12Z</time>
      </trkpt>
      <trkpt lat="39.92228189740986" lon="116.48792934260399">
        <ele>17.8</ele>
        <time>2023-07-18T00:25:24Z</time>
      </trkpt>
      <trkpt lat="39.92217012259028" lon="116.4880036376701">
        <ele>15.099999999999998</ele>
        <time>2023-07-18T00:25:33Z</time>
      </trkpt>
      <trkpt lat="39.92211018468582" lon="116.4880237211258">
        <ele>12.3</ele>
        <time>2023-07-18T00:25:42Z</time>
      </trkpt>
      <trkpt lat="39.92206775883371" lon="116.48821645599307">
        <ele>10.5</ele>
        <time>2023-07-18T00:25:51Z</time>
      </trkpt>
      <trkpt lat="39.92202014548047" lon="116.4883459522063">
        <ele>9.399999999999999</ele>
        <time>2023-07-18T00:25:57Z</time>
      </trkpt>
      <trkpt lat="39.921984325321034" lon="116.48874245836366">
        <ele>12.599999999999998</ele>
        <time>2023-07-18T00:26:12Z</time>
      </trkpt>
      <trkpt lat="39.92196902135824" lon="116.48897634637483">
        <ele>14.2</ele>
        <time>2023-07-18T00:26:21Z</time>
      </trkpt>
      <trkpt lat="39.92200431280399" lon="116.48941098921775">
        <ele>16.5</ele>
        <time>2023-07-18T00:26:36Z</time>
      </trkpt>
      <trkpt lat="39.922069254121595" lon="116.48972818366474">
        <ele>18.599999999999998</ele>
        <time>2023-07-18T00:26:48Z</time>
      </trkpt>
      <trkpt lat="39.92209545024824" lon="116.48979443160341">
        <ele>19.3</ele>
        <time>2023-07-18T00:26:51Z</time>
      </trkpt>
      <trkpt lat="39.92210277268753" lon="116.4899028417729">
        <ele>19.5</ele>
        <time>2023-07-18T00:26:57Z</time>
      </trkpt>
      <trkpt lat="39.9220352477158" lon="116.49006145163145">
        <ele>20.8</ele>
        <time>2023-07-18T00:27:03Z</time>
      </trkpt>
      <trkpt lat="39.92200051979226" lon="116.49048807409017">
        <ele>18.2</ele>
        <time>2023-07-18T00:27:18Z</time>
      </trkpt>
      <trkpt lat="39.92202771803255" lon="116.49089059781372">
        <ele>12.2</ele>
        <time>2023-07-18T00:27:30Z</time>
      </trkpt>
      <trkpt lat="39.92203495705914" lon="116.4909709016073">
        <ele>10.899999999999999</ele>
        <time>2023-07-18T00:27:33Z</time>
      </trkpt>
      <trkpt lat="39.922017337752614" lon="116.49109838752227">
        <ele>8.600000000000001</ele>
        <time>2023-07-18T00:27:39Z</time>
      </trkpt>
      <trkpt lat="39.92204976129643" lon="116.49124092437108">
        <ele>7.3999999999999995</ele>
        <time>2023-07-18T00:27:45Z</time>
      </trkpt>
      <trkpt lat="39.92203589013312" lon="116.49161936222033">
        <ele>9.7</ele>
        <time>2023-07-18T00:27:54Z</time>
      </trkpt>
      <trkpt lat="39.922072693828774" lon="116.49188938243678">
        <ele>10.5</ele>
        <time>2023-07-18T00:28:03Z</time>
      </trkpt>
      <trkpt lat="39.922062107404294" lon="116.49202790950227">
        <ele>13.8</ele>
        <time>2023-07-18T00:28:09Z</time>
      </trkpt>
      <trkpt lat="39.9220955760738" lon="116.49218550348458">
        <ele>13.399999999999999</ele>
        <time>2023-07-18T00:28:18Z</time>
      </trkpt>
      <trkpt lat="39.922082561750436" lon="116.49251575855659">
        <ele>11.899999999999999</ele>
        <time>2023-07-18T00:28:30Z</time>
      </trkpt>
      <trkpt lat="39.92212222193297" lon="116.4927375956082">
        <ele>10.2</ele>
        <time>2023-07-18T00:28:42Z</time>
      </trkpt>
      <trkpt lat="39.922177564050386" lon="116.49285302685821">
        <ele>9.7</ele>
        <time>2023-07-18T00:28:48Z</time>
      </trkpt>
      <trkpt lat="39.922194796943366" lon="116.49293132187947">
        <ele>9.2</ele>
        <time>2023-07-18T00:28:51Z</time>
      </trkpt>
      <trkpt lat="39.92218900683467" lon="116.49300158928195">
        <ele>8.7</ele>
        <time>2023-07-18T00:28:54Z</time>
      </trkpt>
      <trkpt lat="39.92206965573161" lon="116.49321742319428">
        <ele>9.899999999999999</ele>
        <time>2023-07-18T00:29:00Z</time>
      </trkpt>
      <trkpt lat="39.922065368785304" lon="116.49345633037811">
        <ele>17.8</ele>
        <time>2023-07-18T00:29:09Z</time>
      </trkpt>
      <trkpt lat="39.922034621669006" lon="116.49354065417991">
        <ele>20.099999999999998</ele>
        <time>2023-07-18T00:29:15Z</time>
      </trkpt>
      <trkpt lat="39.92206735119323" lon="116.49378557952866">
        <ele>19.4</ele>
        <time>2023-07-18T00:29:24Z</time>
      </trkpt>
      <trkpt lat="39.92206260001204" lon="116.49386889625411">
        <ele>18.9</ele>
        <time>2023-07-18T00:29:27Z</time>
      </trkpt>
      <trkpt lat="39.922102834986184" lon="116.49394819214399">
        <ele>17.4</ele>
        <time>2023-07-18T00:29:33Z</time>
      </trkpt>
      <trkpt lat="39.92210274560632" lon="116.49425334991008">
        <ele>13.5</ele>
        <time>2023-07-18T00:29:45Z</time>
      </trkpt>
      <trkpt lat="39.92208030967151" lon="116.4944420685888">
        <ele>11.0</ele>
        <time>2023-07-18T00:29:51Z</time>
      </trkpt>
      <trkpt lat="39.92210689565505" lon="116.494638811559">
        <ele>7.000000000000001</ele>
        <time>2023-07-18T00:30:00Z</time>
      </trkpt>
      <trkpt lat="39.922115237130015" lon="116.49508851593426">
        <ele>9.2</ele>
        <time>2023-07-18T00:30:12Z</time>
      </trkpt>
      <trkpt lat="39.92210978841184" lon="116.49527321688694">
        <ele>10.599999999999998</ele>
        <time>2023-07-18T00:30:18Z</time>
      </trkpt>
      <trkpt lat="39.922087076846225" lon="116.4953695850281">
        <ele>12.099999999999998</ele>
        <time>2023-07-18T00:30:21Z</time>
      </trkpt>
      <trkpt lat="39.922115671577416" lon="116.49556933866224">
        <ele>9.7</ele>
        <time>2023-07-18T00:30:30Z</time>
      </trkpt>
      <trkpt lat="39.92213582944517" lon="116.49562253779932">
        <ele>11.099999999999998</ele>
        <time>2023-07-18T00:30:33Z</time>
      </trkpt>
      <trkpt lat="39.92240996781032" lon="116.49567269397639">
        <ele>17.599999999999998</ele>
        <time>2023-07-18T00:30:51Z</time>
      </trkpt>
      <trkpt lat="39.92255282116576" lon="116.49562549743206">
        <ele>22.8</ele>
        <time>2023-07-18T00:31:03Z</time>
      </trkpt>
      <trkpt lat="39.92272990666503" lon="116.49565659337865">
        <ele>26.499999999999996</ele>
        <time>2023-07-18T00:31:12Z</time>
      </trkpt>
      <trkpt lat="39.92287188582322" lon="116.4956515567262">
        <ele>29.2</ele>
        <time>2023-07-18T00:31:21Z</time>
      </trkpt>
      <trkpt lat="39.923121097100235" lon="116.49572580729517">
        <ele>32.300000000000004</ele>
        <time>2023-07-18T00:31:33Z</time>
      </trkpt>
      <trkpt lat="39.923271120845996" lon="116.49573582670713">
        <ele>34.800000000000004</ele>
        <time>2023-07-18T00:31:39Z</time>
      </trkpt>
      <trkpt lat="39.923320049958804" lon="116.49571273313583">
        <ele>35.0</ele>
        <time>2023-07-18T00:31:42Z</time>
      </trkpt>
      <trkpt lat="39.92343519491502" lon="116.49576290904294">
        <ele>36.800000000000004</ele>
        <time>2023-07-18T00:31:54Z</time>
      </trkpt>
      <trkpt lat="39.92347738180268" lon="116.49582614345067">
        <ele>36.5</ele>
        <time>2023-07-18T00:31:57Z</time>
      </trkpt>
      <trkpt lat="39.92350995528904" lon="116.49601886966619">
        <ele>37.5</ele>
        <time>2023-07-18T00:32:09Z</time>
      </trkpt>
      <trkpt lat="39.923469226400776" lon="116.49610921698384">
        <ele>36.5</ele>
        <time>2023-07-18T00:32:12Z</time>
      </trkpt>
      <trkpt lat="39.92340738162467" lon="116.49616041859561">
        <ele>35.800000000000004</ele>
        <time>2023-07-18T00:32:15Z</time>
      </trkpt>
      <trkpt lat="39.92338463101866" lon="116.4962437370147">
        <ele>35.199999999999996</ele>
        <time>2023-07-18T00:32:18Z</time>
      </trkpt>
      <trkpt lat="39.92347067202814" lon="116.4965940530354">
        <ele>34.599999999999994</ele>
        <time>2023-07-18T00:32:30Z</time>
      </trkpt>
      <trkpt lat="39.92347447382143" lon="116.49686307098101">
        <ele>36.099999999999994</ele>
        <time>2023-07-18T00:32:39Z</time>
      </trkpt>
    </trkseg>
  </trk>
</gpx>