<?xml version="1.0" encoding="UTF-8"?>
<gpx xmlns="http://www.topografix.com/GPX/1/1" xmlns:gpxtpx="http://www.garmin.com/xmlschemas/TrackPointExtension/v1" xmlns:xsi="http://www.w3.org/2001/XMLSchema-instance" xsi:schemaLocation="http://www.topografix.com/GPX/1/1 http://www.topografix.com/GPX/1/1/gpx.xsd" version="1.1" creator="gpx.py -- https://github.com/tkrajina/gpxpy">
  <trk>
    <name>gpx from keep</name>
    <type>Run</type>
    <trkseg>
      <trkpt lat="39.92269454506157" lon="116.48815313849501">
        <ele>24.4</ele>
        <time>2023-06-14T23:55:40Z</time>
      </trkpt>
      <trkpt lat="39.922712866319344" lon="116.48826154664924">
        <ele>24.7</ele>
        <time>2023-06-14T23:55:43Z</time>
      </trkpt>
      <trkpt lat="39.92277336185821" lon="116.48842917387296">
        <ele>24.099999999999998</ele>
        <time>2023-06-14T23:55:52Z</time>
      </trkpt>
      <trkpt lat="39.92273573031603" lon="116.48855264615543">
        <ele>24.3</ele>
        <time>2023-06-14T23:55:58Z</time>
      </trkpt>
      <trkpt lat="39.922731909475516" lon="116.48861287474944">
        <ele>24.5</ele>
        <time>2023-06-14T23:56:01Z</time>
      </trkpt>
      <trkpt lat="39.92278042666451" lon="116.4887875303321">
        <ele>24.8</ele>
        <time>2023-06-14T23:56:10Z</time>
      </trkpt>
      <trkpt lat="39.92285560560488" lon="116.48884875294667">
        <ele>27.8</ele>
        <time>2023-06-14T23:56:16Z</time>
      </trkpt>
      <trkpt lat="39.9229755558811" lon="116.48883368096216">
        <ele>30.3</ele>
        <time>2023-06-14T23:56:22Z</time>
      </trkpt>
      <trkpt lat="39.92303061926538" lon="116.48885575777084">
        <ele>31.999999999999996</ele>
        <time>2023-06-14T23:56:25Z</time>
      </trkpt>
      <trkpt lat="39.9230975717322" lon="116.48884069238645">
        <ele>34.2</ele>
        <time>2023-06-14T23:56:28Z</time>
      </trkpt>
      <trkpt lat="39.92316234523301" lon="116.4887653991034">
        <ele>35.2</ele>
        <time>2023-06-14T23:56:31Z</time>
      </trkpt>
      <trkpt lat="39.92337446778349" lon="116.48880954000745">
        <ele>36.400000000000006</ele>
        <time>2023-06-14T23:56:40Z</time>
      </trkpt>
      <trkpt lat="39.92344426496142" lon="116.48874227652756">
        <ele>37.800000000000004</ele>
        <time>2023-06-14T23:56:46Z</time>
      </trkpt>
      <trkpt lat="39.923615335491306" lon="116.48876835409045">
        <ele>39.800000000000004</ele>
        <time>2023-06-14T23:56:58Z</time>
      </trkpt>
      <trkpt lat="39.92366525286158" lon="116.48874124519976">
        <ele>41.1</ele>
        <time>2023-06-14T23:57:01Z</time>
      </trkpt>
      <trkpt lat="39.9239373968197" lon="116.48879340904695">
        <ele>34.300000000000004</ele>
        <time>2023-06-14T23:57:16Z</time>
      </trkpt>
      <trkpt lat="39.92406455572249" lon="116.48884860237344">
        <ele>33.0</ele>
        <time>2023-06-14T23:57:22Z</time>
      </trkpt>
      <trkpt lat="39.92413057389483" lon="116.48885562077255">
        <ele>32.400000000000006</ele>
        <time>2023-06-14T23:57:25Z</time>
      </trkpt>
      <trkpt lat="39.924230504120494" lon="116.48883352465792">
        <ele>33.1</ele>
        <time>2023-06-14T23:57:31Z</time>
      </trkpt>
      <trkpt lat="39.924532467815965" lon="116.48882545662254">
        <ele>29.8</ele>
        <time>2023-06-14T23:57:49Z</time>
      </trkpt>
      <trkpt lat="39.92484938315716" lon="116.4888013258764">
        <ele>27.599999999999998</ele>
        <time>2023-06-14T23:58:04Z</time>
      </trkpt>
      <trkpt lat="39.92496232479773" lon="116.4887832433557">
        <ele>28.3</ele>
        <time>2023-06-14T23:58:10Z</time>
      </trkpt>
      <trkpt lat="39.92511044703729" lon="116.488826388434">
        <ele>28.599999999999998</ele>
        <time>2023-06-14T23:58:16Z</time>
      </trkpt>
      <trkpt lat="39.92537437054174" lon="116.4888042718928">
        <ele>29.8</ele>
        <time>2023-06-14T23:58:28Z</time>
      </trkpt>
      <trkpt lat="39.92559511976494" lon="116.48872293636462">
        <ele>29.999999999999996</ele>
        <time>2023-06-14T23:58:40Z</time>
      </trkpt>
      <trkpt lat="39.925889059964966" lon="116.48870683890624">
        <ele>31.3</ele>
        <time>2023-06-14T23:58:55Z</time>
      </trkpt>
      <trkpt lat="39.9261589623704" lon="116.48867769500896">
        <ele>29.999999999999996</ele>
        <time>2023-06-14T23:59:07Z</time>
      </trkpt>
      <trkpt lat="39.926245812612315" lon="116.4886284978698">
        <ele>29.999999999999996</ele>
        <time>2023-06-14T23:59:13Z</time>
      </trkpt>
      <trkpt lat="39.92630257161685" lon="116.4885481866241">
        <ele>27.900000000000002</ele>
        <time>2023-06-14T23:59:19Z</time>
      </trkpt>
      <trkpt lat="39.92634497333155" lon="116.48834742102231">
        <ele>25.7</ele>
        <time>2023-06-14T23:59:28Z</time>
      </trkpt>
      <trkpt lat="39.92634577647839" lon="116.48828117005506">
        <ele>26.2</ele>
        <time>2023-06-14T23:59:31Z</time>
      </trkpt>
      <trkpt lat="39.9263695399444" lon="116.48820186683936">
        <ele>25.8</ele>
        <time>2023-06-14T23:59:34Z</time>
      </trkpt>
      <trkpt lat="39.92640843101751" lon="116.48816572517786">
        <ele>25.2</ele>
        <time>2023-06-14T23:59:37Z</time>
      </trkpt>
      <trkpt lat="39.92650438833046" lon="116.48815266381713">
        <ele>23.599999999999998</ele>
        <time>2023-06-14T23:59:43Z</time>
      </trkpt>
      <trkpt lat="39.92655530575115" lon="116.48812555486622">
        <ele>23.7</ele>
        <time>2023-06-14T23:59:46Z</time>
      </trkpt>
      <trkpt lat="39.926849329494466" lon="116.4881375638319">
        <ele>21.9</ele>
        <time>2023-06-15T00:00:04Z</time>
      </trkpt>
      <trkpt lat="39.92707205805187" lon="116.48804920167366">
        <ele>23.4</ele>
        <time>2023-06-15T00:00:13Z</time>
      </trkpt>
      <trkpt lat="39.92733940635703" lon="116.487833351499">
        <ele>27.2</ele>
        <time>2023-06-15T00:00:31Z</time>
      </trkpt>
      <trkpt lat="39.927424194321524" lon="116.48776307502652">
        <ele>26.999999999999996</ele>
        <time>2023-06-15T00:00:37Z</time>
      </trkpt>
      <trkpt lat="39.92764526490495" lon="116.48745287398609">
        <ele>24.0</ele>
        <time>2023-06-15T00:00:52Z</time>
      </trkpt>
      <trkpt lat="39.927703833770366" lon="116.48730831998961">
        <ele>23.9</ele>
        <time>2023-06-15T00:00:58Z</time>
      </trkpt>
      <trkpt lat="39.9276949918682" lon="116.48702424701852">
        <ele>23.2</ele>
        <time>2023-06-15T00:01:10Z</time>
      </trkpt>
      <trkpt lat="39.92764951476255" lon="116.48686264184973">
        <ele>23.0</ele>
        <time>2023-06-15T00:01:16Z</time>
      </trkpt>
      <trkpt lat="39.927647288812416" lon="116.48678635383484">
        <ele>23.0</ele>
        <time>2023-06-15T00:01:19Z</time>
      </trkpt>
      <trkpt lat="39.92773470542879" lon="116.4865906033985">
        <ele>22.7</ele>
        <time>2023-06-15T00:01:28Z</time>
      </trkpt>
      <trkpt lat="39.92777256119547" lon="116.4865424166745">
        <ele>22.0</ele>
        <time>2023-06-15T00:01:31Z</time>
      </trkpt>
      <trkpt lat="39.9277844375453" lon="116.48616298243407">
        <ele>19.599999999999998</ele>
        <time>2023-06-15T00:01:46Z</time>
      </trkpt>
      <trkpt lat="39.92787495277582" lon="116.48600035739605">
        <ele>18.2</ele>
        <time>2023-06-15T00:01:55Z</time>
      </trkpt>
      <trkpt lat="39.92797171429213" lon="116.48592104609497">
        <ele>14.3</ele>
        <time>2023-06-15T00:02:01Z</time>
      </trkpt>
      <trkpt lat="39.92799052948764" lon="116.48585880893806">
        <ele>13.099999999999998</ele>
        <time>2023-06-15T00:02:04Z</time>
      </trkpt>
      <trkpt lat="39.92794849277528" lon="116.4855074891582">
        <ele>18.5</ele>
        <time>2023-06-15T00:02:19Z</time>
      </trkpt>
      <trkpt lat="39.927874810888355" lon="116.48527562433206">
        <ele>27.8</ele>
        <time>2023-06-15T00:02:28Z</time>
      </trkpt>
      <trkpt lat="39.927847023834595" lon="116.48500862186295">
        <ele>27.3</ele>
        <time>2023-06-15T00:02:37Z</time>
      </trkpt>
      <trkpt lat="39.92780744797589" lon="116.48481288972444">
        <ele>22.099999999999998</ele>
        <time>2023-06-15T00:02:46Z</time>
      </trkpt>
      <trkpt lat="39.92784223340799" lon="116.4847406133102">
        <ele>20.8</ele>
        <time>2023-06-15T00:02:49Z</time>
      </trkpt>
      <trkpt lat="39.92794711073034" lon="116.4847004490885">
        <ele>17.099999999999998</ele>
        <time>2023-06-15T00:02:55Z</time>
      </trkpt>
      <trkpt lat="39.92801691847049" lon="116.48463619859031">
        <ele>17.099999999999998</ele>
        <time>2023-06-15T00:03:01Z</time>
      </trkpt>
      <trkpt lat="39.928190704250106" lon="116.48456591248642">
        <ele>19.4</ele>
        <time>2023-06-15T00:03:13Z</time>
      </trkpt>
      <trkpt lat="39.92823156057214" lon="116.48451772609776">
        <ele>21.5</ele>
        <time>2023-06-15T00:03:16Z</time>
      </trkpt>
      <trkpt lat="39.9283077915038" lon="116.48425773871472">
        <ele>25.5</ele>
        <time>2023-06-15T00:03:25Z</time>
      </trkpt>
      <trkpt lat="39.92832932066962" lon="116.4840981360041">
        <ele>31.8</ele>
        <time>2023-06-15T00:03:37Z</time>
      </trkpt>
      <trkpt lat="39.92840463224907" lon="116.4838652515028">
        <ele>30.900000000000002</ele>
        <time>2023-06-15T00:03:52Z</time>
      </trkpt>
      <trkpt lat="39.92838901881493" lon="116.48365646929959">
        <ele>28.400000000000002</ele>
        <time>2023-06-15T00:03:55Z</time>
      </trkpt>
      <trkpt lat="39.9283556837718" lon="116.483542043858">
        <ele>25.8</ele>
        <time>2023-06-15T00:03:58Z</time>
      </trkpt>
      <trkpt lat="39.92843255967981" lon="116.48350087978264">
        <ele>23.5</ele>
        <time>2023-06-15T00:04:01Z</time>
      </trkpt>
      <trkpt lat="39.92849953630077" lon="116.48349384504724">
        <ele>21.8</ele>
        <time>2023-06-15T00:04:04Z</time>
      </trkpt>
      <trkpt lat="39.92861491229609" lon="116.4832830396855">
        <ele>21.2</ele>
        <time>2023-06-15T00:04:10Z</time>
      </trkpt>
      <trkpt lat="39.92866785412667" lon="116.48326396153281">
        <ele>20.099999999999998</ele>
        <time>2023-06-15T00:04:13Z</time>
      </trkpt>
      <trkpt lat="39.92884431644952" lon="116.48308326191017">
        <ele>33.800000000000004</ele>
        <time>2023-06-15T00:04:28Z</time>
      </trkpt>
      <trkpt lat="39.92905521358683" lon="116.48305111514514">
        <ele>37.6</ele>
        <time>2023-06-15T00:04:40Z</time>
      </trkpt>
      <trkpt lat="39.929113293717585" lon="116.48307921326409">
        <ele>37.7</ele>
        <time>2023-06-15T00:04:43Z</time>
      </trkpt>
      <trkpt lat="39.92919531100562" lon="116.48308622936537">
        <ele>35.6</ele>
        <time>2023-06-15T00:04:46Z</time>
      </trkpt>
      <trkpt lat="39.92919531100562" lon="116.48308622936537">
        <ele>35.6</ele>
        <time>2023-06-15T00:04:49Z</time>
      </trkpt>
    </trkseg>
  </trk>
</gpx>