<?xml version="1.0" encoding="UTF-8"?>
<gpx xmlns="http://www.topografix.com/GPX/1/1" xmlns:gpxtpx="http://www.garmin.com/xmlschemas/TrackPointExtension/v1" xmlns:xsi="http://www.w3.org/2001/XMLSchema-instance" xsi:schemaLocation="http://www.topografix.com/GPX/1/1 http://www.topografix.com/GPX/1/1/gpx.xsd" version="1.1" creator="gpx.py -- https://github.com/tkrajina/gpxpy">
  <trk>
    <name>gpx from keep</name>
    <type>Run</type>
    <trkseg>
      <trkpt lat="39.92011857114796" lon="116.45664479894877">
        <ele>236.9</ele>
        <time>2023-02-20T03:36:55Z</time>
      </trkpt>
      <trkpt lat="39.920020387053775" lon="116.45697785916133">
        <ele>236.79999999999998</ele>
        <time>2023-02-20T03:37:01Z</time>
      </trkpt>
      <trkpt lat="39.92009108298103" lon="116.45685446158816">
        <ele>236.9</ele>
        <time>2023-02-20T03:37:07Z</time>
      </trkpt>
      <trkpt lat="39.92016090889348" lon="116.45678423183216">
        <ele>236.9</ele>
        <time>2023-02-20T03:37:10Z</time>
      </trkpt>
      <trkpt lat="39.92041165416439" lon="116.45668388486074">
        <ele>237.0</ele>
        <time>2023-02-20T03:37:19Z</time>
      </trkpt>
      <trkpt lat="39.92055693643818" lon="116.45680223867173">
        <ele>236.79999999999998</ele>
        <time>2023-02-20T03:37:25Z</time>
      </trkpt>
      <trkpt lat="39.92081373759492" lon="116.45672496338227">
        <ele>235.7</ele>
        <time>2023-02-20T03:37:40Z</time>
      </trkpt>
      <trkpt lat="39.9209005996795" lon="116.45666977905714">
        <ele>234.7</ele>
        <time>2023-02-20T03:37:46Z</time>
      </trkpt>
      <trkpt lat="39.921016575338584" lon="116.45666173921761">
        <ele>233.79999999999998</ele>
        <time>2023-02-20T03:37:52Z</time>
      </trkpt>
      <trkpt lat="39.92111709815651" lon="116.45646711593473">
        <ele>231.79999999999998</ele>
        <time>2023-02-20T03:37:55Z</time>
      </trkpt>
      <trkpt lat="39.92123394723755" lon="116.45640691261741">
        <ele>224.29999999999998</ele>
        <time>2023-02-20T03:37:58Z</time>
      </trkpt>
      <trkpt lat="39.921285925614065" lon="116.45639888092558">
        <ele>210.7</ele>
        <time>2023-02-20T03:38:01Z</time>
      </trkpt>
      <trkpt lat="39.92140605695439" lon="116.45645504175147">
        <ele>186.0</ele>
        <time>2023-02-20T03:38:13Z</time>
      </trkpt>
      <trkpt lat="39.92169418873893" lon="116.45651419092995">
        <ele>174.6</ele>
        <time>2023-02-20T03:38:25Z</time>
      </trkpt>
      <trkpt lat="39.92184827741616" lon="116.4565532941971">
        <ele>157.29999999999998</ele>
        <time>2023-02-20T03:38:34Z</time>
      </trkpt>
      <trkpt lat="39.92190426534778" lon="116.45654927454511">
        <ele>152.9</ele>
        <time>2023-02-20T03:38:37Z</time>
      </trkpt>
      <trkpt lat="39.92193614461196" lon="116.456500116366">
        <ele>143.2</ele>
        <time>2023-02-20T03:38:43Z</time>
      </trkpt>
      <trkpt lat="39.922209242981815" lon="116.4565452234783">
        <ele>130.1</ele>
        <time>2023-02-20T03:38:58Z</time>
      </trkpt>
      <trkpt lat="39.92227422079507" lon="116.45653719010662">
        <ele>127.5</ele>
        <time>2023-02-20T03:39:01Z</time>
      </trkpt>
      <trkpt lat="39.92238868295569" lon="116.45631748743098">
        <ele>127.29999999999998</ele>
        <time>2023-02-20T03:39:13Z</time>
      </trkpt>
      <trkpt lat="39.922430593721764" lon="116.4562813691722">
        <ele>127.0</ele>
        <time>2023-02-20T03:39:16Z</time>
      </trkpt>
      <trkpt lat="39.92256356392883" lon="116.45627132102084">
        <ele>122.6</ele>
        <time>2023-02-20T03:39:25Z</time>
      </trkpt>
      <trkpt lat="39.922741738887396" lon="116.45634653391896">
        <ele>116.69999999999999</ele>
        <time>2023-02-20T03:39:34Z</time>
      </trkpt>
      <trkpt lat="39.92285575363758" lon="116.45635454465138">
        <ele>116.0</ele>
        <time>2023-02-20T03:39:40Z</time>
      </trkpt>
      <trkpt lat="39.92310091384679" lon="116.45642473360785">
        <ele>117.5</ele>
        <time>2023-02-20T03:39:49Z</time>
      </trkpt>
      <trkpt lat="39.923179042114086" lon="116.45647889350006">
        <ele>115.89999999999999</ele>
        <time>2023-02-20T03:39:52Z</time>
      </trkpt>
      <trkpt lat="39.923222174346094" lon="116.45653406105875">
        <ele>114.0</ele>
        <time>2023-02-20T03:39:55Z</time>
      </trkpt>
      <trkpt lat="39.92349927507296" lon="116.45658017086963">
        <ele>106.19999999999999</ele>
        <time>2023-02-20T03:40:07Z</time>
      </trkpt>
      <trkpt lat="39.923642383826575" lon="116.45662730081293">
        <ele>103.19999999999999</ele>
        <time>2023-02-20T03:40:13Z</time>
      </trkpt>
      <trkpt lat="39.92372238053213" lon="116.45662729071923">
        <ele>100.89999999999999</ele>
        <time>2023-02-20T03:40:19Z</time>
      </trkpt>
      <trkpt lat="39.92380645516552" lon="116.45665938092235">
        <ele>99.0</ele>
        <time>2023-02-20T03:40:25Z</time>
      </trkpt>
      <trkpt lat="39.923881847867364" lon="116.45682188232523">
        <ele>93.5</ele>
        <time>2023-02-20T03:40:37Z</time>
      </trkpt>
      <trkpt lat="39.92393583830869" lon="116.45681886604346">
        <ele>83.89999999999999</ele>
        <time>2023-02-20T03:40:46Z</time>
      </trkpt>
      <trkpt lat="39.923981701963584" lon="116.4567636866992">
        <ele>65.19999999999999</ele>
        <time>2023-02-20T03:40:52Z</time>
      </trkpt>
      <trkpt lat="39.92396387384019" lon="116.45683390985869">
        <ele>40.5</ele>
        <time>2023-02-20T03:41:04Z</time>
      </trkpt>
      <trkpt lat="39.9238469104533" lon="116.45684696566096">
        <ele>28.300000000000004</ele>
        <time>2023-02-20T03:41:13Z</time>
      </trkpt>
      <trkpt lat="39.92368079745984" lon="116.45679783194178">
        <ele>20.799999999999997</ele>
        <time>2023-02-20T03:41:22Z</time>
      </trkpt>
      <trkpt lat="39.92363381650956" lon="116.45680485996084">
        <ele>17.700000000000003</ele>
        <time>2023-02-20T03:41:25Z</time>
      </trkpt>
      <trkpt lat="39.92356891700854" lon="116.4568449944195">
        <ele>9.6</ele>
        <time>2023-02-20T03:41:31Z</time>
      </trkpt>
      <trkpt lat="39.923385912318544" lon="116.45684000172155">
        <ele>1.6999999999999993</ele>
        <time>2023-02-20T03:41:43Z</time>
      </trkpt>
      <trkpt lat="39.92334208297173" lon="116.45690922518774">
        <ele>0.6999999999999993</ele>
        <time>2023-02-20T03:41:46Z</time>
      </trkpt>
      <trkpt lat="39.92308135092341" lon="116.45701459004557">
        <ele>-2.4000000000000004</ele>
        <time>2023-02-20T03:41:58Z</time>
      </trkpt>
      <trkpt lat="39.92300639568701" lon="116.45703165328455">
        <ele>-1.3000000000000007</ele>
        <time>2023-02-20T03:42:01Z</time>
      </trkpt>
      <trkpt lat="39.922961485812515" lon="116.45706777287694">
        <ele>-2.8000000000000003</ele>
        <time>2023-02-20T03:42:04Z</time>
      </trkpt>
      <trkpt lat="39.92284700794053" lon="116.45687016444548">
        <ele>19.5</ele>
        <time>2023-02-20T03:42:07Z</time>
      </trkpt>
      <trkpt lat="39.922681568502135" lon="116.45709689999622">
        <ele>23.4</ele>
        <time>2023-02-20T03:42:16Z</time>
      </trkpt>
      <trkpt lat="39.92264131728872" lon="116.4574018692399">
        <ele>22.5</ele>
        <time>2023-02-20T03:42:31Z</time>
      </trkpt>
      <trkpt lat="39.922597597472496" lon="116.45751523396797">
        <ele>22.200000000000003</ele>
        <time>2023-02-20T03:42:37Z</time>
      </trkpt>
      <trkpt lat="39.92259380726476" lon="116.45760050494357">
        <ele>21.4</ele>
        <time>2023-02-20T03:42:40Z</time>
      </trkpt>
      <trkpt lat="39.92266720927851" lon="116.45776501829553">
        <ele>20.0</ele>
        <time>2023-02-20T03:42:49Z</time>
      </trkpt>
      <trkpt lat="39.92280639891286" lon="116.45784425281849">
        <ele>19.299999999999997</ele>
        <time>2023-02-20T03:42:55Z</time>
      </trkpt>
      <trkpt lat="39.92292950025183" lon="116.45788737459084">
        <ele>19.4</ele>
        <time>2023-02-20T03:43:01Z</time>
      </trkpt>
      <trkpt lat="39.92297261732766" lon="116.45793552249084">
        <ele>19.799999999999997</ele>
        <time>2023-02-20T03:43:04Z</time>
      </trkpt>
      <trkpt lat="39.9230222328673" lon="116.45818531294468">
        <ele>18.700000000000003</ele>
        <time>2023-02-20T03:43:13Z</time>
      </trkpt>
      <trkpt lat="39.923071608673865" lon="116.45833779410783">
        <ele>19.1</ele>
        <time>2023-02-20T03:43:19Z</time>
      </trkpt>
      <trkpt lat="39.92306696740921" lon="116.45848225715702">
        <ele>17.700000000000003</ele>
        <time>2023-02-20T03:43:25Z</time>
      </trkpt>
      <trkpt lat="39.923051135078936" lon="116.45854947456765">
        <ele>17.4</ele>
        <time>2023-02-20T03:43:28Z</time>
      </trkpt>
      <trkpt lat="39.923057351878214" lon="116.45863675372802">
        <ele>16.799999999999997</ele>
        <time>2023-02-20T03:43:31Z</time>
      </trkpt>
      <trkpt lat="39.92313000128834" lon="116.45889858593576">
        <ele>13.4</ele>
        <time>2023-02-20T03:43:40Z</time>
      </trkpt>
      <trkpt lat="39.92312697469131" lon="116.45928784131209">
        <ele>11.6</ele>
        <time>2023-02-20T03:43:55Z</time>
      </trkpt>
      <trkpt lat="39.92311936494915" lon="116.45944334502505">
        <ele>10.9</ele>
        <time>2023-02-20T03:44:01Z</time>
      </trkpt>
      <trkpt lat="39.923152544935014" lon="116.45951557465114">
        <ele>10.999999999999998</ele>
        <time>2023-02-20T03:44:04Z</time>
      </trkpt>
      <trkpt lat="39.923311901488354" lon="116.45966002269691">
        <ele>11.999999999999998</ele>
        <time>2023-02-20T03:44:13Z</time>
      </trkpt>
      <trkpt lat="39.923434520579484" lon="116.45990781180879">
        <ele>14.499999999999998</ele>
        <time>2023-02-20T03:44:22Z</time>
      </trkpt>
      <trkpt lat="39.92347465053098" lon="116.45995997638873">
        <ele>15.6</ele>
        <time>2023-02-20T03:44:25Z</time>
      </trkpt>
      <trkpt lat="39.92372716472692" lon="116.46016762073025">
        <ele>14.9</ele>
        <time>2023-02-20T03:44:40Z</time>
      </trkpt>
      <trkpt lat="39.92378228934083" lon="116.46021777731767">
        <ele>14.6</ele>
        <time>2023-02-20T03:44:43Z</time>
      </trkpt>
      <trkpt lat="39.92399638970001" lon="116.4602608910425">
        <ele>12.9</ele>
        <time>2023-02-20T03:44:52Z</time>
      </trkpt>
      <trkpt lat="39.92404446137732" lon="116.46028997991253">
        <ele>13.4</ele>
        <time>2023-02-20T03:44:55Z</time>
      </trkpt>
      <trkpt lat="39.92422427369011" lon="116.46021872489247">
        <ele>10.9</ele>
        <time>2023-02-20T03:45:07Z</time>
      </trkpt>
      <trkpt lat="39.92444443476676" lon="116.46028591641546">
        <ele>8.2</ele>
        <time>2023-02-20T03:45:19Z</time>
      </trkpt>
      <trkpt lat="39.92472448168901" lon="116.46030895642988">
        <ele>6.4</ele>
        <time>2023-02-20T03:45:31Z</time>
      </trkpt>
      <trkpt lat="39.9248464893821" lon="116.4603139574279">
        <ele>6.4</ele>
        <time>2023-02-20T03:45:37Z</time>
      </trkpt>
      <trkpt lat="39.924922432911735" lon="116.4602928790972">
        <ele>7.0</ele>
        <time>2023-02-20T03:45:40Z</time>
      </trkpt>
      <trkpt lat="39.92507110440234" lon="116.4601654448276">
        <ele>7.799999999999999</ele>
        <time>2023-02-20T03:45:49Z</time>
      </trkpt>
      <trkpt lat="39.925076825260604" lon="116.46005508461852">
        <ele>8.2</ele>
        <time>2023-02-20T03:45:58Z</time>
      </trkpt>
      <trkpt lat="39.925216353714525" lon="116.45987046658945">
        <ele>22.9</ele>
        <time>2023-02-20T03:46:28Z</time>
      </trkpt>
      <trkpt lat="39.92526927315123" lon="116.45983935886669">
        <ele>19.0</ele>
        <time>2023-02-20T03:46:34Z</time>
      </trkpt>
      <trkpt lat="39.92543427902651" lon="116.4598443543661">
        <ele>14.299999999999999</ele>
        <time>2023-02-20T03:46:43Z</time>
      </trkpt>
      <trkpt lat="39.925570144537254" lon="116.45979317105272">
        <ele>12.6</ele>
        <time>2023-02-20T03:46:49Z</time>
      </trkpt>
      <trkpt lat="39.92575268512242" lon="116.45961356542954">
        <ele>10.9</ele>
        <time>2023-02-20T03:46:58Z</time>
      </trkpt>
      <trkpt lat="39.925952399641176" lon="116.45950318274626">
        <ele>8.9</ele>
        <time>2023-02-20T03:47:07Z</time>
      </trkpt>
      <trkpt lat="39.926074607364356" lon="116.4591891522584">
        <ele>7.4</ele>
        <time>2023-02-20T03:47:20Z</time>
      </trkpt>
      <trkpt lat="39.92607124619208" lon="116.45904468677526">
        <ele>7.299999999999999</ele>
        <time>2023-02-20T03:47:26Z</time>
      </trkpt>
      <trkpt lat="39.92602131995172" lon="116.45867249591792">
        <ele>10.799999999999999</ele>
        <time>2023-02-20T03:47:35Z</time>
      </trkpt>
      <trkpt lat="39.92601915938572" lon="116.45820499908668">
        <ele>15.9</ele>
        <time>2023-02-20T03:47:47Z</time>
      </trkpt>
      <trkpt lat="39.92600274061241" lon="116.45803546004693">
        <ele>18.299999999999997</ele>
        <time>2023-02-20T03:47:53Z</time>
      </trkpt>
      <trkpt lat="39.92603924128244" lon="116.45783381315103">
        <ele>17.6</ele>
        <time>2023-02-20T03:47:59Z</time>
      </trkpt>
      <trkpt lat="39.92614448123895" lon="116.45752682473668">
        <ele>15.799999999999999</ele>
        <time>2023-02-20T03:48:08Z</time>
      </trkpt>
      <trkpt lat="39.92615617033793" lon="116.45740042267889">
        <ele>15.700000000000001</ele>
        <time>2023-02-20T03:48:11Z</time>
      </trkpt>
      <trkpt lat="39.92614385103313" lon="116.45727001151337">
        <ele>15.499999999999998</ele>
        <time>2023-02-20T03:48:14Z</time>
      </trkpt>
      <trkpt lat="39.926083566080294" lon="116.4571526481772">
        <ele>15.9</ele>
        <time>2023-02-20T03:48:17Z</time>
      </trkpt>
      <trkpt lat="39.92586900608446" lon="116.45691994112863">
        <ele>11.299999999999999</ele>
        <time>2023-02-20T03:48:26Z</time>
      </trkpt>
      <trkpt lat="39.92575156088181" lon="116.4567353750661">
        <ele>4.699999999999999</ele>
        <time>2023-02-20T03:48:35Z</time>
      </trkpt>
      <trkpt lat="39.925466191800695" lon="116.45657891953">
        <ele>5.0</ele>
        <time>2023-02-20T03:48:47Z</time>
      </trkpt>
      <trkpt lat="39.925293955142934" lon="116.45647862662733">
        <ele>5.9</ele>
        <time>2023-02-20T03:48:53Z</time>
      </trkpt>
      <trkpt lat="39.92511576281655" lon="116.4563963913781">
        <ele>8.5</ele>
        <time>2023-02-20T03:48:59Z</time>
      </trkpt>
      <trkpt lat="39.924958540655844" lon="116.4563021160618">
        <ele>8.799999999999999</ele>
        <time>2023-02-20T03:49:08Z</time>
      </trkpt>
      <trkpt lat="39.92482225477526" lon="116.45618175692529">
        <ele>9.799999999999999</ele>
        <time>2023-02-20T03:49:14Z</time>
      </trkpt>
      <trkpt lat="39.92476920841468" lon="116.45616170094755">
        <ele>9.9</ele>
        <time>2023-02-20T03:49:17Z</time>
      </trkpt>
      <trkpt lat="39.924582288904915" lon="116.45619181855089">
        <ele>10.4</ele>
        <time>2023-02-20T03:49:26Z</time>
      </trkpt>
      <trkpt lat="39.92450725557843" lon="116.45617678100936">
        <ele>10.200000000000001</ele>
        <time>2023-02-20T03:49:29Z</time>
      </trkpt>
      <trkpt lat="39.92444230193998" lon="116.45619484562043">
        <ele>10.4</ele>
        <time>2023-02-20T03:49:32Z</time>
      </trkpt>
      <trkpt lat="39.92420576369878" lon="116.45638145909268">
        <ele>14.1</ele>
        <time>2023-02-20T03:49:41Z</time>
      </trkpt>
      <trkpt lat="39.924100926214926" lon="116.45644667656727">
        <ele>15.499999999999998</ele>
        <time>2023-02-20T03:49:44Z</time>
      </trkpt>
      <trkpt lat="39.923832042004726" lon="116.45648984569506">
        <ele>18.200000000000003</ele>
        <time>2023-02-20T03:49:53Z</time>
      </trkpt>
      <trkpt lat="39.92377107862248" lon="116.45650389741988">
        <ele>18.200000000000003</ele>
        <time>2023-02-20T03:49:56Z</time>
      </trkpt>
      <trkpt lat="39.92370403509507" lon="116.45648484612326">
        <ele>17.700000000000003</ele>
        <time>2023-02-20T03:49:59Z</time>
      </trkpt>
      <trkpt lat="39.92351217458034" lon="116.45653904019963">
        <ele>14.4</ele>
        <time>2023-02-20T03:50:08Z</time>
      </trkpt>
      <trkpt lat="39.923375333838024" lon="116.45660225577497">
        <ele>13.4</ele>
        <time>2023-02-20T03:50:14Z</time>
      </trkpt>
      <trkpt lat="39.923330279598865" lon="116.45657918904492">
        <ele>12.299999999999999</ele>
        <time>2023-02-20T03:50:17Z</time>
      </trkpt>
      <trkpt lat="39.923251370661376" lon="116.45661531235446">
        <ele>10.799999999999999</ele>
        <time>2023-02-20T03:50:23Z</time>
      </trkpt>
      <trkpt lat="39.92315753072827" lon="116.45667952582473">
        <ele>10.200000000000001</ele>
        <time>2023-02-20T03:50:29Z</time>
      </trkpt>
      <trkpt lat="39.92308459478291" lon="116.45670461382826">
        <ele>10.299999999999999</ele>
        <time>2023-02-20T03:50:32Z</time>
      </trkpt>
      <trkpt lat="39.9229555146481" lon="116.45666951979904">
        <ele>9.7</ele>
        <time>2023-02-20T03:50:41Z</time>
      </trkpt>
      <trkpt lat="39.922908582508" lon="116.45669661081689">
        <ele>6.1</ele>
        <time>2023-02-20T03:50:47Z</time>
      </trkpt>
      <trkpt lat="39.922888817886154" lon="116.45679291608478">
        <ele>4.1</ele>
        <time>2023-02-20T03:50:53Z</time>
      </trkpt>
      <trkpt lat="39.92280411005913" lon="116.45691129937816">
        <ele>1.6999999999999993</ele>
        <time>2023-02-20T03:50:59Z</time>
      </trkpt>
      <trkpt lat="39.922772331814585" lon="116.45700158790875">
        <ele>0.5</ele>
        <time>2023-02-20T03:51:05Z</time>
      </trkpt>
      <trkpt lat="39.9227695158096" lon="116.45707682558313">
        <ele>0.1999999999999993</ele>
        <time>2023-02-20T03:51:08Z</time>
      </trkpt>
      <trkpt lat="39.9227008942498" lon="116.45723031898311">
        <ele>-3.1000000000000005</ele>
        <time>2023-02-20T03:51:14Z</time>
      </trkpt>
      <trkpt lat="39.9226921724438" lon="116.4573436786228">
        <ele>-6.300000000000001</ele>
        <time>2023-02-20T03:51:20Z</time>
      </trkpt>
      <trkpt lat="39.922721424796244" lon="116.45744700213199">
        <ele>-7.6000000000000005</ele>
        <time>2023-02-20T03:51:26Z</time>
      </trkpt>
      <trkpt lat="39.92280872684468" lon="116.45757138552042">
        <ele>-11.5</ele>
        <time>2023-02-20T03:51:35Z</time>
      </trkpt>
      <trkpt lat="39.922856769266396" lon="116.45758943675698">
        <ele>-13.3</ele>
        <time>2023-02-20T03:51:38Z</time>
      </trkpt>
      <trkpt lat="39.92290090811974" lon="116.4576466127018">
        <ele>-15.8</ele>
        <time>2023-02-20T03:51:41Z</time>
      </trkpt>
      <trkpt lat="39.92291653792208" lon="116.45790242413507">
        <ele>-18.200000000000003</ele>
        <time>2023-02-20T03:51:47Z</time>
      </trkpt>
      <trkpt lat="39.923002176576645" lon="116.45816224179295">
        <ele>-13.100000000000001</ele>
        <time>2023-02-20T03:51:56Z</time>
      </trkpt>
      <trkpt lat="39.923031150866116" lon="116.45855549638564">
        <ele>-10.4</ele>
        <time>2023-02-20T03:52:08Z</time>
      </trkpt>
      <trkpt lat="39.923046489652265" lon="116.45869193220591">
        <ele>-8.600000000000001</ele>
        <time>2023-02-20T03:52:14Z</time>
      </trkpt>
      <trkpt lat="39.92307169600602" lon="116.458775196494">
        <ele>-8.0</ele>
        <time>2023-02-20T03:52:17Z</time>
      </trkpt>
      <trkpt lat="39.92304259640315" lon="116.4591353597019">
        <ele>-6.4</ele>
        <time>2023-02-20T03:52:29Z</time>
      </trkpt>
      <trkpt lat="39.923074044753996" lon="116.45931493550309">
        <ele>-7.300000000000001</ele>
        <time>2023-02-20T03:52:35Z</time>
      </trkpt>
      <trkpt lat="39.92310215928557" lon="116.45936108112151">
        <ele>-8.0</ele>
        <time>2023-02-20T03:52:38Z</time>
      </trkpt>
      <trkpt lat="39.92322023996299" lon="116.4593951765332">
        <ele>-7.1000000000000005</ele>
        <time>2023-02-20T03:52:44Z</time>
      </trkpt>
      <trkpt lat="39.923347446203834" lon="116.4594794331592">
        <ele>-8.100000000000001</ele>
        <time>2023-02-20T03:52:53Z</time>
      </trkpt>
      <trkpt lat="39.92335565753989" lon="116.45956370501803">
        <ele>-9.7</ele>
        <time>2023-02-20T03:52:56Z</time>
      </trkpt>
      <trkpt lat="39.9235712165696" lon="116.459789409963">
        <ele>-10.0</ele>
        <time>2023-02-20T03:53:08Z</time>
      </trkpt>
      <trkpt lat="39.92379282736568" lon="116.4600351811165">
        <ele>-10.8</ele>
        <time>2023-02-20T03:53:20Z</time>
      </trkpt>
      <trkpt lat="39.92397213434626" lon="116.460159563702">
        <ele>-9.600000000000001</ele>
        <time>2023-02-20T03:53:32Z</time>
      </trkpt>
    </trkseg>
  </trk>
</gpx>