<?xml version="1.0" encoding="UTF-8"?>
<gpx xmlns="http://www.topografix.com/GPX/1/1" xmlns:gpxtpx="http://www.garmin.com/xmlschemas/TrackPointExtension/v1" xmlns:xsi="http://www.w3.org/2001/XMLSchema-instance" xsi:schemaLocation="http://www.topografix.com/GPX/1/1 http://www.topografix.com/GPX/1/1/gpx.xsd" version="1.1" creator="gpx.py -- https://github.com/tkrajina/gpxpy">
  <trk>
    <name>gpx from keep</name>
    <type>Run</type>
    <trkseg>
      <trkpt lat="40.08625176566178" lon="116.53057843832397">
        <ele>18.4</ele>
        <time>2022-12-29T04:05:29Z</time>
      </trkpt>
      <trkpt lat="40.08610180082209" lon="116.53058848742573">
        <ele>18.5</ele>
        <time>2022-12-29T04:05:38Z</time>
      </trkpt>
      <trkpt lat="40.086017268923214" lon="116.53077707258673">
        <ele>17.200000000000003</ele>
        <time>2022-12-29T04:05:41Z</time>
      </trkpt>
      <trkpt lat="40.08592142785123" lon="116.53083927364695">
        <ele>18.6</ele>
        <time>2022-12-29T04:05:44Z</time>
      </trkpt>
      <trkpt lat="40.08574964103172" lon="116.53092154488877">
        <ele>17.200000000000003</ele>
        <time>2022-12-29T04:05:50Z</time>
      </trkpt>
      <trkpt lat="40.08569279696054" lon="116.53098374079508">
        <ele>16.5</ele>
        <time>2022-12-29T04:05:53Z</time>
      </trkpt>
      <trkpt lat="40.08547905188172" lon="116.53108206542427">
        <ele>12.000000000000002</ele>
        <time>2022-12-29T04:06:02Z</time>
      </trkpt>
      <trkpt lat="40.085357329400225" lon="116.53119241478691">
        <ele>6.0</ele>
        <time>2022-12-29T04:06:08Z</time>
      </trkpt>
      <trkpt lat="40.08532245888246" lon="116.53124457698135">
        <ele>4.0</ele>
        <time>2022-12-29T04:06:11Z</time>
      </trkpt>
      <trkpt lat="40.085209305279925" lon="116.53158963281504">
        <ele>-4.3999999999999995</ele>
        <time>2022-12-29T04:06:23Z</time>
      </trkpt>
      <trkpt lat="40.08518665441782" lon="116.53173306735385">
        <ele>-7.0</ele>
        <time>2022-12-29T04:06:29Z</time>
      </trkpt>
      <trkpt lat="40.085202128744555" lon="116.53192965590578">
        <ele>-9.2</ele>
        <time>2022-12-29T04:06:38Z</time>
      </trkpt>
      <trkpt lat="40.085160791949974" lon="116.53220348089854">
        <ele>-7.199999999999999</ele>
        <time>2022-12-29T04:06:47Z</time>
      </trkpt>
      <trkpt lat="40.08516615346114" lon="116.5323539294736">
        <ele>-5.5</ele>
        <time>2022-12-29T04:06:53Z</time>
      </trkpt>
      <trkpt lat="40.08515553948778" lon="116.53251440897928">
        <ele>-3.8</ele>
        <time>2022-12-29T04:06:59Z</time>
      </trkpt>
      <trkpt lat="40.08517585536187" lon="116.53264680021967">
        <ele>-2.8</ele>
        <time>2022-12-29T04:07:02Z</time>
      </trkpt>
      <trkpt lat="40.085121547255476" lon="116.53293466059529">
        <ele>0.5</ele>
        <time>2022-12-29T04:07:11Z</time>
      </trkpt>
      <trkpt lat="40.08508175096856" lon="116.53301891473029">
        <ele>2.0</ele>
        <time>2022-12-29T04:07:14Z</time>
      </trkpt>
      <trkpt lat="40.0850689119832" lon="116.53308611490007">
        <ele>2.5999999999999996</ele>
        <time>2022-12-29T04:07:17Z</time>
      </trkpt>
      <trkpt lat="40.085048895044245" lon="116.53349933453838">
        <ele>7.5</ele>
        <time>2022-12-29T04:07:35Z</time>
      </trkpt>
      <trkpt lat="40.08504112359377" lon="116.53359561811749">
        <ele>7.6</ele>
        <time>2022-12-29T04:07:38Z</time>
      </trkpt>
      <trkpt lat="40.08519441612378" lon="116.53330173547323">
        <ele>-1.5999999999999996</ele>
        <time>2022-12-29T04:07:56Z</time>
      </trkpt>
      <trkpt lat="40.08522124263748" lon="116.53322951937896">
        <ele>-5.699999999999999</ele>
        <time>2022-12-29T04:07:59Z</time>
      </trkpt>
      <trkpt lat="40.085241603473854" lon="116.53296172594501">
        <ele>-14.799999999999999</ele>
        <time>2022-12-29T04:08:11Z</time>
      </trkpt>
      <trkpt lat="40.08522216890494" lon="116.5327791875594">
        <ele>-15.9</ele>
        <time>2022-12-29T04:08:17Z</time>
      </trkpt>
      <trkpt lat="40.085238997403124" lon="116.53270797416133">
        <ele>-17.4</ele>
        <time>2022-12-29T04:08:20Z</time>
      </trkpt>
      <trkpt lat="40.08527884095698" lon="116.5326437785889">
        <ele>-18.6</ele>
        <time>2022-12-29T04:08:23Z</time>
      </trkpt>
      <trkpt lat="40.08526125525082" lon="116.53239905235053">
        <ele>-17.7</ele>
        <time>2022-12-29T04:08:32Z</time>
      </trkpt>
      <trkpt lat="40.08526998946639" lon="116.53228872211841">
        <ele>-17.4</ele>
        <time>2022-12-29T04:08:35Z</time>
      </trkpt>
      <trkpt lat="40.085174179146335" lon="116.53194971951638">
        <ele>-8.6</ele>
        <time>2022-12-29T04:08:47Z</time>
      </trkpt>
      <trkpt lat="40.08517966219151" lon="116.53173607726474">
        <ele>-2.3999999999999995</ele>
        <time>2022-12-29T04:08:56Z</time>
      </trkpt>
      <trkpt lat="40.085232286645144" lon="116.53158260882721">
        <ele>1.0</ele>
        <time>2022-12-29T04:09:02Z</time>
      </trkpt>
      <trkpt lat="40.08523211873091" lon="116.53151340021685">
        <ele>3.3000000000000007</ele>
        <time>2022-12-29T04:09:05Z</time>
      </trkpt>
      <trkpt lat="40.085341396489085" lon="116.5312194987485">
        <ele>16.0</ele>
        <time>2022-12-29T04:09:20Z</time>
      </trkpt>
      <trkpt lat="40.08540232380778" lon="116.53119140620242">
        <ele>17.700000000000003</ele>
        <time>2022-12-29T04:09:23Z</time>
      </trkpt>
      <trkpt lat="40.08566491647293" lon="116.5310318903738">
        <ele>20.6</ele>
        <time>2022-12-29T04:09:35Z</time>
      </trkpt>
      <trkpt lat="40.08576275040349" lon="116.53096668039052">
        <ele>20.200000000000003</ele>
        <time>2022-12-29T04:09:41Z</time>
      </trkpt>
      <trkpt lat="40.085811739615174" lon="116.53096366521167">
        <ele>20.200000000000003</ele>
        <time>2022-12-29T04:09:44Z</time>
      </trkpt>
      <trkpt lat="40.08595954538027" lon="116.53088841840511">
        <ele>18.5</ele>
        <time>2022-12-29T04:09:56Z</time>
      </trkpt>
      <trkpt lat="40.086171410281054" lon="116.5308392428239">
        <ele>15.500000000000002</ele>
        <time>2022-12-29T04:10:08Z</time>
      </trkpt>
      <trkpt lat="40.086427982024475" lon="116.53067170111257">
        <ele>13.9</ele>
        <time>2022-12-29T04:10:23Z</time>
      </trkpt>
      <trkpt lat="40.086664598693645" lon="116.53052221593221">
        <ele>12.799999999999999</ele>
        <time>2022-12-29T04:10:41Z</time>
      </trkpt>
      <trkpt lat="40.08673742601719" lon="116.53045399855976">
        <ele>13.1</ele>
        <time>2022-12-29T04:10:47Z</time>
      </trkpt>
      <trkpt lat="40.08696424479131" lon="116.53038676508758">
        <ele>12.799999999999999</ele>
        <time>2022-12-29T04:10:56Z</time>
      </trkpt>
      <trkpt lat="40.0870091503323" lon="116.53034964599074">
        <ele>12.700000000000001</ele>
        <time>2022-12-29T04:10:59Z</time>
      </trkpt>
      <trkpt lat="40.087158041067816" lon="116.53030950480309">
        <ele>13.700000000000001</ele>
        <time>2022-12-29T04:11:05Z</time>
      </trkpt>
      <trkpt lat="40.08736213027048" lon="116.53035160859798">
        <ele>14.9</ele>
        <time>2022-12-29T04:11:14Z</time>
      </trkpt>
      <trkpt lat="40.08742606897468" lon="116.53032853009687">
        <ele>15.299999999999999</ele>
        <time>2022-12-29T04:11:17Z</time>
      </trkpt>
      <trkpt lat="40.08760936872143" lon="116.5300496523688">
        <ele>17.299999999999997</ele>
        <time>2022-12-29T04:11:29Z</time>
      </trkpt>
      <trkpt lat="40.08779808278599" lon="116.52993928992437">
        <ele>18.1</ele>
        <time>2022-12-29T04:11:41Z</time>
      </trkpt>
      <trkpt lat="40.08790307779678" lon="116.52994028005865">
        <ele>18.9</ele>
        <time>2022-12-29T04:11:44Z</time>
      </trkpt>
      <trkpt lat="40.088209805429024" lon="116.5298389304053">
        <ele>17.5</ele>
        <time>2022-12-29T04:12:02Z</time>
      </trkpt>
      <trkpt lat="40.08831450491645" lon="116.52972055269994">
        <ele>20.4</ele>
        <time>2022-12-29T04:12:08Z</time>
      </trkpt>
      <trkpt lat="40.0886351388144" lon="116.52958208586085">
        <ele>21.5</ele>
        <time>2022-12-29T04:12:23Z</time>
      </trkpt>
      <trkpt lat="40.08878308591637" lon="116.5295650149225">
        <ele>21.0</ele>
        <time>2022-12-29T04:12:32Z</time>
      </trkpt>
      <trkpt lat="40.088934671429826" lon="116.5294024936103">
        <ele>20.799999999999997</ele>
        <time>2022-12-29T04:12:41Z</time>
      </trkpt>
      <trkpt lat="40.08912754785027" lon="116.52935833313194">
        <ele>15.6</ele>
        <time>2022-12-29T04:12:50Z</time>
      </trkpt>
      <trkpt lat="40.08925036681761" lon="116.52928910349142">
        <ele>13.299999999999999</ele>
        <time>2022-12-29T04:12:56Z</time>
      </trkpt>
      <trkpt lat="40.08927202793653" lon="116.52915368065821">
        <ele>11.500000000000002</ele>
        <time>2022-12-29T04:13:02Z</time>
      </trkpt>
      <trkpt lat="40.0894325383046" lon="116.52896206524686">
        <ele>11.500000000000002</ele>
        <time>2022-12-29T04:13:14Z</time>
      </trkpt>
      <trkpt lat="40.08959728076443" lon="116.52886373879434">
        <ele>11.799999999999999</ele>
        <time>2022-12-29T04:13:23Z</time>
      </trkpt>
      <trkpt lat="40.08971223987783" lon="116.52885068397273">
        <ele>12.000000000000002</ele>
        <time>2022-12-29T04:13:29Z</time>
      </trkpt>
      <trkpt lat="40.08996780463573" lon="116.52868413300963">
        <ele>11.299999999999999</ele>
        <time>2022-12-29T04:13:44Z</time>
      </trkpt>
      <trkpt lat="40.09001473338336" lon="116.52865704263739">
        <ele>11.000000000000002</ele>
        <time>2022-12-29T04:13:47Z</time>
      </trkpt>
      <trkpt lat="40.090157891422606" lon="116.52872423480503">
        <ele>11.9</ele>
        <time>2022-12-29T04:13:59Z</time>
      </trkpt>
      <trkpt lat="40.09032607400818" lon="116.52840321036139">
        <ele>12.200000000000001</ele>
        <time>2022-12-29T04:14:14Z</time>
      </trkpt>
      <trkpt lat="40.09037296724477" lon="116.52836207570535">
        <ele>12.299999999999999</ele>
        <time>2022-12-29T04:14:17Z</time>
      </trkpt>
      <trkpt lat="40.09050976056303" lon="116.52828381348756">
        <ele>13.1</ele>
        <time>2022-12-29T04:14:23Z</time>
      </trkpt>
      <trkpt lat="40.09078816424882" lon="116.52805506072536">
        <ele>11.6</ele>
        <time>2022-12-29T04:14:41Z</time>
      </trkpt>
      <trkpt lat="40.09095977960496" lon="116.52790757536441">
        <ele>9.8</ele>
        <time>2022-12-29T04:14:53Z</time>
      </trkpt>
      <trkpt lat="40.091089587670226" lon="116.52783533170293">
        <ele>10.200000000000001</ele>
        <time>2022-12-29T04:14:59Z</time>
      </trkpt>
      <trkpt lat="40.09114744142201" lon="116.5277791473812">
        <ele>10.4</ele>
        <time>2022-12-29T04:15:02Z</time>
      </trkpt>
      <trkpt lat="40.09145707358375" lon="116.52764267839004">
        <ele>13.1</ele>
        <time>2022-12-29T04:15:17Z</time>
      </trkpt>
      <trkpt lat="40.09170466139519" lon="116.52748715606829">
        <ele>14.000000000000002</ele>
        <time>2022-12-29T04:15:29Z</time>
      </trkpt>
      <trkpt lat="40.091801529595735" lon="116.52743798847146">
        <ele>13.6</ele>
        <time>2022-12-29T04:15:35Z</time>
      </trkpt>
      <trkpt lat="40.092057052198456" lon="116.52725738446097">
        <ele>14.700000000000001</ele>
        <time>2022-12-29T04:15:50Z</time>
      </trkpt>
      <trkpt lat="40.092261569998286" lon="116.52707377602644">
        <ele>12.1</ele>
        <time>2022-12-29T04:16:05Z</time>
      </trkpt>
      <trkpt lat="40.09229345008077" lon="116.52702762531183">
        <ele>12.700000000000001</ele>
        <time>2022-12-29T04:16:08Z</time>
      </trkpt>
      <trkpt lat="40.092522072565" lon="116.52688614670542">
        <ele>16.799999999999997</ele>
        <time>2022-12-29T04:16:20Z</time>
      </trkpt>
      <trkpt lat="40.09265294003261" lon="116.52683797706433">
        <ele>17.9</ele>
        <time>2022-12-29T04:16:26Z</time>
      </trkpt>
      <trkpt lat="40.092711825535474" lon="116.5267948322322">
        <ele>17.9</ele>
        <time>2022-12-29T04:16:29Z</time>
      </trkpt>
      <trkpt lat="40.09284370818742" lon="116.52675268151972">
        <ele>17.700000000000003</ele>
        <time>2022-12-29T04:16:35Z</time>
      </trkpt>
      <trkpt lat="40.09296750672657" lon="116.52667742603367">
        <ele>17.200000000000003</ele>
        <time>2022-12-29T04:16:44Z</time>
      </trkpt>
      <trkpt lat="40.092847600200116" lon="116.52671054655457">
        <ele>10.700000000000001</ele>
        <time>2022-12-29T04:16:59Z</time>
      </trkpt>
      <trkpt lat="40.09258209888275" lon="116.52689817764809">
        <ele>7.0</ele>
        <time>2022-12-29T04:17:14Z</time>
      </trkpt>
      <trkpt lat="40.092352599104494" lon="116.52708780944074">
        <ele>3.200000000000001</ele>
        <time>2022-12-29T04:17:29Z</time>
      </trkpt>
      <trkpt lat="40.09209210064569" lon="116.527277443796">
        <ele>1.7000000000000002</ele>
        <time>2022-12-29T04:17:44Z</time>
      </trkpt>
      <trkpt lat="40.091816597231364" lon="116.52746507237981">
        <ele>4.6</ele>
        <time>2022-12-29T04:17:59Z</time>
      </trkpt>
      <trkpt lat="40.091526966838266" lon="116.5276025429391">
        <ele>8.3</ele>
        <time>2022-12-29T04:18:14Z</time>
      </trkpt>
      <trkpt lat="40.09124943654168" lon="116.52778013795334">
        <ele>9.5</ele>
        <time>2022-12-29T04:18:29Z</time>
      </trkpt>
      <trkpt lat="40.0909968478505" lon="116.52793565926251">
        <ele>9.8</ele>
        <time>2022-12-29T04:18:41Z</time>
      </trkpt>
      <trkpt lat="40.09074826579045" lon="116.5280941886679">
        <ele>9.9</ele>
        <time>2022-12-29T04:18:53Z</time>
      </trkpt>
      <trkpt lat="40.09053672579777" lon="116.52827076924868">
        <ele>8.5</ele>
        <time>2022-12-29T04:19:05Z</time>
      </trkpt>
      <trkpt lat="40.09024022385184" lon="116.52846040001364">
        <ele>8.700000000000001</ele>
        <time>2022-12-29T04:19:17Z</time>
      </trkpt>
      <trkpt lat="40.09012446386723" lon="116.52855270305301">
        <ele>8.700000000000001</ele>
        <time>2022-12-29T04:19:23Z</time>
      </trkpt>
      <trkpt lat="40.0899925790656" lon="116.52859485104877">
        <ele>10.6</ele>
        <time>2022-12-29T04:19:29Z</time>
      </trkpt>
      <trkpt lat="40.08979498039733" lon="116.52874935784817">
        <ele>9.200000000000001</ele>
        <time>2022-12-29T04:19:41Z</time>
      </trkpt>
      <trkpt lat="40.08955324881225" lon="116.52884970046746">
        <ele>10.4</ele>
        <time>2022-12-29T04:19:53Z</time>
      </trkpt>
      <trkpt lat="40.08943531498713" lon="116.52887278691003">
        <ele>11.299999999999999</ele>
        <time>2022-12-29T04:19:59Z</time>
      </trkpt>
      <trkpt lat="40.089192780930844" lon="116.52905237565233">
        <ele>11.4</ele>
        <time>2022-12-29T04:20:14Z</time>
      </trkpt>
      <trkpt lat="40.08897912895051" lon="116.52918581645389">
        <ele>13.000000000000002</ele>
        <time>2022-12-29T04:20:26Z</time>
      </trkpt>
      <trkpt lat="40.08884645319723" lon="116.52931222484324">
        <ele>12.200000000000001</ele>
        <time>2022-12-29T04:20:35Z</time>
      </trkpt>
      <trkpt lat="40.08881261282879" lon="116.52937542480613">
        <ele>12.299999999999999</ele>
        <time>2022-12-29T04:20:38Z</time>
      </trkpt>
      <trkpt lat="40.08855801984938" lon="116.5295319403856">
        <ele>10.4</ele>
        <time>2022-12-29T04:20:53Z</time>
      </trkpt>
      <trkpt lat="40.08830153069133" lon="116.5297305852352">
        <ele>10.200000000000001</ele>
        <time>2022-12-29T04:21:11Z</time>
      </trkpt>
      <trkpt lat="40.08814176808428" lon="116.5298218862761">
        <ele>9.0</ele>
        <time>2022-12-29T04:21:26Z</time>
      </trkpt>
      <trkpt lat="40.08809189571692" lon="116.52987204687354">
        <ele>6.300000000000001</ele>
        <time>2022-12-29T04:21:32Z</time>
      </trkpt>
      <trkpt lat="40.08804220419598" lon="116.52999543253686">
        <ele>4.800000000000001</ele>
        <time>2022-12-29T04:21:38Z</time>
      </trkpt>
      <trkpt lat="40.08790432794549" lon="116.53004159133584">
        <ele>3.0999999999999996</ele>
        <time>2022-12-29T04:21:50Z</time>
      </trkpt>
      <trkpt lat="40.087844285164195" lon="116.53002254018527">
        <ele>2.5999999999999996</ele>
        <time>2022-12-29T04:21:56Z</time>
      </trkpt>
      <trkpt lat="40.0877593060666" lon="116.53002856916011">
        <ele>4.0</ele>
        <time>2022-12-29T04:22:02Z</time>
      </trkpt>
      <trkpt lat="40.087710368974214" lon="116.53005264915463">
        <ele>5.9</ele>
        <time>2022-12-29T04:22:08Z</time>
      </trkpt>
      <trkpt lat="40.087607873346855" lon="116.53025428033936">
        <ele>8.4</ele>
        <time>2022-12-29T04:22:20Z</time>
      </trkpt>
      <trkpt lat="40.087537495040415" lon="116.5305050562044">
        <ele>12.9</ele>
        <time>2022-12-29T04:22:41Z</time>
      </trkpt>
      <trkpt lat="40.08754914353793" lon="116.53076986231906">
        <ele>10.799999999999999</ele>
        <time>2022-12-29T04:22:59Z</time>
      </trkpt>
      <trkpt lat="40.08758603529164" lon="116.53072672641927">
        <ele>9.6</ele>
        <time>2022-12-29T04:23:05Z</time>
      </trkpt>
      <trkpt lat="40.08764646759538" lon="116.53049701825249">
        <ele>7.5</ele>
        <time>2022-12-29T04:23:23Z</time>
      </trkpt>
      <trkpt lat="40.087572147446025" lon="116.53036462260093">
        <ele>7.4</ele>
        <time>2022-12-29T04:23:32Z</time>
      </trkpt>
      <trkpt lat="40.087291945159286" lon="116.53027438076633">
        <ele>12.200000000000001</ele>
        <time>2022-12-29T04:23:47Z</time>
      </trkpt>
      <trkpt lat="40.08714492593427" lon="116.53026236202302">
        <ele>14.500000000000002</ele>
        <time>2022-12-29T04:23:59Z</time>
      </trkpt>
      <trkpt lat="40.08687433006421" lon="116.53041887434706">
        <ele>15.000000000000002</ele>
        <time>2022-12-29T04:24:24Z</time>
      </trkpt>
      <trkpt lat="40.08660764703805" lon="116.53054027808811">
        <ele>16.700000000000003</ele>
        <time>2022-12-29T04:24:45Z</time>
      </trkpt>
      <trkpt lat="40.08641987930911" lon="116.53062957366059">
        <ele>18.200000000000003</ele>
        <time>2022-12-29T04:25:03Z</time>
      </trkpt>
      <trkpt lat="40.08631487440582" lon="116.53062457131264">
        <ele>18.200000000000003</ele>
        <time>2022-12-29T04:25:12Z</time>
      </trkpt>
      <trkpt lat="40.08624897004329" lon="116.53066169260912">
        <ele>17.200000000000003</ele>
        <time>2022-12-29T04:25:18Z</time>
      </trkpt>
      <trkpt lat="40.08619723171153" lon="116.53076701985961">
        <ele>13.299999999999999</ele>
        <time>2022-12-29T04:25:24Z</time>
      </trkpt>
      <trkpt lat="40.08602655538655" lon="116.53089442843753">
        <ele>12.6</ele>
        <time>2022-12-29T04:25:39Z</time>
      </trkpt>
      <trkpt lat="40.08589445428277" lon="116.53084930748193">
        <ele>16.299999999999997</ele>
        <time>2022-12-29T04:25:51Z</time>
      </trkpt>
      <trkpt lat="40.085752562362394" lon="116.53088944697484">
        <ele>19.200000000000003</ele>
        <time>2022-12-29T04:26:03Z</time>
      </trkpt>
      <trkpt lat="40.08552181139332" lon="116.53098476492178">
        <ele>21.1</ele>
        <time>2022-12-29T04:26:21Z</time>
      </trkpt>
      <trkpt lat="40.08547677534733" lon="116.53096872174154">
        <ele>22.0</ele>
        <time>2022-12-29T04:26:24Z</time>
      </trkpt>
      <trkpt lat="40.08534993853264" lon="116.53103192920729">
        <ele>23.799999999999997</ele>
        <time>2022-12-29T04:26:36Z</time>
      </trkpt>
      <trkpt lat="40.08529206496694" lon="116.53108208847728">
        <ele>22.1</ele>
        <time>2022-12-29T04:26:42Z</time>
      </trkpt>
      <trkpt lat="40.08526223338382" lon="116.53115029890293">
        <ele>20.299999999999997</ele>
        <time>2022-12-29T04:26:48Z</time>
      </trkpt>
      <trkpt lat="40.08512244599618" lon="116.53123356824659">
        <ele>19.9</ele>
        <time>2022-12-29T04:27:00Z</time>
      </trkpt>
      <trkpt lat="40.08508656571914" lon="116.5312817183463">
        <ele>20.200000000000003</ele>
        <time>2022-12-29T04:27:03Z</time>
      </trkpt>
      <trkpt lat="40.08505756384757" lon="116.53169195955994">
        <ele>11.200000000000001</ele>
        <time>2022-12-29T04:27:27Z</time>
      </trkpt>
      <trkpt lat="40.08504983389191" lon="116.53180329526941">
        <ele>9.6</ele>
        <time>2022-12-29T04:27:33Z</time>
      </trkpt>
      <trkpt lat="40.08513248085386" lon="116.53165985372934">
        <ele>9.9</ele>
        <time>2022-12-29T04:27:48Z</time>
      </trkpt>
      <trkpt lat="40.08519733044062" lon="116.53159966450927">
        <ele>10.700000000000001</ele>
        <time>2022-12-29T04:27:54Z</time>
      </trkpt>
      <trkpt lat="40.08530763081666" lon="116.53131479119493">
        <ele>19.799999999999997</ele>
        <time>2022-12-29T04:28:12Z</time>
      </trkpt>
      <trkpt lat="40.085431329109156" lon="116.53119441173894">
        <ele>24.0</ele>
        <time>2022-12-29T04:28:33Z</time>
      </trkpt>
      <trkpt lat="40.085507333562504" lon="116.5311984145182">
        <ele>23.299999999999997</ele>
        <time>2022-12-29T04:28:39Z</time>
      </trkpt>
      <trkpt lat="40.0857828959558" lon="116.53102686060909">
        <ele>24.4</ele>
        <time>2022-12-29T04:29:00Z</time>
      </trkpt>
      <trkpt lat="40.085931620903736" lon="116.53091851330734">
        <ele>22.200000000000003</ele>
        <time>2022-12-29T04:29:15Z</time>
      </trkpt>
      <trkpt lat="40.085986668515176" lon="116.53093957052094">
        <ele>22.4</ele>
        <time>2022-12-29T04:29:21Z</time>
      </trkpt>
      <trkpt lat="40.086199543222634" lon="116.53089440710833">
        <ele>18.299999999999997</ele>
        <time>2022-12-29T04:29:36Z</time>
      </trkpt>
      <trkpt lat="40.08625641656879" lon="116.5308442475976">
        <ele>18.0</ele>
        <time>2022-12-29T04:29:39Z</time>
      </trkpt>
      <trkpt lat="40.08630156056443" lon="116.53090442501774">
        <ele>19.299999999999997</ele>
        <time>2022-12-29T04:29:48Z</time>
      </trkpt>
      <trkpt lat="40.086318914589945" lon="116.5310498645214">
        <ele>19.700000000000003</ele>
        <time>2022-12-29T04:29:54Z</time>
      </trkpt>
      <trkpt lat="40.086342089134526" lon="116.5311220806607">
        <ele>23.4</ele>
        <time>2022-12-29T04:30:00Z</time>
      </trkpt>
      <trkpt lat="40.086369050544384" lon="116.53110703172888">
        <ele>24.799999999999997</ele>
        <time>2022-12-29T04:30:03Z</time>
      </trkpt>
    </trkseg>
  </trk>
</gpx>