<?xml version="1.0" encoding="UTF-8"?>
<gpx xmlns="http://www.topografix.com/GPX/1/1" xmlns:gpxtpx="http://www.garmin.com/xmlschemas/TrackPointExtension/v1" xmlns:xsi="http://www.w3.org/2001/XMLSchema-instance" xsi:schemaLocation="http://www.topografix.com/GPX/1/1 http://www.topografix.com/GPX/1/1/gpx.xsd" version="1.1" creator="gpx.py -- https://github.com/tkrajina/gpxpy">
  <trk>
    <name>gpx from keep</name>
    <type>Walk</type>
    <trkseg>
      <trkpt lat="39.9007614687544" lon="116.68106437159166">
        <ele>5.199999999999999</ele>
        <time>2023-03-20T11:06:28Z</time>
      </trkpt>
      <trkpt lat="39.90075061573925" lon="116.68098459309881">
        <ele>4.699999999999999</ele>
        <time>2023-03-20T11:06:34Z</time>
      </trkpt>
      <trkpt lat="39.900782878174546" lon="116.68084098561701">
        <ele>7.699999999999999</ele>
        <time>2023-03-20T11:06:46Z</time>
      </trkpt>
      <trkpt lat="39.90076808974779" lon="116.68072630430926">
        <ele>10.1</ele>
        <time>2023-03-20T11:06:52Z</time>
      </trkpt>
      <trkpt lat="39.90068858724492" lon="116.68045805602061">
        <ele>15.3</ele>
        <time>2023-03-20T11:07:10Z</time>
      </trkpt>
      <trkpt lat="39.90065173043339" lon="116.68038127311549">
        <ele>15.5</ele>
        <time>2023-03-20T11:07:16Z</time>
      </trkpt>
      <trkpt lat="39.90061544808651" lon="116.67999335247922">
        <ele>17.8</ele>
        <time>2023-03-20T11:07:37Z</time>
      </trkpt>
      <trkpt lat="39.90060869173369" lon="116.67986171849228">
        <ele>17.1</ele>
        <time>2023-03-20T11:07:43Z</time>
      </trkpt>
      <trkpt lat="39.90058487174292" lon="116.67976498992981">
        <ele>15.600000000000001</ele>
        <time>2023-03-20T11:07:49Z</time>
      </trkpt>
      <trkpt lat="39.900589059826714" lon="116.6796632718664">
        <ele>14.899999999999999</ele>
        <time>2023-03-20T11:07:55Z</time>
      </trkpt>
      <trkpt lat="39.90054590663428" lon="116.67920754428">
        <ele>15.600000000000001</ele>
        <time>2023-03-20T11:08:22Z</time>
      </trkpt>
      <trkpt lat="39.900595209990385" lon="116.6790429962717">
        <ele>6.5</ele>
        <time>2023-03-20T11:08:34Z</time>
      </trkpt>
      <trkpt lat="39.90056150622152" lon="116.67888444218077">
        <ele>5.9</ele>
        <time>2023-03-20T11:08:43Z</time>
      </trkpt>
      <trkpt lat="39.90053493603903" lon="116.67865408776049">
        <ele>6.9</ele>
        <time>2023-03-20T11:08:55Z</time>
      </trkpt>
      <trkpt lat="39.90048326528242" lon="116.67847858392692">
        <ele>10.0</ele>
        <time>2023-03-20T11:09:07Z</time>
      </trkpt>
      <trkpt lat="39.90044291811343" lon="116.67812956392484">
        <ele>13.399999999999999</ele>
        <time>2023-03-20T11:09:25Z</time>
      </trkpt>
      <trkpt lat="39.900421122075585" lon="116.67802087053964">
        <ele>14.0</ele>
        <time>2023-03-20T11:09:31Z</time>
      </trkpt>
      <trkpt lat="39.90039664883662" lon="116.67773966044098">
        <ele>17.1</ele>
        <time>2023-03-20T11:09:49Z</time>
      </trkpt>
      <trkpt lat="39.90036982729055" lon="116.67764492902901">
        <ele>18.4</ele>
        <time>2023-03-20T11:09:55Z</time>
      </trkpt>
      <trkpt lat="39.900397969751154" lon="116.67756814062545">
        <ele>18.0</ele>
        <time>2023-03-20T11:10:01Z</time>
      </trkpt>
      <trkpt lat="39.90036617472555" lon="116.67745944912281">
        <ele>15.7</ele>
        <time>2023-03-20T11:10:07Z</time>
      </trkpt>
      <trkpt lat="39.90032626058272" lon="116.67741457983266">
        <ele>15.399999999999999</ele>
        <time>2023-03-20T11:10:10Z</time>
      </trkpt>
      <trkpt lat="39.90029543201853" lon="116.67732383804938">
        <ele>15.399999999999999</ele>
        <time>2023-03-20T11:10:16Z</time>
      </trkpt>
      <trkpt lat="39.90031064259794" lon="116.67721115219219">
        <ele>16.8</ele>
        <time>2023-03-20T11:10:22Z</time>
      </trkpt>
      <trkpt lat="39.900270179613244" lon="116.67692595760963">
        <ele>19.6</ele>
        <time>2023-03-20T11:10:40Z</time>
      </trkpt>
      <trkpt lat="39.900291613308" lon="116.67669460482837">
        <ele>16.3</ele>
        <time>2023-03-20T11:10:52Z</time>
      </trkpt>
      <trkpt lat="39.90025310644192" lon="116.67643334410467">
        <ele>11.399999999999999</ele>
        <time>2023-03-20T11:11:10Z</time>
      </trkpt>
      <trkpt lat="39.90021829571338" lon="116.67633362892515">
        <ele>11.600000000000001</ele>
        <time>2023-03-20T11:11:16Z</time>
      </trkpt>
      <trkpt lat="39.900208517750414" lon="116.67621596126034">
        <ele>13.3</ele>
        <time>2023-03-20T11:11:22Z</time>
      </trkpt>
      <trkpt lat="39.900179710685514" lon="116.67611425115031">
        <ele>13.2</ele>
        <time>2023-03-20T11:11:28Z</time>
      </trkpt>
      <trkpt lat="39.900167995065146" lon="116.67596367664638">
        <ele>13.3</ele>
        <time>2023-03-20T11:11:37Z</time>
      </trkpt>
      <trkpt lat="39.90010067177301" lon="116.67560669111532">
        <ele>17.3</ele>
        <time>2023-03-20T11:11:58Z</time>
      </trkpt>
      <trkpt lat="39.90009088505686" lon="116.67549401013254">
        <ele>18.1</ele>
        <time>2023-03-20T11:12:04Z</time>
      </trkpt>
      <trkpt lat="39.900093273208526" lon="116.67528858947385">
        <ele>18.5</ele>
        <time>2023-03-20T11:12:16Z</time>
      </trkpt>
      <trkpt lat="39.90004547903559" lon="116.67518089940494">
        <ele>20.7</ele>
        <time>2023-03-20T11:12:22Z</time>
      </trkpt>
      <trkpt lat="39.900027777954705" lon="116.67502334653524">
        <ele>24.0</ele>
        <time>2023-03-20T11:12:34Z</time>
      </trkpt>
      <trkpt lat="39.900037898308305" lon="116.67495952557013">
        <ele>24.0</ele>
        <time>2023-03-20T11:12:37Z</time>
      </trkpt>
      <trkpt lat="39.899991554009716" lon="116.67461450650734">
        <ele>17.1</ele>
        <time>2023-03-20T11:13:01Z</time>
      </trkpt>
      <trkpt lat="39.89998514248809" lon="116.67430438461717">
        <ele>13.399999999999999</ele>
        <time>2023-03-20T11:13:19Z</time>
      </trkpt>
      <trkpt lat="39.89994282793554" lon="116.67394440906659">
        <ele>12.8</ele>
        <time>2023-03-20T11:13:40Z</time>
      </trkpt>
      <trkpt lat="39.89989810283755" lon="116.67380082139759">
        <ele>12.399999999999999</ele>
        <time>2023-03-20T11:13:49Z</time>
      </trkpt>
      <trkpt lat="39.899895690843316" lon="116.67349169791702">
        <ele>12.899999999999999</ele>
        <time>2023-03-20T11:14:07Z</time>
      </trkpt>
      <trkpt lat="39.89983817555234" lon="116.6732384234068">
        <ele>14.2</ele>
        <time>2023-03-20T11:14:22Z</time>
      </trkpt>
      <trkpt lat="39.899843346238065" lon="116.67314867740825">
        <ele>12.899999999999999</ele>
        <time>2023-03-20T11:14:28Z</time>
      </trkpt>
      <trkpt lat="39.899823542792525" lon="116.6730459713341">
        <ele>12.3</ele>
        <time>2023-03-20T11:14:34Z</time>
      </trkpt>
      <trkpt lat="39.899823825929744" lon="116.67289739306376">
        <ele>13.7</ele>
        <time>2023-03-20T11:14:43Z</time>
      </trkpt>
      <trkpt lat="39.89986489631256" lon="116.67285949557645">
        <ele>14.600000000000001</ele>
        <time>2023-03-20T11:14:52Z</time>
      </trkpt>
      <trkpt lat="39.89986909385133" lon="116.67275578954124">
        <ele>13.899999999999999</ele>
        <time>2023-03-20T11:14:55Z</time>
      </trkpt>
      <trkpt lat="39.89981654702236" lon="116.67251946733265">
        <ele>12.600000000000001</ele>
        <time>2023-03-20T11:15:01Z</time>
      </trkpt>
      <trkpt lat="39.89979405920114" lon="116.67277574217081">
        <ele>0.0</ele>
        <time>2023-03-20T11:16:07Z</time>
      </trkpt>
      <trkpt lat="39.89984001340087" lon="116.67279867136752">
        <ele>0.0</ele>
        <time>2023-03-20T11:17:07Z</time>
      </trkpt>
      <trkpt lat="39.89977905227149" lon="116.67277973269701">
        <ele>0.0</ele>
        <time>2023-03-20T11:17:10Z</time>
      </trkpt>
      <trkpt lat="39.8998034430095" lon="116.6730988238237">
        <ele>12.3</ele>
        <time>2023-03-20T11:17:16Z</time>
      </trkpt>
      <trkpt lat="39.899782766957905" lon="116.67292930754313">
        <ele>12.100000000000001</ele>
        <time>2023-03-20T11:17:19Z</time>
      </trkpt>
      <trkpt lat="39.89983496609789" lon="116.67282360120207">
        <ele>11.5</ele>
        <time>2023-03-20T11:17:22Z</time>
      </trkpt>
      <trkpt lat="39.899840087551404" lon="116.67275978179568">
        <ele>11.7</ele>
        <time>2023-03-20T11:17:25Z</time>
      </trkpt>
      <trkpt lat="39.899697700805646" lon="116.67244170300728">
        <ele>18.7</ele>
        <time>2023-03-20T11:17:55Z</time>
      </trkpt>
      <trkpt lat="39.89967617010141" lon="116.6721964028717">
        <ele>18.3</ele>
        <time>2023-03-20T11:18:13Z</time>
      </trkpt>
      <trkpt lat="39.89969628917998" lon="116.67213357898953">
        <ele>18.0</ele>
        <time>2023-03-20T11:18:19Z</time>
      </trkpt>
      <trkpt lat="39.89966090051548" lon="116.67181449083621">
        <ele>19.9</ele>
        <time>2023-03-20T11:18:43Z</time>
      </trkpt>
      <trkpt lat="39.89967604471659" lon="116.67173870456287">
        <ele>20.0</ele>
        <time>2023-03-20T11:18:49Z</time>
      </trkpt>
      <trkpt lat="39.89967634599175" lon="116.6715811528213">
        <ele>18.1</ele>
        <time>2023-03-20T11:19:01Z</time>
      </trkpt>
      <trkpt lat="39.89963266271486" lon="116.67141662648537">
        <ele>17.6</ele>
        <time>2023-03-20T11:19:13Z</time>
      </trkpt>
      <trkpt lat="39.899618205397076" lon="116.67113343452881">
        <ele>13.399999999999999</ele>
        <time>2023-03-20T11:19:34Z</time>
      </trkpt>
      <trkpt lat="39.899593456645356" lon="116.67100280959126">
        <ele>12.2</ele>
        <time>2023-03-20T11:19:46Z</time>
      </trkpt>
      <trkpt lat="39.89962565000135" lon="116.67090109531836">
        <ele>16.7</ele>
        <time>2023-03-20T11:21:10Z</time>
      </trkpt>
      <trkpt lat="39.89960809021067" lon="116.67067175086811">
        <ele>16.5</ele>
        <time>2023-03-20T11:21:22Z</time>
      </trkpt>
      <trkpt lat="39.89953331145343" lon="116.67055808401338">
        <ele>17.0</ele>
        <time>2023-03-20T11:21:31Z</time>
      </trkpt>
      <trkpt lat="39.8994477550193" lon="116.67032874821723">
        <ele>12.7</ele>
        <time>2023-03-20T11:21:52Z</time>
      </trkpt>
      <trkpt lat="39.89938644829784" lon="116.66996878204498">
        <ele>15.3</ele>
        <time>2023-03-20T11:22:16Z</time>
      </trkpt>
      <trkpt lat="39.89938300920129" lon="116.66967661568155">
        <ele>15.899999999999999</ele>
        <time>2023-03-20T11:22:34Z</time>
      </trkpt>
      <trkpt lat="39.89933576002392" lon="116.66928673372418">
        <ele>13.8</ele>
        <time>2023-03-20T11:22:58Z</time>
      </trkpt>
      <trkpt lat="39.899318322115725" lon="116.66899456952915">
        <ele>11.8</ele>
        <time>2023-03-20T11:23:16Z</time>
      </trkpt>
      <trkpt lat="39.89927268060689" lon="116.66880910444924">
        <ele>10.7</ele>
        <time>2023-03-20T11:23:28Z</time>
      </trkpt>
      <trkpt lat="39.899297798301134" lon="116.66874727779452">
        <ele>10.6</ele>
        <time>2023-03-20T11:23:34Z</time>
      </trkpt>
      <trkpt lat="39.8993648163601" lon="116.66873630083546">
        <ele>10.9</ele>
        <time>2023-03-20T11:23:40Z</time>
      </trkpt>
      <trkpt lat="39.899424717826804" lon="116.66878615115503">
        <ele>12.8</ele>
        <time>2023-03-20T11:23:49Z</time>
      </trkpt>
      <trkpt lat="39.89952522272956" lon="116.66904141027676">
        <ele>14.5</ele>
        <time>2023-03-20T11:24:04Z</time>
      </trkpt>
      <trkpt lat="39.89953589273913" lon="116.66921291957391">
        <ele>12.100000000000001</ele>
        <time>2023-03-20T11:24:16Z</time>
      </trkpt>
      <trkpt lat="39.899636217942245" lon="116.66956191153587">
        <ele>11.3</ele>
        <time>2023-03-20T11:24:40Z</time>
      </trkpt>
      <trkpt lat="39.899738109967544" lon="116.6696157453746">
        <ele>14.3</ele>
        <time>2023-03-20T11:24:52Z</time>
      </trkpt>
      <trkpt lat="39.89979118032767" lon="116.66957784691186">
        <ele>15.3</ele>
        <time>2023-03-20T11:24:58Z</time>
      </trkpt>
      <trkpt lat="39.899851003422164" lon="116.66966858070674">
        <ele>11.8</ele>
        <time>2023-03-20T11:25:07Z</time>
      </trkpt>
      <trkpt lat="39.89989959930103" lon="116.66987797749812">
        <ele>7.0</ele>
        <time>2023-03-20T11:25:19Z</time>
      </trkpt>
      <trkpt lat="39.89996053723648" lon="116.66990888182998">
        <ele>4.300000000000001</ele>
        <time>2023-03-20T11:25:28Z</time>
      </trkpt>
      <trkpt lat="39.90028548817851" lon="116.66992679055929">
        <ele>11.7</ele>
        <time>2023-03-20T11:25:49Z</time>
      </trkpt>
      <trkpt lat="39.90048651933146" lon="116.66990582547301">
        <ele>19.2</ele>
        <time>2023-03-20T11:26:04Z</time>
      </trkpt>
      <trkpt lat="39.90052759403214" lon="116.66986593415041">
        <ele>21.0</ele>
        <time>2023-03-20T11:26:07Z</time>
      </trkpt>
      <trkpt lat="39.90060364803004" lon="116.66983601007935">
        <ele>23.7</ele>
        <time>2023-03-20T11:26:13Z</time>
      </trkpt>
      <trkpt lat="39.90064155064391" lon="116.66988586321925">
        <ele>23.7</ele>
        <time>2023-03-20T11:26:25Z</time>
      </trkpt>
      <trkpt lat="39.90055554110906" lon="116.66989285392462">
        <ele>0.0</ele>
        <time>2023-03-20T11:28:16Z</time>
      </trkpt>
      <trkpt lat="39.90049540603764" lon="116.66996465661117">
        <ele>16.6</ele>
        <time>2023-03-20T11:28:22Z</time>
      </trkpt>
      <trkpt lat="39.900477718753855" lon="116.66980212230317">
        <ele>23.7</ele>
        <time>2023-03-20T11:28:25Z</time>
      </trkpt>
      <trkpt lat="39.9004850074568" lon="116.66965155085077">
        <ele>27.799999999999997</ele>
        <time>2023-03-20T11:28:28Z</time>
      </trkpt>
      <trkpt lat="39.900535945826796" lon="116.66968245639806">
        <ele>27.1</ele>
        <time>2023-03-20T11:28:34Z</time>
      </trkpt>
      <trkpt lat="39.9005727891291" lon="116.66976322148656">
        <ele>24.4</ele>
        <time>2023-03-20T11:28:37Z</time>
      </trkpt>
      <trkpt lat="39.90059844733371" lon="116.66994071214167">
        <ele>24.4</ele>
        <time>2023-03-20T11:28:43Z</time>
      </trkpt>
      <trkpt lat="39.90050256453737" lon="116.66988189173983">
        <ele>0.0</ele>
        <time>2023-03-20T11:29:31Z</time>
      </trkpt>
      <trkpt lat="39.900547547208745" lon="116.6698898634416">
        <ele>0.0</ele>
        <time>2023-03-20T11:29:34Z</time>
      </trkpt>
      <trkpt lat="39.90044144786941" lon="116.66942320760636">
        <ele>53.5</ele>
        <time>2023-03-20T11:29:40Z</time>
      </trkpt>
      <trkpt lat="39.90046655206975" lon="116.6693683609727">
        <ele>54.4</ele>
        <time>2023-03-20T11:29:52Z</time>
      </trkpt>
      <trkpt lat="39.90044262400586" lon="116.66933146918443">
        <ele>54.3</ele>
        <time>2023-03-20T11:29:55Z</time>
      </trkpt>
    </trkseg>
  </trk>
</gpx>