<?xml version="1.0" encoding="UTF-8"?>
<gpx xmlns="http://www.topografix.com/GPX/1/1" xmlns:gpxtpx="http://www.garmin.com/xmlschemas/TrackPointExtension/v1" xmlns:xsi="http://www.w3.org/2001/XMLSchema-instance" xsi:schemaLocation="http://www.topografix.com/GPX/1/1 http://www.topografix.com/GPX/1/1/gpx.xsd" version="1.1" creator="gpx.py -- https://github.com/tkrajina/gpxpy">
  <trk>
    <name>gpx from keep</name>
    <type>Run</type>
    <trkseg>
      <trkpt lat="39.95345315773889" lon="116.40342812049502">
        <ele>35.8</ele>
        <time>2023-10-24T12:13:06Z</time>
      </trkpt>
      <trkpt lat="39.953375178266995" lon="116.40348315691975">
        <ele>33.699999999999996</ele>
        <time>2023-10-24T12:13:09Z</time>
      </trkpt>
      <trkpt lat="39.95334321387029" lon="116.40359021297557">
        <ele>31.299999999999997</ele>
        <time>2023-10-24T12:13:12Z</time>
      </trkpt>
      <trkpt lat="39.95332729941806" lon="116.40384834299243">
        <ele>29.0</ele>
        <time>2023-10-24T12:13:18Z</time>
      </trkpt>
      <trkpt lat="39.95335533848757" lon="116.40396739971283">
        <ele>28.9</ele>
        <time>2023-10-24T12:13:21Z</time>
      </trkpt>
      <trkpt lat="39.95341337252059" lon="116.40407344668964">
        <ele>29.299999999999997</ele>
        <time>2023-10-24T12:13:24Z</time>
      </trkpt>
      <trkpt lat="39.95348840079691" lon="116.40416348378557">
        <ele>29.799999999999997</ele>
        <time>2023-10-24T12:13:27Z</time>
      </trkpt>
      <trkpt lat="39.95357541733573" lon="116.40422050247119">
        <ele>30.299999999999997</ele>
        <time>2023-10-24T12:13:30Z</time>
      </trkpt>
      <trkpt lat="39.9539034096811" lon="116.40423546844234">
        <ele>33.5</ele>
        <time>2023-10-24T12:13:42Z</time>
      </trkpt>
      <trkpt lat="39.954213387961474" lon="116.40420841467805">
        <ele>33.4</ele>
        <time>2023-10-24T12:13:54Z</time>
      </trkpt>
      <trkpt lat="39.95452537039751" lon="116.40419336696961">
        <ele>31.299999999999997</ele>
        <time>2023-10-24T12:14:06Z</time>
      </trkpt>
      <trkpt lat="39.95459335199319" lon="116.40414833480959">
        <ele>31.699999999999996</ele>
        <time>2023-10-24T12:14:09Z</time>
      </trkpt>
      <trkpt lat="39.954712296914565" lon="116.40400224424111">
        <ele>32.0</ele>
        <time>2023-10-24T12:14:15Z</time>
      </trkpt>
      <trkpt lat="39.95476722694386" lon="116.40380113543432">
        <ele>33.3</ele>
        <time>2023-10-24T12:14:21Z</time>
      </trkpt>
      <trkpt lat="39.95476718962249" lon="116.40368807921998">
        <ele>34.6</ele>
        <time>2023-10-24T12:14:24Z</time>
      </trkpt>
      <trkpt lat="39.95474315446579" lon="116.4035770277711">
        <ele>36.699999999999996</ele>
        <time>2023-10-24T12:14:27Z</time>
      </trkpt>
      <trkpt lat="39.954653102532795" lon="116.40340295521786">
        <ele>38.4</ele>
        <time>2023-10-24T12:14:33Z</time>
      </trkpt>
      <trkpt lat="39.954501074152084" lon="116.40329292238579">
        <ele>36.1</ele>
        <time>2023-10-24T12:14:39Z</time>
      </trkpt>
      <trkpt lat="39.95415309004541" lon="116.40329997015007">
        <ele>36.1</ele>
        <time>2023-10-24T12:14:51Z</time>
      </trkpt>
      <trkpt lat="39.95382011344179" lon="116.4033330283091">
        <ele>33.6</ele>
        <time>2023-10-24T12:15:03Z</time>
      </trkpt>
      <trkpt lat="39.95355813534113" lon="116.40337007936316">
        <ele>34.6</ele>
        <time>2023-10-24T12:15:12Z</time>
      </trkpt>
      <trkpt lat="39.95340217242912" lon="116.40346814623709">
        <ele>35.1</ele>
        <time>2023-10-24T12:15:18Z</time>
      </trkpt>
      <trkpt lat="39.95335519985605" lon="116.40354819096669">
        <ele>35.3</ele>
        <time>2023-10-24T12:15:21Z</time>
      </trkpt>
      <trkpt lat="39.95332323316265" lon="116.40364724347911">
        <ele>35.4</ele>
        <time>2023-10-24T12:15:24Z</time>
      </trkpt>
      <trkpt lat="39.95332030237493" lon="116.40385634791512">
        <ele>35.699999999999996</ele>
        <time>2023-10-24T12:15:30Z</time>
      </trkpt>
      <trkpt lat="39.9533423342409" lon="116.40395339423809">
        <ele>36.0</ele>
        <time>2023-10-24T12:15:33Z</time>
      </trkpt>
      <trkpt lat="39.95344338517439" lon="116.40411346354584">
        <ele>35.4</ele>
        <time>2023-10-24T12:15:39Z</time>
      </trkpt>
      <trkpt lat="39.953510408319815" lon="116.4041874934999">
        <ele>35.4</ele>
        <time>2023-10-24T12:15:42Z</time>
      </trkpt>
      <trkpt lat="39.9535884210458" lon="116.40423250710758">
        <ele>35.199999999999996</ele>
        <time>2023-10-24T12:15:45Z</time>
      </trkpt>
      <trkpt lat="39.953932409242235" lon="116.40423746578824">
        <ele>34.8</ele>
        <time>2023-10-24T12:15:57Z</time>
      </trkpt>
      <trkpt lat="39.9542553834981" lon="116.40420040512439">
        <ele>33.8</ele>
        <time>2023-10-24T12:16:09Z</time>
      </trkpt>
      <trkpt lat="39.954420376290464" lon="116.40419838299881">
        <ele>33.9</ele>
        <time>2023-10-24T12:16:15Z</time>
      </trkpt>
      <trkpt lat="39.95457535967971" lon="116.40416834752732">
        <ele>34.3</ele>
        <time>2023-10-24T12:16:21Z</time>
      </trkpt>
      <trkpt lat="39.95464233928255" lon="116.40411731244629">
        <ele>33.6</ele>
        <time>2023-10-24T12:16:24Z</time>
      </trkpt>
      <trkpt lat="39.95475227592567" lon="116.40394521003525">
        <ele>34.6</ele>
        <time>2023-10-24T12:16:30Z</time>
      </trkpt>
      <trkpt lat="39.95481220330152" lon="116.4037350967642">
        <ele>33.4</ele>
        <time>2023-10-24T12:16:36Z</time>
      </trkpt>
      <trkpt lat="39.95478816498875" lon="116.40361504060623">
        <ele>32.1</ele>
        <time>2023-10-24T12:16:39Z</time>
      </trkpt>
      <trkpt lat="39.95469510056175" lon="116.40340194937389">
        <ele>36.1</ele>
        <time>2023-10-24T12:16:45Z</time>
      </trkpt>
      <trkpt lat="39.9546320820473" lon="116.40333492551905">
        <ele>36.4</ele>
        <time>2023-10-24T12:16:48Z</time>
      </trkpt>
      <trkpt lat="39.95455007315025" lon="116.40329591754156">
        <ele>35.699999999999996</ele>
        <time>2023-10-24T12:16:51Z</time>
      </trkpt>
      <trkpt lat="39.95425008932623" lon="116.40330996248342">
        <ele>34.199999999999996</ele>
        <time>2023-10-24T12:17:00Z</time>
      </trkpt>
      <trkpt lat="39.953902115515824" lon="116.40335002590211">
        <ele>35.4</ele>
        <time>2023-10-24T12:17:12Z</time>
      </trkpt>
      <trkpt lat="39.95363513544187" lon="116.40338007429153">
        <ele>33.3</ele>
        <time>2023-10-24T12:17:21Z</time>
      </trkpt>
      <trkpt lat="39.95363513544187" lon="116.40338007429153">
        <ele>33.3</ele>
        <time>2023-10-24T12:17:24Z</time>
      </trkpt>
    </trkseg>
  </trk>
</gpx>