<?xml version="1.0" encoding="UTF-8"?>
<gpx xmlns="http://www.topografix.com/GPX/1/1" xmlns:gpxtpx="http://www.garmin.com/xmlschemas/TrackPointExtension/v1" xmlns:xsi="http://www.w3.org/2001/XMLSchema-instance" xsi:schemaLocation="http://www.topografix.com/GPX/1/1 http://www.topografix.com/GPX/1/1/gpx.xsd" version="1.1" creator="gpx.py -- https://github.com/tkrajina/gpxpy">
  <trk>
    <name>gpx from keep</name>
    <type>Walk</type>
    <trkseg>
      <trkpt lat="39.923652888873114" lon="116.46005727060215">
        <ele>12.499999999999998</ele>
        <time>2023-03-19T09:33:03Z</time>
      </trkpt>
      <trkpt lat="39.923700003530094" lon="116.46010341494825">
        <ele>12.1</ele>
        <time>2023-03-19T09:33:06Z</time>
      </trkpt>
      <trkpt lat="39.92377134564122" lon="116.4602398506774">
        <ele>12.499999999999998</ele>
        <time>2023-03-19T09:33:15Z</time>
      </trkpt>
      <trkpt lat="39.923902637468316" lon="116.46035721720342">
        <ele>14.700000000000001</ele>
        <time>2023-03-19T09:33:27Z</time>
      </trkpt>
      <trkpt lat="39.923989649139315" lon="116.46036322589583">
        <ele>16.4</ele>
        <time>2023-03-19T09:33:33Z</time>
      </trkpt>
      <trkpt lat="39.92407558714067" lon="116.4603401397228">
        <ele>21.0</ele>
        <time>2023-03-19T09:33:39Z</time>
      </trkpt>
      <trkpt lat="39.92414462496827" lon="116.46035618343487">
        <ele>25.200000000000003</ele>
        <time>2023-03-19T09:33:45Z</time>
      </trkpt>
      <trkpt lat="39.92439729449902" lon="116.46022973907799">
        <ele>33.6</ele>
        <time>2023-03-19T09:34:09Z</time>
      </trkpt>
      <trkpt lat="39.92466140807015" lon="116.46027886615816">
        <ele>31.0</ele>
        <time>2023-03-19T09:34:33Z</time>
      </trkpt>
      <trkpt lat="39.924707342692926" lon="116.46025377854197">
        <ele>29.6</ele>
        <time>2023-03-19T09:34:36Z</time>
      </trkpt>
      <trkpt lat="39.92499933070308" lon="116.46025374174616">
        <ele>28.800000000000004</ele>
        <time>2023-03-19T09:35:00Z</time>
      </trkpt>
      <trkpt lat="39.925077446872066" lon="116.46030088575567">
        <ele>27.800000000000004</ele>
        <time>2023-03-19T09:35:06Z</time>
      </trkpt>
      <trkpt lat="39.92512246280898" lon="116.46030790300338">
        <ele>26.0</ele>
        <time>2023-03-19T09:35:09Z</time>
      </trkpt>
      <trkpt lat="39.925189315288854" lon="116.46025070798636">
        <ele>24.4</ele>
        <time>2023-03-19T09:35:15Z</time>
      </trkpt>
      <trkpt lat="39.92520788831223" lon="116.46008215630243">
        <ele>24.200000000000003</ele>
        <time>2023-03-19T09:35:27Z</time>
      </trkpt>
      <trkpt lat="39.92523270992401" lon="116.46001192455219">
        <ele>23.799999999999997</ele>
        <time>2023-03-19T09:35:33Z</time>
      </trkpt>
      <trkpt lat="39.92528554823432" lon="116.45994871226965">
        <ele>24.4</ele>
        <time>2023-03-19T09:35:39Z</time>
      </trkpt>
      <trkpt lat="39.92560229995403" lon="116.45985536904445">
        <ele>28.1</ele>
        <time>2023-03-19T09:36:09Z</time>
      </trkpt>
      <trkpt lat="39.925726999156026" lon="116.45973797215426">
        <ele>30.700000000000003</ele>
        <time>2023-03-19T09:36:21Z</time>
      </trkpt>
      <trkpt lat="39.92590722016034" lon="116.4594309546527">
        <ele>28.4</ele>
        <time>2023-03-19T09:36:45Z</time>
      </trkpt>
      <trkpt lat="39.925974827498564" lon="116.45927544341764">
        <ele>24.700000000000003</ele>
        <time>2023-03-19T09:36:57Z</time>
      </trkpt>
      <trkpt lat="39.9259959486118" lon="116.45892430854363">
        <ele>17.200000000000003</ele>
        <time>2023-03-19T09:37:24Z</time>
      </trkpt>
      <trkpt lat="39.9259970788577" lon="116.45857518673813">
        <ele>12.799999999999999</ele>
        <time>2023-03-19T09:37:42Z</time>
      </trkpt>
      <trkpt lat="39.92604548647103" lon="116.45833741908868">
        <ele>10.9</ele>
        <time>2023-03-19T09:37:54Z</time>
      </trkpt>
      <trkpt lat="39.92601953916925" lon="116.4579541989268">
        <ele>17.1</ele>
        <time>2023-03-19T09:38:18Z</time>
      </trkpt>
      <trkpt lat="39.92602260460112" lon="116.45757499285949">
        <ele>22.0</ele>
        <time>2023-03-19T09:38:45Z</time>
      </trkpt>
      <trkpt lat="39.925978690699026" lon="116.45720181670198">
        <ele>28.9</ele>
        <time>2023-03-19T09:39:06Z</time>
      </trkpt>
      <trkpt lat="39.925946458796474" lon="116.45710651976684">
        <ele>33.1</ele>
        <time>2023-03-19T09:39:12Z</time>
      </trkpt>
      <trkpt lat="39.925849114653786" lon="116.4569640827222">
        <ele>39.7</ele>
        <time>2023-03-19T09:39:21Z</time>
      </trkpt>
      <trkpt lat="39.92571595604907" lon="116.45689688776419">
        <ele>41.2</ele>
        <time>2023-03-19T09:39:33Z</time>
      </trkpt>
      <trkpt lat="39.92567178169905" lon="116.45682466595278">
        <ele>37.9</ele>
        <time>2023-03-19T09:39:39Z</time>
      </trkpt>
      <trkpt lat="39.92562569311843" lon="116.45678755498884">
        <ele>35.9</ele>
        <time>2023-03-19T09:39:45Z</time>
      </trkpt>
      <trkpt lat="39.92556566135718" lon="116.45677351838954">
        <ele>34.4</ele>
        <time>2023-03-19T09:39:51Z</time>
      </trkpt>
      <trkpt lat="39.92554153772966" lon="116.45672236057227">
        <ele>33.4</ele>
        <time>2023-03-19T09:39:57Z</time>
      </trkpt>
      <trkpt lat="39.92548648625307" lon="116.45670029815622">
        <ele>35.1</ele>
        <time>2023-03-19T09:40:03Z</time>
      </trkpt>
      <trkpt lat="39.925429359203946" lon="116.45664713833455">
        <ele>36.300000000000004</ele>
        <time>2023-03-19T09:40:09Z</time>
      </trkpt>
      <trkpt lat="39.925164096917165" lon="116.4565348191668">
        <ele>39.7</ele>
        <time>2023-03-19T09:40:27Z</time>
      </trkpt>
      <trkpt lat="39.924908815115636" lon="116.45641447404907">
        <ele>36.9</ele>
        <time>2023-03-19T09:40:51Z</time>
      </trkpt>
      <trkpt lat="39.92480568309533" lon="116.45635831115175">
        <ele>38.300000000000004</ele>
        <time>2023-03-19T09:41:03Z</time>
      </trkpt>
      <trkpt lat="39.924711337016255" lon="116.45621387122884">
        <ele>35.4</ele>
        <time>2023-03-19T09:41:15Z</time>
      </trkpt>
      <trkpt lat="39.924635799360644" lon="116.45599018252406">
        <ele>24.0</ele>
        <time>2023-03-19T09:41:30Z</time>
      </trkpt>
      <trkpt lat="39.92457663234415" lon="116.45591997118328">
        <ele>22.5</ele>
        <time>2023-03-19T09:41:36Z</time>
      </trkpt>
      <trkpt lat="39.92442552244373" lon="116.45587184031787">
        <ele>20.700000000000003</ele>
        <time>2023-03-19T09:41:48Z</time>
      </trkpt>
      <trkpt lat="39.924371541591086" lon="116.45587886899166">
        <ele>21.4</ele>
        <time>2023-03-19T09:41:51Z</time>
      </trkpt>
      <trkpt lat="39.924328630438666" lon="116.45591498686177">
        <ele>22.700000000000003</ele>
        <time>2023-03-19T09:41:54Z</time>
      </trkpt>
      <trkpt lat="39.923988666198056" lon="116.45592405788963">
        <ele>35.4</ele>
        <time>2023-03-19T09:42:24Z</time>
      </trkpt>
      <trkpt lat="39.92377170416752" lon="116.45593612277086">
        <ele>40.6</ele>
        <time>2023-03-19T09:42:39Z</time>
      </trkpt>
      <trkpt lat="39.92369376062664" lon="116.455958201369">
        <ele>41.800000000000004</ele>
        <time>2023-03-19T09:42:45Z</time>
      </trkpt>
      <trkpt lat="39.92355869599969" lon="116.45592912777917">
        <ele>43.800000000000004</ele>
        <time>2023-03-19T09:42:57Z</time>
      </trkpt>
      <trkpt lat="39.92337368184506" lon="116.455920123007">
        <ele>40.9</ele>
        <time>2023-03-19T09:43:12Z</time>
      </trkpt>
      <trkpt lat="39.92331174489854" lon="116.45594520894792">
        <ele>42.0</ele>
        <time>2023-03-19T09:43:18Z</time>
      </trkpt>
      <trkpt lat="39.923185711372305" lon="116.45592917485196">
        <ele>40.0</ele>
        <time>2023-03-19T09:43:30Z</time>
      </trkpt>
      <trkpt lat="39.923125614658346" lon="116.45588805434879">
        <ele>37.300000000000004</ele>
        <time>2023-03-19T09:43:36Z</time>
      </trkpt>
      <trkpt lat="39.92305860774744" lon="116.45588405031236">
        <ele>37.6</ele>
        <time>2023-03-19T09:43:45Z</time>
      </trkpt>
      <trkpt lat="39.92292572209689" lon="116.45592920766363">
        <ele>38.300000000000004</ele>
        <time>2023-03-19T09:43:57Z</time>
      </trkpt>
      <trkpt lat="39.922868830949334" lon="116.4559733523704">
        <ele>36.7</ele>
        <time>2023-03-19T09:44:03Z</time>
      </trkpt>
      <trkpt lat="39.92279586059616" lon="116.45598439597194">
        <ele>36.7</ele>
        <time>2023-03-19T09:44:09Z</time>
      </trkpt>
      <trkpt lat="39.92251177791021" lon="116.45594530990572">
        <ele>36.6</ele>
        <time>2023-03-19T09:44:30Z</time>
      </trkpt>
      <trkpt lat="39.92238563553271" lon="116.45588413524423">
        <ele>35.1</ele>
        <time>2023-03-19T09:44:42Z</time>
      </trkpt>
      <trkpt lat="39.922330616040256" lon="116.45587511408074">
        <ele>34.7</ele>
        <time>2023-03-19T09:44:48Z</time>
      </trkpt>
      <trkpt lat="39.922213720049356" lon="116.4559162569">
        <ele>32.1</ele>
        <time>2023-03-19T09:45:00Z</time>
      </trkpt>
      <trkpt lat="39.92210863247318" lon="116.45587815146412">
        <ele>31.6</ele>
        <time>2023-03-19T09:45:09Z</time>
      </trkpt>
      <trkpt lat="39.92183168263011" lon="116.45589423638675">
        <ele>31.9</ele>
        <time>2023-03-19T09:45:24Z</time>
      </trkpt>
      <trkpt lat="39.92178071618791" lon="116.45590728342727">
        <ele>31.200000000000003</ele>
        <time>2023-03-19T09:45:27Z</time>
      </trkpt>
      <trkpt lat="39.92173165049061" lon="116.45587920216217">
        <ele>30.1</ele>
        <time>2023-03-19T09:45:33Z</time>
      </trkpt>
      <trkpt lat="39.92160866767571" lon="116.45588423329765">
        <ele>30.6</ele>
        <time>2023-03-19T09:45:45Z</time>
      </trkpt>
      <trkpt lat="39.92154877902326" lon="116.45592938143307">
        <ele>30.800000000000004</ele>
        <time>2023-03-19T09:45:51Z</time>
      </trkpt>
      <trkpt lat="39.92148179389814" lon="116.45593440551052">
        <ele>28.700000000000003</ele>
        <time>2023-03-19T09:45:57Z</time>
      </trkpt>
      <trkpt lat="39.92140073676404" lon="116.45590933762745">
        <ele>28.9</ele>
        <time>2023-03-19T09:46:03Z</time>
      </trkpt>
      <trkpt lat="39.921355750725404" lon="116.45591435892509">
        <ele>28.700000000000003</ele>
        <time>2023-03-19T09:46:06Z</time>
      </trkpt>
      <trkpt lat="39.92113697040084" lon="116.45600165847596">
        <ele>26.0</ele>
        <time>2023-03-19T09:46:24Z</time>
      </trkpt>
      <trkpt lat="39.920830019469186" lon="116.45601674412379">
        <ele>23.0</ele>
        <time>2023-03-19T09:46:51Z</time>
      </trkpt>
      <trkpt lat="39.920677260925444" lon="116.4561140669717">
        <ele>22.9</ele>
        <time>2023-03-19T09:47:12Z</time>
      </trkpt>
      <trkpt lat="39.92053719642222" lon="116.45608499385149">
        <ele>26.300000000000004</ele>
        <time>2023-03-19T09:47:24Z</time>
      </trkpt>
      <trkpt lat="39.92036121585706" lon="116.4560900317091">
        <ele>29.800000000000004</ele>
        <time>2023-03-19T09:47:36Z</time>
      </trkpt>
      <trkpt lat="39.92031929520062" lon="116.45612213719222">
        <ele>30.5</ele>
        <time>2023-03-19T09:47:39Z</time>
      </trkpt>
      <trkpt lat="39.920250725387014" lon="116.45629869756523">
        <ele>28.6</ele>
        <time>2023-03-19T09:47:51Z</time>
      </trkpt>
      <trkpt lat="39.91996185410371" lon="116.45634688467386">
        <ele>26.9</ele>
        <time>2023-03-19T09:48:15Z</time>
      </trkpt>
      <trkpt lat="39.91971598110639" lon="116.4563950664383">
        <ele>26.200000000000003</ele>
        <time>2023-03-19T09:48:33Z</time>
      </trkpt>
      <trkpt lat="39.91965995910733" lon="116.45638504209471">
        <ele>25.299999999999997</ele>
        <time>2023-03-19T09:48:39Z</time>
      </trkpt>
      <trkpt lat="39.91954105410362" lon="116.45642217333688">
        <ele>22.1</ele>
        <time>2023-03-19T09:48:51Z</time>
      </trkpt>
      <trkpt lat="39.91949713627554" lon="116.45645528259286">
        <ele>20.799999999999997</ele>
        <time>2023-03-19T09:48:57Z</time>
      </trkpt>
      <trkpt lat="39.91950139925429" lon="116.45656362175801">
        <ele>19.6</ele>
        <time>2023-03-19T09:49:03Z</time>
      </trkpt>
      <trkpt lat="39.91947161028539" lon="116.45664989631702">
        <ele>20.6</ele>
        <time>2023-03-19T09:49:09Z</time>
      </trkpt>
      <trkpt lat="39.91942675864499" lon="116.45671009106148">
        <ele>22.700000000000003</ele>
        <time>2023-03-19T09:49:15Z</time>
      </trkpt>
      <trkpt lat="39.919385794548305" lon="116.45672414036757">
        <ele>24.1</ele>
        <time>2023-03-19T09:49:21Z</time>
      </trkpt>
    </trkseg>
  </trk>
</gpx>