<?xml version="1.0" encoding="UTF-8"?>
<gpx xmlns="http://www.topografix.com/GPX/1/1" xmlns:gpxtpx="http://www.garmin.com/xmlschemas/TrackPointExtension/v1" xmlns:xsi="http://www.w3.org/2001/XMLSchema-instance" xsi:schemaLocation="http://www.topografix.com/GPX/1/1 http://www.topografix.com/GPX/1/1/gpx.xsd" version="1.1" creator="gpx.py -- https://github.com/tkrajina/gpxpy">
  <trk>
    <name>gpx from keep</name>
    <type>Run</type>
    <trkseg>
      <trkpt lat="39.92309762545138" lon="116.48885876083473">
        <ele>29.2</ele>
        <time>2023-06-27T12:33:34Z</time>
      </trkpt>
      <trkpt lat="39.92320762986248" lon="116.48886175854335">
        <ele>28.599999999999998</ele>
        <time>2023-06-27T12:33:40Z</time>
      </trkpt>
      <trkpt lat="39.923272689853455" lon="116.48888283030647">
        <ele>27.900000000000002</ele>
        <time>2023-06-27T12:33:43Z</time>
      </trkpt>
      <trkpt lat="39.92356960597053" lon="116.48885870205072">
        <ele>32.900000000000006</ele>
        <time>2023-06-27T12:33:58Z</time>
      </trkpt>
      <trkpt lat="39.923689541333786" lon="116.48883861105125">
        <ele>35.2</ele>
        <time>2023-06-27T12:34:04Z</time>
      </trkpt>
      <trkpt lat="39.92398860958878" lon="116.48886567648589">
        <ele>39.1</ele>
        <time>2023-06-27T12:34:16Z</time>
      </trkpt>
      <trkpt lat="39.92430370704384" lon="116.48890277796029">
        <ele>36.7</ele>
        <time>2023-06-27T12:34:31Z</time>
      </trkpt>
      <trkpt lat="39.92457767487571" lon="116.488895717214">
        <ele>31.8</ele>
        <time>2023-06-27T12:34:43Z</time>
      </trkpt>
      <trkpt lat="39.92488354888092" lon="116.4888575345928">
        <ele>25.099999999999998</ele>
        <time>2023-06-27T12:34:55Z</time>
      </trkpt>
      <trkpt lat="39.92517565626308" lon="116.48889765033978">
        <ele>23.2</ele>
        <time>2023-06-27T12:35:07Z</time>
      </trkpt>
      <trkpt lat="39.92551433196913" lon="116.48879321262606">
        <ele>32.400000000000006</ele>
        <time>2023-06-27T12:35:19Z</time>
      </trkpt>
      <trkpt lat="39.92570918968564" lon="116.48874801722394">
        <ele>31.499999999999996</ele>
        <time>2023-06-27T12:35:31Z</time>
      </trkpt>
      <trkpt lat="39.92585418672276" lon="116.48874900296494">
        <ele>29.900000000000002</ele>
        <time>2023-06-27T12:35:37Z</time>
      </trkpt>
      <trkpt lat="39.92608204906975" lon="116.48870581106291">
        <ele>28.499999999999996</ele>
        <time>2023-06-27T12:35:46Z</time>
      </trkpt>
      <trkpt lat="39.926215676607974" lon="116.48858232672043">
        <ele>28.400000000000002</ele>
        <time>2023-06-27T12:35:52Z</time>
      </trkpt>
      <trkpt lat="39.92625948388792" lon="116.48851807793332">
        <ele>29.2</ele>
        <time>2023-06-27T12:35:55Z</time>
      </trkpt>
      <trkpt lat="39.926313962672616" lon="116.48834340968136">
        <ele>29.999999999999996</ele>
        <time>2023-06-27T12:36:01Z</time>
      </trkpt>
      <trkpt lat="39.92633261599798" lon="116.48822696645435">
        <ele>28.7</ele>
        <time>2023-06-27T12:36:04Z</time>
      </trkpt>
      <trkpt lat="39.92637445626035" lon="116.48817375981413">
        <ele>26.7</ele>
        <time>2023-06-27T12:36:07Z</time>
      </trkpt>
      <trkpt lat="39.92655429386771" lon="116.48812153979162">
        <ele>24.8</ele>
        <time>2023-06-27T12:36:16Z</time>
      </trkpt>
      <trkpt lat="39.9268303004603" lon="116.48812752820078">
        <ele>29.3</ele>
        <time>2023-06-27T12:36:31Z</time>
      </trkpt>
      <trkpt lat="39.92689027117627" lon="116.48811848652642">
        <ele>31.2</ele>
        <time>2023-06-27T12:36:34Z</time>
      </trkpt>
      <trkpt lat="39.927119659696366" lon="116.48791569040387">
        <ele>29.3</ele>
        <time>2023-06-27T12:36:46Z</time>
      </trkpt>
      <trkpt lat="39.92715248253225" lon="116.48785646216825">
        <ele>26.499999999999996</ele>
        <time>2023-06-27T12:36:49Z</time>
      </trkpt>
      <trkpt lat="39.927210325220585" lon="116.48780425742206">
        <ele>25.4</ele>
        <time>2023-06-27T12:36:52Z</time>
      </trkpt>
      <trkpt lat="39.92730023811869" lon="116.48777613985557">
        <ele>25.099999999999998</ele>
        <time>2023-06-27T12:36:55Z</time>
      </trkpt>
      <trkpt lat="39.92754851900781" lon="116.48753720500197">
        <ele>24.7</ele>
        <time>2023-06-27T12:37:07Z</time>
      </trkpt>
      <trkpt lat="39.92766715681466" lon="116.48741673457283">
        <ele>24.4</ele>
        <time>2023-06-27T12:37:13Z</time>
      </trkpt>
      <trkpt lat="39.9277046700102" lon="116.48725311110786">
        <ele>24.7</ele>
        <time>2023-06-27T12:37:19Z</time>
      </trkpt>
      <trkpt lat="39.92770544376685" lon="116.48717682254662">
        <ele>24.8</ele>
        <time>2023-06-27T12:37:22Z</time>
      </trkpt>
      <trkpt lat="39.927632979523025" lon="116.48701923577718">
        <ele>24.3</ele>
        <time>2023-06-27T12:37:28Z</time>
      </trkpt>
      <trkpt lat="39.92761574221655" lon="116.48693893438733">
        <ele>24.099999999999998</ele>
        <time>2023-06-27T12:37:31Z</time>
      </trkpt>
      <trkpt lat="39.92761219210669" lon="116.48675323304215">
        <ele>24.2</ele>
        <time>2023-06-27T12:37:37Z</time>
      </trkpt>
      <trkpt lat="39.9276379323579" lon="116.48666589987455">
        <ele>23.0</ele>
        <time>2023-06-27T12:37:40Z</time>
      </trkpt>
      <trkpt lat="39.92769273687044" lon="116.48660064655093">
        <ele>22.099999999999998</ele>
        <time>2023-06-27T12:37:43Z</time>
      </trkpt>
      <trkpt lat="39.92774531560944" lon="116.4864591053919">
        <ele>20.9</ele>
        <time>2023-06-27T12:37:49Z</time>
      </trkpt>
      <trkpt lat="39.92774492634612" lon="116.4863276088671">
        <ele>21.2</ele>
        <time>2023-06-27T12:37:55Z</time>
      </trkpt>
      <trkpt lat="39.927797356826844" lon="116.48613587851898">
        <ele>21.099999999999998</ele>
        <time>2023-06-27T12:38:01Z</time>
      </trkpt>
      <trkpt lat="39.92793677805833" lon="116.48594212999109">
        <ele>19.0</ele>
        <time>2023-06-27T12:38:10Z</time>
      </trkpt>
      <trkpt lat="39.92792998593648" lon="116.48567411979565">
        <ele>21.8</ele>
        <time>2023-06-27T12:38:19Z</time>
      </trkpt>
      <trkpt lat="39.92783476213422" lon="116.48525856502313">
        <ele>25.5</ele>
        <time>2023-06-27T12:38:31Z</time>
      </trkpt>
      <trkpt lat="39.92781249631603" lon="116.48516822739703">
        <ele>25.7</ele>
        <time>2023-06-27T12:38:34Z</time>
      </trkpt>
      <trkpt lat="39.92779460542606" lon="116.48486609163027">
        <ele>25.8</ele>
        <time>2023-06-27T12:38:43Z</time>
      </trkpt>
      <trkpt lat="39.92783514489709" lon="116.4847105008435">
        <ele>23.2</ele>
        <time>2023-06-27T12:38:49Z</time>
      </trkpt>
      <trkpt lat="39.92803074627897" lon="116.4845779777752">
        <ele>22.0</ele>
        <time>2023-06-27T12:39:01Z</time>
      </trkpt>
      <trkpt lat="39.92815531520278" lon="116.4844334184045">
        <ele>20.2</ele>
        <time>2023-06-27T12:39:07Z</time>
      </trkpt>
      <trkpt lat="39.92817682936296" lon="116.48426879658085">
        <ele>18.599999999999998</ele>
        <time>2023-06-27T12:39:13Z</time>
      </trkpt>
      <trkpt lat="39.92822673863875" lon="116.48423867711936">
        <ele>17.599999999999998</ele>
        <time>2023-06-27T12:39:16Z</time>
      </trkpt>
      <trkpt lat="39.9283651360122" lon="116.48403589762277">
        <ele>15.7</ele>
        <time>2023-06-27T12:39:28Z</time>
      </trkpt>
      <trkpt lat="39.92844951525416" lon="116.48382609884017">
        <ele>16.0</ele>
        <time>2023-06-27T12:39:37Z</time>
      </trkpt>
      <trkpt lat="39.92856205597036" lon="116.4833312270379">
        <ele>25.0</ele>
        <time>2023-06-27T12:39:46Z</time>
      </trkpt>
      <trkpt lat="39.92867554137766" lon="116.48315756151179">
        <ele>29.499999999999996</ele>
        <time>2023-06-27T12:39:52Z</time>
      </trkpt>
      <trkpt lat="39.928990339970184" lon="116.48309328130884">
        <ele>24.599999999999998</ele>
        <time>2023-06-27T12:40:07Z</time>
      </trkpt>
      <trkpt lat="39.92907426289646" lon="116.48306817674133">
        <ele>23.9</ele>
        <time>2023-06-27T12:40:10Z</time>
      </trkpt>
      <trkpt lat="39.92938732087539" lon="116.4830922279666">
        <ele>26.099999999999998</ele>
        <time>2023-06-27T12:40:22Z</time>
      </trkpt>
      <trkpt lat="39.92969225250003" lon="116.48307311837655">
        <ele>27.400000000000002</ele>
        <time>2023-06-27T12:40:37Z</time>
      </trkpt>
      <trkpt lat="39.9298603871013" lon="116.48312127803369">
        <ele>25.2</ele>
        <time>2023-06-27T12:40:46Z</time>
      </trkpt>
      <trkpt lat="39.9300003107002" lon="116.48309717022728">
        <ele>27.099999999999998</ele>
        <time>2023-06-27T12:40:52Z</time>
      </trkpt>
      <trkpt lat="39.930136969309906" lon="116.48298272416481">
        <ele>31.7</ele>
        <time>2023-06-27T12:40:58Z</time>
      </trkpt>
      <trkpt lat="39.93017379404846" lon="116.48292349759326">
        <ele>33.5</ele>
        <time>2023-06-27T12:41:01Z</time>
      </trkpt>
      <trkpt lat="39.930198792291236" lon="116.48258221600636">
        <ele>35.300000000000004</ele>
        <time>2023-06-27T12:41:13Z</time>
      </trkpt>
      <trkpt lat="39.93017536972406" lon="116.48243767783015">
        <ele>35.400000000000006</ele>
        <time>2023-06-27T12:41:19Z</time>
      </trkpt>
      <trkpt lat="39.93017983160768" lon="116.48225398994235">
        <ele>35.0</ele>
        <time>2023-06-27T12:41:25Z</time>
      </trkpt>
      <trkpt lat="39.930165391504666" lon="116.48210342863268">
        <ele>34.6</ele>
        <time>2023-06-27T12:41:31Z</time>
      </trkpt>
      <trkpt lat="39.93017433439243" lon="116.48174207706283">
        <ele>33.6</ele>
        <time>2023-06-27T12:41:46Z</time>
      </trkpt>
      <trkpt lat="39.93016210367025" lon="116.48132050493882">
        <ele>27.8</ele>
        <time>2023-06-27T12:42:01Z</time>
      </trkpt>
      <trkpt lat="39.9302148779996" lon="116.48090093426133">
        <ele>25.7</ele>
        <time>2023-06-27T12:42:13Z</time>
      </trkpt>
      <trkpt lat="39.930189850132564" lon="116.4805476219346">
        <ele>26.999999999999996</ele>
        <time>2023-06-27T12:42:25Z</time>
      </trkpt>
      <trkpt lat="39.93018935665647" lon="116.48037799098358">
        <ele>27.499999999999996</ele>
        <time>2023-06-27T12:42:31Z</time>
      </trkpt>
      <trkpt lat="39.93015133427202" lon="116.48002568635285">
        <ele>25.599999999999998</ele>
        <time>2023-06-27T12:42:43Z</time>
      </trkpt>
      <trkpt lat="39.93015024485018" lon="116.47965029309803">
        <ele>22.0</ele>
        <time>2023-06-27T12:42:55Z</time>
      </trkpt>
      <trkpt lat="39.930125102833046" lon="116.47925583411818">
        <ele>22.3</ele>
        <time>2023-06-27T12:43:07Z</time>
      </trkpt>
      <trkpt lat="39.9301099000502" lon="116.47918557581626">
        <ele>22.4</ele>
        <time>2023-06-27T12:43:10Z</time>
      </trkpt>
      <trkpt lat="39.930162096537536" lon="116.47890854401602">
        <ele>24.0</ele>
        <time>2023-06-27T12:43:19Z</time>
      </trkpt>
      <trkpt lat="39.93019892675319" lon="116.47885032409108">
        <ele>24.7</ele>
        <time>2023-06-27T12:43:22Z</time>
      </trkpt>
      <trkpt lat="39.930264813843465" lon="116.47881217480385">
        <ele>24.7</ele>
        <time>2023-06-27T12:43:25Z</time>
      </trkpt>
      <trkpt lat="39.930489706103366" lon="116.47877802048524">
        <ele>29.499999999999996</ele>
        <time>2023-06-27T12:43:37Z</time>
      </trkpt>
      <trkpt lat="39.93067491034786" lon="116.47885126824742">
        <ele>31.3</ele>
        <time>2023-06-27T12:43:46Z</time>
      </trkpt>
      <trkpt lat="39.93084886268139" lon="116.47883719451555">
        <ele>35.5</ele>
        <time>2023-06-27T12:43:55Z</time>
      </trkpt>
      <trkpt lat="39.930973625583825" lon="116.4787568820075">
        <ele>36.5</ele>
        <time>2023-06-27T12:44:01Z</time>
      </trkpt>
      <trkpt lat="39.93121636639549" lon="116.47867053257168">
        <ele>36.5</ele>
        <time>2023-06-27T12:44:16Z</time>
      </trkpt>
      <trkpt lat="39.931509635779946" lon="116.47876785575443">
        <ele>36.7</ele>
        <time>2023-06-27T12:44:22Z</time>
      </trkpt>
      <trkpt lat="39.93170467429221" lon="116.47878389072405">
        <ele>32.2</ele>
        <time>2023-06-27T12:44:34Z</time>
      </trkpt>
      <trkpt lat="39.93181381781191" lon="116.47883506635016">
        <ele>30.3</ele>
        <time>2023-06-27T12:44:40Z</time>
      </trkpt>
      <trkpt lat="39.931959730688014" lon="116.47880694416688">
        <ele>27.900000000000002</ele>
        <time>2023-06-27T12:44:46Z</time>
      </trkpt>
      <trkpt lat="39.932039495451015" lon="116.47872663731891">
        <ele>25.4</ele>
        <time>2023-06-27T12:44:49Z</time>
      </trkpt>
      <trkpt lat="39.932090032522424" lon="116.47856704124914">
        <ele>24.099999999999998</ele>
        <time>2023-06-27T12:44:55Z</time>
      </trkpt>
      <trkpt lat="39.93212987445729" lon="116.47851283605657">
        <ele>25.099999999999998</ele>
        <time>2023-06-27T12:44:58Z</time>
      </trkpt>
      <trkpt lat="39.93214494747292" lon="116.47819164865182">
        <ele>25.3</ele>
        <time>2023-06-27T12:45:10Z</time>
      </trkpt>
      <trkpt lat="39.93213321068967" lon="116.47793570651865">
        <ele>23.5</ele>
        <time>2023-06-27T12:45:19Z</time>
      </trkpt>
      <trkpt lat="39.93215394118159" lon="116.47784236003449">
        <ele>23.2</ele>
        <time>2023-06-27T12:45:22Z</time>
      </trkpt>
      <trkpt lat="39.93215220804871" lon="116.47758742171246">
        <ele>23.9</ele>
        <time>2023-06-27T12:45:31Z</time>
      </trkpt>
      <trkpt lat="39.932189142937354" lon="116.47721705543493">
        <ele>26.599999999999998</ele>
        <time>2023-06-27T12:45:43Z</time>
      </trkpt>
      <trkpt lat="39.93213768728315" lon="116.47705747582404">
        <ele>24.5</ele>
        <time>2023-06-27T12:45:49Z</time>
      </trkpt>
      <trkpt lat="39.93211925652444" lon="116.4769069256287">
        <ele>23.0</ele>
        <time>2023-06-27T12:45:52Z</time>
      </trkpt>
      <trkpt lat="39.932139390776925" lon="116.47660481553727">
        <ele>17.0</ele>
        <time>2023-06-27T12:46:01Z</time>
      </trkpt>
      <trkpt lat="39.932216873891555" lon="116.47642514789571">
        <ele>18.4</ele>
        <time>2023-06-27T12:46:07Z</time>
      </trkpt>
      <trkpt lat="39.932216873891555" lon="116.47642514789571">
        <ele>18.4</ele>
        <time>2023-06-27T12:46:10Z</time>
      </trkpt>
      <trkpt lat="39.93227655599285" lon="116.47631473636993">
        <ele>30.3</ele>
        <time>2023-06-27T12:47:52Z</time>
      </trkpt>
      <trkpt lat="39.9324123412347" lon="116.47624145133186">
        <ele>29.2</ele>
        <time>2023-06-27T12:47:58Z</time>
      </trkpt>
      <trkpt lat="39.93249232653921" lon="116.47623742662829">
        <ele>28.099999999999998</ele>
        <time>2023-06-27T12:48:01Z</time>
      </trkpt>
      <trkpt lat="39.932635134502526" lon="116.47617217016335">
        <ele>26.900000000000002</ele>
        <time>2023-06-27T12:48:07Z</time>
      </trkpt>
      <trkpt lat="39.932951138938506" lon="116.4761781525955">
        <ele>29.7</ele>
        <time>2023-06-27T12:48:19Z</time>
      </trkpt>
      <trkpt lat="39.933107118318866" lon="116.47617311470553">
        <ele>34.0</ele>
        <time>2023-06-27T12:48:28Z</time>
      </trkpt>
      <trkpt lat="39.93322869535475" lon="116.47637684481366">
        <ele>35.2</ele>
        <time>2023-06-27T12:48:37Z</time>
      </trkpt>
      <trkpt lat="39.93325417638085" lon="116.47654545898418">
        <ele>32.300000000000004</ele>
        <time>2023-06-27T12:48:43Z</time>
      </trkpt>
      <trkpt lat="39.93339967308048" lon="116.47672108435167">
        <ele>30.2</ele>
        <time>2023-06-27T12:48:52Z</time>
      </trkpt>
      <trkpt lat="39.93347415007301" lon="116.47688868967026">
        <ele>28.2</ele>
        <time>2023-06-27T12:48:58Z</time>
      </trkpt>
      <trkpt lat="39.93365692820603" lon="116.47716267255058">
        <ele>29.400000000000002</ele>
        <time>2023-06-27T12:49:10Z</time>
      </trkpt>
      <trkpt lat="39.93370906144166" lon="116.47720983929935">
        <ele>30.400000000000002</ele>
        <time>2023-06-27T12:49:13Z</time>
      </trkpt>
      <trkpt lat="39.933957140728076" lon="116.47724092254259">
        <ele>27.8</ele>
        <time>2023-06-27T12:49:25Z</time>
      </trkpt>
      <trkpt lat="39.93427507320339" lon="116.47722181266658">
        <ele>25.8</ele>
        <time>2023-06-27T12:49:37Z</time>
      </trkpt>
      <trkpt lat="39.93460404844412" lon="116.47721775672011">
        <ele>27.900000000000002</ele>
        <time>2023-06-27T12:49:49Z</time>
      </trkpt>
      <trkpt lat="39.93491370488787" lon="116.47710229400643">
        <ele>27.400000000000002</ele>
        <time>2023-06-27T12:50:04Z</time>
      </trkpt>
      <trkpt lat="39.93502151636703" lon="116.47703804466784">
        <ele>24.4</ele>
        <time>2023-06-27T12:50:10Z</time>
      </trkpt>
      <trkpt lat="39.93515437867748" lon="116.47699185856136">
        <ele>22.099999999999998</ele>
        <time>2023-06-27T12:50:16Z</time>
      </trkpt>
      <trkpt lat="39.93520242853136" lon="116.47700991885232">
        <ele>21.7</ele>
        <time>2023-06-27T12:50:19Z</time>
      </trkpt>
      <trkpt lat="39.93545704295124" lon="116.47722768677214">
        <ele>20.599999999999998</ele>
        <time>2023-06-27T12:50:28Z</time>
      </trkpt>
      <trkpt lat="39.93568662154797" lon="116.47743241061013">
        <ele>24.0</ele>
        <time>2023-06-27T12:50:40Z</time>
      </trkpt>
      <trkpt lat="39.93579679877007" lon="116.47749562936511">
        <ele>27.499999999999996</ele>
        <time>2023-06-27T12:50:46Z</time>
      </trkpt>
      <trkpt lat="39.93609365710103" lon="116.47745042607613">
        <ele>30.8</ele>
        <time>2023-06-27T12:50:58Z</time>
      </trkpt>
      <trkpt lat="39.93628854261616" lon="116.47741326511111">
        <ele>28.2</ele>
        <time>2023-06-27T12:51:07Z</time>
      </trkpt>
      <trkpt lat="39.93656475930394" lon="116.47749252212266">
        <ele>25.2</ele>
        <time>2023-06-27T12:51:19Z</time>
      </trkpt>
      <trkpt lat="39.93687991394387" lon="116.47755069680832">
        <ele>26.8</ele>
        <time>2023-06-27T12:51:31Z</time>
      </trkpt>
      <trkpt lat="39.937037956647515" lon="116.47756773979616">
        <ele>27.8</ele>
        <time>2023-06-27T12:51:40Z</time>
      </trkpt>
      <trkpt lat="39.93724018801865" lon="116.47765102104606">
        <ele>28.7</ele>
        <time>2023-06-27T12:51:49Z</time>
      </trkpt>
      <trkpt lat="39.93736723199008" lon="116.47766806794318">
        <ele>27.3</ele>
        <time>2023-06-27T12:51:55Z</time>
      </trkpt>
      <trkpt lat="39.93758177198016" lon="116.47785874333454">
        <ele>27.499999999999996</ele>
        <time>2023-06-27T12:52:07Z</time>
      </trkpt>
      <trkpt lat="39.93781659791285" lon="116.4781487831726">
        <ele>27.900000000000002</ele>
        <time>2023-06-27T12:52:22Z</time>
      </trkpt>
      <trkpt lat="39.93785378734519" lon="116.47821502288195">
        <ele>27.8</ele>
        <time>2023-06-27T12:52:25Z</time>
      </trkpt>
      <trkpt lat="39.93813126247581" lon="116.47838361046294">
        <ele>26.499999999999996</ele>
        <time>2023-06-27T12:52:41Z</time>
      </trkpt>
      <trkpt lat="39.93840653526848" lon="116.47848193921814">
        <ele>28.2</ele>
        <time>2023-06-27T12:52:56Z</time>
      </trkpt>
      <trkpt lat="39.93869887995438" lon="116.47860535869775">
        <ele>27.7</ele>
        <time>2023-06-27T12:53:11Z</time>
      </trkpt>
      <trkpt lat="39.93886896010597" lon="116.47863544867946">
        <ele>27.999999999999996</ele>
        <time>2023-06-27T12:53:20Z</time>
      </trkpt>
      <trkpt lat="39.9391869126207" lon="116.47862336436756">
        <ele>30.7</ele>
        <time>2023-06-27T12:53:38Z</time>
      </trkpt>
      <trkpt lat="39.939473825808555" lon="116.47859723201819">
        <ele>33.5</ele>
        <time>2023-06-27T12:53:50Z</time>
      </trkpt>
      <trkpt lat="39.93958866185084" lon="116.47854201368202">
        <ele>33.800000000000004</ele>
        <time>2023-06-27T12:53:56Z</time>
      </trkpt>
      <trkpt lat="39.93967129358863" lon="116.47841553625072">
        <ele>32.400000000000006</ele>
        <time>2023-06-27T12:54:02Z</time>
      </trkpt>
      <trkpt lat="39.93986885148728" lon="116.4782649557687">
        <ele>30.400000000000002</ele>
        <time>2023-06-27T12:54:11Z</time>
      </trkpt>
      <trkpt lat="39.93996748014178" lon="116.47813747315011">
        <ele>30.099999999999998</ele>
        <time>2023-06-27T12:54:17Z</time>
      </trkpt>
      <trkpt lat="39.94011361880199" lon="116.47784035974199">
        <ele>30.2</ele>
        <time>2023-06-27T12:54:29Z</time>
      </trkpt>
      <trkpt lat="39.94016142918387" lon="116.47777511345528">
        <ele>29.999999999999996</ele>
        <time>2023-06-27T12:54:32Z</time>
      </trkpt>
      <trkpt lat="39.94024450383519" lon="116.47780220286062">
        <ele>29.499999999999996</ele>
        <time>2023-06-27T12:54:38Z</time>
      </trkpt>
      <trkpt lat="39.940519050473526" lon="116.47799588225891">
        <ele>26.099999999999998</ele>
        <time>2023-06-27T12:54:53Z</time>
      </trkpt>
      <trkpt lat="39.94059146392841" lon="116.47814040612545">
        <ele>25.599999999999998</ele>
        <time>2023-06-27T12:54:59Z</time>
      </trkpt>
      <trkpt lat="39.94063443761965" lon="116.47847864918478">
        <ele>25.099999999999998</ele>
        <time>2023-06-27T12:55:11Z</time>
      </trkpt>
      <trkpt lat="39.940773397324946" lon="116.47881286706684">
        <ele>23.9</ele>
        <time>2023-06-27T12:55:26Z</time>
      </trkpt>
      <trkpt lat="39.940903905744555" lon="116.47899050797729">
        <ele>22.3</ele>
        <time>2023-06-27T12:55:35Z</time>
      </trkpt>
      <trkpt lat="39.941097200010134" lon="116.4790948701721">
        <ele>21.2</ele>
        <time>2023-06-27T12:55:44Z</time>
      </trkpt>
      <trkpt lat="39.941149439018" lon="116.47917817211273">
        <ele>20.4</ele>
        <time>2023-06-27T12:55:47Z</time>
      </trkpt>
      <trkpt lat="39.94118170796806" lon="116.47927151383483">
        <ele>21.9</ele>
        <time>2023-06-27T12:55:50Z</time>
      </trkpt>
      <trkpt lat="39.94132742330033" lon="116.47952041821874">
        <ele>27.7</ele>
        <time>2023-06-27T12:55:59Z</time>
      </trkpt>
      <trkpt lat="39.94138656812038" lon="116.47991587832873">
        <ele>31.8</ele>
        <time>2023-06-27T12:56:14Z</time>
      </trkpt>
      <trkpt lat="39.94138514827361" lon="116.48011562050267">
        <ele>29.099999999999998</ele>
        <time>2023-06-27T12:56:20Z</time>
      </trkpt>
      <trkpt lat="39.94141232218348" lon="116.48017584092278">
        <ele>27.599999999999998</ele>
        <time>2023-06-27T12:56:23Z</time>
      </trkpt>
      <trkpt lat="39.941672828272395" lon="116.48035346887497">
        <ele>26.400000000000002</ele>
        <time>2023-06-27T12:56:38Z</time>
      </trkpt>
      <trkpt lat="39.941882176122405" lon="116.48047589821205">
        <ele>26.099999999999998</ele>
        <time>2023-06-27T12:56:50Z</time>
      </trkpt>
      <trkpt lat="39.94209525525178" lon="116.48050598360057">
        <ele>24.0</ele>
        <time>2023-06-27T12:56:59Z</time>
      </trkpt>
      <trkpt lat="39.942424259681516" lon="116.48051196485295">
        <ele>27.8</ele>
        <time>2023-06-27T12:57:14Z</time>
      </trkpt>
      <trkpt lat="39.94273925299095" lon="116.48051393291755">
        <ele>30.499999999999996</ele>
        <time>2023-06-27T12:57:29Z</time>
      </trkpt>
      <trkpt lat="39.94288515957277" lon="116.48048380261574">
        <ele>32.2</ele>
        <time>2023-06-27T12:57:38Z</time>
      </trkpt>
      <trkpt lat="39.942983857832225" lon="116.480381409388">
        <ele>33.400000000000006</ele>
        <time>2023-06-27T12:57:44Z</time>
      </trkpt>
      <trkpt lat="39.943046785272536" lon="116.48035731191561">
        <ele>33.0</ele>
        <time>2023-06-27T12:57:47Z</time>
      </trkpt>
      <trkpt lat="39.94310979736169" lon="116.4803623226981">
        <ele>33.7</ele>
        <time>2023-06-27T12:57:50Z</time>
      </trkpt>
      <trkpt lat="39.94316194125119" lon="116.48041250285198">
        <ele>33.900000000000006</ele>
        <time>2023-06-27T12:57:53Z</time>
      </trkpt>
      <trkpt lat="39.94320702044416" lon="116.48078387961516">
        <ele>33.800000000000004</ele>
        <time>2023-06-27T12:58:08Z</time>
      </trkpt>
      <trkpt lat="39.943240078182086" lon="116.48114722964146">
        <ele>32.300000000000004</ele>
        <time>2023-06-27T12:58:23Z</time>
      </trkpt>
      <trkpt lat="39.943260563475924" lon="116.48131384857983">
        <ele>28.900000000000002</ele>
        <time>2023-06-27T12:58:29Z</time>
      </trkpt>
      <trkpt lat="39.94322467875727" lon="116.48169527700308">
        <ele>28.999999999999996</ele>
        <time>2023-06-27T12:58:41Z</time>
      </trkpt>
      <trkpt lat="39.943244965446915" lon="116.48179364196314">
        <ele>27.400000000000002</ele>
        <time>2023-06-27T12:58:44Z</time>
      </trkpt>
      <trkpt lat="39.94330206294302" lon="116.48182776234844">
        <ele>26.499999999999996</ele>
        <time>2023-06-27T12:58:47Z</time>
      </trkpt>
      <trkpt lat="39.94337703942128" lon="116.48182072671766">
        <ele>25.9</ele>
        <time>2023-06-27T12:58:50Z</time>
      </trkpt>
      <trkpt lat="39.94351374939749" lon="116.48172334584554">
        <ele>27.2</ele>
        <time>2023-06-27T12:58:59Z</time>
      </trkpt>
      <trkpt lat="39.94362764514009" lon="116.48168920411912">
        <ele>26.900000000000002</ele>
        <time>2023-06-27T12:59:05Z</time>
      </trkpt>
      <trkpt lat="39.94372431578912" lon="116.48157777592284">
        <ele>25.2</ele>
        <time>2023-06-27T12:59:11Z</time>
      </trkpt>
      <trkpt lat="39.943777237458875" lon="116.48155167185874">
        <ele>24.5</ele>
        <time>2023-06-27T12:59:14Z</time>
      </trkpt>
      <trkpt lat="39.944062173369154" lon="116.48153356876844">
        <ele>24.2</ele>
        <time>2023-06-27T12:59:26Z</time>
      </trkpt>
      <trkpt lat="39.94413524375706" lon="116.48155865332413">
        <ele>24.2</ele>
        <time>2023-06-27T12:59:29Z</time>
      </trkpt>
      <trkpt lat="39.944244157345715" lon="116.48153053476781">
        <ele>24.5</ele>
        <time>2023-06-27T12:59:35Z</time>
      </trkpt>
      <trkpt lat="39.944372304706135" lon="116.48158271363164">
        <ele>24.2</ele>
        <time>2023-06-27T12:59:41Z</time>
      </trkpt>
      <trkpt lat="39.94447030374625" lon="116.48158370512472">
        <ele>26.8</ele>
        <time>2023-06-27T12:59:47Z</time>
      </trkpt>
      <trkpt lat="39.94457470431469" lon="116.48172220943007">
        <ele>27.099999999999998</ele>
        <time>2023-06-27T12:59:56Z</time>
      </trkpt>
      <trkpt lat="39.94476204308905" lon="116.48184062855927">
        <ele>30.7</ele>
        <time>2023-06-27T13:00:05Z</time>
      </trkpt>
      <trkpt lat="39.9451102112325" lon="116.48190281761707">
        <ele>28.7</ele>
        <time>2023-06-27T13:00:23Z</time>
      </trkpt>
      <trkpt lat="39.945267272511785" lon="116.48192588427398">
        <ele>25.5</ele>
        <time>2023-06-27T13:00:29Z</time>
      </trkpt>
      <trkpt lat="39.945575122341566" lon="116.48187866944207">
        <ele>23.4</ele>
        <time>2023-06-27T13:00:44Z</time>
      </trkpt>
      <trkpt lat="39.9457769969419" lon="116.48183849414289">
        <ele>23.7</ele>
        <time>2023-06-27T13:00:53Z</time>
      </trkpt>
      <trkpt lat="39.94607951260678" lon="116.4816768525203">
        <ele>27.3</ele>
        <time>2023-06-27T13:01:08Z</time>
      </trkpt>
      <trkpt lat="39.94635985648721" lon="116.48145599288074">
        <ele>28.599999999999998</ele>
        <time>2023-06-27T13:01:23Z</time>
      </trkpt>
      <trkpt lat="39.94665931725669" lon="116.48127528118897">
        <ele>25.7</ele>
        <time>2023-06-27T13:01:38Z</time>
      </trkpt>
      <trkpt lat="39.946964766422994" lon="116.48109055415789">
        <ele>24.0</ele>
        <time>2023-06-27T13:01:53Z</time>
      </trkpt>
      <trkpt lat="39.947255239944546" lon="116.48091385932646">
        <ele>27.400000000000002</ele>
        <time>2023-06-27T13:02:05Z</time>
      </trkpt>
      <trkpt lat="39.947569736235195" lon="116.48074519177048">
        <ele>34.7</ele>
        <time>2023-06-27T13:02:20Z</time>
      </trkpt>
      <trkpt lat="39.947855158036226" lon="116.48055043106113">
        <ele>34.400000000000006</ele>
        <time>2023-06-27T13:02:32Z</time>
      </trkpt>
      <trkpt lat="39.94810368388487" lon="116.48039080611713">
        <ele>32.5</ele>
        <time>2023-06-27T13:02:44Z</time>
      </trkpt>
      <trkpt lat="39.948252429895014" lon="116.48030547017062">
        <ele>33.300000000000004</ele>
        <time>2023-06-27T13:02:50Z</time>
      </trkpt>
      <trkpt lat="39.9484297111372" lon="116.48006053757226">
        <ele>32.900000000000006</ele>
        <time>2023-06-27T13:03:02Z</time>
      </trkpt>
      <trkpt lat="39.94849535000993" lon="116.47993707071579">
        <ele>30.7</ele>
        <time>2023-06-27T13:03:05Z</time>
      </trkpt>
      <trkpt lat="39.94856354344525" lon="116.47966003376936">
        <ele>28.499999999999996</ele>
        <time>2023-06-27T13:03:14Z</time>
      </trkpt>
      <trkpt lat="39.948601195463986" lon="116.47919530619743">
        <ele>19.9</ele>
        <time>2023-06-27T13:03:32Z</time>
      </trkpt>
      <trkpt lat="39.94859218838125" lon="116.47884701808619">
        <ele>20.3</ele>
        <time>2023-06-27T13:03:44Z</time>
      </trkpt>
      <trkpt lat="39.94865001215568" lon="116.47844050831684">
        <ele>24.2</ele>
        <time>2023-06-27T13:03:59Z</time>
      </trkpt>
      <trkpt lat="39.94873444143339" lon="116.47824377146397">
        <ele>27.499999999999996</ele>
        <time>2023-06-27T13:04:08Z</time>
      </trkpt>
      <trkpt lat="39.9489465106614" lon="116.47792356408428">
        <ele>30.400000000000002</ele>
        <time>2023-06-27T13:04:23Z</time>
      </trkpt>
      <trkpt lat="39.94900437836217" lon="116.47787839038743">
        <ele>30.3</ele>
        <time>2023-06-27T13:04:26Z</time>
      </trkpt>
      <trkpt lat="39.94923651074157" lon="116.4779275425522">
        <ele>28.400000000000002</ele>
        <time>2023-06-27T13:04:38Z</time>
      </trkpt>
      <trkpt lat="39.94941644872404" lon="116.47790844972745">
        <ele>26.900000000000002</ele>
        <time>2023-06-27T13:04:47Z</time>
      </trkpt>
      <trkpt lat="39.94966376839009" lon="116.47802284052888">
        <ele>23.5</ele>
        <time>2023-06-27T13:04:59Z</time>
      </trkpt>
      <trkpt lat="39.94973275120746" lon="116.47801781338384">
        <ele>22.099999999999998</ele>
        <time>2023-06-27T13:05:02Z</time>
      </trkpt>
      <trkpt lat="39.9499164260524" lon="116.47790738339316">
        <ele>18.4</ele>
        <time>2023-06-27T13:05:11Z</time>
      </trkpt>
      <trkpt lat="39.950081631266784" lon="116.4776333534495">
        <ele>17.5</ele>
        <time>2023-06-27T13:05:23Z</time>
      </trkpt>
      <trkpt lat="39.95012449685016" lon="116.47758717813704">
        <ele>19.3</ele>
        <time>2023-06-27T13:05:26Z</time>
      </trkpt>
      <trkpt lat="39.950176523642035" lon="116.47759720855936">
        <ele>21.8</ele>
        <time>2023-06-27T13:05:29Z</time>
      </trkpt>
      <trkpt lat="39.95031710979947" lon="116.4778029485829">
        <ele>27.499999999999996</ele>
        <time>2023-06-27T13:05:38Z</time>
      </trkpt>
      <trkpt lat="39.95038480924514" lon="116.47804683902554">
        <ele>26.400000000000002</ele>
        <time>2023-06-27T13:05:47Z</time>
      </trkpt>
      <trkpt lat="39.95037501203401" lon="116.47811709937031">
        <ele>25.5</ele>
        <time>2023-06-27T13:05:50Z</time>
      </trkpt>
      <trkpt lat="39.95017960708676" lon="116.4783208757071">
        <ele>26.400000000000002</ele>
        <time>2023-06-27T13:06:02Z</time>
      </trkpt>
      <trkpt lat="39.950034333966656" lon="116.47857081697538">
        <ele>28.599999999999998</ele>
        <time>2023-06-27T13:06:14Z</time>
      </trkpt>
      <trkpt lat="39.95001477243652" lon="116.4787223796458">
        <ele>28.400000000000002</ele>
        <time>2023-06-27T13:06:20Z</time>
      </trkpt>
      <trkpt lat="39.95010959267255" lon="116.47900742232999">
        <ele>27.599999999999998</ele>
        <time>2023-06-27T13:06:32Z</time>
      </trkpt>
      <trkpt lat="39.950251598078815" lon="116.4793566983253">
        <ele>27.3</ele>
        <time>2023-06-27T13:06:47Z</time>
      </trkpt>
      <trkpt lat="39.95040034850834" lon="116.47961764742152">
        <ele>27.999999999999996</ele>
        <time>2023-06-27T13:06:59Z</time>
      </trkpt>
      <trkpt lat="39.95055729864471" lon="116.47960257191743">
        <ele>29.599999999999998</ele>
        <time>2023-06-27T13:07:08Z</time>
      </trkpt>
      <trkpt lat="39.9507000340323" lon="116.47951322270201">
        <ele>30.099999999999998</ele>
        <time>2023-06-27T13:07:17Z</time>
      </trkpt>
      <trkpt lat="39.95090402596417" lon="116.47951319716263">
        <ele>33.1</ele>
        <time>2023-06-27T13:07:26Z</time>
      </trkpt>
      <trkpt lat="39.95096910194345" lon="116.47954028952482">
        <ele>33.800000000000004</ele>
        <time>2023-06-27T13:07:29Z</time>
      </trkpt>
      <trkpt lat="39.951031425420254" lon="116.47965269875785">
        <ele>36.400000000000006</ele>
        <time>2023-06-27T13:07:35Z</time>
      </trkpt>
      <trkpt lat="39.9510468819576" lon="116.47981028170493">
        <ele>35.0</ele>
        <time>2023-06-27T13:07:41Z</time>
      </trkpt>
      <trkpt lat="39.951040138586215" lon="116.47989861052632">
        <ele>34.0</ele>
        <time>2023-06-27T13:07:44Z</time>
      </trkpt>
      <trkpt lat="39.95106235335412" lon="116.47997288362474">
        <ele>33.0</ele>
        <time>2023-06-27T13:07:47Z</time>
      </trkpt>
      <trkpt lat="39.95106373812239" lon="116.48010537574062">
        <ele>30.8</ele>
        <time>2023-06-27T13:07:53Z</time>
      </trkpt>
      <trkpt lat="39.95104800123819" lon="116.4801957134935">
        <ele>30.999999999999996</ele>
        <time>2023-06-27T13:07:56Z</time>
      </trkpt>
      <trkpt lat="39.95105225490091" lon="116.48028303765193">
        <ele>30.999999999999996</ele>
        <time>2023-06-27T13:07:59Z</time>
      </trkpt>
      <trkpt lat="39.951123666558374" lon="116.48042555888021">
        <ele>31.499999999999996</ele>
        <time>2023-06-27T13:08:05Z</time>
      </trkpt>
      <trkpt lat="39.95121910670356" lon="116.48057811472432">
        <ele>31.499999999999996</ele>
        <time>2023-06-27T13:08:11Z</time>
      </trkpt>
      <trkpt lat="39.95125421914809" lon="116.48096053481407">
        <ele>27.499999999999996</ele>
        <time>2023-06-27T13:08:23Z</time>
      </trkpt>
      <trkpt lat="39.95125853206812" lon="116.48106793464865">
        <ele>26.099999999999998</ele>
        <time>2023-06-27T13:08:26Z</time>
      </trkpt>
      <trkpt lat="39.951180302307016" lon="116.48133092537506">
        <ele>23.5</ele>
        <time>2023-06-27T13:08:35Z</time>
      </trkpt>
      <trkpt lat="39.951096765656" lon="116.48148852403065">
        <ele>21.9</ele>
        <time>2023-06-27T13:08:41Z</time>
      </trkpt>
      <trkpt lat="39.95103897313937" lon="116.48155879361006">
        <ele>21.7</ele>
        <time>2023-06-27T13:08:44Z</time>
      </trkpt>
      <trkpt lat="39.9508493853172" lon="116.48169733469474">
        <ele>22.8</ele>
        <time>2023-06-27T13:08:53Z</time>
      </trkpt>
      <trkpt lat="39.950748814709335" lon="116.48184289112137">
        <ele>23.5</ele>
        <time>2023-06-27T13:08:59Z</time>
      </trkpt>
      <trkpt lat="39.95072430002674" lon="116.4820085133371">
        <ele>23.0</ele>
        <time>2023-06-27T13:09:05Z</time>
      </trkpt>
      <trkpt lat="39.950777537891014" lon="116.48243209157148">
        <ele>24.099999999999998</ele>
        <time>2023-06-27T13:09:20Z</time>
      </trkpt>
      <trkpt lat="39.95084373523851" lon="116.48250033886009">
        <ele>25.4</ele>
        <time>2023-06-27T13:09:23Z</time>
      </trkpt>
      <trkpt lat="39.95101992533763" lon="116.4825675686858">
        <ele>27.599999999999998</ele>
        <time>2023-06-27T13:09:32Z</time>
      </trkpt>
      <trkpt lat="39.9513246662212" lon="116.4824832148275">
        <ele>23.2</ele>
        <time>2023-06-27T13:09:47Z</time>
      </trkpt>
      <trkpt lat="39.95138262569891" lon="116.48247015871998">
        <ele>20.4</ele>
        <time>2023-06-27T13:09:50Z</time>
      </trkpt>
      <trkpt lat="39.951464281411006" lon="116.48235371260684">
        <ele>17.0</ele>
        <time>2023-06-27T13:09:56Z</time>
      </trkpt>
      <trkpt lat="39.95173367127906" lon="116.48214891268198">
        <ele>17.7</ele>
        <time>2023-06-27T13:10:11Z</time>
      </trkpt>
      <trkpt lat="39.95180862425178" lon="116.48213384698502">
        <ele>18.3</ele>
        <time>2023-06-27T13:10:14Z</time>
      </trkpt>
      <trkpt lat="39.95191038232385" lon="116.48205253015655">
        <ele>19.4</ele>
        <time>2023-06-27T13:10:20Z</time>
      </trkpt>
      <trkpt lat="39.95197905663207" lon="116.48194210870558">
        <ele>21.599999999999998</ele>
        <time>2023-06-27T13:10:26Z</time>
      </trkpt>
      <trkpt lat="39.95206842804118" lon="116.48172829846268">
        <ele>23.9</ele>
        <time>2023-06-27T13:10:35Z</time>
      </trkpt>
      <trkpt lat="39.95207522538701" lon="116.48165903887129">
        <ele>25.3</ele>
        <time>2023-06-27T13:10:38Z</time>
      </trkpt>
      <trkpt lat="39.95226923874166" lon="116.4813237629225">
        <ele>27.999999999999996</ele>
        <time>2023-06-27T13:10:53Z</time>
      </trkpt>
      <trkpt lat="39.952484717749215" lon="116.4811480806678">
        <ele>25.5</ele>
        <time>2023-06-27T13:11:05Z</time>
      </trkpt>
      <trkpt lat="39.95277729643664" lon="116.48100752008646">
        <ele>24.2</ele>
        <time>2023-06-27T13:11:20Z</time>
      </trkpt>
      <trkpt lat="39.952980159682866" lon="116.48096333007352">
        <ele>27.2</ele>
        <time>2023-06-27T13:11:29Z</time>
      </trkpt>
      <trkpt lat="39.95314981953449" lon="116.48084888241509">
        <ele>30.099999999999998</ele>
        <time>2023-06-27T13:11:38Z</time>
      </trkpt>
      <trkpt lat="39.953268683252716" lon="116.48080369925734">
        <ele>31.999999999999996</ele>
        <time>2023-06-27T13:11:44Z</time>
      </trkpt>
      <trkpt lat="39.95346712300053" lon="116.48061396790844">
        <ele>32.1</ele>
        <time>2023-06-27T13:11:56Z</time>
      </trkpt>
      <trkpt lat="39.95373869456714" lon="116.48047039965755">
        <ele>31.7</ele>
        <time>2023-06-27T13:12:08Z</time>
      </trkpt>
      <trkpt lat="39.95401022842231" lon="116.48031378313506">
        <ele>24.0</ele>
        <time>2023-06-27T13:12:20Z</time>
      </trkpt>
      <trkpt lat="39.95424149002658" lon="116.48006282129018">
        <ele>14.2</ele>
        <time>2023-06-27T13:12:35Z</time>
      </trkpt>
      <trkpt lat="39.954277302036346" lon="116.47999857811706">
        <ele>12.099999999999998</ele>
        <time>2023-06-27T13:12:38Z</time>
      </trkpt>
      <trkpt lat="39.9543381509882" lon="116.47994738033198">
        <ele>11.8</ele>
        <time>2023-06-27T13:12:41Z</time>
      </trkpt>
      <trkpt lat="39.95442773956199" lon="116.47980684726573">
        <ele>12.7</ele>
        <time>2023-06-27T13:12:47Z</time>
      </trkpt>
      <trkpt lat="39.954399397070574" lon="116.47968841117397">
        <ele>15.8</ele>
        <time>2023-06-27T13:12:56Z</time>
      </trkpt>
      <trkpt lat="39.95421440069797" lon="116.47934215004211">
        <ele>23.0</ele>
        <time>2023-06-27T13:13:11Z</time>
      </trkpt>
      <trkpt lat="39.954024490141826" lon="116.47902499894195">
        <ele>25.599999999999998</ele>
        <time>2023-06-27T13:13:26Z</time>
      </trkpt>
      <trkpt lat="39.9538445688189" lon="116.47870383317698">
        <ele>24.7</ele>
        <time>2023-06-27T13:13:41Z</time>
      </trkpt>
      <trkpt lat="39.953604610618925" lon="116.4783686245464">
        <ele>18.599999999999998</ele>
        <time>2023-06-27T13:13:59Z</time>
      </trkpt>
      <trkpt lat="39.953474048579565" lon="116.47817191478354">
        <ele>18.8</ele>
        <time>2023-06-27T13:14:08Z</time>
      </trkpt>
      <trkpt lat="39.953270267436395" lon="116.47789792990875">
        <ele>17.8</ele>
        <time>2023-06-27T13:14:23Z</time>
      </trkpt>
      <trkpt lat="39.95308472320364" lon="116.47770624692791">
        <ele>20.7</ele>
        <time>2023-06-27T13:14:35Z</time>
      </trkpt>
      <trkpt lat="39.95282424298522" lon="116.47753565146859">
        <ele>19.0</ele>
        <time>2023-06-27T13:14:50Z</time>
      </trkpt>
      <trkpt lat="39.95255659630978" lon="116.47730684333818">
        <ele>19.5</ele>
        <time>2023-06-27T13:15:05Z</time>
      </trkpt>
      <trkpt lat="39.952392144880655" lon="116.47714727748806">
        <ele>19.099999999999998</ele>
        <time>2023-06-27T13:15:14Z</time>
      </trkpt>
      <trkpt lat="39.952259635004374" lon="116.47696763435923">
        <ele>18.8</ele>
        <time>2023-06-27T13:15:26Z</time>
      </trkpt>
      <trkpt lat="39.95223948049073" lon="116.47691343796167">
        <ele>18.8</ele>
        <time>2023-06-27T13:15:29Z</time>
      </trkpt>
      <trkpt lat="39.95215409289472" lon="116.47677694788482">
        <ele>17.4</ele>
        <time>2023-06-27T13:15:35Z</time>
      </trkpt>
      <trkpt lat="39.952025087280816" lon="116.4764236693538">
        <ele>16.3</ele>
        <time>2023-06-27T13:15:47Z</time>
      </trkpt>
      <trkpt lat="39.951931139335485" lon="116.47609046191823">
        <ele>17.599999999999998</ele>
        <time>2023-06-27T13:15:59Z</time>
      </trkpt>
      <trkpt lat="39.95177445000258" lon="116.47584659039624">
        <ele>17.5</ele>
        <time>2023-06-27T13:16:08Z</time>
      </trkpt>
      <trkpt lat="39.9516837360807" lon="116.47559468235309">
        <ele>15.899999999999999</ele>
        <time>2023-06-27T13:16:17Z</time>
      </trkpt>
      <trkpt lat="39.95163216136808" lon="116.47539194970483">
        <ele>16.7</ele>
        <time>2023-06-27T13:16:23Z</time>
      </trkpt>
      <trkpt lat="39.951406354765375" lon="116.47510493281537">
        <ele>12.8</ele>
        <time>2023-06-27T13:16:35Z</time>
      </trkpt>
      <trkpt lat="39.95136514558738" lon="116.47503066778836">
        <ele>11.899999999999999</ele>
        <time>2023-06-27T13:16:38Z</time>
      </trkpt>
      <trkpt lat="39.951243992456405" lon="116.47462219871925">
        <ele>14.5</ele>
        <time>2023-06-27T13:16:50Z</time>
      </trkpt>
      <trkpt lat="39.95112102350199" lon="116.47427796569407">
        <ele>16.2</ele>
        <time>2023-06-27T13:17:02Z</time>
      </trkpt>
      <trkpt lat="39.95093898517138" lon="116.47390764796563">
        <ele>16.599999999999998</ele>
        <time>2023-06-27T13:17:14Z</time>
      </trkpt>
      <trkpt lat="39.95068810432255" lon="116.47359153716384">
        <ele>17.599999999999998</ele>
        <time>2023-06-27T13:17:26Z</time>
      </trkpt>
      <trkpt lat="39.950489341509986" lon="116.47331757372208">
        <ele>18.3</ele>
        <time>2023-06-27T13:17:35Z</time>
      </trkpt>
      <trkpt lat="39.950380880612734" lon="116.47315199068471">
        <ele>18.5</ele>
        <time>2023-06-27T13:17:41Z</time>
      </trkpt>
      <trkpt lat="39.95032977838217" lon="116.47311486338056">
        <ele>21.599999999999998</ele>
        <time>2023-06-27T13:17:44Z</time>
      </trkpt>
      <trkpt lat="39.95004892192202" lon="116.47316206849912">
        <ele>26.7</ele>
        <time>2023-06-27T13:17:56Z</time>
      </trkpt>
      <trkpt lat="39.94992294099579" lon="116.47316710238597">
        <ele>24.599999999999998</ele>
        <time>2023-06-27T13:18:02Z</time>
      </trkpt>
      <trkpt lat="39.949861022360615" lon="116.47319521137716">
        <ele>23.2</ele>
        <time>2023-06-27T13:18:05Z</time>
      </trkpt>
      <trkpt lat="39.94968308859468" lon="116.4732163096361">
        <ele>17.0</ele>
        <time>2023-06-27T13:18:14Z</time>
      </trkpt>
      <trkpt lat="39.94936842816095" lon="116.47333276868235">
        <ele>15.599999999999998</ele>
        <time>2023-06-27T13:18:29Z</time>
      </trkpt>
      <trkpt lat="39.949166653407566" lon="116.47341007265061">
        <ele>16.4</ele>
        <time>2023-06-27T13:18:38Z</time>
      </trkpt>
      <trkpt lat="39.94904470056879" lon="116.47342514225139">
        <ele>19.0</ele>
        <time>2023-06-27T13:18:44Z</time>
      </trkpt>
      <trkpt lat="39.948994767466445" lon="116.47344823177906">
        <ele>19.5</ele>
        <time>2023-06-27T13:18:47Z</time>
      </trkpt>
      <trkpt lat="39.948949096839016" lon="116.47356465759533">
        <ele>20.099999999999998</ele>
        <time>2023-06-27T13:18:53Z</time>
      </trkpt>
      <trkpt lat="39.94894832855875" lon="116.4736469548092">
        <ele>20.2</ele>
        <time>2023-06-27T13:18:56Z</time>
      </trkpt>
      <trkpt lat="39.94906340479403" lon="116.47403032624548">
        <ele>18.7</ele>
        <time>2023-06-27T13:19:11Z</time>
      </trkpt>
      <trkpt lat="39.94917150637976" lon="116.47442173050219">
        <ele>18.3</ele>
        <time>2023-06-27T13:19:26Z</time>
      </trkpt>
      <trkpt lat="39.94929502123424" lon="116.474605381292">
        <ele>17.099999999999998</ele>
        <time>2023-06-27T13:19:35Z</time>
      </trkpt>
      <trkpt lat="39.94930827367162" lon="116.474694703898">
        <ele>18.7</ele>
        <time>2023-06-27T13:19:38Z</time>
      </trkpt>
      <trkpt lat="39.94938163479684" lon="116.47482316131924">
        <ele>19.8</ele>
        <time>2023-06-27T13:19:44Z</time>
      </trkpt>
      <trkpt lat="39.94949475529214" lon="116.475219589014">
        <ele>20.4</ele>
        <time>2023-06-27T13:19:59Z</time>
      </trkpt>
      <trkpt lat="39.94953348413163" lon="116.47547652016299">
        <ele>19.4</ele>
        <time>2023-06-27T13:20:08Z</time>
      </trkpt>
      <trkpt lat="39.94956167147618" lon="116.47554275813349">
        <ele>18.9</ele>
        <time>2023-06-27T13:20:11Z</time>
      </trkpt>
      <trkpt lat="39.949579362353944" lon="116.47578564209762">
        <ele>18.099999999999998</ele>
        <time>2023-06-27T13:20:20Z</time>
      </trkpt>
      <trkpt lat="39.94961681000605" lon="116.47594321287482">
        <ele>18.7</ele>
        <time>2023-06-27T13:20:26Z</time>
      </trkpt>
      <trkpt lat="39.949619061819554" lon="116.4760315353387">
        <ele>19.2</ele>
        <time>2023-06-27T13:20:29Z</time>
      </trkpt>
      <trkpt lat="39.9495742067713" lon="116.47608172440069">
        <ele>19.4</ele>
        <time>2023-06-27T13:20:32Z</time>
      </trkpt>
      <trkpt lat="39.94951126654266" lon="116.47610180567895">
        <ele>20.3</ele>
        <time>2023-06-27T13:20:35Z</time>
      </trkpt>
      <trkpt lat="39.94920708957353" lon="116.47603560166232">
        <ele>24.099999999999998</ele>
        <time>2023-06-27T13:20:50Z</time>
      </trkpt>
      <trkpt lat="39.94890172956182" lon="116.47590516320477">
        <ele>23.7</ele>
        <time>2023-06-27T13:21:05Z</time>
      </trkpt>
      <trkpt lat="39.948784611174005" lon="116.47586202026267">
        <ele>21.7</ele>
        <time>2023-06-27T13:21:11Z</time>
      </trkpt>
      <trkpt lat="39.948733493061404" lon="116.47581987274286">
        <ele>21.5</ele>
        <time>2023-06-27T13:21:14Z</time>
      </trkpt>
      <trkpt lat="39.94844425574099" lon="116.47573259025458">
        <ele>21.099999999999998</ele>
        <time>2023-06-27T13:21:29Z</time>
      </trkpt>
      <trkpt lat="39.94815496710481" lon="116.47562724200436">
        <ele>23.9</ele>
        <time>2023-06-27T13:21:44Z</time>
      </trkpt>
      <trkpt lat="39.94782149480076" lon="116.47545666167657">
        <ele>26.499999999999996</ele>
        <time>2023-06-27T13:22:02Z</time>
      </trkpt>
      <trkpt lat="39.947559159887994" lon="116.47533525207106">
        <ele>28.499999999999996</ele>
        <time>2023-06-27T13:22:17Z</time>
      </trkpt>
      <trkpt lat="39.94727986578634" lon="116.47522789601369">
        <ele>23.7</ele>
        <time>2023-06-27T13:22:32Z</time>
      </trkpt>
      <trkpt lat="39.94697852429495" lon="116.47510348085022">
        <ele>18.599999999999998</ele>
        <time>2023-06-27T13:22:47Z</time>
      </trkpt>
      <trkpt lat="39.9466781573779" lon="116.47497003300523">
        <ele>19.8</ele>
        <time>2023-06-27T13:23:02Z</time>
      </trkpt>
      <trkpt lat="39.94646208622497" lon="116.47494195793176">
        <ele>21.4</ele>
        <time>2023-06-27T13:23:14Z</time>
      </trkpt>
      <trkpt lat="39.94638489858326" lon="116.47487472318934">
        <ele>20.8</ele>
        <time>2023-06-27T13:23:20Z</time>
      </trkpt>
      <trkpt lat="39.946258971004696" lon="116.47454554361369">
        <ele>20.3</ele>
        <time>2023-06-27T13:23:35Z</time>
      </trkpt>
      <trkpt lat="39.94619881290573" lon="116.47413506344074">
        <ele>23.4</ele>
        <time>2023-06-27T13:23:47Z</time>
      </trkpt>
      <trkpt lat="39.946174261538715" lon="116.47393935834837">
        <ele>23.0</ele>
        <time>2023-06-27T13:23:53Z</time>
      </trkpt>
      <trkpt lat="39.94601618571567" lon="116.47391027292642">
        <ele>22.3</ele>
        <time>2023-06-27T13:24:02Z</time>
      </trkpt>
      <trkpt lat="39.945693436330004" lon="116.47399461833871">
        <ele>18.099999999999998</ele>
        <time>2023-06-27T13:24:17Z</time>
      </trkpt>
      <trkpt lat="39.94540965151951" lon="116.47406691540883">
        <ele>18.2</ele>
        <time>2023-06-27T13:24:29Z</time>
      </trkpt>
      <trkpt lat="39.945086752160684" lon="116.47409806852372">
        <ele>15.0</ele>
        <time>2023-06-27T13:24:44Z</time>
      </trkpt>
      <trkpt lat="39.94492881510105" lon="116.47411816099584">
        <ele>18.4</ele>
        <time>2023-06-27T13:24:50Z</time>
      </trkpt>
      <trkpt lat="39.9448818963163" lon="116.47414626861729">
        <ele>17.9</ele>
        <time>2023-06-27T13:24:53Z</time>
      </trkpt>
      <trkpt lat="39.9448275252404" lon="116.47436807895012">
        <ele>21.099999999999998</ele>
        <time>2023-06-27T13:25:02Z</time>
      </trkpt>
      <trkpt lat="39.9448163748991" lon="116.47466816893152">
        <ele>21.5</ele>
        <time>2023-06-27T13:25:14Z</time>
      </trkpt>
      <trkpt lat="39.94477193410343" lon="116.4748648890014">
        <ele>22.099999999999998</ele>
        <time>2023-06-27T13:25:23Z</time>
      </trkpt>
      <trkpt lat="39.94477811031625" lon="116.4749271143896">
        <ele>21.2</ele>
        <time>2023-06-27T13:25:26Z</time>
      </trkpt>
      <trkpt lat="39.9446920453881" lon="116.4752553191765">
        <ele>17.9</ele>
        <time>2023-06-27T13:25:41Z</time>
      </trkpt>
      <trkpt lat="39.94456000676975" lon="116.4755915609463">
        <ele>19.3</ele>
        <time>2023-06-27T13:25:56Z</time>
      </trkpt>
      <trkpt lat="39.94442692123042" lon="116.47591074251642">
        <ele>19.7</ele>
        <time>2023-06-27T13:26:11Z</time>
      </trkpt>
      <trkpt lat="39.94431860409656" lon="116.47614862541313">
        <ele>20.8</ele>
        <time>2023-06-27T13:26:23Z</time>
      </trkpt>
      <trkpt lat="39.94412905872133" lon="116.47630522190795">
        <ele>19.099999999999998</ele>
        <time>2023-06-27T13:26:35Z</time>
      </trkpt>
      <trkpt lat="39.94407810948832" lon="116.47632229073223">
        <ele>18.2</ele>
        <time>2023-06-27T13:26:38Z</time>
      </trkpt>
      <trkpt lat="39.944045248444546" lon="116.47637047117504">
        <ele>25.5</ele>
        <time>2023-06-27T13:28:20Z</time>
      </trkpt>
      <trkpt lat="39.943917342442454" lon="116.4764016011017">
        <ele>26.499999999999996</ele>
        <time>2023-06-27T13:28:29Z</time>
      </trkpt>
      <trkpt lat="39.94374858154414" lon="116.47648291992881">
        <ele>26.0</ele>
        <time>2023-06-27T13:28:38Z</time>
      </trkpt>
      <trkpt lat="39.94365159113724" lon="116.47648493943493">
        <ele>27.499999999999996</ele>
        <time>2023-06-27T13:28:44Z</time>
      </trkpt>
      <trkpt lat="39.943608483811474" lon="116.47644680517102">
        <ele>28.2</ele>
        <time>2023-06-27T13:28:47Z</time>
      </trkpt>
      <trkpt lat="39.943509590397824" lon="116.47613266809411">
        <ele>32.2</ele>
        <time>2023-06-27T13:29:02Z</time>
      </trkpt>
      <trkpt lat="39.94342141345841" lon="116.47606944798632">
        <ele>30.2</ele>
        <time>2023-06-27T13:29:08Z</time>
      </trkpt>
      <trkpt lat="39.9433832546293" lon="116.4760132473518">
        <ele>28.099999999999998</ele>
        <time>2023-06-27T13:29:11Z</time>
      </trkpt>
      <trkpt lat="39.94307803491478" lon="116.47593198858436">
        <ele>22.099999999999998</ele>
        <time>2023-06-27T13:29:29Z</time>
      </trkpt>
      <trkpt lat="39.94297194756534" lon="116.47589988457068">
        <ele>22.5</ele>
        <time>2023-06-27T13:29:35Z</time>
      </trkpt>
    </trkseg>
  </trk>
</gpx>